{"type": "FeatureCollection", "features": [{"type": "Feature", "properties": {"bfs_nummer": 102}, "geometry": {"type": "MultiPolygon", "coordinates": [[[[8.41740684063068, 47.54588578317361], [8.417276263323846, 47.546050638619704], [8.417109375979832, 47.54624129976545], [8.416921168933955, 47.54642923551542], [8.41653999435447, 47.54673289386903], [8.416189374626779, 47.54705124196312], [8.415534586667619, 47.54772013866902], [8.415267726320511, 47.5480578888174], [8.41510652273659, 47.5482860414033], [8.415066505648129, 47.548390704815006], [8.415077993278958, 47.548503991686644], [8.415234577367336, 47.54889253543656], [8.415407365253472, 47.54924821168961], [8.41547081764084, 47.549345176417454], [8.415567671499346, 47.54943359367012], [8.415788701017354, 47.5495941605167], [8.41604849488555, 47.54983253457125], [8.416204207374081, 47.54994998363457], [8.416380206279792, 47.55003994526892], [8.416755443853754, 47.55015645887792], [8.416941010499295, 47.550268816086565], [8.41651228562966, 47.55049675278481], [8.416065684550798, 47.55083785399486], [8.415756778689607, 47.55103490819568], [8.415598303319328, 47.55101156270309], [8.415282274201461, 47.551425476840635], [8.415080723057354, 47.55162824458407], [8.414751849806434, 47.551877874625], [8.41461503553104, 47.55199521621771], [8.414539942190492, 47.552161489274305], [8.414577340126737, 47.552342213683424], [8.414795431653388, 47.55275094460402], [8.414825648903326, 47.55288353735665], [8.414824473136173, 47.553022016020954], [8.414777603093578, 47.5531740563172], [8.41454842948124, 47.55348431373521], [8.414478067923403, 47.55365226466012], [8.414451300430297, 47.553891947635904], [8.414627438042512, 47.55410606959885], [8.414704024668488, 47.55425164665675], [8.41493331132144, 47.55486710898785], [8.41555653324811, 47.55559124077581], [8.415628667240902, 47.555695291678916], [8.416379978582036, 47.55730581606567], [8.416399201253904, 47.55738862719375], [8.416403068235145, 47.55747311486126], [8.416308188755899, 47.55769573479496], [8.41629675029679, 47.55777164503553], [8.41631734352516, 47.5578473390786], [8.416392221631524, 47.557905315021316], [8.416495138933007, 47.55793817589147], [8.41665783585115, 47.557965972128166], [8.416786640064165, 47.557993217650555], [8.41690767064998, 47.55804423786181], [8.417689797177704, 47.5584548999052], [8.417769196397325, 47.55875230271711], [8.417893546958558, 47.559104416074945], [8.417842115389504, 47.55946801634683], [8.417750065475408, 47.55971066162083], [8.417567085759968, 47.56005351668257], [8.41786611842179, 47.56071898616426], [8.416878812513458, 47.560933742522955], [8.417128296437332, 47.56148123962417], [8.417608040644723, 47.56247975874782], [8.418145920727293, 47.563410164521756], [8.418235386098408, 47.56357620049684], [8.418386043833562, 47.563739191765286], [8.418462826653808, 47.563902024317386], [8.418481133927324, 47.564012716041006], [8.41842785821683, 47.56410489977433], [8.418356648717308, 47.5642067960862], [8.418321038611076, 47.56426898723898], [8.418312858725198, 47.56433632526389], [8.418352506070509, 47.56452759743976], [8.418429978782338, 47.56471334235462], [8.418483861685608, 47.56481540500104], [8.418551164966372, 47.56491232636047], [8.418751395634585, 47.56516242285555], [8.418829695618111, 47.56518188136252], [8.423579030100592, 47.566435259630374], [8.423628675466722, 47.566463700843165], [8.425015927152536, 47.567399973410055], [8.425679292083688, 47.56785957006679], [8.42690199967699, 47.56742688634723], [8.427750825039707, 47.56715625656123], [8.428629905064849, 47.566934255661394], [8.429533183147628, 47.566762382846726], [8.430454397993918, 47.5666418334346], [8.431387215389508, 47.56657344376126], [8.432325214518235, 47.566557673359824], [8.433261901968692, 47.56659464978433], [8.434190829991683, 47.56668410456674], [8.43712137756147, 47.56705088065778], [8.437544993579793, 47.56710994982015], [8.437964722472785, 47.56718062674525], [8.438379857889531, 47.567262791645554], [8.438789706922448, 47.56735633362143], [8.439193601868391, 47.567461069608896], [8.439590862228, 47.56757684364709], [8.446223711987058, 47.56961872496001], [8.446682480067503, 47.56976292034208], [8.447137835117436, 47.56991201857776], [8.447589630380556, 47.570065985007226], [8.448037758789162, 47.570224775631864], [8.448482113441617, 47.57038835544713], [8.448922573973181, 47.570556680573645], [8.449392085319609, 47.57072752108505], [8.449875296063183, 47.57087988263954], [8.450370627673024, 47.571013248174395], [8.450876410393697, 47.571127200348144], [8.45139101503546, 47.57122135755334], [8.45191274720667, 47.57129541062741], [8.452179934676503, 47.57133179639518], [8.45244468513918, 47.57137556927951], [8.45270658505194, 47.571426642989906], [8.45296514127098, 47.571484940885334], [8.453219953519689, 47.571550376553176], [8.453470607363665, 47.571622818731534], [8.455902380872795, 47.57236590964472], [8.456010021750313, 47.572396265833895], [8.456120092661433, 47.57242233724637], [8.45623223168419, 47.572443965153425], [8.456346053417008, 47.572461152931425], [8.456461170215261, 47.57247378704952], [8.456577169752608, 47.57248185313557], [8.45669367905036, 47.57248530948947], [8.456810285950707, 47.57248415073245], [8.456926591758538, 47.572478380365375], [8.45704221124033, 47.57246801076696], [8.460607456575, 47.57207623648517], [8.461472549921147, 47.572011224196906], [8.46234292985914, 47.57200544102807], [8.463209749019901, 47.57205896505971], [8.464064214108893, 47.57217123554411], [8.464182998288505, 47.57219545037306], [8.464579916697614, 47.57145966150602], [8.464698642432444, 47.5712207394534], [8.46497377268578, 47.57078259598258], [8.465236512769078, 47.57040844894148], [8.465529300799888, 47.569979420738655], [8.465739304794585, 47.56966064187422], [8.465860396240062, 47.569433359072924], [8.465965519074755, 47.56916523881919], [8.466022570843194, 47.569051718139875], [8.46609065588159, 47.568940393282446], [8.46653338558447, 47.56828773616947], [8.466609515857261, 47.568184317670216], [8.466694997665691, 47.56808410817584], [8.467346655072337, 47.567375861936824], [8.467447967453703, 47.56725533680791], [8.468238765434558, 47.5662231204808], [8.46822946563475, 47.56620681520126], [8.468291075795454, 47.566138269901785], [8.468370965258439, 47.56600493718002], [8.468415348357691, 47.5659046775964], [8.468440895860285, 47.5658021388104], [8.468479111210232, 47.56558667910672], [8.468506474826048, 47.56548597701934], [8.468550858510227, 47.565388523639406], [8.46863248610442, 47.56525993339273], [8.4687320232929, 47.56513799275437], [8.468798125508242, 47.56507297820603], [8.468694906503575, 47.56508249400748], [8.46852144209031, 47.56506124327952], [8.468345607935676, 47.565052785544], [8.468307153333798, 47.56432534163268], [8.467987788962862, 47.56422510189322], [8.467805148285965, 47.56398388223495], [8.46752605114723, 47.56374915760179], [8.467240856832731, 47.56348423801627], [8.467017190121519, 47.56325695334328], [8.466795827471811, 47.56305935637905], [8.466625026494377, 47.56293367994855], [8.466497343558364, 47.562831807035224], [8.466220619199657, 47.56263602169737], [8.465619127618552, 47.56219847343898], [8.46542153911136, 47.56204648117929], [8.465343367808131, 47.561966987831525], [8.46529800552944, 47.56194109870084], [8.46479878786302, 47.56158975209015], [8.464335866544351, 47.56125349910616], [8.464140603523566, 47.561134836113126], [8.463919496012423, 47.56103613549857], [8.463366260089396, 47.560847621217825], [8.462992001925981, 47.56079330240681], [8.462891084583177, 47.5607288229717], [8.462806079797666, 47.560760488080355], [8.462647370241498, 47.56076482254642], [8.462503219242382, 47.56071511544883], [8.462392907771118, 47.560724401018625], [8.462297663810793, 47.560703979573525], [8.461794015587358, 47.56055614379676], [8.461260195177728, 47.56047262118426], [8.461307098917931, 47.56039104089882], [8.461235824480301, 47.56031939911323], [8.460955550669995, 47.560063118595885], [8.46077247262147, 47.55996662159432], [8.460478047044472, 47.55983029799927], [8.460318251471454, 47.55977113768183], [8.460183959300272, 47.55972666544047], [8.459026320914846, 47.559177487651915], [8.458887733995274, 47.559057336142], [8.458773956422693, 47.55896765534171], [8.458494552024586, 47.55887192148148], [8.457258242909802, 47.55855459390587], [8.45692099730327, 47.55849322873084], [8.456428987924298, 47.558451741025074], [8.456225645387944, 47.558414121479466], [8.456053700385931, 47.55831816678349], [8.456129196630735, 47.558216712233104], [8.455966205062516, 47.55820107132452], [8.455795330834293, 47.5581540366602], [8.45564156375632, 47.55808996004011], [8.455097630446, 47.55780955223046], [8.454937488069534, 47.55770454281178], [8.45471986893604, 47.55751289853318], [8.454509749564563, 47.55742846510843], [8.454513488262316, 47.557392598374484], [8.454645106845353, 47.55739787604066], [8.454771477106219, 47.557388574551744], [8.454932407781568, 47.55737164839101], [8.455093247104514, 47.5573416179488], [8.455482609592671, 47.557244723947825], [8.455714824102943, 47.557191625362314], [8.45585792641118, 47.55714229439789], [8.455992427931175, 47.557085834134654], [8.456102317621196, 47.5570097570074], [8.456469971151698, 47.55671210483943], [8.456753463396659, 47.55650681705741], [8.45676405400257, 47.55642228400505], [8.45639090344909, 47.55610338889016], [8.455728564170972, 47.555547633727194], [8.455771957573758, 47.55552674557434], [8.45568342955333, 47.55543732591913], [8.455642916552286, 47.5553331387955], [8.45550979742337, 47.55468002264798], [8.455505044513933, 47.554500435983805], [8.455584523123608, 47.554329608536364], [8.455897759210847, 47.553836607846236], [8.456024397336833, 47.553717561088554], [8.45630157801173, 47.5535629146489], [8.45644181558921, 47.55343117359919], [8.45652695826529, 47.553280218387], [8.456567095333732, 47.55312069979154], [8.456542535236604, 47.552978173311466], [8.456438495467559, 47.55285287655893], [8.45622864698985, 47.55274222514311], [8.45603383498944, 47.55269308961758], [8.455827373734222, 47.55270930183827], [8.456637959989228, 47.55225316210561], [8.456597528207894, 47.55214835332666], [8.456355539033861, 47.55206519313616], [8.456048029239062, 47.55200033536887], [8.45588193011427, 47.551467943223244], [8.45573509486131, 47.55082748263491], [8.455796439810003, 47.55082497453859], [8.455737160872399, 47.55060511989522], [8.455333154211932, 47.550144707807014], [8.454992311257854, 47.5502035431718], [8.454771582340468, 47.550249200271935], [8.45465166462896, 47.550105961671086], [8.454596476347273, 47.54999896106768], [8.454597099173542, 47.54988634439811], [8.454663275862023, 47.54978295710947], [8.45476974550411, 47.549702422386126], [8.455105807768007, 47.54950501457012], [8.455292082590956, 47.54936693452341], [8.455623189839203, 47.54905659865798], [8.454524401693499, 47.54807386006398], [8.454545292001631, 47.54801305410168], [8.454477643866248, 47.54794906661305], [8.452970490840938, 47.548693337854004], [8.45274952958528, 47.54879546991692], [8.452599601357193, 47.54885434633047], [8.452516063758, 47.54882089808163], [8.45237567677611, 47.5486285650698], [8.451776573580485, 47.54789701403606], [8.452295675901789, 47.547742852088426], [8.452671409313181, 47.547577763545824], [8.45310421830559, 47.54731979159993], [8.453072135224145, 47.54729541854121], [8.452199135563266, 47.54631024983871], [8.452152440551686, 47.54632765785574], [8.451195978299648, 47.545352727571654], [8.451095403593602, 47.5451917055627], [8.450940520238463, 47.54513649201925], [8.450971037910167, 47.545106714501074], [8.45104940039949, 47.54509200789345], [8.451052610596008, 47.54503738341531], [8.450920578225599, 47.54491251522909], [8.450637506348636, 47.54470325771077], [8.450493662298712, 47.544613759513176], [8.450174884892547, 47.54447630959977], [8.450023681550675, 47.54442582121183], [8.44986410039127, 47.54438880758595], [8.449223657367625, 47.54427593755073], [8.449093408245457, 47.54426547058089], [8.448966342824523, 47.54428969450201], [8.448852981413367, 47.54433601522404], [8.448643483086654, 47.544447304566134], [8.448491389799205, 47.54450367644226], [8.448340947932474, 47.54453511902964], [8.447978082992538, 47.54459395619888], [8.447637286286435, 47.544695683689845], [8.447483586085296, 47.544736777651096], [8.44731208043099, 47.544757339103555], [8.447014984892421, 47.544719000114945], [8.447012650596664, 47.544525998907545], [8.447190068631611, 47.5444110345123], [8.447369150405793, 47.54431026684968], [8.44756707237625, 47.54423070584079], [8.448156402562988, 47.54402653502722], [8.448314495559233, 47.54396087424584], [8.448463126881075, 47.54386918471148], [8.448679144505823, 47.54371029445659], [8.448882549663791, 47.543600056972195], [8.449109217606496, 47.54351096922448], [8.449298258525289, 47.5434739095699], [8.449495639938178, 47.543454226244094], [8.450009810832233, 47.54343862334391], [8.449284703446544, 47.542498278370516], [8.448999943722907, 47.542591156349275], [8.447947740487358, 47.54198906038152], [8.448046793022696, 47.54193791837515], [8.448013843624356, 47.54190960284806], [8.447886836097817, 47.54193661318594], [8.447755686561, 47.54192039581784], [8.446276128660708, 47.541538671175566], [8.445479919060627, 47.54123689713953], [8.445740176925213, 47.540923605952685], [8.445945066680407, 47.54064668351855], [8.446046368884698, 47.54063015262465], [8.446055833456521, 47.54060389642852], [8.445982945198365, 47.5405427286661], [8.445932811040981, 47.54044161660104], [8.44565151734386, 47.54014237674301], [8.445601821641576, 47.540022291335696], [8.445622584982875, 47.53989833765224], [8.445927702476386, 47.53917010820076], [8.446096142534044, 47.538673487621494], [8.44488236630166, 47.53813248510119], [8.444437684163853, 47.53839988478888], [8.443542620695258, 47.53890657469728], [8.44332204209117, 47.53900104058886], [8.443063022465799, 47.539070204800396], [8.442291864266984, 47.539191565675985], [8.442039006925933, 47.539179903656965], [8.441794470781911, 47.53913057201787], [8.441601015218644, 47.53906478756148], [8.441425675759273, 47.53896511663646], [8.441278411535828, 47.53884054860802], [8.44069059090536, 47.538146849396846], [8.440657096913055, 47.5380900238916], [8.439935462298909, 47.53836783873997], [8.439593966543056, 47.53852710301981], [8.438971024062143, 47.53879295978058], [8.438444760668315, 47.5388851595877], [8.438461713443242, 47.5387801915396], [8.438460153400113, 47.538673269581906], [8.438395076553766, 47.538675800760686], [8.438386867680304, 47.53856564420841], [8.438367460145, 47.53845611486506], [8.437789910357791, 47.538001242199634], [8.437255547759522, 47.5377066097218], [8.436626435848716, 47.53751593132254], [8.436582748629872, 47.53749249021325], [8.435726467581459, 47.537343763348126], [8.435345665501083, 47.53728488004505], [8.434947558637852, 47.53720549326979], [8.434736239124373, 47.53713179249685], [8.43464212494143, 47.53718582196835], [8.43456570409305, 47.537245608677075], [8.434392233896407, 47.53740767822843], [8.434094174548664, 47.53773494908942], [8.433828567725055, 47.5379647544426], [8.433485728936722, 47.53822619016187], [8.433156087276643, 47.538448448927], [8.43259974747613, 47.53885238813986], [8.432425650681195, 47.53898723361118], [8.432130504745672, 47.53927748018629], [8.431944937192993, 47.539387886329635], [8.43172022900992, 47.53949710751705], [8.43128885912478, 47.53984981672306], [8.43028299027411, 47.5409004037371], [8.430140512767787, 47.54102980321039], [8.429768103735036, 47.54134226401118], [8.428852361295613, 47.54200955808138], [8.428735331043688, 47.54208635431823], [8.428597476867083, 47.54216126860596], [8.428447005459601, 47.542227754752815], [8.428300172348049, 47.54227992634235], [8.427163987816877, 47.54260706418553], [8.426892105502683, 47.542671615391065], [8.426639214214408, 47.54271310406676], [8.426434776708552, 47.54275149901273], [8.426250689170695, 47.54282847733796], [8.425370632796518, 47.54344192965723], [8.425215305203418, 47.54359211934995], [8.42474682718046, 47.5441540326817], [8.42461113236444, 47.54430509777788], [8.42446302037507, 47.5444470760128], [8.423722371666106, 47.5450532140454], [8.423493532301329, 47.54521624056254], [8.422079195864848, 47.546152970067844], [8.422017089498306, 47.54617583929661], [8.421948276782333, 47.54618663187441], [8.421878244988038, 47.546184671622456], [8.421811475644946, 47.54617020836047], [8.420922143845068, 47.54575733988318], [8.420319182359068, 47.54553873865238], [8.420188751253457, 47.54550747228311], [8.42005314821079, 47.545491782976406], [8.41996158864326, 47.5454900937451], [8.419044322105574, 47.54551222041215], [8.418403779460304, 47.54551924677462], [8.417949189674003, 47.54551331157686], [8.417770571100586, 47.54552707997575], [8.41775890280768, 47.545572240670985], [8.417702626622843, 47.54558860022372], [8.417650989792884, 47.54561090182935], [8.417605442125597, 47.54563852168225], [8.417567099155153, 47.545670721782], [8.41740684063068, 47.54588578317361]]]]}}]}