{"type": "FeatureCollection", "features": [{"type": "Feature", "properties": {"bfs_nummer": 1021}, "geometry": {"type": "MultiPolygon", "coordinates": [[[[8.222489099378663, 47.25874951936392], [8.223305002618869, 47.26071330879432], [8.228584341792988, 47.27341774978668], [8.228871302991404, 47.273449857028986], [8.22926933005613, 47.273451392930724], [8.229446726941804, 47.27346276079359], [8.229557762627389, 47.27347482623583], [8.2297914337758, 47.27352722948271], [8.230259007616587, 47.273690374491586], [8.230447597956436, 47.27374799709383], [8.230574443698927, 47.27381459800495], [8.230644482537686, 47.27384352179122], [8.230965654348863, 47.273936464530316], [8.231650271049084, 47.274008577406214], [8.231781022052658, 47.27393486357785], [8.231910155630489, 47.27395159668065], [8.231993483843995, 47.273928428180575], [8.232072962004374, 47.27393700277738], [8.23209885290355, 47.27389343255569], [8.232227117867875, 47.27385612964576], [8.232453677878306, 47.27387615867625], [8.232574013730469, 47.27387715663085], [8.232638933958162, 47.27387196024202], [8.232735074317167, 47.27387764003136], [8.232850515351313, 47.273869433376426], [8.233042574766932, 47.273901473207374], [8.23311380266394, 47.27388760729135], [8.233178560487406, 47.273818178508634], [8.233280494787515, 47.27375046388008], [8.2332072796873, 47.27353915470164], [8.233252248831862, 47.27346147026692], [8.233381714073902, 47.27338060395954], [8.233662360721487, 47.27331500353841], [8.233931568444747, 47.273259636563374], [8.233986854702472, 47.273227008354695], [8.234114353860026, 47.27319882941031], [8.234125824492859, 47.2731463906734], [8.234217042565941, 47.27310383590938], [8.234254761647424, 47.27302397941336], [8.234561394253767, 47.272853226094696], [8.234680971397308, 47.27283272015423], [8.234740227069635, 47.27284214276618], [8.234909244743351, 47.27285621336237], [8.235021744169055, 47.272854753092396], [8.235144260493444, 47.27286475521104], [8.235231012216964, 47.27288348635797], [8.235326687389518, 47.272887323087424], [8.23541093027679, 47.272880498661685], [8.235496007181183, 47.27289680358336], [8.235594836616547, 47.2728445344883], [8.235621712271918, 47.27277593299675], [8.23573282755516, 47.27270916909539], [8.23584741446212, 47.27268996465465], [8.235981440784064, 47.27278227114954], [8.236073681999956, 47.272859754898086], [8.236173000407335, 47.2727924606002], [8.236289363637084, 47.272765669253594], [8.2363834579487, 47.272684882304176], [8.23660701937548, 47.272607004647334], [8.236698098575518, 47.27263142562405], [8.236968991760467, 47.27262825581074], [8.237266401817246, 47.27259186330884], [8.237347044361163, 47.27256261089569], [8.237500143318838, 47.272587717115066], [8.237594126562533, 47.27261276489653], [8.237628081640114, 47.272659807566754], [8.237747183224528, 47.27265799296711], [8.237942863646385, 47.27256996167936], [8.238055020860362, 47.272505050106396], [8.238328976488743, 47.27257055054395], [8.238383149325475, 47.27259442553463], [8.238433263949172, 47.27257321868113], [8.238424838173888, 47.27251003380613], [8.238654349208838, 47.272542901786245], [8.238738259093559, 47.27253155276452], [8.238996027839987, 47.27257863431815], [8.23908952071173, 47.27251356365021], [8.239188512447662, 47.272491801440104], [8.239285039236444, 47.27253925477507], [8.239466843538874, 47.27255021686479], [8.239529343895002, 47.272567107295636], [8.23969615419021, 47.272529096688096], [8.239847601089128, 47.27257351453201], [8.239947964265557, 47.272571827983185], [8.239993730022139, 47.27253915505506], [8.240075318856322, 47.27253255268362], [8.2402592371288, 47.2725593209947], [8.240322765601793, 47.2724659163992], [8.240399740084019, 47.27244774234353], [8.240473052772112, 47.272506122894775], [8.240723555063159, 47.272494280006335], [8.240730249016993, 47.27240053272498], [8.240903450405135, 47.272355216852475], [8.240935441705904, 47.272399798524916], [8.24104496048601, 47.27239354071426], [8.241279853791548, 47.27240540837358], [8.241325757047173, 47.272396903495896], [8.241403683812855, 47.272392889068605], [8.24156284615372, 47.272371110732806], [8.241658820132079, 47.27237462538073], [8.241739651479131, 47.27232030849633], [8.241908630590407, 47.272313321042695], [8.242001151063352, 47.27229986787516], [8.242224000962922, 47.272315918695455], [8.242268782635966, 47.27230139463691], [8.24239059897312, 47.272318445908745], [8.242415266961238, 47.27233560740009], [8.242448990279364, 47.27235907431361], [8.242537138578662, 47.272370369411306], [8.2426231728723, 47.272523953203375], [8.24267418463628, 47.27257651529181], [8.242655030820625, 47.272613132630966], [8.242701448259822, 47.27265547241542], [8.242832888683637, 47.27266825555547], [8.243031449128626, 47.27266497311092], [8.243098004041872, 47.27265789766648], [8.243177202125265, 47.27266017869469], [8.243238328894941, 47.27263403575037], [8.243277315671403, 47.272655072898075], [8.243211244711413, 47.27250284625482], [8.243105061200923, 47.27207758461506], [8.243720676315187, 47.272035062274334], [8.244101478930602, 47.27111216109902], [8.244595670932078, 47.27008858601303], [8.244733932009106, 47.26995470973191], [8.244850292798978, 47.26966482411892], [8.244589281687338, 47.269609862491286], [8.244384348817386, 47.26951759294227], [8.24510412769044, 47.267561725284175], [8.246811037666875, 47.26469213186887], [8.24704847737012, 47.264126902022106], [8.246931901682771, 47.26407955067564], [8.248139699270864, 47.26231757065544], [8.247677704626932, 47.26217620811312], [8.24750565529674, 47.26210655175612], [8.247167022723247, 47.2617669074946], [8.247418255656111, 47.261359838052186], [8.24774135918793, 47.26096115135018], [8.248057117040698, 47.26059248671542], [8.248893286663037, 47.259540670529795], [8.250676506087743, 47.256959331584746], [8.251661353987108, 47.25688222305816], [8.252439305620156, 47.25684902241547], [8.25313535058577, 47.25695510780172], [8.253602544766503, 47.256808793457395], [8.253885438083941, 47.25666305293769], [8.25429310855229, 47.25642593729527], [8.255144129875204, 47.25591726347834], [8.255450572762847, 47.2557656040938], [8.255381867647246, 47.25526432218422], [8.25553081403401, 47.255228743874255], [8.255402190077193, 47.25428134967865], [8.255472884271526, 47.25431244847425], [8.255576902883178, 47.25433782415505], [8.255679251231669, 47.25434813586039], [8.255798598482254, 47.25434002205976], [8.256193801399764, 47.254282701425396], [8.256395503519794, 47.25426734667348], [8.257608367610784, 47.254258720070915], [8.257713414896203, 47.25424426538127], [8.257834499654818, 47.254198708658734], [8.258007553585756, 47.25418474207337], [8.258217852242256, 47.254153671568574], [8.258411179488455, 47.25418754882821], [8.25865559512316, 47.25418351689281], [8.259076441654617, 47.25425126010817], [8.259349817519459, 47.254113048374144], [8.259386133487418, 47.25408623645306], [8.259616829769948, 47.2541773060626], [8.259748377525554, 47.25419026734315], [8.259964301494168, 47.2542467477237], [8.260092422045615, 47.25424992754958], [8.260279710765579, 47.25436355891085], [8.260370065953932, 47.25438000558438], [8.260497956236852, 47.25434842971734], [8.260708832582727, 47.254319743329546], [8.260811901616481, 47.25442921587181], [8.260933136444438, 47.25444936371237], [8.261055458887249, 47.25440540471091], [8.261127242840761, 47.254428963481644], [8.261233316972461, 47.25453017480791], [8.261384314116782, 47.254596425386495], [8.261506037791374, 47.254593370838656], [8.261666799463793, 47.25453527563047], [8.261822391698947, 47.25449840050976], [8.261974183798984, 47.254493583611136], [8.262063218151065, 47.254509993570295], [8.262420877716877, 47.25463923430602], [8.262501043545942, 47.25463824788637], [8.26261115008095, 47.25447810463313], [8.262701240201025, 47.25431965146511], [8.26297441358196, 47.25428365253293], [8.263141709007556, 47.254307561107794], [8.263223785801616, 47.25429003654554], [8.263448866408861, 47.25405956525117], [8.263693104150839, 47.25390543226585], [8.263793059717534, 47.25374443446237], [8.26395448332772, 47.2537859963842], [8.264037954944602, 47.253782736109294], [8.26413876767493, 47.25366878452985], [8.264284433524972, 47.2536010881319], [8.264352092197214, 47.25361157766777], [8.264418478155372, 47.25364231485347], [8.26447252608009, 47.25369791305537], [8.264623882896338, 47.25357531489267], [8.264621676174741, 47.253490660216585], [8.264693007611653, 47.25339687947641], [8.264693642837596, 47.25330377620401], [8.26470800601415, 47.25327146201073], [8.264176470011835, 47.25304653005456], [8.263811709079919, 47.25277251925311], [8.263756238351885, 47.25250053759636], [8.263691763337992, 47.25226900999363], [8.263698270306563, 47.25218214393537], [8.263627173531557, 47.25199492738296], [8.263157480596306, 47.25189265820421], [8.26278082966657, 47.25192719401349], [8.26242793147555, 47.251966046814346], [8.262142082933972, 47.25196138917716], [8.26176084580591, 47.252094539664924], [8.2613091819995, 47.25213520894432], [8.26073611507524, 47.25209207236928], [8.260346199684735, 47.25212770039938], [8.259784055197422, 47.25208773765804], [8.25939395666517, 47.25196684293992], [8.25965096420176, 47.250927315921494], [8.260147441815358, 47.25026961209488], [8.259818304219937, 47.25000663761303], [8.259439609417385, 47.24977753040376], [8.25948280017306, 47.24945023383527], [8.259595631784219, 47.24920787701708], [8.258433156694418, 47.249136217803986], [8.256493485501862, 47.24902605290993], [8.255630068253035, 47.24896199533283], [8.253856916377178, 47.24933224285952], [8.253327710645326, 47.24921414490343], [8.25297333340745, 47.24918726112929], [8.2526992065419, 47.24903886146187], [8.252120321721112, 47.24902226634276], [8.251279798770275, 47.24888934477674], [8.250657357466423, 47.24875066316869], [8.250172364431243, 47.24861686604586], [8.249472284635539, 47.24799002120177], [8.24833003954487, 47.247695452683075], [8.248398553760794, 47.24753382470392], [8.248324787727906, 47.247457794634826], [8.247943837896209, 47.24740329588112], [8.24781349533275, 47.24738834317429], [8.247100706054674, 47.247291087489614], [8.2466003969116, 47.2472103920171], [8.246152364179995, 47.247132602348515], [8.246058428417422, 47.24711411879411], [8.24596425853585, 47.2470888725921], [8.246037775939481, 47.246966825402154], [8.245677388827051, 47.24682235122572], [8.24423582980931, 47.24634933550187], [8.243806726060816, 47.24672940645114], [8.243401809115165, 47.24644749531691], [8.243460179869825, 47.24639385495834], [8.243136094212849, 47.24614606368596], [8.243052649308467, 47.246116152748556], [8.242098720858934, 47.24592030010386], [8.241900119163592, 47.24613922966737], [8.241867767043164, 47.24615226404845], [8.24125486500311, 47.24607230349043], [8.240025026091969, 47.24592041529476], [8.239680152944326, 47.24577651674867], [8.239538423430618, 47.24573198655204], [8.239512601506123, 47.24569686943489], [8.239367840631477, 47.24561308769081], [8.239144240859911, 47.245555327335595], [8.238900013272605, 47.245523453648595], [8.238580108155732, 47.24553734071879], [8.237885344586667, 47.24560735628572], [8.237834793078509, 47.24561975111575], [8.237551198870339, 47.24570871719532], [8.237304812247055, 47.245771905781226], [8.237008103799198, 47.24568517102087], [8.236147724927717, 47.2456600220382], [8.235854723979179, 47.246039553410924], [8.235663992150737, 47.245893272525656], [8.235459828342286, 47.24575413628792], [8.23524156936697, 47.24562727642648], [8.233924235558105, 47.24492590759742], [8.233662344247946, 47.244802817988905], [8.233381934844857, 47.244692151660146], [8.233083120242137, 47.24459173094536], [8.232968934860505, 47.244633058520186], [8.232938732061285, 47.24462547694069], [8.232293387621866, 47.24485379976405], [8.232222041307608, 47.244886439331715], [8.229464059938866, 47.246494944168916], [8.229252379757012, 47.24662544791531], [8.228545913677758, 47.24702798899531], [8.228476407132405, 47.247055864123375], [8.228374849010114, 47.24706730898998], [8.228293757103847, 47.24706386171757], [8.228173880449196, 47.24703438757364], [8.224621570303407, 47.24973581000556], [8.222489099378663, 47.25874951936392]]]]}}]}