{"type": "FeatureCollection", "features": [{"type": "Feature", "properties": {"bfs_nummer": 1040}, "geometry": {"type": "MultiPolygon", "coordinates": [[[[8.233794122673183, 47.092555978706905], [8.233474236179571, 47.092745835414775], [8.233071163773294, 47.092830471584236], [8.232437553233925, 47.09306136232458], [8.231798846322189, 47.09318496988682], [8.231049247514774, 47.093184923845506], [8.23055507422385, 47.09330622344025], [8.230401696396129, 47.093420793046484], [8.230284569367317, 47.09351951449986], [8.229995799560978, 47.094096397693804], [8.229717441951873, 47.09491510334627], [8.22967044245073, 47.09540683503659], [8.229566470442817, 47.09596453498281], [8.229848576275574, 47.096104269901566], [8.230048032362042, 47.09684582197291], [8.23015173612623, 47.0970900243679], [8.2303012612599, 47.0972614716731], [8.230450669321181, 47.09760061991723], [8.230635282394887, 47.09779122802989], [8.230667731965918, 47.09809112562081], [8.230657920092604, 47.09834266759483], [8.23064985878747, 47.099141485071364], [8.23083899018031, 47.099700682741585], [8.230952335486322, 47.09969730176164], [8.231058965120091, 47.09992396112234], [8.231034536070414, 47.10010358678058], [8.231193032659137, 47.10036248713524], [8.231167665729425, 47.10047419557854], [8.230849405584744, 47.100765446513066], [8.230842550863793, 47.100879222255], [8.230976266266513, 47.101106737772476], [8.231152555937467, 47.101535338610624], [8.231395900676988, 47.10215971958795], [8.232158732757355, 47.10300948324146], [8.232495473400233, 47.10332066463466], [8.232633310837969, 47.103757948570546], [8.232832186491114, 47.104624617374725], [8.232931128504228, 47.10489052043486], [8.233112354501454, 47.105300058729966], [8.233377550967184, 47.10609463820693], [8.233862844641036, 47.107025072325406], [8.23389852819443, 47.10701655884606], [8.23415228956811, 47.1073971144648], [8.234179390618554, 47.1074503327049], [8.234230894715813, 47.10752770513511], [8.234254524834055, 47.10769947843045], [8.234269597656212, 47.107755415117694], [8.234393907814635, 47.10788595904477], [8.234501511219491, 47.107977389839206], [8.234693271084788, 47.10804346449108], [8.234955779436751, 47.10821127199541], [8.235045643603614, 47.1082614733035], [8.23508977152949, 47.108295403947416], [8.235113392094384, 47.10832003151557], [8.235153902676105, 47.10840044819981], [8.235192687200353, 47.108432985550316], [8.235283134046169, 47.10849486760881], [8.235290884692473, 47.10855359855272], [8.235281419504304, 47.10859401731068], [8.235252259121161, 47.108626602648584], [8.235234093341596, 47.108687087386514], [8.235279689965095, 47.10874533129447], [8.235470558011935, 47.10908705464486], [8.235550393765681, 47.10934610715552], [8.235591967863625, 47.10942529291451], [8.235598932531717, 47.10949138745656], [8.235646164569033, 47.10959839268975], [8.235638569952812, 47.109649395331374], [8.235664794647017, 47.10973917665585], [8.235668360440043, 47.10977692382205], [8.235686380905147, 47.109837743161386], [8.235790654838626, 47.110076988729965], [8.235814997326075, 47.11016070158963], [8.235860862388567, 47.11025637258182], [8.235870700169405, 47.110316311925466], [8.235909793436727, 47.11035706885347], [8.235919282752798, 47.110397994716394], [8.2359586710082, 47.11045946571283], [8.236004199355799, 47.11050854344606], [8.236079458581552, 47.11061997797534], [8.23611938401701, 47.11065909165517], [8.236176179855736, 47.11070562648214], [8.236165319728709, 47.11078067791279], [8.236173036790632, 47.110853882594185], [8.236156788761434, 47.11089890009006], [8.236175526205312, 47.11093969901325], [8.236173971641549, 47.11097689657633], [8.236193599709486, 47.111022645747916], [8.236190487311191, 47.11111540943662], [8.236214398303032, 47.11117182436561], [8.236181961201392, 47.11125432086354], [8.236196218357318, 47.11129862308027], [8.236185094238655, 47.11134973099263], [8.236225543216054, 47.11164439025261], [8.236371962375065, 47.11192882447297], [8.236512557985192, 47.11213530033527], [8.236569564845384, 47.112180835023764], [8.236608671384033, 47.112232098013656], [8.236762146874517, 47.1123504552319], [8.236825539907507, 47.1124301638064], [8.236896640291365, 47.11258675604331], [8.236848297979982, 47.112665629854895], [8.236785359649954, 47.112695229124206], [8.236771961246426, 47.11272898275588], [8.236732960473873, 47.11277332173364], [8.236657894083915, 47.11280694564567], [8.236605264593369, 47.11284835673993], [8.236611212864716, 47.11286024323371], [8.236320396851923, 47.11299584218662], [8.23623380466151, 47.11298725865683], [8.236050841173276, 47.1130407728287], [8.235952273008715, 47.113088088170436], [8.23587135563622, 47.11309338987831], [8.2358352682966, 47.11311929480716], [8.235785290409638, 47.11313706530466], [8.235728282341373, 47.11314903773707], [8.235705804232431, 47.11317303122885], [8.235665625304376, 47.11318164850976], [8.235556453654281, 47.11326733937446], [8.235446577508867, 47.11331275406854], [8.235427873948368, 47.11335400144121], [8.235559386176064, 47.11360361918019], [8.235680414584731, 47.11368423382331], [8.235495317518357, 47.11372739009003], [8.235242904979382, 47.113777066344475], [8.235030712772774, 47.11380760022587], [8.234483352652965, 47.113873341170006], [8.234134166848824, 47.1139344521889], [8.233783136081044, 47.11405598755748], [8.233328993072943, 47.11423603838711], [8.233039474180389, 47.11436242652865], [8.232225265818784, 47.11476572354193], [8.233860120527256, 47.11590940393849], [8.235273911420013, 47.116616950667044], [8.236197651115965, 47.11701452897523], [8.236888266654969, 47.11769257335365], [8.238131121370703, 47.11848912205644], [8.238722261470684, 47.11958998036708], [8.239031161728356, 47.12010190516816], [8.239188332172017, 47.12050451253827], [8.239198604557112, 47.12083834746844], [8.238969289100613, 47.12151701294529], [8.238782300315517, 47.122223178879], [8.238500876577692, 47.12385165324635], [8.241867221308581, 47.12348264494677], [8.243539921713358, 47.12302758135248], [8.243578478766802, 47.12286761735043], [8.243664265748876, 47.12265481696517], [8.24382610926593, 47.122315873086905], [8.24390915931351, 47.12217099737812], [8.244132763971473, 47.121960613516855], [8.244447595202812, 47.121700628555665], [8.244671985022745, 47.12153218353043], [8.245004071913534, 47.121246609932314], [8.245285207516762, 47.120977709953905], [8.245503101308417, 47.120807095615994], [8.245836142408285, 47.1206055653063], [8.24629420479184, 47.12041806117038], [8.246814468872941, 47.12016436216538], [8.247619230771567, 47.119989059548224], [8.248296283454678, 47.11987258089563], [8.249281398226486, 47.119919693200735], [8.249680334782196, 47.11999048898034], [8.249942967061443, 47.12000892074847], [8.250309914851995, 47.1199496605478], [8.250834081893958, 47.11981762247948], [8.251623285656024, 47.11965164917516], [8.252735801446246, 47.11947117533774], [8.253017230868352, 47.11941458995088], [8.25331679948972, 47.11937404890119], [8.253851081510339, 47.119342916622834], [8.254536662676035, 47.11933960124412], [8.255514763146653, 47.1193564584854], [8.257118048922141, 47.11934917735097], [8.257410396587169, 47.11935374362201], [8.257517191860313, 47.11934768486655], [8.258712891762768, 47.11935337608092], [8.258909584097708, 47.1193720147647], [8.25962707701462, 47.119552342338736], [8.259956919290067, 47.11961802770959], [8.260740938916463, 47.11991403036596], [8.261064674946349, 47.120001489111324], [8.262393439483377, 47.120116095603564], [8.262603711350044, 47.12017254615083], [8.262645445014789, 47.120186972492114], [8.262794785391275, 47.12000299062467], [8.26298794892485, 47.11982714095734], [8.263215639472417, 47.1196770669325], [8.26353964127346, 47.11950428994762], [8.263727716719485, 47.1193825376734], [8.266402144279196, 47.120267889961326], [8.266431540921735, 47.119039370215226], [8.266134336353273, 47.11858805271375], [8.266318260907095, 47.118408925810435], [8.266212655974815, 47.118317834068385], [8.26617790705704, 47.11826587487594], [8.26646563743051, 47.118231186613635], [8.266720405789439, 47.11820648595954], [8.26823360587137, 47.11796124011302], [8.269804381538837, 47.117762019112256], [8.27043081365601, 47.11769158926401], [8.27070412555252, 47.11767495835816], [8.270982977769009, 47.117688394175474], [8.271239794806812, 47.11774494180126], [8.271472978426065, 47.117840933876906], [8.271680368028145, 47.11796282116786], [8.271728171108021, 47.117933617637696], [8.272160340294175, 47.11820909048116], [8.272289588479051, 47.11827766076413], [8.272426787229968, 47.118336323311624], [8.27277305773164, 47.118469705013425], [8.27341822907764, 47.11820622463652], [8.273530658174602, 47.11806640255487], [8.273719989137424, 47.11796694206881], [8.273951316747892, 47.11790380540857], [8.2744682468605, 47.11774019201731], [8.27495088295199, 47.11799009166122], [8.275221502883518, 47.11831670620685], [8.275373526790082, 47.11843928642033], [8.276235181127767, 47.1184452469634], [8.277472046374562, 47.118258201568395], [8.277406814398129, 47.118040098610976], [8.277940439348495, 47.1179081012877], [8.278460187268221, 47.11816210477447], [8.278354337544743, 47.11821054458233], [8.278670184920959, 47.11855259888395], [8.278841218670186, 47.11904734567093], [8.278670304948326, 47.119114980418175], [8.280808994205001, 47.12016544104048], [8.28348437310155, 47.11994206057713], [8.28486062999424, 47.12096361151406], [8.285565552796935, 47.12055434810552], [8.28565072941792, 47.1205229736123], [8.286306537551305, 47.12085246339109], [8.28665971458857, 47.12113501303901], [8.287060965883242, 47.12134064746345], [8.287405227734121, 47.12150261328845], [8.28741340499929, 47.12148139572723], [8.287465453702563, 47.121429386642866], [8.28738475514223, 47.121355851189534], [8.287388853829816, 47.121259363382364], [8.28732577214815, 47.12119476527581], [8.287201859242495, 47.12110444846747], [8.287196589713743, 47.121062137031764], [8.287105075385336, 47.120934699830514], [8.286955237559125, 47.12081085933795], [8.287000421375783, 47.12064907645573], [8.286934460125815, 47.120562343717005], [8.286820720870434, 47.12059257971064], [8.286718438713436, 47.12056820086879], [8.286675573644862, 47.12045526498219], [8.286562901474475, 47.12032893696933], [8.28629833462816, 47.12018089824353], [8.286242964123675, 47.120073766525884], [8.28616599453647, 47.12003745260594], [8.285994326261726, 47.11990703415751], [8.286015075399645, 47.11988161319204], [8.286027954748976, 47.11977855707129], [8.285891107199275, 47.11964163898225], [8.285952536876161, 47.11960867695706], [8.285995452545354, 47.11950248495023], [8.286087104786342, 47.11935237798395], [8.286105790367305, 47.119225675115835], [8.286211374538535, 47.11919990753612], [8.286225036571796, 47.1191330340182], [8.286187944149807, 47.119074144711874], [8.286382912330788, 47.118830028902885], [8.2864221487871, 47.118807880841935], [8.286612965075442, 47.118779451538515], [8.286758657162943, 47.118741720572125], [8.286926292491184, 47.118704943093434], [8.286982149852905, 47.11867637538154], [8.28700127689459, 47.11863013284902], [8.287002234019756, 47.11856572806646], [8.287075350039771, 47.11857601861162], [8.287272802891778, 47.1185456771137], [8.287591790886768, 47.11834285973486], [8.287605931914506, 47.11830799717175], [8.287639159552809, 47.118262639951126], [8.28772068367805, 47.1182347188566], [8.287815602334351, 47.11821465070309], [8.288055177882754, 47.118176485716404], [8.288151807112403, 47.118147130355304], [8.288216120685995, 47.118110907465585], [8.288387142297701, 47.118047701297904], [8.288621286723316, 47.118027763991265], [8.288698068428081, 47.117959299043335], [8.28870297105745, 47.11790699960342], [8.28854739150185, 47.11788193741698], [8.286824462518714, 47.11702062576955], [8.28708006202774, 47.11669653298435], [8.28472884011695, 47.1167786360213], [8.28243963280831, 47.1147392828862], [8.28314647983451, 47.114280624508154], [8.281631956602284, 47.112678873001734], [8.283578846315539, 47.11157115229195], [8.285268849194376, 47.1124752693165], [8.287966848316099, 47.110986093098894], [8.288076963692722, 47.11098292273537], [8.288228634200557, 47.110985418166834], [8.288282807414523, 47.11097915289019], [8.28839176494328, 47.1108589335293], [8.288487520501127, 47.11083929936615], [8.288608150269678, 47.11084112419464], [8.288633067462754, 47.11089768302151], [8.288622627849051, 47.11092815571668], [8.288588932309587, 47.11109651123977], [8.288773598332776, 47.11109499274448], [8.288889501894538, 47.111039740315], [8.289054436767781, 47.11112084629414], [8.289301335830743, 47.11120658998303], [8.28951511369318, 47.111301645740475], [8.289788770250627, 47.11137214104343], [8.289904971455801, 47.11143351990233], [8.290056503235661, 47.111471149966874], [8.290156823810314, 47.11153063127476], [8.290285089055471, 47.111557629876295], [8.29029297185366, 47.11159182613974], [8.290659114049527, 47.111676323702554], [8.290890290643471, 47.11173669644257], [8.291334352593626, 47.11185552537381], [8.291402728466174, 47.1118822563355], [8.291609733441971, 47.111914813288145], [8.291892414772516, 47.11193439453405], [8.292103169388275, 47.111958296112974], [8.292338653298309, 47.11197208281686], [8.292530837461966, 47.11197167202605], [8.292659814675883, 47.11198780527237], [8.292727841736346, 47.11208930812431], [8.29276712715726, 47.112126095238295], [8.292809002635327, 47.11214764285946], [8.292967465709797, 47.11220156249557], [8.293029944451677, 47.11218728096107], [8.293046278541258, 47.11242166997914], [8.292897487743177, 47.112614134938504], [8.293040312752112, 47.11276646338554], [8.293168173706851, 47.11294216496635], [8.293197992684942, 47.11306528837353], [8.293201539943004, 47.1131745202336], [8.293250266126, 47.11321988177137], [8.29353049371755, 47.11322724358347], [8.293504537423518, 47.113284341598295], [8.293495957046277, 47.1133461408575], [8.293531218596085, 47.113375905488226], [8.293632361105677, 47.11331797837303], [8.293703609150167, 47.113247068298584], [8.29403550932407, 47.11337452011018], [8.294124501544951, 47.11350965275458], [8.294258731566954, 47.11349799432214], [8.294303176129356, 47.11357964760954], [8.294351245191343, 47.113762004591536], [8.294443185617066, 47.11379618646445], [8.294568066606777, 47.11358281194614], [8.294695035219577, 47.113505927391294], [8.294898760452103, 47.11348527685156], [8.294982264732052, 47.11355225545654], [8.294992019415265, 47.11361433211651], [8.295033137189638, 47.11364192952352], [8.295122282098992, 47.11361909172413], [8.295188036981424, 47.11353683350959], [8.29505162090077, 47.113301252215656], [8.295070224023677, 47.11327719483125], [8.295281170134075, 47.11321612931881], [8.295608258348777, 47.113142169270766], [8.296993497376397, 47.11336512312901], [8.29753227198833, 47.11413984830052], [8.297560450397818, 47.11429483432333], [8.29755511019366, 47.114436821838254], [8.297510356299522, 47.114603391554525], [8.297518974299987, 47.11470780881126], [8.297904890601854, 47.11490416456851], [8.298086667270058, 47.114988676112965], [8.29835450881984, 47.11500857744619], [8.298917534315306, 47.11487106281776], [8.299147505803191, 47.1148672458847], [8.299272159542161, 47.11492046520551], [8.29948180238741, 47.11499149771888], [8.29978466809049, 47.11517282624308], [8.299903651442445, 47.1151634071248], [8.300022545094741, 47.1151098840998], [8.300125646620113, 47.11500027599737], [8.300229188492658, 47.114920538239815], [8.300404645334185, 47.11484783561993], [8.300756630480427, 47.114817436748865], [8.30114610136121, 47.1149088325123], [8.301326077010202, 47.11489098458957], [8.301474788186628, 47.114842345885485], [8.301576457657465, 47.1148583952377], [8.301686968951163, 47.11497505498506], [8.301728277155721, 47.1150681802556], [8.301881683717982, 47.11506724434447], [8.302082519418164, 47.11501261828174], [8.302498574608476, 47.115073909080564], [8.302959630229763, 47.11511473738675], [8.303475948200957, 47.11497819918147], [8.30361086708775, 47.11499522891678], [8.303775587526234, 47.115047827307954], [8.304031255806095, 47.11518602464038], [8.304415394277884, 47.11512385275993], [8.304501162455008, 47.11506665248907], [8.304468756242645, 47.1148544245645], [8.304601862990813, 47.11475687430168], [8.30477256094107, 47.11474884188506], [8.30507531642807, 47.11480906084582], [8.305221793718419, 47.11476266478321], [8.305490359541565, 47.11445745827448], [8.305578210878119, 47.11431250918471], [8.305696843296708, 47.11421887168318], [8.305644471173878, 47.11400347515764], [8.305761896355913, 47.1138654182336], [8.305966566472344, 47.11372340157488], [8.306096116569389, 47.1135603620567], [8.306428369205612, 47.11349687474662], [8.306545976531497, 47.11332633299995], [8.306749270605115, 47.11315981293249], [8.30687552729495, 47.11293523297685], [8.306982541983043, 47.112800707598915], [8.307169251758847, 47.112762325998865], [8.307354353256645, 47.11273367124503], [8.307445522407901, 47.11255897461746], [8.307639503864907, 47.112445812186664], [8.307823419308379, 47.11245459559603], [8.308354429389746, 47.11234071796355], [8.308491873023923, 47.11229929754656], [8.308622998366237, 47.11228181671446], [8.30873996470291, 47.112302016855054], [8.308949472763038, 47.11234917730151], [8.309371184742492, 47.11232391811411], [8.309622268607141, 47.11231291284047], [8.309852446900479, 47.11229415827658], [8.31004076445605, 47.112238200643375], [8.310140602449415, 47.11216689274878], [8.31020784761573, 47.112135654450874], [8.310229006471683, 47.11210957817541], [8.310113648439321, 47.11190796536292], [8.31008571986007, 47.111879940403284], [8.309851455126234, 47.111816633858346], [8.3097420449572, 47.11170276193548], [8.309685045621462, 47.11159748841117], [8.309551674278897, 47.111398844996614], [8.309521801743335, 47.11130144381048], [8.309516555793254, 47.1112048634836], [8.309518377011454, 47.11116288596502], [8.309570158727775, 47.11110689305857], [8.309542831446729, 47.11095612940986], [8.30922311323742, 47.1109497265504], [8.309132982459829, 47.11087231962529], [8.309260461833507, 47.110742593327856], [8.30926412235796, 47.11070756453755], [8.309247618790584, 47.110586304916595], [8.308956981121456, 47.110355127690305], [8.308727293434195, 47.110117173782136], [8.308706999892326, 47.10998556214774], [8.30891936799497, 47.1097631974045], [8.308919766746058, 47.10951436240186], [8.308939789501297, 47.10944188747022], [8.308978620086432, 47.10922620658222], [8.308953757934669, 47.10902262102968], [8.308971307319698, 47.10889846800839], [8.309010440125757, 47.108778487288276], [8.309049493963908, 47.10872989512434], [8.309173792399246, 47.1086633770323], [8.30927558692363, 47.10862687621821], [8.30940391873772, 47.10844129970414], [8.309388756492517, 47.108162555725016], [8.309511848961773, 47.10785817981213], [8.309683471283602, 47.10778358455762], [8.309977554886547, 47.10789595777032], [8.31021387080906, 47.10792441792396], [8.310368741095619, 47.107897273778796], [8.310517233095297, 47.107836858559864], [8.310688649048865, 47.10773995467379], [8.310716379932636, 47.10773165739367], [8.311080078073086, 47.10661438026879], [8.310963599595643, 47.10655626312428], [8.310850324920896, 47.10656383334535], [8.310700816909067, 47.10656481481883], [8.310575906273026, 47.10653742675168], [8.310435571074269, 47.10653939086097], [8.310321565827282, 47.106563607656675], [8.310086801726964, 47.10660264712483], [8.31004113697637, 47.10659778510882], [8.310011791908858, 47.10657808269041], [8.309977151202014, 47.10652600989107], [8.309768146018754, 47.10649951925604], [8.309606249222718, 47.10655291970733], [8.309517399849176, 47.10654906826823], [8.309421820513, 47.106576994601284], [8.309322616684996, 47.10657159329589], [8.309236421865917, 47.10652353580397], [8.309212146076213, 47.106502814184815], [8.309152948055258, 47.10648076490678], [8.309125754538064, 47.106463717638334], [8.309041859736727, 47.106404749074244], [8.309033121398926, 47.106349385366904], [8.308914501135998, 47.1062849585542], [8.308792374191997, 47.10620253131482], [8.308721576474802, 47.106176036040615], [8.308559601414464, 47.10609639282964], [8.308369818195468, 47.10603482494855], [8.308203795231845, 47.10593624950192], [8.308084886690716, 47.105873416386174], [8.308066376658784, 47.10584666887637], [8.30790862036792, 47.105734582373984], [8.30785595443046, 47.105712267473265], [8.30777135309466, 47.105663189335466], [8.307735221890638, 47.10564740553893], [8.307671025911393, 47.105598164003844], [8.307567907906968, 47.10555356162386], [8.307438186546939, 47.10547705529189], [8.307354624988145, 47.10542217595735], [8.30725638554478, 47.10534120373917], [8.30714544350261, 47.10525763787609], [8.30702936209759, 47.10515284532515], [8.30683066993944, 47.10499889595266], [8.306767839597017, 47.10496065416275], [8.306696559355576, 47.10493512358536], [8.306457364962922, 47.104879295908354], [8.306357749908724, 47.104863748176385], [8.306095139423366, 47.104793748769396], [8.305710395657941, 47.10542694457223], [8.305528472297901, 47.10599016332141], [8.304458233735529, 47.10621282475734], [8.30409250174036, 47.10607610493169], [8.303857496865048, 47.10602776921664], [8.303508146041645, 47.105940983509484], [8.302778773848228, 47.10561282771496], [8.302368594004676, 47.10529028469704], [8.302177837171289, 47.10502950078735], [8.302015880086069, 47.104625490829235], [8.301967287108294, 47.10438964462138], [8.302059308493217, 47.104091024146626], [8.30180461548448, 47.10318036747266], [8.30175502280991, 47.10305327447896], [8.301449903793921, 47.10278212217568], [8.301329709777603, 47.10237823866643], [8.301340386921696, 47.10210037898836], [8.30103873037874, 47.10178196427513], [8.300930350576891, 47.10165351312147], [8.300803282990122, 47.10140260224166], [8.30046013091698, 47.1012894940668], [8.300104565980671, 47.10122280457981], [8.299953112775226, 47.10111824262021], [8.299679249957839, 47.101160414279875], [8.299495117402055, 47.10122008393795], [8.298706485558329, 47.10129813174335], [8.297944176357772, 47.10133369840501], [8.29717645078107, 47.10135193910349], [8.296658033559954, 47.10134024803963], [8.296098314039103, 47.10127650927062], [8.295759625128337, 47.10126797100072], [8.295236856656043, 47.10126585893581], [8.29490397002229, 47.10129890562906], [8.294653635098763, 47.10135456259907], [8.294245563050456, 47.10151457129682], [8.29380182885166, 47.101626808295734], [8.293528841638247, 47.10165825414188], [8.293363341211936, 47.10163942498045], [8.29290883897367, 47.101554828419886], [8.292318843759002, 47.101268308473706], [8.291993086553546, 47.10112950819771], [8.291439408034913, 47.100922494705884], [8.29186357468522, 47.100623045495276], [8.29195369336815, 47.10039210196066], [8.291943785208469, 47.10028279076556], [8.29181457967975, 47.100127229240535], [8.291816324838992, 47.100005156997604], [8.291965481799192, 47.099949357395204], [8.292292786308211, 47.09992191957407], [8.292536493475334, 47.09966553829727], [8.292700616633944, 47.09930900804586], [8.293062673802723, 47.09900678656098], [8.292329575675751, 47.09866978196026], [8.292084268703428, 47.09866333677592], [8.291960213093343, 47.09868539712876], [8.291766585052077, 47.09865665478069], [8.291556557165308, 47.09860476260137], [8.291326056032199, 47.09853034442776], [8.291061043601516, 47.098417087599664], [8.290871844464315, 47.09831054544805], [8.290417623407249, 47.09809075351871], [8.29030892022526, 47.09806340332705], [8.29018132070585, 47.09807212980594], [8.289928621194052, 47.09817065772857], [8.289735224936935, 47.09825835625937], [8.289627912054117, 47.09828538157046], [8.289494051354799, 47.0982955568936], [8.289349460953696, 47.098178319187525], [8.289336559096906, 47.098090826122494], [8.289322708183189, 47.097838129839445], [8.289264943577699, 47.09759899086709], [8.28921548277639, 47.09747385254663], [8.288996447137544, 47.09736768998718], [8.288679725270967, 47.097203518251206], [8.288351923660546, 47.09712222155009], [8.288191467161083, 47.09714801023595], [8.287840627252317, 47.09730779828632], [8.287786935336332, 47.09732943322274], [8.287626560502321, 47.09737041378095], [8.287439715474788, 47.09744263291241], [8.287404690076466, 47.097465991860844], [8.287261419512868, 47.09750739427727], [8.287125739292891, 47.09751070781323], [8.286959027195183, 47.097473446943056], [8.286758351205586, 47.09734597846038], [8.286341112131796, 47.09713163675292], [8.28615889844364, 47.0971152595793], [8.285727658607973, 47.097147475861405], [8.285627724730983, 47.09717295004377], [8.285526143447616, 47.09717837633049], [8.285398639259721, 47.097147192949784], [8.285275390890115, 47.09704850357567], [8.2851624484963, 47.096941785646266], [8.284930376431785, 47.0968335884078], [8.284251943528158, 47.09665726992998], [8.283980514384647, 47.09661084415375], [8.283354903304705, 47.096554499763], [8.28329754425467, 47.096567514907385], [8.283192957020134, 47.09665381209566], [8.283033278037458, 47.09677500246306], [8.282948466824447, 47.096833169276294], [8.282889662589687, 47.09685648562476], [8.282769818011475, 47.09682387586786], [8.282709271160542, 47.09678338230645], [8.282663715220012, 47.096721162617335], [8.282475222849667, 47.096245563859796], [8.282362150933535, 47.096088290252034], [8.282263772793149, 47.09598328005635], [8.282131392725516, 47.0959022672914], [8.281964086689902, 47.095860199992906], [8.281586654964823, 47.0958583361303], [8.281299264624893, 47.09574135304206], [8.281262553498712, 47.09573634188584], [8.281159230000247, 47.09568023021688], [8.281117213831115, 47.09558157046487], [8.281149874554997, 47.09543868149697], [8.2813162662361, 47.09515124499392], [8.281387475174604, 47.094976139496296], [8.281402451687208, 47.09476751553429], [8.281405486379162, 47.09456257743784], [8.281436993329873, 47.09442263817818], [8.281303288874204, 47.094364302680525], [8.281172838863014, 47.094368020689586], [8.280996973448563, 47.09436347175191], [8.280805124780782, 47.094348505988336], [8.280563871624375, 47.09434299623781], [8.280461333529564, 47.09430396063214], [8.280362288745481, 47.09422147824515], [8.280213101562993, 47.09412911719142], [8.279981429021506, 47.09396186125814], [8.27986710271483, 47.09390433570869], [8.279803481258744, 47.09389503232082], [8.279780298704214, 47.093857259268816], [8.279523015849803, 47.09361484408532], [8.279408426114715, 47.093541281214776], [8.279274539750146, 47.09348198217886], [8.278923499454937, 47.09342662768981], [8.278846892423502, 47.093427466813395], [8.278730482711472, 47.09348562763453], [8.278584605195228, 47.09363275262864], [8.278549825134935, 47.09365588220093], [8.278252920585686, 47.093715721397885], [8.278023152595411, 47.09377389103443], [8.277727278567319, 47.09381970637555], [8.27762875018823, 47.09383889329655], [8.277334343447452, 47.093864034486586], [8.276979079489792, 47.09383088768912], [8.276821671674366, 47.09379358924118], [8.27669080056636, 47.093757662362755], [8.2765066409133, 47.09372793480754], [8.276252549085866, 47.09369464176447], [8.276119421354508, 47.09367104550037], [8.275768850458462, 47.09368440310103], [8.275503825985112, 47.09367215639595], [8.275435899375866, 47.09367810221924], [8.275392315637076, 47.09366725620131], [8.27508182554889, 47.09357334624525], [8.274705247870317, 47.09342248933877], [8.274587766621982, 47.093357308699964], [8.274505913384612, 47.09331904390829], [8.274370677726193, 47.09326827669967], [8.274269580404145, 47.093137048792975], [8.27402810283691, 47.09298319238837], [8.273916865517789, 47.09293569543881], [8.273508612342008, 47.092898650166255], [8.273406668927544, 47.09287276419353], [8.273312722060039, 47.092812277598576], [8.273204166416386, 47.092556255415246], [8.272967005243725, 47.09236539424297], [8.272899620159983, 47.09231802773181], [8.27240640039043, 47.09206909641952], [8.272050388642777, 47.091850481056476], [8.271873513575535, 47.091732925023805], [8.271801291453386, 47.09162846297591], [8.271425868609985, 47.09141395342643], [8.271162606178619, 47.09135747143538], [8.270806076397582, 47.09144592405552], [8.270361321812558, 47.091484153867164], [8.270048290873047, 47.091575752519], [8.269888417403367, 47.09160633305503], [8.269676240885603, 47.09162420323055], [8.269368941889601, 47.091686308090814], [8.269245906586004, 47.09167429789646], [8.268959996853864, 47.09157059577642], [8.268758576585787, 47.091431650601535], [8.268397424140547, 47.09136895194469], [8.268303954976732, 47.091308152032155], [8.267991252752731, 47.09098782411745], [8.267861518407392, 47.09093940236952], [8.267643225511815, 47.09089124151708], [8.26735428753363, 47.09075731468963], [8.2669596618087, 47.090494389915456], [8.266777192357415, 47.090438269129116], [8.26660194561208, 47.09035171018043], [8.266393883701724, 47.09022465537901], [8.266294847263229, 47.09014848475922], [8.266129350074845, 47.09004071494385], [8.265734193263969, 47.08990739577667], [8.265535461094881, 47.08989909281582], [8.265374485250643, 47.08991781008466], [8.265197459398152, 47.089878792997496], [8.265053070503969, 47.08983631153922], [8.264861422032746, 47.08975007406134], [8.264681362989913, 47.08963894368708], [8.264579663174025, 47.08952303101425], [8.264481005314947, 47.089388250929055], [8.264379505868542, 47.089307517770735], [8.264163412821867, 47.089167221383235], [8.26387860973115, 47.08903977772371], [8.263496492766755, 47.088889400909636], [8.262936387757142, 47.08868660600356], [8.262802571582345, 47.08855191479533], [8.26250559964136, 47.08837952398414], [8.2622848874388, 47.0883040512493], [8.261803667003258, 47.088064110017854], [8.261561885552807, 47.08799042403732], [8.261317787441957, 47.08790648137239], [8.260985248617148, 47.087720209525536], [8.260843692983933, 47.087623092081806], [8.260713394179678, 47.08752134334827], [8.260625452799443, 47.08747386535552], [8.260430756350164, 47.08740599308449], [8.260192707306317, 47.08735467609762], [8.259457416025617, 47.087289613136754], [8.259277374428637, 47.087153394899616], [8.259193077837244, 47.08683712416281], [8.259181687933017, 47.086774453475705], [8.259277035745166, 47.08666062818393], [8.259309976423456, 47.086534304088026], [8.259385933546852, 47.08643138538577], [8.259334778447107, 47.08631337929905], [8.25924921361913, 47.08625061756073], [8.259153181353868, 47.08621297376359], [8.259061367796326, 47.08619281388832], [8.258602957037608, 47.08617882350647], [8.258272727112981, 47.08613105680921], [8.25823023080547, 47.08609939014432], [8.257728338784068, 47.0858994485588], [8.257311080356505, 47.08613335364061], [8.255669177172733, 47.08573718848061], [8.255090598040807, 47.08543103878492], [8.254636046018753, 47.0853784510477], [8.25441332210147, 47.08533796127874], [8.254105175598825, 47.085529277293936], [8.253973115136596, 47.08567773120984], [8.253860000707897, 47.08575835926448], [8.253422411998542, 47.08601527760848], [8.251419112994805, 47.08505132020839], [8.249928901432702, 47.08522997567364], [8.249553242109338, 47.08535494711025], [8.249480587481234, 47.08537604126288], [8.247522444864634, 47.086125171981706], [8.241994516006697, 47.08893924433335], [8.241571605680983, 47.08836838407281], [8.24127410742128, 47.0879388629399], [8.240430763795297, 47.08797553209531], [8.239765741322639, 47.088170503747136], [8.237669491685967, 47.08884886809774], [8.237246525897858, 47.08937985623919], [8.236925668362362, 47.08966426254379], [8.236741626586674, 47.08986640847292], [8.236156123719754, 47.09030504200807], [8.235520347486503, 47.09061414485515], [8.235075222103404, 47.091052247968605], [8.234643774792536, 47.0914451779279], [8.23416729610543, 47.091795167475894], [8.233794122673183, 47.092555978706905]]]]}}]}