{"type": "FeatureCollection", "features": [{"type": "Feature", "properties": {"bfs_nummer": 1063}, "geometry": {"type": "MultiPolygon", "coordinates": [[[[8.389433977014521, 47.06808434924281], [8.389583638737623, 47.06774027702949], [8.389487550102052, 47.06739996635717], [8.389664666840039, 47.06684328801433], [8.389787537024354, 47.066272396015115], [8.389786715712127, 47.06574220817873], [8.389862852427521, 47.06523179366034], [8.390011731884588, 47.06476926401871], [8.390002927647592, 47.06423518451137], [8.390123855547035, 47.063725297752356], [8.390091860466818, 47.06338372818053], [8.390123061167216, 47.063312538899176], [8.390147859483791, 47.06327448872903], [8.390169310584847, 47.063205098252475], [8.390187017709392, 47.06317175758762], [8.390177195872127, 47.06309899221253], [8.390190591775994, 47.06307493483321], [8.390243554896177, 47.06303574265994], [8.390264288298988, 47.06301418820411], [8.390269892629414, 47.06297762840702], [8.390288063869777, 47.06293262530909], [8.39031277149679, 47.06289986531599], [8.390306351805716, 47.06286600484505], [8.390312455766022, 47.06285092255072], [8.390434543477388, 47.06278641926504], [8.390458955427427, 47.06276519409593], [8.390520416945682, 47.06263894316542], [8.39054856847666, 47.06259479285266], [8.3905722343199, 47.062580491455435], [8.390598589843657, 47.06253527673459], [8.390622809478655, 47.06251509654642], [8.39065474044031, 47.06247101406895], [8.390728546107983, 47.06241352269623], [8.390760872429855, 47.062370219413246], [8.390756363394246, 47.0623424061742], [8.390688448335347, 47.06228827558103], [8.390610073147933, 47.062204042306284], [8.390586775693583, 47.06217012388609], [8.390583083509705, 47.06215123664312], [8.39056185294046, 47.062135121416], [8.390553336495106, 47.06210328437601], [8.39056747314754, 47.0620750018224], [8.390556026428813, 47.062054586645175], [8.39054858100309, 47.06200892341596], [8.390525175556332, 47.061328146832004], [8.39151603006043, 47.061029258595255], [8.392246480893155, 47.06080891841435], [8.393495989734951, 47.06063209579463], [8.397139465888106, 47.060116416526455], [8.398164948308112, 47.05997125055115], [8.398911831370354, 47.05960944182363], [8.399241966739357, 47.05944950573814], [8.400025614776688, 47.05959439537723], [8.40048180190849, 47.05967874160278], [8.411755233586225, 47.05469268007436], [8.38774292779865, 47.037216723898624], [8.38546378739515, 47.03555713072527], [8.383647361085554, 47.03423437791831], [8.377954786080268, 47.030088278716406], [8.368514028577092, 47.01995384887523], [8.354015580729616, 47.02209455379426], [8.352999198932295, 47.0235365197173], [8.35205472034278, 47.02487641454891], [8.349967929779297, 47.02783659679814], [8.34955966782034, 47.028415694094555], [8.34355302019317, 47.03693402548523], [8.353421312564505, 47.03843869391215], [8.354898194827403, 47.03889513220685], [8.355221948332046, 47.03899518176322], [8.355731467477392, 47.03915263737587], [8.356977205092624, 47.039537599797555], [8.357730581253369, 47.03977039625673], [8.357502236539458, 47.040245161180046], [8.357063885899976, 47.04115651256706], [8.356471653578216, 47.04200074667515], [8.356362999480734, 47.04215563571128], [8.357029069873935, 47.04236683504716], [8.356731917031288, 47.04283869917717], [8.356546486197082, 47.043133180391756], [8.355731033920394, 47.04285335820999], [8.354250714677072, 47.0428198094601], [8.353212046631615, 47.04296872494163], [8.353043619048696, 47.04331926893577], [8.352749493706842, 47.04393134195401], [8.352636815058709, 47.04416584715429], [8.351216154390551, 47.04491511482849], [8.350475945168608, 47.04530549452994], [8.35044206679633, 47.04566603855307], [8.350373071246585, 47.04640038440445], [8.349991622897978, 47.0471048548225], [8.34985489608411, 47.04735738406279], [8.349997698699744, 47.04803580627684], [8.349921950520116, 47.04837539910845], [8.349843044928182, 47.048729147295035], [8.35036774549936, 47.04882286311506], [8.351378870782497, 47.04900346051805], [8.351856206033583, 47.04929790586291], [8.351972349167962, 47.049369541744575], [8.352143670417137, 47.04954907071256], [8.352540309510704, 47.04996469776344], [8.3518059042057, 47.05039951461718], [8.351054129396555, 47.05067428021105], [8.350611299839485, 47.05083611946444], [8.351300315452715, 47.05138759165961], [8.351746144538975, 47.05174441980831], [8.35234861802501, 47.052017015840995], [8.352320113936594, 47.05258677190474], [8.354171308458767, 47.05265542522496], [8.355909836080487, 47.05322703106524], [8.35637610720177, 47.05294652894834], [8.357238565895369, 47.05271706375911], [8.35801145990035, 47.05327364545417], [8.3582280179124, 47.05366297861793], [8.35795473508751, 47.05400108074174], [8.357885016078713, 47.05443745693081], [8.357280663277933, 47.055484784978525], [8.35723542908888, 47.05631207716189], [8.357203211236452, 47.05690096495041], [8.35794379269367, 47.057372700483256], [8.358464678371307, 47.057596568742596], [8.358926182419978, 47.057886661927924], [8.359905572851781, 47.05850230769008], [8.360658350450787, 47.05886006826068], [8.361624760968375, 47.05922437988568], [8.362231962655706, 47.059453286083226], [8.363442668526023, 47.05994397718606], [8.364299743466658, 47.060219183632476], [8.365532267634011, 47.0607833892414], [8.366918464475118, 47.06155272488376], [8.368838754031941, 47.062328456325915], [8.369420398432384, 47.06241314696564], [8.369668367248082, 47.06244925681629], [8.369981301681188, 47.0624948142308], [8.370291450773884, 47.062539977888164], [8.372105259652969, 47.06317114484319], [8.374186995238995, 47.06358842650721], [8.376347378831435, 47.06414554716547], [8.377268966685403, 47.06438318697434], [8.37838855743027, 47.064723493316876], [8.378735311121263, 47.06482887965945], [8.378822822742732, 47.064855481209804], [8.37925549127783, 47.064986988840424], [8.37969565426749, 47.06512076467595], [8.37987432418786, 47.06517506703651], [8.380427400093263, 47.06546726514851], [8.38108343106899, 47.06577355716934], [8.381638038982011, 47.06608181117811], [8.382264944691006, 47.066420781968695], [8.382839909109162, 47.066667942752666], [8.383669614467655, 47.067024598661874], [8.38410415815613, 47.06653504952409], [8.385948763083775, 47.06755980072654], [8.38716485489229, 47.06799486865177], [8.38783643594977, 47.068359077089326], [8.388684214565242, 47.068447762367626], [8.389154236974342, 47.06821992489941], [8.389433977014521, 47.06808434924281]]]]}}]}