{
  "type": "FeatureCollection",
  "features": [
    {
      "type": "Feature",
      "properties": {
        "source": "swisstopo swissBOUNDARIES3D",
        "source:date": "2026-01-01"
      },
      "geometry": {
        "type": "LineString",
        "coordinates": [
          [
            8.088242919744905,
            47.1973233908071
          ],
          [
            8.088486556600563,
            47.19727056519005
          ],
          [
            8.088738044300163,
            47.1973208675023
          ],
          [
            8.093565326362105,
            47.2002900583333
          ],
          [
            8.094644599983212,
            47.200962410861656
          ],
          [
            8.096509386331196,
            47.20269400162041
          ],
          [
            8.096555835295074,
            47.202714694726396
          ],
          [
            8.096621552962118,
            47.202723494308
          ],
          [
            8.098966106299958,
            47.20276368091789
          ],
          [
            8.09927131229997,
            47.20279935036075
          ],
          [
            8.099611828579858,
            47.20289517290787
          ],
          [
            8.099801492629426,
            47.20297008338615
          ],
          [
            8.099942899597513,
            47.20300624123714
          ],
          [
            8.100143276532998,
            47.203040162377974
          ],
          [
            8.100231070157852,
            47.20306340505164
          ],
          [
            8.10033346318428,
            47.20311453827746
          ],
          [
            8.100352851208902,
            47.20313476462861
          ],
          [
            8.10039214590174,
            47.203142445531554
          ],
          [
            8.100611227497224,
            47.203247966612814
          ],
          [
            8.100889296644514,
            47.203427240078696
          ],
          [
            8.101112428297192,
            47.203602790041025
          ],
          [
            8.101221411897395,
            47.203694631961746
          ],
          [
            8.101241756803308,
            47.20374838604404
          ],
          [
            8.101287549910532,
            47.20377025037278
          ],
          [
            8.101309337824317,
            47.203801967372115
          ],
          [
            8.101393226139999,
            47.20384969804535
          ],
          [
            8.101420646524303,
            47.2038896580268
          ],
          [
            8.101602555963929,
            47.204072172447525
          ],
          [
            8.10169213420457,
            47.204206222217096
          ],
          [
            8.101740398628833,
            47.20424533355923
          ],
          [
            8.101750713932029,
            47.204278915507864
          ],
          [
            8.10174697771521,
            47.20431824518764
          ],
          [
            8.101777206825377,
            47.20438031662938
          ],
          [
            8.101918317434766,
            47.20450821383509
          ],
          [
            8.101961735655268,
            47.20452901216886
          ],
          [
            8.102009971067973,
            47.20457638997441
          ],
          [
            8.10221038991266,
            47.20467589888034
          ],
          [
            8.10224762840122,
            47.204709235757804
          ],
          [
            8.102385787799273,
            47.204781011563256
          ],
          [
            8.102413942148045,
            47.20481619972425
          ],
          [
            8.102463708759485,
            47.20484757539881
          ],
          [
            8.102553142293953,
            47.20488564862202
          ],
          [
            8.102640906131514,
            47.20491679625045
          ],
          [
            8.102714895036826,
            47.20497384787352
          ],
          [
            8.10283672318915,
            47.20502711560417
          ],
          [
            8.102885191603894,
            47.20503043416583
          ],
          [
            8.102956357876211,
            47.20504189723275
          ],
          [
            8.103136910250285,
            47.20503150117716
          ],
          [
            8.103172025540996,
            47.20505216704587
          ],
          [
            8.103209017043197,
            47.20505492202052
          ],
          [
            8.103283637541239,
            47.2050809368687
          ],
          [
            8.103350752671194,
            47.20509565227063
          ],
          [
            8.103433759974344,
            47.205157148903886
          ],
          [
            8.103493481168806,
            47.20518333954038
          ],
          [
            8.103558224591653,
            47.20518881264826
          ],
          [
            8.10377604845068,
            47.20516012051404
          ],
          [
            8.103906187407894,
            47.20515981885265
          ],
          [
            8.103965878646909,
            47.20517296665986
          ],
          [
            8.104043060739386,
            47.2051385197848
          ],
          [
            8.104112019684141,
            47.205122110368826
          ],
          [
            8.104229667298997,
            47.20511504428905
          ],
          [
            8.10443295830293,
            47.20511710783849
          ],
          [
            8.104511850673896,
            47.20513527155049
          ],
          [
            8.104538976080613,
            47.205130077565585
          ],
          [
            8.104637594392749,
            47.20517421269309
          ],
          [
            8.104757346211876,
            47.20518773247504
          ],
          [
            8.104780769739525,
            47.20520324835211
          ],
          [
            8.104863077069123,
            47.205220042827655
          ],
          [
            8.104922406208392,
            47.20524542544305
          ],
          [
            8.104980609310463,
            47.20527683220019
          ],
          [
            8.105054493627916,
            47.20530616932046
          ],
          [
            8.10515532230668,
            47.20532636450322
          ],
          [
            8.105218128801354,
            47.20532466087419
          ],
          [
            8.105233993717903,
            47.205337341990266
          ],
          [
            8.10527528166147,
            47.20534590920212
          ],
          [
            8.105357982486966,
            47.20538365941398
          ],
          [
            8.105426997500569,
            47.20537175538424
          ],
          [
            8.105638079805715,
            47.205374041566415
          ],
          [
            8.105695386061518,
            47.20535464036172
          ],
          [
            8.105712550619383,
            47.205365685791215
          ],
          [
            8.105785719054039,
            47.2053375664836
          ],
          [
            8.105825875442402,
            47.20535064654965
          ],
          [
            8.105862523947255,
            47.205357621317624
          ],
          [
            8.10590244306469,
            47.20537178213202
          ],
          [
            8.105924674056112,
            47.20539747803793
          ],
          [
            8.105978109070769,
            47.205406343437154
          ],
          [
            8.106032654211395,
            47.2054301340928
          ],
          [
            8.106124988328842,
            47.205478244169285
          ],
          [
            8.10619372032414,
            47.20549655554881
          ],
          [
            8.10626428296577,
            47.205543100601794
          ],
          [
            8.106315309956639,
            47.20554937124747
          ],
          [
            8.106352242475396,
            47.20554735820201
          ],
          [
            8.106404956538343,
            47.205561894436904
          ],
          [
            8.106470125853004,
            47.205569702143336
          ],
          [
            8.10653267288858,
            47.20558948837489
          ],
          [
            8.106649400976604,
            47.205635576655375
          ],
          [
            8.106841472479573,
            47.20565964883234
          ],
          [
            8.106859749782815,
            47.20566359057695
          ],
          [
            8.106879866997359,
            47.205688030263765
          ],
          [
            8.10692677353634,
            47.20569198583695
          ],
          [
            8.106973078002103,
            47.205690008178706
          ],
          [
            8.107146069546044,
            47.2057388368526
          ],
          [
            8.107248148462554,
            47.20582620666555
          ],
          [
            8.107280553795768,
            47.20588439619655
          ],
          [
            8.107340912209432,
            47.205897988138005
          ],
          [
            8.107366093046316,
            47.205916731494796
          ],
          [
            8.107431093407037,
            47.205932095446514
          ],
          [
            8.107532529736568,
            47.205979611860066
          ],
          [
            8.107562922111153,
            47.20602351093694
          ],
          [
            8.107570434200209,
            47.20604370608676
          ],
          [
            8.107608188980167,
            47.20605464967148
          ],
          [
            8.107665568505212,
            47.20609388551667
          ],
          [
            8.107645723899143,
            47.20614301454827
          ],
          [
            8.10767775616197,
            47.20617026330819
          ],
          [
            8.107757943651999,
            47.20619678264054
          ],
          [
            8.107789647925628,
            47.20625056854538
          ],
          [
            8.107805584886265,
            47.2063217074411
          ],
          [
            8.107917894405569,
            47.20637205675401
          ],
          [
            8.107967459305737,
            47.2063774356642
          ],
          [
            8.108047947758026,
            47.20645962314505
          ],
          [
            8.10824223866874,
            47.206489886658574
          ],
          [
            8.10828072688209,
            47.20650666352079
          ],
          [
            8.108320523973957,
            47.20651200910314
          ],
          [
            8.108329213019944,
            47.20653129786103
          ],
          [
            8.108317010299794,
            47.20658983633695
          ],
          [
            8.108348433998312,
            47.206622197611836
          ],
          [
            8.10836856068957,
            47.20672112463365
          ],
          [
            8.108408727153831,
            47.206798140251074
          ],
          [
            8.108465884023106,
            47.206807882365965
          ],
          [
            8.108504374009506,
            47.206844807957935
          ],
          [
            8.108527728622075,
            47.20689684320269
          ],
          [
            8.108466592320887,
            47.20694775059631
          ],
          [
            8.108487476269898,
            47.20697218554349
          ],
          [
            8.108546490825539,
            47.207003774683194
          ],
          [
            8.108652654659137,
            47.20701853879275
          ],
          [
            8.10867865961918,
            47.20703871627099
          ],
          [
            8.108806269921095,
            47.20707854152722
          ],
          [
            8.108904515687774,
            47.20710395657583
          ],
          [
            8.109001802766137,
            47.20716662543989
          ],
          [
            8.1090395115113,
            47.20717486132908
          ],
          [
            8.109090149714039,
            47.20721315523676
          ],
          [
            8.109121978652128,
            47.20721458911073
          ],
          [
            8.109152745426828,
            47.20724607247821
          ],
          [
            8.109204242158935,
            47.207257016520614
          ],
          [
            8.109293055630058,
            47.20737127584306
          ],
          [
            8.109357426329884,
            47.207409930450105
          ],
          [
            8.109448554168672,
            47.207508704768074
          ],
          [
            8.109581864005738,
            47.2076344882394
          ],
          [
            8.110034746774902,
            47.20805432738939
          ],
          [
            8.110090687501803,
            47.208094299007946
          ],
          [
            8.110127728189193,
            47.2081533602155
          ],
          [
            8.11018891710553,
            47.208211821913764
          ],
          [
            8.110375415411054,
            47.2084419063343
          ],
          [
            8.110518339059386,
            47.20857607897398
          ],
          [
            8.11057563221918,
            47.208618561071155
          ],
          [
            8.110616305125168,
            47.20867247378288
          ],
          [
            8.111024286003747,
            47.20907872759097
          ],
          [
            8.111720866612425,
            47.20980385825151
          ],
          [
            8.111770594395882,
            47.20986176540423
          ],
          [
            8.111871386297363,
            47.20995157627852
          ],
          [
            8.11206004386234,
            47.21016337647764
          ],
          [
            8.11242038045716,
            47.21053923081527
          ],
          [
            8.11258012930126,
            47.2107611926524
          ],
          [
            8.113343100154376,
            47.21110328673663
          ],
          [
            8.113801783507341,
            47.21204082029047
          ],
          [
            8.113945786482704,
            47.212279962970435
          ],
          [
            8.114091389539778,
            47.21250981324424
          ],
          [
            8.114223702872675,
            47.212753440633236
          ],
          [
            8.11449383241333,
            47.21311172835397
          ],
          [
            8.114187023633383,
            47.21366446214709
          ],
          [
            8.114756360752464,
            47.21398592309999
          ],
          [
            8.11518053640406,
            47.214163863965496
          ],
          [
            8.11541511961532,
            47.21427834192704
          ],
          [
            8.11584233321973,
            47.21430901443178
          ],
          [
            8.122259029590024,
            47.21499290010854
          ],
          [
            8.122298761020762,
            47.21500282873009
          ],
          [
            8.122275987293571,
            47.21506988665967
          ],
          [
            8.122263273512408,
            47.215139043698876
          ],
          [
            8.122227918138783,
            47.21571950293479
          ],
          [
            8.122205301532217,
            47.2158092183072
          ],
          [
            8.122158737296004,
            47.21587416857832
          ],
          [
            8.122808297447246,
            47.216327970162794
          ],
          [
            8.126274892050057,
            47.21445173744209
          ],
          [
            8.127371656418143,
            47.21492184128521
          ],
          [
            8.128602453067316,
            47.21478115378388
          ],
          [
            8.129838020778502,
            47.21507762687793
          ],
          [
            8.130483292357752,
            47.215083225975654
          ],
          [
            8.130618501781829,
            47.21501784786857
          ],
          [
            8.130811790548293,
            47.21488765347971
          ],
          [
            8.13088490449833,
            47.21481961673964
          ],
          [
            8.131046196406981,
            47.214655118305444
          ],
          [
            8.131302378939157,
            47.21429180816511
          ],
          [
            8.13138755193497,
            47.21419378118099
          ],
          [
            8.131503077724656,
            47.21411027845706
          ],
          [
            8.13206727389168,
            47.21374354877641
          ],
          [
            8.132127332798488,
            47.21371248732495
          ],
          [
            8.132250949969546,
            47.213688131315784
          ],
          [
            8.132276643834304,
            47.21366504834661
          ],
          [
            8.13236385252061,
            47.213642773360924
          ],
          [
            8.132498965806262,
            47.21359181257214
          ],
          [
            8.1325604580545,
            47.21340668463462
          ],
          [
            8.13266498038596,
            47.21325881567796
          ],
          [
            8.132726014881863,
            47.21313310246975
          ],
          [
            8.132776181439171,
            47.21293389345294
          ],
          [
            8.132813527252152,
            47.212550381780865
          ],
          [
            8.132818519557741,
            47.212234185817614
          ],
          [
            8.132772209970447,
            47.2119533165235
          ],
          [
            8.132764646851903,
            47.2115230403618
          ],
          [
            8.132724869884118,
            47.21105476536559
          ],
          [
            8.132751083848214,
            47.210848054770494
          ],
          [
            8.132813161596136,
            47.21062087128935
          ],
          [
            8.133034121868537,
            47.21030545156337
          ],
          [
            8.133106424355965,
            47.21011154181244
          ],
          [
            8.133166809830684,
            47.21000330049006
          ],
          [
            8.133096240895085,
            47.209482644122055
          ],
          [
            8.133095627495992,
            47.20932760057286
          ],
          [
            8.133143612046034,
            47.2091833729275
          ],
          [
            8.133108059858678,
            47.20909660533866
          ],
          [
            8.133267609092814,
            47.20841647399456
          ],
          [
            8.133642173949141,
            47.20842595351757
          ],
          [
            8.133836879721557,
            47.208349301491054
          ],
          [
            8.133836012407647,
            47.20818605595451
          ],
          [
            8.133736009688956,
            47.20779892863674
          ],
          [
            8.13384241675961,
            47.20776265727066
          ],
          [
            8.133794761869405,
            47.20765772996851
          ],
          [
            8.133882007602802,
            47.207720366592895
          ],
          [
            8.134010937563033,
            47.207724040999196
          ],
          [
            8.134666740239878,
            47.20761651200188
          ],
          [
            8.134983477333254,
            47.20758077665276
          ],
          [
            8.135723162018964,
            47.20756657973274
          ],
          [
            8.136194764845555,
            47.20752740326009
          ],
          [
            8.136563568980185,
            47.20746706169002
          ],
          [
            8.13694654769108,
            47.20743798970114
          ],
          [
            8.136958485631252,
            47.207456609019026
          ],
          [
            8.137033053898751,
            47.20745079595708
          ],
          [
            8.138989778231032,
            47.20727470392983
          ],
          [
            8.139244751117797,
            47.20729150348782
          ],
          [
            8.139017432627446,
            47.206799894720795
          ],
          [
            8.139037157206314,
            47.206703446950826
          ],
          [
            8.138881533076463,
            47.20606290287478
          ],
          [
            8.13881510883394,
            47.20555519484323
          ],
          [
            8.139188439541767,
            47.20550512553256
          ],
          [
            8.139475207440716,
            47.20599902598601
          ],
          [
            8.139602526071434,
            47.20628599366893
          ],
          [
            8.13968639985502,
            47.20649991602136
          ],
          [
            8.13976893573809,
            47.20664392801698
          ],
          [
            8.139795784780924,
            47.206777979571115
          ],
          [
            8.140094371175984,
            47.207073978612954
          ],
          [
            8.140150428104695,
            47.20704566271124
          ],
          [
            8.140369869683422,
            47.20725588054024
          ],
          [
            8.140733939633009,
            47.207619814327515
          ],
          [
            8.1408542832216,
            47.207766770361076
          ],
          [
            8.140945955907549,
            47.20793170222975
          ],
          [
            8.141069375471666,
            47.20825251332858
          ],
          [
            8.141427243202262,
            47.20823386987479
          ],
          [
            8.141345120548737,
            47.20766259231014
          ],
          [
            8.141209858943066,
            47.20683808654085
          ],
          [
            8.141179107201605,
            47.20642821720814
          ],
          [
            8.1411407160879,
            47.206008490872954
          ],
          [
            8.141156589101682,
            47.20550746021293
          ],
          [
            8.141134670357191,
            47.205154007750735
          ],
          [
            8.141318054794784,
            47.20429244138195
          ],
          [
            8.141916805228703,
            47.20444674057075
          ],
          [
            8.142381099382623,
            47.20390851996629
          ],
          [
            8.142514162237262,
            47.20364910837918
          ],
          [
            8.142034823128295,
            47.20351153362739
          ],
          [
            8.141436076578886,
            47.20334671084906
          ],
          [
            8.140570626310927,
            47.203053900785704
          ],
          [
            8.140015165638298,
            47.20288792536868
          ],
          [
            8.139400184813493,
            47.20269385804534
          ],
          [
            8.139698573076581,
            47.20236723131068
          ],
          [
            8.139917127807717,
            47.20216398015092
          ],
          [
            8.140152223629105,
            47.20198126246531
          ],
          [
            8.140127459726726,
            47.20196486238254
          ],
          [
            8.140611149716467,
            47.20160958872033
          ],
          [
            8.141086580650759,
            47.20124296658811
          ],
          [
            8.14069425478075,
            47.20121697898597
          ],
          [
            8.140184889028829,
            47.201214199537496
          ],
          [
            8.139957603114203,
            47.201182922521994
          ],
          [
            8.140208715336254,
            47.2008370178543
          ],
          [
            8.138348366120958,
            47.200082647649594
          ],
          [
            8.138616068245167,
            47.19981203315332
          ],
          [
            8.137851272745591,
            47.199633502896944
          ],
          [
            8.137645512640162,
            47.19954909183586
          ],
          [
            8.137556738317272,
            47.19952636931611
          ],
          [
            8.137471133471895,
            47.199492680521125
          ],
          [
            8.137370993565032,
            47.19946471073639
          ],
          [
            8.13733125845956,
            47.19943665333053
          ],
          [
            8.13707169411201,
            47.19935737994908
          ],
          [
            8.13698873023463,
            47.19931870052004
          ],
          [
            8.136901561665919,
            47.199292558637474
          ],
          [
            8.136864971797836,
            47.19926782816457
          ],
          [
            8.136284660401799,
            47.199075692983456
          ],
          [
            8.13581049460624,
            47.19897624514527
          ],
          [
            8.13564459262672,
            47.198932031027944
          ],
          [
            8.135425359990133,
            47.198867576604606
          ],
          [
            8.135150235936583,
            47.1987605083738
          ],
          [
            8.13494265740009,
            47.19863819835529
          ],
          [
            8.134973509473928,
            47.198488837914816
          ],
          [
            8.134544293936496,
            47.19795852000251
          ],
          [
            8.134231820580636,
            47.19733717619381
          ],
          [
            8.13417279937615,
            47.19710846456764
          ],
          [
            8.134101524530065,
            47.19702642828312
          ],
          [
            8.133996041857559,
            47.196886409465
          ],
          [
            8.133886734850648,
            47.19666530522486
          ],
          [
            8.13374951964184,
            47.196482994066805
          ],
          [
            8.133580322735902,
            47.196327618005654
          ],
          [
            8.13331584224503,
            47.19612524155751
          ],
          [
            8.133222990258398,
            47.19602467911256
          ],
          [
            8.133167764527686,
            47.19593950513263
          ],
          [
            8.133121420273477,
            47.195794325527594
          ],
          [
            8.133105636687334,
            47.195742447260464
          ],
          [
            8.133057534161985,
            47.195754628742634
          ],
          [
            8.132999864501055,
            47.19580855096856
          ],
          [
            8.132846714235852,
            47.19586031417909
          ],
          [
            8.132772919836404,
            47.19584318258424
          ],
          [
            8.13256677009153,
            47.19594780492373
          ],
          [
            8.132390307829377,
            47.19600117415839
          ],
          [
            8.13230275141258,
            47.195991348180684
          ],
          [
            8.132270836437375,
            47.19601030406382
          ],
          [
            8.132277304174872,
            47.19606945257304
          ],
          [
            8.132215450723898,
            47.19608881360613
          ],
          [
            8.132175224732007,
            47.19616910281121
          ],
          [
            8.132108523587167,
            47.196207481533385
          ],
          [
            8.132090507880052,
            47.19626843254278
          ],
          [
            8.132032214933952,
            47.19628251892718
          ],
          [
            8.132026799649754,
            47.19634429357517
          ],
          [
            8.131999070321156,
            47.19638788861863
          ],
          [
            8.131906086748458,
            47.19643388232684
          ],
          [
            8.131913103357133,
            47.19646310100274
          ],
          [
            8.13186975941613,
            47.19647594595787
          ],
          [
            8.13184404872507,
            47.196516461499044
          ],
          [
            8.13173030124919,
            47.19657431856724
          ],
          [
            8.13144861618686,
            47.196636837756934
          ],
          [
            8.131289835522008,
            47.19682792110531
          ],
          [
            8.131306763854338,
            47.19688270711154
          ],
          [
            8.131164781436295,
            47.19694935065642
          ],
          [
            8.130904429669757,
            47.19703402096758
          ],
          [
            8.130825104123577,
            47.197112745640275
          ],
          [
            8.130780241794273,
            47.197105189532884
          ],
          [
            8.130768577558344,
            47.19709003999712
          ],
          [
            8.130693701371975,
            47.19709750603599
          ],
          [
            8.130684493261855,
            47.1971283873983
          ],
          [
            8.130621650870669,
            47.197149993267715
          ],
          [
            8.130592640958477,
            47.19719673491978
          ],
          [
            8.130517593832078,
            47.197230800232795
          ],
          [
            8.130513482407546,
            47.197251684449874
          ],
          [
            8.130450926223478,
            47.1972740081089
          ],
          [
            8.130440535935954,
            47.197308395623985
          ],
          [
            8.130309391302811,
            47.19733255234645
          ],
          [
            8.130289227810165,
            47.19735719392924
          ],
          [
            8.130229593518893,
            47.197376882361525
          ],
          [
            8.13012785880585,
            47.19738114514067
          ],
          [
            8.130067056806208,
            47.197405454958364
          ],
          [
            8.130040710228895,
            47.19738770396483
          ],
          [
            8.129915768443563,
            47.19740679477041
          ],
          [
            8.129910781607437,
            47.19742429308379
          ],
          [
            8.129789003134018,
            47.19740732160552
          ],
          [
            8.129722577850812,
            47.19743358992186
          ],
          [
            8.129687079456382,
            47.197425572428976
          ],
          [
            8.129630261217937,
            47.19733325529598
          ],
          [
            8.129584371287622,
            47.19727064619241
          ],
          [
            8.129452995767847,
            47.197248316909345
          ],
          [
            8.129422499394037,
            47.19720964119427
          ],
          [
            8.129217324396015,
            47.19711562291158
          ],
          [
            8.129214121536021,
            47.19708218952662
          ],
          [
            8.12910249313955,
            47.19705196073507
          ],
          [
            8.129086248187173,
            47.19702030558988
          ],
          [
            8.128980295068136,
            47.19699624024986
          ],
          [
            8.128930750145953,
            47.19700111566006
          ],
          [
            8.12889696219554,
            47.1969732266062
          ],
          [
            8.128836689092125,
            47.19694032409466
          ],
          [
            8.12876797762627,
            47.19695304102881
          ],
          [
            8.128704844793385,
            47.19694705077898
          ],
          [
            8.12866307424558,
            47.196962259784
          ],
          [
            8.128629625426806,
            47.19694530660009
          ],
          [
            8.128580710227158,
            47.19693556113323
          ],
          [
            8.128566262007583,
            47.196918359192004
          ],
          [
            8.128490143696974,
            47.19686223624168
          ],
          [
            8.128439707488859,
            47.19690852998344
          ],
          [
            8.128380245412135,
            47.196889375806784
          ],
          [
            8.128405456102703,
            47.196833401565655
          ],
          [
            8.128216552628404,
            47.19675650958542
          ],
          [
            8.128157230339598,
            47.196748184496066
          ],
          [
            8.128087553869237,
            47.19680583706949
          ],
          [
            8.127878978036565,
            47.196750758344535
          ],
          [
            8.127834835689283,
            47.19670375349615
          ],
          [
            8.127755691262195,
            47.1966913011404
          ],
          [
            8.12770113332569,
            47.196746524314484
          ],
          [
            8.1276414558754,
            47.19675673088374
          ],
          [
            8.127497740507206,
            47.196609118197756
          ],
          [
            8.127400514778255,
            47.19656885310267
          ],
          [
            8.127153659240268,
            47.196447339660004
          ],
          [
            8.127093330009142,
            47.19639455751898
          ],
          [
            8.127046764992553,
            47.196395096686494
          ],
          [
            8.126956976811202,
            47.19637178740856
          ],
          [
            8.12692275100606,
            47.19629640653949
          ],
          [
            8.126919371311972,
            47.196255265392686
          ],
          [
            8.12683693867187,
            47.196238469458855
          ],
          [
            8.126851206214093,
            47.19622218412941
          ],
          [
            8.126754782755821,
            47.196175455253346
          ],
          [
            8.12663315640707,
            47.19615872240924
          ],
          [
            8.1265425401093,
            47.19613665007792
          ],
          [
            8.126506612123167,
            47.19605096193004
          ],
          [
            8.126437166130687,
            47.19600545691497
          ],
          [
            8.126406436103435,
            47.19594324175811
          ],
          [
            8.126404651357293,
            47.19586598494491
          ],
          [
            8.126394865550854,
            47.19582436931441
          ],
          [
            8.126278799307315,
            47.19571444117642
          ],
          [
            8.126267604592542,
            47.1956720333861
          ],
          [
            8.126230142366067,
            47.19562094027068
          ],
          [
            8.126197472228492,
            47.19561927331895
          ],
          [
            8.126145776875914,
            47.195559405013775
          ],
          [
            8.126068082503464,
            47.19552098313796
          ],
          [
            8.126017549642368,
            47.19551872112881
          ],
          [
            8.125933948072896,
            47.19548786327196
          ],
          [
            8.125887733254194,
            47.19549403078626
          ],
          [
            8.12578255178824,
            47.19549065552233
          ],
          [
            8.125742243598573,
            47.19549434108716
          ],
          [
            8.125691409070074,
            47.19549016478906
          ],
          [
            8.12561889347494,
            47.19545626321531
          ],
          [
            8.125510344384569,
            47.195460913382185
          ],
          [
            8.125464942300033,
            47.19543169835223
          ],
          [
            8.125465713384523,
            47.19537970237058
          ],
          [
            8.125426566579984,
            47.1953607673464
          ],
          [
            8.12536815718231,
            47.195373034046746
          ],
          [
            8.12532200133228,
            47.19536322577553
          ],
          [
            8.12524318313172,
            47.19535336932642
          ],
          [
            8.125215205939108,
            47.195296777337575
          ],
          [
            8.125185574005457,
            47.19527269431722
          ],
          [
            8.1251157177753,
            47.195248536204986
          ],
          [
            8.125070799188615,
            47.195206572154014
          ],
          [
            8.125013156701602,
            47.195195285066156
          ],
          [
            8.125002927204436,
            47.19517660034175
          ],
          [
            8.12492257776461,
            47.195139929562764
          ],
          [
            8.124929895634947,
            47.195096223991655
          ],
          [
            8.124810606145958,
            47.19504846038047
          ],
          [
            8.124706035129924,
            47.194986603685926
          ],
          [
            8.12461657449948,
            47.19488872168329
          ],
          [
            8.124595372709065,
            47.19488705793729
          ],
          [
            8.124576936966937,
            47.194861306962586
          ],
          [
            8.12454418241642,
            47.19484786552706
          ],
          [
            8.124563312715592,
            47.19481146557413
          ],
          [
            8.124533751835818,
            47.19473625410121
          ],
          [
            8.124547319522508,
            47.19465710681799
          ],
          [
            8.124519371893557,
            47.19462950552632
          ],
          [
            8.124552212875637,
            47.194609547833814
          ],
          [
            8.124558435943861,
            47.19458233672839
          ],
          [
            8.124504045517073,
            47.194525101295994
          ],
          [
            8.124506712403091,
            47.19446753508442
          ],
          [
            8.124486791575684,
            47.194439157387244
          ],
          [
            8.124504235026489,
            47.1943617590494
          ],
          [
            8.124483506751098,
            47.19432288893538
          ],
          [
            8.124505361578857,
            47.1942941815214
          ],
          [
            8.124527059672369,
            47.19422750692703
          ],
          [
            8.12452993810255,
            47.19418336006666
          ],
          [
            8.124482331262396,
            47.19414055726142
          ],
          [
            8.124480581048566,
            47.194081218336706
          ],
          [
            8.124471200316746,
            47.19404429553948
          ],
          [
            8.124406264656564,
            47.19402603543955
          ],
          [
            8.124385411780786,
            47.19403406624426
          ],
          [
            8.124313265290077,
            47.19402566262397
          ],
          [
            8.12424208955207,
            47.194032256925134
          ],
          [
            8.124191587579643,
            47.194073494003845
          ],
          [
            8.124138984558106,
            47.194052704699224
          ],
          [
            8.124075908640872,
            47.19395193973347
          ],
          [
            8.123984891580742,
            47.19393323193767
          ],
          [
            8.123956961389444,
            47.19387087352764
          ],
          [
            8.123884553535767,
            47.193811118448615
          ],
          [
            8.123756165319046,
            47.193784195446
          ],
          [
            8.123685743737015,
            47.19379195427547
          ],
          [
            8.12362939334321,
            47.19377012561139
          ],
          [
            8.123587882510808,
            47.19373749556646
          ],
          [
            8.12360859515079,
            47.193658710668025
          ],
          [
            8.123559260637334,
            47.19362517366455
          ],
          [
            8.123473358768557,
            47.19360602127623
          ],
          [
            8.123417701911032,
            47.19362805724953
          ],
          [
            8.12334093145735,
            47.193612997190975
          ],
          [
            8.12326693274369,
            47.19358869168365
          ],
          [
            8.12322250314628,
            47.193595045417595
          ],
          [
            8.123163745229371,
            47.193580984570104
          ],
          [
            8.123147085068089,
            47.193534048462034
          ],
          [
            8.123104057056969,
            47.193505537998405
          ],
          [
            8.123108632900411,
            47.19347020523023
          ],
          [
            8.123089066358737,
            47.19344880534479
          ],
          [
            8.123027148810323,
            47.19342808887645
          ],
          [
            8.1229523192592,
            47.193439912229785
          ],
          [
            8.122933995862267,
            47.193455870374
          ],
          [
            8.12283081649007,
            47.19339200681214
          ],
          [
            8.122784150078257,
            47.1933751214584
          ],
          [
            8.122706715322867,
            47.19338547594347
          ],
          [
            8.122645049615826,
            47.19334108280078
          ],
          [
            8.122513044522586,
            47.193353173442496
          ],
          [
            8.122461258894305,
            47.19333221661078
          ],
          [
            8.122351617457468,
            47.1932985603878
          ],
          [
            8.122304434320649,
            47.193259801944464
          ],
          [
            8.122249131436298,
            47.19322174831365
          ],
          [
            8.122135804327998,
            47.193256979869446
          ],
          [
            8.122089097672616,
            47.19328341463727
          ],
          [
            8.12191640183049,
            47.19329495447659
          ],
          [
            8.121793111536931,
            47.19316894555552
          ],
          [
            8.121734390071202,
            47.19317524855922
          ],
          [
            8.12166713402947,
            47.19317043928763
          ],
          [
            8.121580211917653,
            47.19312499900992
          ],
          [
            8.121509444442895,
            47.193154211757275
          ],
          [
            8.121471187069659,
            47.19314786319135
          ],
          [
            8.121298333084573,
            47.19314698087842
          ],
          [
            8.121019202176921,
            47.19305021111698
          ],
          [
            8.120969057248695,
            47.19296846434376
          ],
          [
            8.120839363173907,
            47.19295994071379
          ],
          [
            8.120798997830368,
            47.19294970055918
          ],
          [
            8.120753599200894,
            47.1928986436774
          ],
          [
            8.120601698031864,
            47.19284986352138
          ],
          [
            8.120489983451284,
            47.19284596443766
          ],
          [
            8.120326449856188,
            47.19268577712964
          ],
          [
            8.12021654434116,
            47.19260734308556
          ],
          [
            8.1201625276145,
            47.192597579274775
          ],
          [
            8.120089783014873,
            47.19252748850325
          ],
          [
            8.120029262263543,
            47.192496076045714
          ],
          [
            8.119951384699029,
            47.19251408608976
          ],
          [
            8.119849828811356,
            47.192530688979694
          ],
          [
            8.119758325247277,
            47.19244234105646
          ],
          [
            8.119601817422975,
            47.192416101439896
          ],
          [
            8.119536441409053,
            47.19237953628172
          ],
          [
            8.119464716105247,
            47.19236873446129
          ],
          [
            8.119387739452646,
            47.19238702664043
          ],
          [
            8.119345231710069,
            47.19238051359653
          ],
          [
            8.11932118727327,
            47.192370023550666
          ],
          [
            8.119261367599613,
            47.19243103967873
          ],
          [
            8.11896267224755,
            47.19200917353301
          ],
          [
            8.118881022118005,
            47.192034536106284
          ],
          [
            8.118687708161135,
            47.19176077995008
          ],
          [
            8.11862315524279,
            47.191825232826524
          ],
          [
            8.118438769713029,
            47.191749332637954
          ],
          [
            8.118370029570734,
            47.19167010516246
          ],
          [
            8.118270298450673,
            47.19161625565937
          ],
          [
            8.118183698666458,
            47.19162902689322
          ],
          [
            8.117923017268993,
            47.191644650892904
          ],
          [
            8.117848887303671,
            47.19162414759891
          ],
          [
            8.117776304317259,
            47.1915789257332
          ],
          [
            8.117657289302343,
            47.191544384845805
          ],
          [
            8.117565336475224,
            47.19155022500445
          ],
          [
            8.11748308390878,
            47.1915197668607
          ],
          [
            8.11742005460926,
            47.19146930731287
          ],
          [
            8.117369093384614,
            47.19144854123371
          ],
          [
            8.117268244080712,
            47.191452085874744
          ],
          [
            8.117228024261053,
            47.19142924155165
          ],
          [
            8.117065467352603,
            47.19129709944027
          ],
          [
            8.116964085431428,
            47.19127317607138
          ],
          [
            8.116852667618899,
            47.191254924622065
          ],
          [
            8.116776141218757,
            47.19120455319634
          ],
          [
            8.11664959062288,
            47.19120732213153
          ],
          [
            8.116623758377395,
            47.19119832623257
          ],
          [
            8.116544418129344,
            47.19114559652451
          ],
          [
            8.116380770560289,
            47.191132401413626
          ],
          [
            8.116336233649854,
            47.19111663430323
          ],
          [
            8.116285024458927,
            47.19105433906117
          ],
          [
            8.116216560624373,
            47.191033090774
          ],
          [
            8.116168648712772,
            47.191031105880356
          ],
          [
            8.116122912111132,
            47.19104877134945
          ],
          [
            8.11602324318621,
            47.191013116529234
          ],
          [
            8.115932379382036,
            47.19096314369539
          ],
          [
            8.115854807499922,
            47.190948928912796
          ],
          [
            8.115812360186455,
            47.19093246569019
          ],
          [
            8.115796912535071,
            47.1909171659848
          ],
          [
            8.115736393220507,
            47.190894908233425
          ],
          [
            8.115603394845236,
            47.19087296854646
          ],
          [
            8.115554450354283,
            47.19084671182875
          ],
          [
            8.115526628204378,
            47.19080137838507
          ],
          [
            8.11548213730988,
            47.19076207962568
          ],
          [
            8.11534934273948,
            47.190688389929065
          ],
          [
            8.115287817883154,
            47.190672146544244
          ],
          [
            8.115199603100628,
            47.19062598946276
          ],
          [
            8.115122087608409,
            47.19059843419906
          ],
          [
            8.115058147249677,
            47.190544533611984
          ],
          [
            8.114941980427108,
            47.19052934853906
          ],
          [
            8.11478477349689,
            47.19047846906685
          ],
          [
            8.114723918489974,
            47.19047552512769
          ],
          [
            8.11467059604434,
            47.19048077640806
          ],
          [
            8.114577591403835,
            47.19046799161518
          ],
          [
            8.11442588470459,
            47.19046391659584
          ],
          [
            8.11432710958221,
            47.19044766638527
          ],
          [
            8.114171433421037,
            47.1904552719017
          ],
          [
            8.114052910625762,
            47.190438435667645
          ],
          [
            8.113964073174529,
            47.19044111541607
          ],
          [
            8.113877891885489,
            47.190432598677766
          ],
          [
            8.113501265803407,
            47.190410465542136
          ],
          [
            8.113456831238361,
            47.19040374574144
          ],
          [
            8.113131686419544,
            47.190312947384044
          ],
          [
            8.112942893373473,
            47.1902359848389
          ],
          [
            8.112868932857129,
            47.190216053041794
          ],
          [
            8.112655946546889,
            47.19013539976363
          ],
          [
            8.112456541025507,
            47.19009998369232
          ],
          [
            8.112272981948678,
            47.19009171159875
          ],
          [
            8.112131554613999,
            47.19005399492329
          ],
          [
            8.112046997434653,
            47.1900391977721
          ],
          [
            8.111920726830153,
            47.19003255106282
          ],
          [
            8.11176075487034,
            47.189998585334735
          ],
          [
            8.111625071848698,
            47.18999474579592
          ],
          [
            8.111489736866949,
            47.18995771233904
          ],
          [
            8.111392285571158,
            47.189951103568596
          ],
          [
            8.111100609417907,
            47.18987808509161
          ],
          [
            8.11100419639101,
            47.18986272674535
          ],
          [
            8.110878627161272,
            47.18982362966545
          ],
          [
            8.110738247808005,
            47.189808284844375
          ],
          [
            8.110627410564707,
            47.189804326125
          ],
          [
            8.110357947806941,
            47.18973372176235
          ],
          [
            8.110272991861255,
            47.18973017844077
          ],
          [
            8.109941210898237,
            47.18965763376747
          ],
          [
            8.109800853219944,
            47.189639751076335
          ],
          [
            8.109502084670158,
            47.19141233710238
          ],
          [
            8.106780344436277,
            47.19140480693134
          ],
          [
            8.106690015659508,
            47.19140022170851
          ],
          [
            8.106439118549357,
            47.19140275609088
          ],
          [
            8.105850711960704,
            47.191418732241836
          ],
          [
            8.105003798133001,
            47.19141956944662
          ],
          [
            8.104892039145511,
            47.191428716287746
          ],
          [
            8.104426797311275,
            47.19144869502541
          ],
          [
            8.102666737778607,
            47.1914746598726
          ],
          [
            8.10224473643604,
            47.19146053216166
          ],
          [
            8.10132974149155,
            47.19144503975731
          ],
          [
            8.10109981757215,
            47.19145015831751
          ],
          [
            8.100516150073677,
            47.19147389659265
          ],
          [
            8.099930638119032,
            47.19145839716441
          ],
          [
            8.098707606296374,
            47.19190633103001
          ],
          [
            8.096904091789622,
            47.1923820191339
          ],
          [
            8.095253648122625,
            47.19266323327879
          ],
          [
            8.093273567434755,
            47.19299544635127
          ],
          [
            8.092543276010739,
            47.19312427454877
          ],
          [
            8.09235963647775,
            47.19314995428915
          ],
          [
            8.091923610449603,
            47.19319092677763
          ],
          [
            8.0905449694232,
            47.193284640065976
          ],
          [
            8.090412090742838,
            47.19335015617187
          ],
          [
            8.089996251689412,
            47.19352557258807
          ],
          [
            8.089728046451176,
            47.193673653754395
          ],
          [
            8.089503429508184,
            47.19384039552105
          ],
          [
            8.089297258217956,
            47.194027649220885
          ],
          [
            8.089253073354852,
            47.19404254268616
          ],
          [
            8.089192648327549,
            47.19412077181854
          ],
          [
            8.089095015925455,
            47.19405295206074
          ],
          [
            8.089050308275953,
            47.194067182768514
          ],
          [
            8.08887618026767,
            47.19436780783251
          ],
          [
            8.088787710942013,
            47.194598030905446
          ],
          [
            8.088408839777172,
            47.19596849911595
          ],
          [
            8.088363195834607,
            47.196192723362735
          ],
          [
            8.088242919744905,
            47.1973233908071
          ]
        ]
      }
    }
  ]
}