{"type": "FeatureCollection", "features": [{"type": "Feature", "properties": {"bfs_nummer": 113}, "geometry": {"type": "MultiPolygon", "coordinates": [[[[8.890839282002455, 47.27045203396486], [8.890072440367264, 47.27061327684269], [8.889324195092454, 47.27063214283632], [8.88892829600662, 47.27065466744674], [8.888009242997049, 47.271051268279884], [8.887873284055315, 47.27106949464492], [8.887735099231563, 47.27107632384648], [8.887596694227215, 47.271071631682325], [8.887460172155524, 47.271055472704305], [8.88602273529758, 47.270589535607705], [8.885424824392059, 47.270449057447735], [8.883898015699623, 47.27043987519832], [8.883487429182933, 47.27040858806333], [8.883162161730796, 47.27030606188301], [8.882881056548733, 47.270296990121324], [8.882660356015355, 47.27032224552726], [8.88210041632568, 47.270192519663226], [8.88178430099013, 47.27003724825949], [8.880946659774963, 47.269730613094474], [8.880426520100702, 47.269630517815685], [8.879470325546412, 47.269680888448725], [8.879098712864, 47.26957470172117], [8.878745933815525, 47.26928466972044], [8.878362628853571, 47.26918582417416], [8.877864055058645, 47.26927301531595], [8.877713932378287, 47.26943602690302], [8.877693625022124, 47.26952553016617], [8.877236559890584, 47.27014248988909], [8.876743207097435, 47.2700799170541], [8.875676710044724, 47.26952977976026], [8.87531765409351, 47.26964923449567], [8.875112383219506, 47.26991455543308], [8.874684420014553, 47.269958670473386], [8.874213335143667, 47.26987861797851], [8.873704970194652, 47.269739671691156], [8.873528078218852, 47.2696344614727], [8.873356205655307, 47.26934170231876], [8.873520617591804, 47.26918421246212], [8.873551965372133, 47.26907200147475], [8.873466528228052, 47.26895179866945], [8.873297011749022, 47.26889470601471], [8.873033416621638, 47.26890734265223], [8.872801412276004, 47.26910282946355], [8.872460312497633, 47.269074066963455], [8.870873724965255, 47.269520907296496], [8.869353805388542, 47.2696797624896], [8.868693242053775, 47.26969983512043], [8.867858287534574, 47.269663763556835], [8.866313532322472, 47.26928914408091], [8.865946235407321, 47.2691009985019], [8.865272367700355, 47.268112852848134], [8.864959810622073, 47.2680587689998], [8.864387882468177, 47.26844367794447], [8.864123785250174, 47.268343409656815], [8.863656619489776, 47.26763102573873], [8.862342248024788, 47.26675784304197], [8.861733845569734, 47.2665568295262], [8.861019315452708, 47.26654898962025], [8.860332457479622, 47.266739129845234], [8.86006150285534, 47.266755506585476], [8.85986032266791, 47.26674781311516], [8.859661588895593, 47.2667252727107], [8.85946762164672, 47.266688153668824], [8.859280745539872, 47.266636895148], [8.859103170777571, 47.266572108617986], [8.85893699275248, 47.26649455997639], [8.858784191960934, 47.266405169453286], [8.85835243061718, 47.26612288657627], [8.858235878436135, 47.2660571940742], [8.858105976544126, 47.266004350266854], [8.857965770785976, 47.265965586018126], [8.857818522930813, 47.26594180565602], [8.85766768393913, 47.26593356949602], [8.857516760373136, 47.265941050167235], [8.857369249829997, 47.265964078713985], [8.857228640580967, 47.266002135444985], [8.856211857259241, 47.266341650881515], [8.85606448941003, 47.26638406221803], [8.855911390423008, 47.26641569479585], [8.855754268985775, 47.266436194650296], [8.855594823675547, 47.26644532488229], [8.855434862932734, 47.266443000307326], [8.855276158187612, 47.266429235159464], [8.855120445042322, 47.26640418805029], [8.855076044798075, 47.266394415341175], [8.85503256274096, 47.26638288610912], [8.854990158346531, 47.26636963435496], [8.854948978174248, 47.26635470330111], [8.854844649909241, 47.26630628242905], [8.854752951448905, 47.26624721696447], [8.85467619453729, 47.26617896287639], [8.85461631602416, 47.2661032955171], [8.854574846414119, 47.2660221123437], [8.85455284476447, 47.26593747841146], [8.854550843813277, 47.26585154620991], [8.854566860753051, 47.26530576846024], [8.854558316010724, 47.265193342414456], [8.854523577783466, 47.26496676399614], [8.854465903804828, 47.264700534105515], [8.854729726402812, 47.264615879670245], [8.85481081589816, 47.264450418244], [8.855042663627705, 47.264484182700045], [8.855203893318167, 47.26395815655691], [8.855326974122109, 47.26354744218828], [8.85539813017814, 47.26333146388916], [8.855294119473953, 47.26319567035824], [8.85528592110439, 47.263198469950126], [8.853532453080149, 47.26295462034313], [8.853549587282188, 47.26290103666709], [8.853309449437988, 47.262866813236315], [8.853202279003233, 47.263230658014976], [8.852655794553407, 47.26298456780516], [8.852543721034792, 47.26293077934624], [8.852437004486141, 47.26287217517988], [8.852336113756307, 47.26280899250305], [8.852241425846637, 47.262741496535256], [8.852153289194527, 47.26266987188998], [8.852072124111196, 47.262594518336], [8.851998361566128, 47.26251574536002], [8.851932221548608, 47.26243387421614], [8.851880489675706, 47.26235863631372], [8.85187409948268, 47.262349367820164], [8.851867616847, 47.26233810336892], [8.851853721707775, 47.26231589171285], [8.851829467476072, 47.26227175787183], [8.851822748260032, 47.262259542736984], [8.851820374078555, 47.26225521778843], [8.851791071340916, 47.26219358566248], [8.851784298127903, 47.26217733196962], [8.85178251973294, 47.262173548471], [8.851781222627448, 47.26216997497329], [8.851775790571303, 47.26215696139555], [8.851761916900976, 47.262120076954], [8.85174947797023, 47.262082977016846], [8.851725138738798, 47.26199117437654], [8.851709550633926, 47.26189848176645], [8.851702843202478, 47.26180530240952], [8.851704987034438, 47.26171202353682], [8.851745043896232, 47.26110385204007], [8.85174079390117, 47.260953220996086], [8.85185602014447, 47.2605435690315], [8.851859184086372, 47.260518818108885], [8.851854883546146, 47.26049413168255], [8.851843291807569, 47.26047056029884], [8.851824884646291, 47.26044910564027], [8.8518004649497, 47.26043064837774], [8.851771031045244, 47.26041595900611], [8.851737814850146, 47.26040565205876], [8.851702241747995, 47.26040015986852], [8.851591397228534, 47.26039108361724], [8.851537050463097, 47.26038024409758], [8.85153769804685, 47.26042915770522], [8.851538857669704, 47.26045201135129], [8.851541984176517, 47.26047478690961], [8.85154710159944, 47.26049739411214], [8.851549083045853, 47.260504359722916], [8.851551261693297, 47.260511286932235], [8.85155362480628, 47.260518193886675], [8.851255508579913, 47.26050123885608], [8.851113389611875, 47.2604933191729], [8.85111665754128, 47.260510956287014], [8.850804385298094, 47.26049686341242], [8.850776349166704, 47.26049604649261], [8.85074831182588, 47.2604961831629], [8.850720298500695, 47.26049722812864], [8.850692824620557, 47.260499184067996], [8.850665546010953, 47.260502028214546], [8.850638489328016, 47.26050576923711], [8.85060811638527, 47.26051153002904], [8.850594059684642, 47.26051415818863], [8.850580102596322, 47.26051705501789], [8.850566298158851, 47.260520228817086], [8.85053335198145, 47.2605301233237], [8.850501421364541, 47.26054144472036], [8.850470624036122, 47.26055414661733], [8.850371725952762, 47.26048260752246], [8.850307622551023, 47.26045710621254], [8.850129682281343, 47.26041332404874], [8.850118437634785, 47.26043235340054], [8.850096752475556, 47.26047633960995], [8.849927556162823, 47.26064438820505], [8.849845890625218, 47.26071438769628], [8.84976456894007, 47.26080741263824], [8.84963632132893, 47.260890396847635], [8.849565716844456, 47.260943438146924], [8.84954329743717, 47.26097016089432], [8.849474293914012, 47.26100977851899], [8.849452821934014, 47.261011840602485], [8.849393990550595, 47.26104584603207], [8.849290796136149, 47.261041261933], [8.849194223675044, 47.2610122175087], [8.849181182065497, 47.261018764305746], [8.849071633434717, 47.26101875577155], [8.849069598168125, 47.261021749359514], [8.848748994508638, 47.26112561849059], [8.848653989932675, 47.26114594249292], [8.848528962284037, 47.26116528431363], [8.848515027379742, 47.26116302588607], [8.848383543320777, 47.26119809954987], [8.848296758994461, 47.2612294777178], [8.848276809877623, 47.26123466954332], [8.848251404184227, 47.26123839880061], [8.848181445156177, 47.26129143131342], [8.848183569117154, 47.26129680293124], [8.848190962975163, 47.26130157033778], [8.848112279547037, 47.26137953848966], [8.84805126048503, 47.26141581898017], [8.847914659074945, 47.261452304107266], [8.847716307823992, 47.26149188308975], [8.847550592585145, 47.261521796872785], [8.847413231257452, 47.26157458245013], [8.847395378256463, 47.26157408103473], [8.847275448481641, 47.2616364499759], [8.847253477040104, 47.261655160333504], [8.847077154778843, 47.2617338714442], [8.847037950100393, 47.26176556667682], [8.846860882865897, 47.26182557482538], [8.846769286309033, 47.26185494153039], [8.84662958192714, 47.261899109749095], [8.846551872456223, 47.26190887527086], [8.846505627764193, 47.2618840715784], [8.846396677522819, 47.261836644276094], [8.846236570714922, 47.261738474729825], [8.846210436474774, 47.261729618022926], [8.846188053854439, 47.26170767136423], [8.846188925815145, 47.26170064384305], [8.846041813250306, 47.26158405338135], [8.8460249914704, 47.26154746522274], [8.845955249363136, 47.261503516917124], [8.84571005857313, 47.26145612444016], [8.845599187564542, 47.261410968820684], [8.845176821328916, 47.26140892802559], [8.844970784351753, 47.261433212936204], [8.844939820481093, 47.26142711369664], [8.844799066395238, 47.261435947163406], [8.844515504428282, 47.261351507090986], [8.844418690181621, 47.26131319577136], [8.844372878290056, 47.26130026059182], [8.844034753069332, 47.26122629953107], [8.843927530634247, 47.2612343541143], [8.843842282207627, 47.261213713340155], [8.843794702567443, 47.26119837062228], [8.843655259447438, 47.26116660576492], [8.84356358160183, 47.261127601383386], [8.843360811639036, 47.26106557205043], [8.843221564386537, 47.26104675849629], [8.843112387015134, 47.26106086348192], [8.843093533461062, 47.26108763142215], [8.843104123338799, 47.261143097565416], [8.843049352052766, 47.2613020045155], [8.843032772871188, 47.26134943550725], [8.843040132454636, 47.26136346953647], [8.842985373863229, 47.26138618601001], [8.842898474670378, 47.261469108485485], [8.842880037051591, 47.26151170426554], [8.84280672422111, 47.261622348659564], [8.842776359544697, 47.26166868812442], [8.84266957551634, 47.26176885509685], [8.842630115531211, 47.261795963973974], [8.842526063663414, 47.2618291673654], [8.84232785246075, 47.26187980038007], [8.842146070337872, 47.261906933400596], [8.842004529776286, 47.26191657372152], [8.841878249641042, 47.26191656419497], [8.841823272332025, 47.26190031227976], [8.841634953108152, 47.2619004551153], [8.84159569068686, 47.261897379718114], [8.841457597103892, 47.26191147527025], [8.841393173543622, 47.261919456290016], [8.841369492635328, 47.26195014196015], [8.84119104436739, 47.26197392233052], [8.84097883135501, 47.261976028149775], [8.840844838825099, 47.2620099361949], [8.84084415350146, 47.262018562680204], [8.840719830911192, 47.262052856700926], [8.840554911198117, 47.26205085987536], [8.840299308857345, 47.261994370654065], [8.840186650662478, 47.26191421030972], [8.840126860908875, 47.26185454744616], [8.840090983533212, 47.26182787887391], [8.840061657263089, 47.2618096408267], [8.839941822049571, 47.261760621644456], [8.839824954960251, 47.26172801111211], [8.8394628802874, 47.26172777153966], [8.839204137368284, 47.26177716483085], [8.838365220652202, 47.26196083638324], [8.83788488048813, 47.26206027267664], [8.83772467804052, 47.26211273017143], [8.837252269841875, 47.262154349378086], [8.837079664296542, 47.26216113096532], [8.836801100517892, 47.26218650614934], [8.836472879920128, 47.26223023203869], [8.836286472208661, 47.262257501752934], [8.836119666053074, 47.262299070979985], [8.836220479699222, 47.26269882891258], [8.837084147815277, 47.26265119820671], [8.837200589350472, 47.26307070735351], [8.836691022312193, 47.26319198460197], [8.836708456670431, 47.26322594878289], [8.836498573804954, 47.26327586750958], [8.835517599411354, 47.26353220057509], [8.834951011446554, 47.26362102011341], [8.834236678533314, 47.26368463826498], [8.833816969985783, 47.26358869538911], [8.8337822687937, 47.26353513971933], [8.833721133456253, 47.26355225245672], [8.833497951688296, 47.263487304075085], [8.83332175322134, 47.26353127637622], [8.833364607177444, 47.26360353508117], [8.833370832805704, 47.263644571284566], [8.833343499881607, 47.26371120255452], [8.8331788462123, 47.26387341321369], [8.833019636143028, 47.263940470393784], [8.83284298419231, 47.2640683711032], [8.832629249250841, 47.26418259646492], [8.832440975476972, 47.264305779676214], [8.832437777453876, 47.26431032576547], [8.831935373297663, 47.26462543898484], [8.831928666414386, 47.264586180726184], [8.83190661450207, 47.26450531265722], [8.831470664996136, 47.264809248073405], [8.831022542216633, 47.26508745636297], [8.830624586147922, 47.265317189451046], [8.83027869256038, 47.2655102726847], [8.83012833854811, 47.26560307317947], [8.829892132868274, 47.26577237691065], [8.829818044470594, 47.26584993476688], [8.829757303228766, 47.26593406943998], [8.829672463659241, 47.26615445080612], [8.829580086259828, 47.26655478821605], [8.829606811034457, 47.26660764957793], [8.829660027212485, 47.266702373198584], [8.829693879962823, 47.26668235316863], [8.829737225138356, 47.26667210509996], [8.829756473978621, 47.266715962611364], [8.829861289544736, 47.2669041441772], [8.829884743911716, 47.26695071046942], [8.829808227239548, 47.266968583121724], [8.829823437362759, 47.267018767300215], [8.829824181144375, 47.26709297483974], [8.829805425219316, 47.267144118270416], [8.82925310932018, 47.267614804042886], [8.829122057717782, 47.26769294056753], [8.829071248415097, 47.26764497552691], [8.829030971080316, 47.2677274143215], [8.828947056292801, 47.26783430875789], [8.828834795218967, 47.26794892177424], [8.828557113345216, 47.268201908259684], [8.82811954776982, 47.2685939288049], [8.827769298963032, 47.26891795640504], [8.82751273261095, 47.26919605432368], [8.827370989619133, 47.269417263100706], [8.827350855713988, 47.269456197218695], [8.827295879533073, 47.26962408512387], [8.825933097079155, 47.27082691614449], [8.825451201007853, 47.271271356869], [8.825310648648413, 47.27136030848862], [8.825272099244717, 47.27136659266773], [8.825376988911538, 47.2716647961928], [8.825543138667223, 47.272204082429425], [8.825670091183579, 47.2724101811137], [8.825635262534192, 47.272483917010916], [8.825830957754677, 47.272659942249845], [8.82578574339015, 47.272684955283154], [8.8252879760711, 47.27292915696903], [8.825484158479647, 47.27338801807241], [8.824671456065149, 47.27386828023421], [8.824683561502571, 47.273940506908964], [8.824693186818566, 47.27397625793615], [8.824719534374017, 47.27404670308052], [8.824755178693028, 47.27411529120562], [8.824799814401654, 47.274181459234605], [8.824853068886686, 47.27424459992017], [8.82488280170606, 47.27427487346004], [8.824890359310352, 47.27428036004705], [8.824909351275258, 47.274287922115136], [8.824925572440717, 47.274290074936296], [8.824942053574924, 47.2742890040963], [8.824962047863817, 47.27428273633353], [8.825006232857373, 47.27430964248218], [8.824774383176415, 47.27444161228409], [8.824777454237172, 47.27444993258253], [8.824808092329512, 47.27444736012072], [8.824829027467887, 47.27445136341572], [8.82484288206736, 47.27445858244432], [8.824854037687178, 47.274471303441274], [8.824856800823353, 47.27448303687109], [8.824852373479974, 47.27450902534254], [8.82485150798182, 47.27453220023892], [8.824847204062351, 47.27454868754256], [8.824838716354556, 47.27456439753989], [8.824818775892012, 47.27458547189338], [8.82477323827638, 47.27461746025544], [8.824764949666887, 47.274628112144825], [8.824736474784782, 47.274650881391345], [8.824682649506459, 47.27469814549868], [8.824633162566963, 47.27474756140558], [8.824588219115508, 47.27479888379172], [8.824567516017988, 47.27482521187842], [8.824529709961912, 47.27487907523182], [8.824496779498569, 47.274934400238536], [8.824446436249872, 47.27502926474135], [8.824430033337363, 47.27505322016703], [8.82440883359219, 47.27507875355532], [8.824375559590226, 47.2750724696182], [8.824346839315941, 47.2750888546208], [8.824314500130225, 47.27510178369207], [8.824279484337126, 47.27511089467011], [8.824237050051968, 47.27511631652342], [8.824133465313421, 47.27533242985991], [8.824345970438719, 47.27537162543034], [8.82449560021515, 47.275392586048305], [8.824537153097193, 47.275414306417204], [8.824753978321713, 47.275446774315206], [8.824764967295637, 47.275437286387515], [8.826123436724698, 47.27566366100386], [8.826135352182641, 47.275633372256614], [8.827247942165954, 47.275827960139694], [8.827703076939219, 47.275981704493816], [8.828347628309006, 47.27615513194185], [8.828380599880944, 47.27617006350956], [8.828398784400305, 47.276183122266545], [8.82841321479425, 47.276198205407276], [8.82842689574288, 47.27622359790405], [8.828430083489604, 47.276250592268134], [8.828426174104141, 47.27626848735138], [8.828417604789305, 47.27628560198667], [8.828262067466595, 47.2765299356162], [8.828137617395422, 47.27667976977482], [8.827534960520612, 47.27725774356666], [8.826719523029794, 47.278024824595256], [8.826456604393348, 47.278284193875116], [8.82629632930962, 47.278413955385325], [8.826089186313451, 47.27857295999077], [8.826035239400568, 47.27861920961151], [8.82598580600423, 47.27866772579065], [8.825955467250603, 47.278701240835815], [8.82591399934702, 47.27875311547674], [8.825290233365122, 47.27960379657392], [8.825096020290388, 47.27979117792721], [8.825421029134318, 47.280102773218765], [8.825460568508749, 47.28011959671955], [8.825248765569102, 47.2803178866173], [8.824802028306872, 47.28077786770985], [8.824664682628239, 47.2809256575097], [8.824655512987647, 47.2809456936624], [8.82465655939255, 47.28096665051181], [8.824667626665203, 47.28098610151408], [8.82468745946776, 47.28100202869708], [8.825024445526635, 47.28118465970157], [8.825625108997297, 47.281530074260175], [8.825594709275613, 47.281554189204805], [8.825721743451117, 47.28163792396832], [8.82599109774924, 47.28211324728308], [8.826030956196265, 47.282282673394306], [8.826143361572704, 47.282446377484135], [8.826188885485559, 47.28247873664616], [8.82611967837107, 47.282523433647114], [8.82621529951735, 47.282585577975674], [8.826028604986941, 47.28288500471529], [8.826400558906924, 47.2829526212068], [8.827619765013976, 47.28370007202692], [8.827780019388694, 47.28376157115506], [8.827802767448226, 47.28415516410782], [8.82883348619437, 47.2843610337634], [8.828680822176825, 47.28448859240604], [8.828639298237544, 47.284540414717284], [8.828612492422295, 47.28459137586684], [8.828596247421755, 47.28464936145006], [8.82853886827481, 47.28508437587246], [8.828518452508941, 47.2851466938654], [8.828480754624332, 47.28521092943401], [8.828441379067923, 47.28525694144999], [8.828393694506325, 47.2852991494078], [8.828140678005443, 47.285480849004074], [8.827874118548511, 47.28568681094312], [8.828121566528464, 47.2856379949472], [8.828196739144753, 47.28563141253605], [8.82828019053891, 47.28563204398053], [8.828377432395332, 47.28564339416441], [8.828864187242857, 47.28573833369266], [8.828847738779501, 47.28577937342889], [8.828966524905999, 47.28579558195346], [8.829067040544643, 47.285802160147796], [8.830213138956223, 47.28582567375322], [8.829902240112059, 47.28627699956501], [8.831007225072735, 47.28672088584346], [8.832053546852208, 47.2872876067942], [8.833308624785175, 47.28829031235637], [8.833376148224355, 47.28830103731999], [8.833470794614668, 47.28835702545319], [8.833620431342947, 47.288473331296565], [8.833872731052496, 47.28865741005558], [8.834063658111633, 47.28878175248887], [8.835020037456404, 47.28943470100235], [8.835508280135084, 47.288755110798846], [8.835705952760103, 47.28856568202508], [8.835915067055243, 47.28838964394939], [8.836917859183703, 47.2888832010061], [8.83684561976393, 47.2889716162322], [8.837110275989799, 47.289071140193464], [8.83747818083412, 47.28872474262891], [8.837520781170037, 47.28869148966058], [8.837569087334433, 47.2886620536779], [8.837647145370267, 47.28862721895936], [8.837725994061904, 47.28860388936573], [8.837781207479551, 47.28859334185082], [8.838019513411924, 47.28856024150948], [8.838107483536767, 47.28853636913435], [8.838179254835861, 47.2884947464805], [8.83821424793699, 47.288508220413355], [8.838205143111315, 47.28852352503331], [8.838202294848362, 47.28854196524915], [8.838206502212952, 47.28855821477869], [8.838218441821661, 47.28857488322505], [8.838351463649616, 47.288666223215344], [8.838413076858856, 47.28872729512514], [8.838452127758378, 47.28879113280087], [8.83847690102403, 47.28887367541165], [8.83849718879649, 47.28901607728005], [8.838494847516916, 47.28915013583445], [8.838460249088488, 47.2893982583642], [8.838440815199544, 47.2894673940114], [8.838412524731071, 47.289535089885376], [8.83883615365163, 47.28949819035829], [8.8389850078402, 47.28956141404425], [8.840601235089899, 47.288837402551174], [8.841329832819088, 47.2887229204864], [8.842309893724911, 47.288762674537445], [8.842461437947088, 47.28867824701259], [8.842579165900695, 47.2886553133215], [8.842672169208857, 47.288647433931935], [8.842614974869306, 47.28861430569713], [8.84262700289637, 47.288297502811716], [8.842743581563294, 47.288210810758855], [8.843183135432506, 47.28825907243136], [8.843590340620713, 47.28820346395035], [8.843729183263674, 47.28819466523708], [8.843840550947796, 47.28820140389991], [8.844764145531167, 47.288401566748966], [8.844903723210546, 47.28848990478403], [8.845341400886786, 47.288577143519944], [8.846468036775011, 47.28848458041962], [8.846992554651251, 47.2885061705989], [8.84726318578462, 47.28850079570566], [8.847885769593669, 47.28847041928314], [8.848153534606615, 47.28845166376913], [8.848446482692177, 47.28845582661018], [8.848584514127356, 47.28832071991575], [8.848944525414018, 47.28817041248178], [8.849194701174, 47.288299654126206], [8.849319320055269, 47.2882294275686], [8.849345256622106, 47.28818026245251], [8.849471695387958, 47.288086866945314], [8.84940494198364, 47.28795732374533], [8.849461989641279, 47.287879719482135], [8.849643359393077, 47.28789378271953], [8.849703446142192, 47.28789114919408], [8.849727630201457, 47.28787574005076], [8.84990245899781, 47.28770240767051], [8.850010055692325, 47.28762651445417], [8.849971474882953, 47.28755744814904], [8.850031359280178, 47.28749717106271], [8.850222838933862, 47.28748861974571], [8.850257589712522, 47.287448342286275], [8.850186583929823, 47.2873425199227], [8.850240597766252, 47.28730524515762], [8.8503596687506, 47.28728283574704], [8.850129760937008, 47.287123527033636], [8.850138217816225, 47.2870533542239], [8.850149301334906, 47.28703251888838], [8.850156882146376, 47.28698421686588], [8.850166319173379, 47.28686111790945], [8.850230864801796, 47.28563679812168], [8.850162317711531, 47.28552437831377], [8.850063538600104, 47.28531858164923], [8.851958341891981, 47.285141453531566], [8.851986564374926, 47.28505294727603], [8.85198519322251, 47.284871344555626], [8.851996931556146, 47.2847704367341], [8.852081056322762, 47.284607298140564], [8.85229050961435, 47.2842594649779], [8.852065483405077, 47.28397427120252], [8.851885166162957, 47.28370489299649], [8.851886629552276, 47.28358539958837], [8.852013290891879, 47.28337118204287], [8.85220439658154, 47.283084476814835], [8.852411388652436, 47.28280369350651], [8.85252721524154, 47.28267966706731], [8.852697374393129, 47.282530666955694], [8.852734551788378, 47.28250683044492], [8.852700731091758, 47.28213786195676], [8.852625810687687, 47.28207931758648], [8.853427834362963, 47.281799778615586], [8.854109701495776, 47.28155581324332], [8.854767339467987, 47.280957358051296], [8.85490914642495, 47.28098581560931], [8.855078811877538, 47.280993536655096], [8.855695724400533, 47.281226048697214], [8.855772218501743, 47.281214313284615], [8.855841879755992, 47.28126887210942], [8.856132384928383, 47.28143585506032], [8.856209209309178, 47.28150624843756], [8.856318019045505, 47.281551509590784], [8.856413467207469, 47.281641195159494], [8.856486217930804, 47.28175230030561], [8.856604717384528, 47.28181444436375], [8.856622644303105, 47.2819165080525], [8.85673798343054, 47.28193928847439], [8.856872792654586, 47.28220678946018], [8.856838323452209, 47.282252373299066], [8.856748286656691, 47.28226193759025], [8.856671285356809, 47.28229940865779], [8.85673747241717, 47.282362456308874], [8.856770110685362, 47.28245147481257], [8.856846998444492, 47.28248435392994], [8.856829815553244, 47.282549156303205], [8.85695060527622, 47.282711846858916], [8.85690924653313, 47.28276732099896], [8.857009749526283, 47.28288294218821], [8.85703333732851, 47.28296964297059], [8.85708733017389, 47.28306127734206], [8.8571494376592, 47.283119976572515], [8.857328095797577, 47.283430478147345], [8.857319053168661, 47.28350309707479], [8.857395337539828, 47.283593287566674], [8.857540277822384, 47.283669678805296], [8.857573012177149, 47.28379207098537], [8.857688591924415, 47.28408183888028], [8.857643273338585, 47.28411766099007], [8.857705875028474, 47.28419488539799], [8.857730194810737, 47.28419467601983], [8.857783916849355, 47.28415668161914], [8.857934153531497, 47.28420844805636], [8.858486763456765, 47.284671233469915], [8.85858231020465, 47.284719534981186], [8.858737834789647, 47.28478661800884], [8.858838145531152, 47.284814709479015], [8.858952553222496, 47.28491648402243], [8.859136832482095, 47.28493085618335], [8.859215774147525, 47.284976644468586], [8.859311058669395, 47.2849902237405], [8.859402219267963, 47.28503264092648], [8.859425639408238, 47.28506815625144], [8.859456268975144, 47.285170881619386], [8.859523014677146, 47.285200006560665], [8.859549793337372, 47.285247454120416], [8.859533280088923, 47.28529758536103], [8.859585091788189, 47.28535173219417], [8.859613418248408, 47.285392755538275], [8.859722171038827, 47.28542057105281], [8.859821598609534, 47.28539109823135], [8.85996998885213, 47.285432890414505], [8.860023405313235, 47.28542315498281], [8.860086217505646, 47.28538396801338], [8.860180139331117, 47.28535627181403], [8.860371725849024, 47.28521357244419], [8.860455419181056, 47.285169170826435], [8.860506784167002, 47.285176732761755], [8.860549866377974, 47.285176102499896], [8.860683678166245, 47.28512722320771], [8.860802635081006, 47.285106324682694], [8.860897270802006, 47.28506575496292], [8.860934089440098, 47.285058292903955], [8.861075615213183, 47.28509549968695], [8.861119816046067, 47.28504754569944], [8.861171720474971, 47.28506542807774], [8.861190677432381, 47.285097129881905], [8.861247851818813, 47.2851143264196], [8.861433473159737, 47.28509467370139], [8.861498599626817, 47.2851076342975], [8.861687324072719, 47.285189498722154], [8.861753136310641, 47.285183558728136], [8.861841510959561, 47.28522106074269], [8.861863704857255, 47.28521547911021], [8.861913867369077, 47.28515314734928], [8.861987712335589, 47.285150976291796], [8.862057721635068, 47.28520327816799], [8.86215343763045, 47.285213161455275], [8.86222519977086, 47.28520228987973], [8.862354189884629, 47.28515607726378], [8.862423249578828, 47.285138042902226], [8.86245494766152, 47.28512199859398], [8.862483077689365, 47.285101050676914], [8.862496395941632, 47.285079925790406], [8.862515301589474, 47.285094805541085], [8.862521817374024, 47.285116045504665], [8.862325694989222, 47.28585626358633], [8.862318866667374, 47.28590707627956], [8.862321570861555, 47.28595294931381], [8.862342516168557, 47.28602347106018], [8.862380761347328, 47.28608682516921], [8.86269196235792, 47.28643509332239], [8.86276432596512, 47.28644670405626], [8.86296538470493, 47.28645643749737], [8.863709962170596, 47.28653674916904], [8.864031186932184, 47.28660789549469], [8.86420807678057, 47.28671852803974], [8.864361670805211, 47.286800886629855], [8.86440066707002, 47.28671453830973], [8.865001698786608, 47.28675634082293], [8.865581922890648, 47.28687684200434], [8.865625866563008, 47.2868312372555], [8.865659576222306, 47.28678460771896], [8.86588869384055, 47.28637909374934], [8.865963862934997, 47.28626421109726], [8.866024372121949, 47.28618748195561], [8.866091508642759, 47.28611336953927], [8.866255401369136, 47.285963374680996], [8.866293733793764, 47.28596704690229], [8.866426024317269, 47.28599140688638], [8.866485073339527, 47.28599208807804], [8.866629368141874, 47.28596551735591], [8.866921335253624, 47.28597291218612], [8.867003711211877, 47.28604494804067], [8.867037942294877, 47.28604751062803], [8.867114734960547, 47.28600525875042], [8.86722047391298, 47.28605067383833], [8.867360060222087, 47.28601218681217], [8.867387347582874, 47.28601316210067], [8.867425151641005, 47.28604696829667], [8.86750890850731, 47.28606635114329], [8.867532261655928, 47.28606061918045], [8.867558987770746, 47.28602185722812], [8.867823825118176, 47.28597634851873], [8.867914892848955, 47.28593843533342], [8.868027295181546, 47.28593939889918], [8.86813802035983, 47.28591722755632], [8.868257852385943, 47.28595124036096], [8.868413746811635, 47.28598116221056], [8.868492138696926, 47.28597150031704], [8.86854567273895, 47.28597309450911], [8.868715388643267, 47.28595683025653], [8.86887295561987, 47.28600326568021], [8.868922870276846, 47.28599115873067], [8.869174633952317, 47.28602272448318], [8.86939757747085, 47.286072072761165], [8.869498147125627, 47.28606956544649], [8.869549395572042, 47.28607663911063], [8.869600498232412, 47.28607433165155], [8.869578602981408, 47.28608314956168], [8.869620289064512, 47.28644761778132], [8.869785501047936, 47.28661049030924], [8.869806902774291, 47.28675289179296], [8.870469262646997, 47.28694815755398], [8.873814791586312, 47.28690804893624], [8.874173098787113, 47.28631091429158], [8.87438462203074, 47.28607752440604], [8.874569431495173, 47.28584685974124], [8.87505895890883, 47.28599082649266], [8.875674754480157, 47.28563020590714], [8.8758267726694, 47.28552191575354], [8.876040691089402, 47.285333158547196], [8.876085343850379, 47.28530247431167], [8.876135215939442, 47.28527561136631], [8.876221603809553, 47.28524238279209], [8.876853673260827, 47.28506144580812], [8.877118682380283, 47.28496097393314], [8.877208044660359, 47.284915040574454], [8.877293528357363, 47.28487873637691], [8.877403595490316, 47.284841207683], [8.877562098695785, 47.28479765868828], [8.877599275904917, 47.28478200936379], [8.87763183178403, 47.284762162636355], [8.8776587913416, 47.284738733378305], [8.877679300757302, 47.28471241596009], [8.877692708312747, 47.28468404613903], [8.877698588670649, 47.28465451982721], [8.877657714151253, 47.284382954649914], [8.877652497853688, 47.28431549559713], [8.8776579110392, 47.28421813596485], [8.877685059522001, 47.28406982131132], [8.877702441553133, 47.28400793654936], [8.877729837533188, 47.28394775300337], [8.87776720306787, 47.28388958609725], [8.877808934202328, 47.28383986592113], [8.878072461572684, 47.283590129836405], [8.878109392386744, 47.28360901017178], [8.878817549921493, 47.28316663986896], [8.878890612917731, 47.283134619046145], [8.878977358913023, 47.283109956940976], [8.879061898270457, 47.2830970981012], [8.879172444838835, 47.28309121908171], [8.879221558635294, 47.283081951333116], [8.879271417530827, 47.28306453287936], [8.879314732840285, 47.28304026929334], [8.879337950731678, 47.28302178029737], [8.87934894038964, 47.28295431699299], [8.879407272057147, 47.28282320926363], [8.879452135043223, 47.282765200013905], [8.87964366323785, 47.28259514724634], [8.87975734654718, 47.28250766161351], [8.879802457574803, 47.282507331903915], [8.880226444903712, 47.282252184456844], [8.880710489949383, 47.282005513856575], [8.880879540672087, 47.28192510667179], [8.881566608196332, 47.2816627671835], [8.881993595547675, 47.28150984219323], [8.882790909642159, 47.28118368261435], [8.882732034948493, 47.28113409460949], [8.882755777628018, 47.28106622646222], [8.8825759384294, 47.280942154947425], [8.882546703521626, 47.280894517993815], [8.882545135065872, 47.28085070881721], [8.882244572832596, 47.2809263434016], [8.88207244894479, 47.28079176595902], [8.88207387450517, 47.280574645881444], [8.883515942696544, 47.28015641827558], [8.883332608175333, 47.27940486531083], [8.88347060581302, 47.27936344522597], [8.883900337368182, 47.27918922080911], [8.883948186450986, 47.279179301005705], [8.88400301416934, 47.2791756898627], [8.884057843001225, 47.279179932207335], [8.884105583805303, 47.27919042569906], [8.884185287753237, 47.27915988327434], [8.884173339900741, 47.27911847134394], [8.884217505818448, 47.2790955622265], [8.884416703609457, 47.27904867729632], [8.884724275233205, 47.27899512446606], [8.885044797533972, 47.278924369781606], [8.885074904212258, 47.27898462557121], [8.88645611308306, 47.27927317801251], [8.887364458649168, 47.279689806905694], [8.88795745050938, 47.280057514612935], [8.888217044846686, 47.280116672847264], [8.88842878226438, 47.280141644403756], [8.888819008656183, 47.28022661014579], [8.888869952574469, 47.280191451055245], [8.888991301173661, 47.280167936690994], [8.888987947278396, 47.28015300026662], [8.888911153975828, 47.28011592298955], [8.888960896157052, 47.28002001882748], [8.889099305639167, 47.27990822850706], [8.889421600937347, 47.2796628895696], [8.889637245536818, 47.279451790118266], [8.889804266758478, 47.279119063811166], [8.890224680655011, 47.27891317567246], [8.890419390660647, 47.27883710817712], [8.890600779545005, 47.27874368429769], [8.890531691285622, 47.27853933657979], [8.890508960311127, 47.27832083821325], [8.890595533151142, 47.27804338897839], [8.890626037108861, 47.27791490053316], [8.890660749527282, 47.277806510638605], [8.89067719073083, 47.27773010665584], [8.890720709969441, 47.27761503859054], [8.890812803414496, 47.277428379410686], [8.890809180074998, 47.27730490870464], [8.890819845434965, 47.27721104431835], [8.89084629016077, 47.27709421192496], [8.890910822936592, 47.27687164574587], [8.890936801726783, 47.27671388717583], [8.890955764525428, 47.27655090904192], [8.890984183343239, 47.27641192120517], [8.89093821281125, 47.276287158406326], [8.890855454436576, 47.27622552553376], [8.890562065871872, 47.276081955152094], [8.890397209194155, 47.27600819426901], [8.890217989354499, 47.27589666921528], [8.890131825464056, 47.27577585726378], [8.890117948511138, 47.275668978882514], [8.890150466235461, 47.27545509271483], [8.890154263857692, 47.27530211126464], [8.890220391416143, 47.27513331274111], [8.890570277020712, 47.2745846433964], [8.89060819467499, 47.27446637970178], [8.890556847595576, 47.27440579931083], [8.890468791785665, 47.27432763484413], [8.890428202969304, 47.27425388340283], [8.890413470721091, 47.274186040749306], [8.890437433082768, 47.274024124221135], [8.890633793843108, 47.27367209970901], [8.890672902899565, 47.27359378154544], [8.890832051385956, 47.27332189437957], [8.891123645181548, 47.272923930823644], [8.891261535949486, 47.27258016218902], [8.891277088694315, 47.27245175414184], [8.891161987041862, 47.27233112798326], [8.891030205848466, 47.27222411611997], [8.89082180265718, 47.27206993990386], [8.890793275411719, 47.27204160187651], [8.890771983753085, 47.271987713843096], [8.890774024912655, 47.271941268436926], [8.89083448002148, 47.27169050503237], [8.890930422535707, 47.271505325724796], [8.890978478054443, 47.27144012833129], [8.89108442478458, 47.271277763200324], [8.89124950839302, 47.27094549978803], [8.891281777566567, 47.27086653944566], [8.891267121027635, 47.270729119596474], [8.891249105584247, 47.270683916496196], [8.89120255034363, 47.270615233609576], [8.891109334715193, 47.2705502869394], [8.890839282002455, 47.27045203396486]]]]}}]}