{"type": "FeatureCollection", "features": [{"type": "Feature", "properties": {"bfs_nummer": 1213}, "geometry": {"type": "MultiPolygon", "coordinates": [[[[8.631354218826921, 46.84775678066927], [8.63169622014759, 46.849207663785116], [8.631789696648635, 46.849953476369926], [8.632085953146206, 46.851291742352785], [8.632256157991424, 46.851959744964674], [8.632561401774485, 46.852993299117486], [8.633062639966749, 46.85451357781817], [8.633282538243328, 46.85526877434515], [8.633483674966298, 46.856136171028346], [8.633656807647316, 46.8572417233259], [8.633786833503988, 46.857693241176065], [8.634153755663068, 46.85845940452651], [8.634449475772454, 46.858847924550005], [8.634652028231269, 46.85922221421978], [8.634789994319997, 46.85955831463087], [8.634881985864604, 46.8598622390037], [8.634966861935213, 46.8602289421999], [8.63497039826683, 46.86067773319559], [8.635023253767423, 46.86081932272685], [8.634888360528448, 46.86158939067093], [8.634357436762398, 46.86231033131909], [8.633764983848945, 46.862776703729324], [8.63307599489694, 46.8632086264276], [8.632770851172323, 46.863483681709305], [8.633973257147394, 46.863491356792316], [8.634110458669811, 46.86349455621955], [8.634247466393887, 46.863500249479145], [8.634384227702778, 46.8635084281452], [8.634520624387866, 46.86351908444803], [8.634656551774903, 46.863532228495046], [8.634791930798121, 46.863547843116116], [8.634964203760227, 46.863571618284695], [8.635135214782007, 46.8635993917568], [8.635304740406884, 46.86363113892449], [8.635472608987174, 46.86366680760048], [8.635638623053168, 46.86370636386855], [8.63580257142343, 46.86374974697206], [8.635946648147083, 46.863791331629685], [8.63608883646588, 46.86383586869566], [8.636229005052488, 46.86388335054061], [8.63636702078545, 46.8639336885976], [8.636502752366809, 46.863986875275586], [8.636636093278081, 46.86404283969874], [8.64004236096515, 46.86557824137961], [8.644669682274174, 46.86766744829296], [8.647825568191418, 46.8690891720224], [8.650751541470378, 46.870409940896224], [8.650848979292524, 46.87045233401381], [8.650992456196718, 46.870511377285894], [8.651082765423316, 46.87054652270937], [8.651219964765746, 46.870597076680596], [8.652215948280892, 46.87093020488952], [8.652769863549848, 46.871124506287224], [8.653355941158397, 46.871360305803066], [8.653820412635957, 46.87156103963966], [8.656179337341428, 46.87269365989926], [8.656304433394238, 46.87257582687912], [8.656516015447396, 46.8722509650104], [8.656962163119736, 46.87185595203971], [8.657177217115215, 46.87166095929364], [8.657295379599576, 46.87156622843291], [8.657428855196951, 46.871476911998876], [8.657492219932722, 46.87144232064489], [8.658239645018588, 46.87097519075027], [8.658507758443697, 46.871228828579184], [8.658792258293632, 46.87077552594769], [8.65963037311302, 46.86980891997197], [8.659665304835332, 46.86974701198211], [8.659874513946688, 46.869798677038986], [8.660209026063281, 46.869983850651586], [8.660726392364552, 46.87020197627605], [8.6608448925312, 46.86987416921718], [8.660971859680105, 46.86969166137246], [8.661266142678526, 46.86937227622993], [8.66118378972577, 46.869292620473594], [8.661223742996235, 46.869279769552804], [8.661195058470467, 46.86919450225238], [8.6612652057242, 46.86916651163313], [8.661524682255909, 46.86876341693878], [8.661767416021181, 46.86824999949797], [8.661896454247874, 46.86815541767586], [8.662194839832956, 46.867896364462034], [8.662191924650367, 46.8678310106405], [8.6620363153353, 46.8677041705243], [8.662010241992101, 46.86768069860257], [8.66289242643388, 46.86720076952271], [8.663529112880305, 46.867061802280666], [8.664157346483837, 46.86679422169255], [8.664675599835533, 46.866441397286444], [8.66537579203241, 46.86624105190302], [8.665759643741595, 46.86598987234347], [8.666158900595345, 46.86574425755653], [8.666842157578563, 46.86534902629915], [8.667311977137238, 46.86515242694887], [8.66761760859272, 46.86495230720154], [8.668333066162097, 46.86478184587944], [8.669872943462737, 46.864441450968926], [8.670192005327424, 46.86441720480186], [8.670200153089727, 46.8644276161301], [8.670515828587181, 46.86440689137235], [8.67050014030097, 46.86426761594843], [8.670787732762898, 46.8642142570536], [8.671321762597291, 46.86406546274518], [8.671469707024778, 46.8639705580927], [8.671821454867027, 46.86387280013667], [8.672465084642052, 46.86396282446445], [8.673196481368741, 46.86353212027584], [8.673575443072954, 46.86332425134959], [8.673823255028058, 46.8631096377123], [8.673792668735262, 46.86305938997721], [8.67388577439968, 46.863056810414754], [8.673995164521148, 46.86306082922557], [8.67454657921172, 46.86305712292081], [8.674470505008895, 46.8634020940457], [8.674763928734817, 46.863618985479725], [8.675616127659682, 46.86372401881105], [8.67606150961589, 46.8641718123494], [8.676476675943643, 46.86407434384099], [8.677092607350863, 46.86403924963938], [8.67774167390987, 46.864240182216435], [8.67789572586438, 46.86403834637388], [8.677941222386805, 46.86370610121809], [8.677990546842892, 46.86318585209984], [8.67880632158699, 46.8632384140715], [8.678953303083096, 46.86313426164477], [8.678969104089902, 46.86304359536476], [8.67888172885865, 46.862675573111254], [8.679163073068684, 46.86252030378322], [8.67911947357767, 46.86231653078047], [8.67908598329619, 46.862068790454835], [8.679327984740071, 46.862030540912606], [8.679557850575046, 46.86179193717738], [8.680132033521977, 46.86175111027292], [8.680384905170188, 46.86165370600576], [8.680578028333782, 46.861643639130826], [8.681078106330476, 46.861379201400446], [8.681404049956756, 46.86114581991839], [8.681729535326548, 46.86089101305726], [8.681584875275087, 46.860616562184866], [8.6815442779716, 46.860273418960354], [8.681783385825598, 46.86010806647804], [8.681724539279898, 46.86001734708581], [8.681755776461882, 46.85964239669522], [8.682095709178547, 46.859267499073454], [8.682296930072335, 46.85926769625022], [8.682235792932808, 46.85901653292301], [8.682220050397397, 46.858844368375856], [8.682352679142886, 46.85873514036946], [8.682675166383836, 46.85868107445832], [8.682858280817243, 46.858687288093435], [8.683222508965708, 46.85870506232378], [8.683286165885445, 46.85857159155465], [8.683469280768556, 46.85826486237644], [8.683432076199123, 46.85805801640772], [8.683545216317132, 46.85779531346429], [8.684001627311767, 46.85768853374956], [8.684602867108165, 46.857533105917845], [8.68474557427595, 46.85815636289946], [8.68490726769547, 46.858486993455735], [8.685456967305056, 46.85841742732824], [8.686649475345623, 46.858283705157874], [8.68695015560116, 46.858192179317854], [8.68704860572845, 46.8580630408112], [8.687454051055221, 46.85736244247359], [8.68787514736694, 46.856698674119585], [8.688171435182046, 46.85649695887751], [8.688501595975946, 46.85607332543576], [8.688633359732881, 46.855160310535915], [8.688935066275194, 46.85453295661709], [8.689739381111208, 46.854289472184426], [8.690152880676173, 46.854157909954914], [8.69041978557461, 46.8540712961966], [8.690577135951518, 46.85388834118512], [8.690194601207047, 46.853433896885484], [8.689978939775742, 46.85281726401207], [8.68999540404411, 46.852690629547794], [8.689954128036876, 46.852266150971765], [8.689840999134558, 46.85195709249355], [8.68992073284262, 46.851436583929676], [8.68986756836736, 46.85124523516054], [8.6904642176348, 46.851000535521806], [8.691286492944604, 46.85081732917098], [8.691558505047425, 46.850744116498355], [8.691713917296404, 46.85067229536626], [8.69195746311719, 46.850453416126186], [8.692252524463617, 46.85091460606555], [8.692432264834956, 46.85094369174475], [8.692701573769021, 46.850924554453165], [8.692895888253078, 46.85083680416315], [8.693255910306712, 46.8508017452594], [8.693730408917943, 46.85073341055749], [8.694453221743355, 46.8505617577102], [8.694705909503934, 46.850571109849625], [8.695324073866258, 46.8498272431264], [8.695531986745559, 46.84944673655331], [8.695812389144159, 46.849425715417574], [8.696012859736616, 46.84953736275164], [8.696336115226599, 46.84960723735064], [8.696660699821985, 46.84975743696518], [8.69700086743206, 46.84960663733168], [8.697470399791227, 46.84930922752877], [8.697715902285578, 46.84913665272137], [8.698322849101656, 46.84926779664061], [8.699156195119496, 46.84929814708279], [8.699424035829113, 46.84934941729568], [8.699470008119548, 46.84937843729049], [8.699439721629174, 46.84950119637241], [8.699632375559489, 46.84964596948938], [8.699968451159952, 46.84960792491574], [8.70007450007196, 46.8497871261526], [8.700231342451376, 46.84992462548947], [8.700309067128787, 46.8499146818813], [8.700508137935163, 46.850211142481136], [8.700502687830497, 46.85033889847581], [8.702307299493063, 46.84940624037767], [8.702973955369266, 46.84942639543457], [8.704371433076858, 46.84974380839105], [8.705498891222021, 46.849536550379554], [8.70751207409185, 46.84927134097119], [8.708919789643529, 46.84888370540925], [8.710826095207329, 46.84848108635635], [8.7114637918256, 46.84816361663453], [8.71200049114262, 46.8480423842759], [8.712460588672796, 46.847785945188726], [8.712806495117114, 46.84747146516478], [8.714389703740848, 46.84729754525339], [8.714466332178382, 46.846910174691516], [8.713733027343151, 46.846677453689374], [8.713884569531505, 46.84635144267813], [8.714263406312218, 46.846153730140735], [8.71446737475923, 46.84592829694964], [8.714522093629615, 46.8456191589024], [8.714251414890246, 46.8452646784301], [8.713877024745024, 46.84498829126747], [8.713087177225075, 46.844692778290856], [8.712634717899043, 46.844771690228065], [8.712325541074566, 46.84450804409325], [8.712543577189575, 46.844165087132545], [8.71261342812357, 46.84374752757363], [8.712581628668673, 46.84339598872786], [8.712478661265164, 46.84295367431676], [8.71195310697703, 46.84293355910233], [8.711860120869682, 46.842004497282225], [8.712048357074613, 46.84181479853392], [8.712595975312, 46.840658731802186], [8.713775577956874, 46.838942724632844], [8.7138368993567, 46.838655539333224], [8.714042414731281, 46.838559629825134], [8.713994658945792, 46.838435840777066], [8.713996900583803, 46.837914730268665], [8.713546747076872, 46.83756544701603], [8.713277038435917, 46.83719519884414], [8.713087708761595, 46.83667697932901], [8.712673083539437, 46.83646985870789], [8.71222562824974, 46.836039568744596], [8.71255838003052, 46.835726802094875], [8.712697375071963, 46.835203935472734], [8.712438499386563, 46.83489462443821], [8.711903246566983, 46.833838001338506], [8.710593194814544, 46.833961310909494], [8.708516458748361, 46.83414680454446], [8.706747407533571, 46.834482610712946], [8.706587666646678, 46.83435264104349], [8.706632688068009, 46.833956787387436], [8.706840750536971, 46.833524902198235], [8.706779891104572, 46.833363686925736], [8.706330772496456, 46.83289245931933], [8.706221443727365, 46.83236748009185], [8.70613128866301, 46.83213101969277], [8.705936084386332, 46.831914185039444], [8.7054582522023, 46.83157875635498], [8.704829548164806, 46.83090423599243], [8.703954816081358, 46.83072987897356], [8.703481717219129, 46.8306821690068], [8.702975499319876, 46.83080928728502], [8.702531780771341, 46.83106076037644], [8.702094511034455, 46.831159841225464], [8.700734356807056, 46.83121910660114], [8.70048954829738, 46.831121568448104], [8.699856173806033, 46.831103145888086], [8.699296936683448, 46.83071544393182], [8.699039457765416, 46.83088783029468], [8.698757572810916, 46.83099714772825], [8.698279800265716, 46.83097103437455], [8.697873734924405, 46.830972034465596], [8.697344173517395, 46.83060854856813], [8.696805614637771, 46.83026884196394], [8.69613552345883, 46.83003572588933], [8.694842634678198, 46.82973854883178], [8.694455017095533, 46.829694831266835], [8.69416074394997, 46.82961575560731], [8.693684370106071, 46.829542160164124], [8.693165129231263, 46.82947397255539], [8.69194112345453, 46.82906712234561], [8.689902323021595, 46.82918683008371], [8.68842254728447, 46.8294167672985], [8.68787577682209, 46.829578034122925], [8.68716643723653, 46.82971052221662], [8.686398527834623, 46.82960888118322], [8.685625458574874, 46.829706537082664], [8.68504486138938, 46.82985153358166], [8.68418380074893, 46.8300266197725], [8.683238297872094, 46.83032111086202], [8.682023135152026, 46.8306883407897], [8.682126821317505, 46.83162959823247], [8.682434860431526, 46.83182038794324], [8.682636094032404, 46.83207541253515], [8.682601986980705, 46.83224355597493], [8.68289009449902, 46.83248548122542], [8.682985539311145, 46.832756664988935], [8.683027611270377, 46.83308713060125], [8.682766015499071, 46.83337965387211], [8.681730221187538, 46.833672034766344], [8.681249801208597, 46.834165984841825], [8.680856425743123, 46.83441502946977], [8.680708553728682, 46.83465324129904], [8.680360329828144, 46.83486409614155], [8.679633596196743, 46.835050149623925], [8.678974412831405, 46.83483345658268], [8.67857125496721, 46.83488918614069], [8.677827876028376, 46.83507551190347], [8.677414143111553, 46.834908726524986], [8.676718973621258, 46.8349775750531], [8.676306443808361, 46.83496728474966], [8.675614463885466, 46.83510889061346], [8.675140831683173, 46.835159155988705], [8.674472726706172, 46.835378810119806], [8.674148983461803, 46.83563694260747], [8.673971100123833, 46.8358255492713], [8.673600618576408, 46.83606942434063], [8.673213349164746, 46.836307973671886], [8.671393748758405, 46.83642469427027], [8.670916920834182, 46.836411508950796], [8.670708563668883, 46.83633059036054], [8.670464070936188, 46.836330131269406], [8.66997444666279, 46.836237146820174], [8.66823584001445, 46.836064501731975], [8.667380986687128, 46.83608871502836], [8.666617564833667, 46.83615509656547], [8.665670044525777, 46.83616862581237], [8.664930126386851, 46.83621887569726], [8.66417994616722, 46.836752302951695], [8.663806659671067, 46.83672153480035], [8.663410887246158, 46.83678567702811], [8.662326288115848, 46.837341723832154], [8.661706976014807, 46.837598309211316], [8.661255462160623, 46.83781305544069], [8.660802744961742, 46.83782473998033], [8.660319828479611, 46.837919496653456], [8.660000214945784, 46.83812524638417], [8.65818069299985, 46.83871095312443], [8.65733222300038, 46.839193211236044], [8.657526786362247, 46.84043865764529], [8.657393875978405, 46.841238968084426], [8.657305032183832, 46.842010037419676], [8.655990100328033, 46.84239177388269], [8.655598921037102, 46.84240141334151], [8.655009758036451, 46.8423529322323], [8.654371563993152, 46.84230815243382], [8.653783394416521, 46.84219036274279], [8.652787891637546, 46.84229243689827], [8.65154970733085, 46.84247583990952], [8.650550040886678, 46.842422331746846], [8.649935328673925, 46.842665095548845], [8.648709629977565, 46.84322660461407], [8.648077612786974, 46.84335264528889], [8.646152896915304, 46.84475164427602], [8.645291426043233, 46.844918959873766], [8.645149997580742, 46.84458525566549], [8.645017810299963, 46.844286467763496], [8.644884217132034, 46.84396875712954], [8.644837551740276, 46.84384872474223], [8.64468510247471, 46.843408511028606], [8.64460740979424, 46.843419874132515], [8.644582668013358, 46.84324307718889], [8.644565113930138, 46.84317526761498], [8.644113580753674, 46.84324177982487], [8.643242364541262, 46.843340492984694], [8.643218764483127, 46.84333933816995], [8.643198132451179, 46.84333136880087], [8.643184423246485, 46.84331812658927], [8.643180291500887, 46.843301643752575], [8.6431849796155, 46.84328849560485], [8.642530590185132, 46.84314006443014], [8.642658581069337, 46.84287441197556], [8.642620624751618, 46.842817576602386], [8.642576443811361, 46.842869932920834], [8.642553288938018, 46.84291154210472], [8.64251989674494, 46.84294975046732], [8.642499676045148, 46.842967200434146], [8.642452970561495, 46.84299813593701], [8.642399128071366, 46.843023010994074], [8.642339783545598, 46.84304106170808], [8.642308614292842, 46.84304734542826], [8.642237681415407, 46.8430537598046], [8.642201896622485, 46.843054163451484], [8.642130686775815, 46.843049362176195], [8.642061370471925, 46.84303718188725], [8.641853730129863, 46.84298334647034], [8.641643363069404, 46.84292188343687], [8.64158453838062, 46.842912741223735], [8.64131794284607, 46.84276698820839], [8.641244455414569, 46.84271713847741], [8.639977015197521, 46.84217452082137], [8.639860993297106, 46.84222084766034], [8.639689277321615, 46.84283969536461], [8.639185643886353, 46.84454924943201], [8.638738270205925, 46.84615594825158], [8.638139995672047, 46.84839100507114], [8.638029961839361, 46.84882623406997], [8.6380157069442, 46.84898036546296], [8.638018062034249, 46.84913550123295], [8.638040254915609, 46.84926936837342], [8.637967252729547, 46.84926686827683], [8.637929347378467, 46.84930411494412], [8.63786950573217, 46.849322006481515], [8.63780251753843, 46.849317527024894], [8.636806831936589, 46.849065188270735], [8.63565472981845, 46.848762506166295], [8.635447017034013, 46.84869313198698], [8.635249784117292, 46.84860026624694], [8.634557781672102, 46.848210261363995], [8.634272769637766, 46.84802496560176], [8.634126639288091, 46.847960388003465], [8.633845484072234, 46.84786422284187], [8.632774763500068, 46.84780932125434], [8.632823726708125, 46.84759836701082], [8.632878736564688, 46.847388105287], [8.632939808510764, 46.84717864387565], [8.633007420197965, 46.84696846637247], [8.633081123637382, 46.846759250779165], [8.63316088142317, 46.84655108742921], [8.632771177696739, 46.84646011996044], [8.632056975308526, 46.846279722775854], [8.631914122162318, 46.84649457124369], [8.63178133740612, 46.84674665850275], [8.631741060040538, 46.84685743710659], [8.631477988046079, 46.846827784701624], [8.631354218826921, 46.84775678066927]]]]}}]}