{
  "type": "FeatureCollection",
  "features": [
    {
      "type": "Feature",
      "properties": {
        "bfs_nummer": 1331
      },
      "geometry": {
        "type": "LineString",
        "coordinates": [
          [
            8.389433870496337,
            47.06808422014483
          ],
          [
            8.389167852487104,
            47.068691557788526
          ],
          [
            8.389021583186034,
            47.069466553925004
          ],
          [
            8.388751536973889,
            47.069742443899614
          ],
          [
            8.388922509510795,
            47.070382624447035
          ],
          [
            8.389159263362586,
            47.0706772962081
          ],
          [
            8.389557702050439,
            47.07072239485057
          ],
          [
            8.390120075767252,
            47.070974445955194
          ],
          [
            8.390806704238615,
            47.07131453908127
          ],
          [
            8.390989842097419,
            47.07144522953353
          ],
          [
            8.39113394768831,
            47.07158366475646
          ],
          [
            8.391539736561496,
            47.0717151435836
          ],
          [
            8.391990895531984,
            47.07194041964227
          ],
          [
            8.392261186744324,
            47.07210872407569
          ],
          [
            8.392763994672832,
            47.07228381353037
          ],
          [
            8.394323851004335,
            47.07257614893262
          ],
          [
            8.394828096292127,
            47.07270642823184
          ],
          [
            8.3948925006605,
            47.07278865187172
          ],
          [
            8.395255728514964,
            47.07317855652753
          ],
          [
            8.395505673376581,
            47.07337599776609
          ],
          [
            8.3956181203934,
            47.07355083558109
          ],
          [
            8.395740687860867,
            47.073890568753704
          ],
          [
            8.396395740655345,
            47.07421398013944
          ],
          [
            8.396475624772899,
            47.07423967125504
          ],
          [
            8.396783735063595,
            47.074402981085555
          ],
          [
            8.397049866469251,
            47.074474777004085
          ],
          [
            8.397279798135033,
            47.07460456337009
          ],
          [
            8.397584634677816,
            47.074923963531255
          ],
          [
            8.398231179669793,
            47.07528567600052
          ],
          [
            8.399630679537543,
            47.07529365926136
          ],
          [
            8.399834461713134,
            47.07533704040744
          ],
          [
            8.400064905998164,
            47.075460313127635
          ],
          [
            8.40015963094529,
            47.07559378006774
          ],
          [
            8.400828243304892,
            47.07599724897483
          ],
          [
            8.400997098698046,
            47.076103917014315
          ],
          [
            8.401344794776408,
            47.076211038237986
          ],
          [
            8.401898706850728,
            47.076522258446595
          ],
          [
            8.402762887674555,
            47.0770486926401
          ],
          [
            8.403119684062816,
            47.077258543229846
          ],
          [
            8.403144643041236,
            47.07724421053869
          ],
          [
            8.40392205292408,
            47.07769366035153
          ],
          [
            8.404149496598361,
            47.07783348415424
          ],
          [
            8.405437686214409,
            47.07855474168811
          ],
          [
            8.406118224047056,
            47.0788544051537
          ],
          [
            8.406221892371157,
            47.078893418683464
          ],
          [
            8.406484590541448,
            47.07889854624246
          ],
          [
            8.406583620183802,
            47.07907446706554
          ],
          [
            8.4070106423246,
            47.07944517658588
          ],
          [
            8.407092419476749,
            47.079547235337344
          ],
          [
            8.407122476869327,
            47.07965037773737
          ],
          [
            8.407140341127233,
            47.07979293382938
          ],
          [
            8.407177742542133,
            47.07994831489635
          ],
          [
            8.407165793343221,
            47.07997354043209
          ],
          [
            8.407085789628052,
            47.08023940606312
          ],
          [
            8.40707755259047,
            47.08040597561398
          ],
          [
            8.40709643246894,
            47.08072283143934
          ],
          [
            8.407962680274107,
            47.08132856002827
          ],
          [
            8.4081060639319,
            47.08120397511079
          ],
          [
            8.408366067787917,
            47.08134343494435
          ],
          [
            8.408578148764114,
            47.08170478019709
          ],
          [
            8.408455078638402,
            47.08187778860146
          ],
          [
            8.408864397359245,
            47.08215537405998
          ],
          [
            8.40906735994041,
            47.08236766587344
          ],
          [
            8.408796845348654,
            47.08252756292423
          ],
          [
            8.408795734622474,
            47.08268303474553
          ],
          [
            8.40885103976904,
            47.082810017771315
          ],
          [
            8.409155244632439,
            47.083079377255
          ],
          [
            8.409252515311616,
            47.0832663392535
          ],
          [
            8.409331999658662,
            47.08351830991415
          ],
          [
            8.40912604093954,
            47.08386315202902
          ],
          [
            8.409212210415832,
            47.08446468124831
          ],
          [
            8.409158522263636,
            47.08469555769976
          ],
          [
            8.409284703926959,
            47.0848250632415
          ],
          [
            8.409881720492583,
            47.08502987688093
          ],
          [
            8.41021182907346,
            47.0853984252559
          ],
          [
            8.410360985429095,
            47.0855273035592
          ],
          [
            8.410587844925537,
            47.08569677830428
          ],
          [
            8.410687546672262,
            47.08593809704571
          ],
          [
            8.410170831615517,
            47.08656036777429
          ],
          [
            8.410054479868341,
            47.086557924217495
          ],
          [
            8.409694566540795,
            47.08851605657168
          ],
          [
            8.409139232278863,
            47.08890746104147
          ],
          [
            8.409579882930574,
            47.089333009126854
          ],
          [
            8.409508942682836,
            47.08952346102445
          ],
          [
            8.410147897362062,
            47.09078485893071
          ],
          [
            8.409845159295873,
            47.09082519970197
          ],
          [
            8.409733384229366,
            47.09111148523072
          ],
          [
            8.409470129278887,
            47.09136108906637
          ],
          [
            8.409506498749058,
            47.09171826738081
          ],
          [
            8.409244679957718,
            47.09185829196402
          ],
          [
            8.409303777623323,
            47.09200936879919
          ],
          [
            8.40940244754272,
            47.092228298022114
          ],
          [
            8.409399733244875,
            47.09271111531307
          ],
          [
            8.40981058756791,
            47.0930904068562
          ],
          [
            8.409894068455994,
            47.09333591109673
          ],
          [
            8.410023264619104,
            47.093499699540544
          ],
          [
            8.41216119287901,
            47.09481198585397
          ],
          [
            8.413207050774771,
            47.09530650621081
          ],
          [
            8.413623843652807,
            47.0955426137819
          ],
          [
            8.414127647797692,
            47.09593009703717
          ],
          [
            8.414689762606669,
            47.09630098072311
          ],
          [
            8.415252874721373,
            47.097036984991526
          ],
          [
            8.415606031890675,
            47.09729514373838
          ],
          [
            8.416048541219979,
            47.09767585330064
          ],
          [
            8.416439343481626,
            47.097916030956114
          ],
          [
            8.41734897848567,
            47.099100475779686
          ],
          [
            8.417807996543964,
            47.099463946394984
          ],
          [
            8.418009186594167,
            47.09967461834558
          ],
          [
            8.418364359858208,
            47.10007162572371
          ],
          [
            8.418690393970405,
            47.10038774013168
          ],
          [
            8.420417730776549,
            47.1016735819774
          ],
          [
            8.42058153716916,
            47.10179146428902
          ],
          [
            8.420725573747278,
            47.10187649243521
          ],
          [
            8.420856844354287,
            47.101960765927345
          ],
          [
            8.421274998633251,
            47.101971152674125
          ],
          [
            8.421661420548764,
            47.10226470319458
          ],
          [
            8.421852432041218,
            47.10250943196752
          ],
          [
            8.422074543687716,
            47.10255354414479
          ],
          [
            8.422275366838942,
            47.10276492251081
          ],
          [
            8.422470165106056,
            47.10287624898501
          ],
          [
            8.422601256758426,
            47.10298564677212
          ],
          [
            8.42301828201521,
            47.10313850034715
          ],
          [
            8.423238276370435,
            47.10323424523038
          ],
          [
            8.423504886719192,
            47.103319443200995
          ],
          [
            8.423694144455181,
            47.10350394039931
          ],
          [
            8.423992496661723,
            47.10365875207398
          ],
          [
            8.424236080653676,
            47.10382056346895
          ],
          [
            8.42471759557695,
            47.10389331872532
          ],
          [
            8.425279096575071,
            47.10403626176529
          ],
          [
            8.425666735299654,
            47.104097755794214
          ],
          [
            8.425899839004957,
            47.1042602654086
          ],
          [
            8.426198345929134,
            47.10430208522824
          ],
          [
            8.426350282489427,
            47.104431018062506
          ],
          [
            8.426585696502773,
            47.1044163828856
          ],
          [
            8.42687480373873,
            47.1044699400662
          ],
          [
            8.42723163095687,
            47.10443571060171
          ],
          [
            8.427531816763306,
            47.10453840382397
          ],
          [
            8.427798249090507,
            47.10453329549752
          ],
          [
            8.428379610027783,
            47.10472563637707
          ],
          [
            8.428854683270462,
            47.10501938909283
          ],
          [
            8.428998911387078,
            47.105122855338315
          ],
          [
            8.429211166825876,
            47.10502487209391
          ],
          [
            8.429564536477237,
            47.10498664416362
          ],
          [
            8.429746867300317,
            47.105176975448146
          ],
          [
            8.430188316014085,
            47.10527279431606
          ],
          [
            8.430499334922862,
            47.10533025539734
          ],
          [
            8.43057291258987,
            47.10539546831299
          ],
          [
            8.431135402491057,
            47.10543075087067
          ],
          [
            8.431514064022918,
            47.10577758074435
          ],
          [
            8.431709833495741,
            47.10571716604638
          ],
          [
            8.4322331353314,
            47.10583506474373
          ],
          [
            8.432519536771764,
            47.10570650595837
          ],
          [
            8.432771750407321,
            47.10591824047914
          ],
          [
            8.432521714961853,
            47.10605903430687
          ],
          [
            8.432570898089837,
            47.10608673828822
          ],
          [
            8.433099123215634,
            47.10605290642059
          ],
          [
            8.433259851660177,
            47.105878529930756
          ],
          [
            8.433529374854304,
            47.10587634117242
          ],
          [
            8.433545303243172,
            47.105755698001765
          ],
          [
            8.43372267846815,
            47.10573574843902
          ],
          [
            8.433730098446816,
            47.10592812744976
          ],
          [
            8.43410230051481,
            47.10586164721424
          ],
          [
            8.434297098086658,
            47.10609222676526
          ],
          [
            8.434795729162621,
            47.10612704613084
          ],
          [
            8.434986409093037,
            47.106025452015
          ],
          [
            8.435070256405083,
            47.10608852206835
          ],
          [
            8.435085903267543,
            47.1063319428023
          ],
          [
            8.435320399252042,
            47.106496391513424
          ],
          [
            8.435585356837572,
            47.10636691355168
          ],
          [
            8.435985209899023,
            47.10641625786674
          ],
          [
            8.435967514358255,
            47.10654714475724
          ],
          [
            8.436165154260737,
            47.10651300042256
          ],
          [
            8.436338883321241,
            47.1062561158452
          ],
          [
            8.43671610548062,
            47.106296496517054
          ],
          [
            8.436968719808256,
            47.10615250461966
          ],
          [
            8.437368857522864,
            47.10625671493998
          ],
          [
            8.437383922776371,
            47.1064125321353
          ],
          [
            8.437265696139175,
            47.10664273186205
          ],
          [
            8.437740267585347,
            47.106711706010415
          ],
          [
            8.437557310667609,
            47.10692422556237
          ],
          [
            8.437336409975208,
            47.1069842299106
          ],
          [
            8.43736997693885,
            47.10708226037561
          ],
          [
            8.437113963180714,
            47.10714370283657
          ],
          [
            8.437243480355956,
            47.107256219310024
          ],
          [
            8.437133947607272,
            47.107374032992595
          ],
          [
            8.436863828492369,
            47.10736090678619
          ],
          [
            8.43677433763324,
            47.10760900951099
          ],
          [
            8.437042311230284,
            47.10794247956023
          ],
          [
            8.43692620524903,
            47.108068248259826
          ],
          [
            8.437105387844856,
            47.10843622285588
          ],
          [
            8.437150792637853,
            47.10893257539354
          ],
          [
            8.437498994243425,
            47.10931075725614
          ],
          [
            8.437932573440904,
            47.109554260121826
          ],
          [
            8.438343932470593,
            47.10950634371974
          ],
          [
            8.438438421747591,
            47.10960962814891
          ],
          [
            8.438462537819635,
            47.10967620184089
          ],
          [
            8.438565222047053,
            47.10974977432571
          ],
          [
            8.438666423556228,
            47.10979119129351
          ],
          [
            8.438719400820917,
            47.10992438724815
          ],
          [
            8.4387981763393,
            47.10996294970483
          ],
          [
            8.438929706676637,
            47.109951963944766
          ],
          [
            8.439005004753522,
            47.109878372180866
          ],
          [
            8.439055404457962,
            47.109812796271385
          ],
          [
            8.439129796864098,
            47.109817024395866
          ],
          [
            8.439222501575037,
            47.11000454969013
          ],
          [
            8.43930798824516,
            47.11008141968838
          ],
          [
            8.439419655629552,
            47.110127215708694
          ],
          [
            8.439525813932258,
            47.11012919696135
          ],
          [
            8.439641188969542,
            47.11014422245799
          ],
          [
            8.439741524877437,
            47.11020621900441
          ],
          [
            8.439783119536282,
            47.11025190529814
          ],
          [
            8.439918496306083,
            47.110288777578596
          ],
          [
            8.439965318065648,
            47.11032719479307
          ],
          [
            8.439947404731997,
            47.11045514258572
          ],
          [
            8.439954651991219,
            47.11064550767685
          ],
          [
            8.439975765527837,
            47.11067186082088
          ],
          [
            8.440037817326433,
            47.110697470505315
          ],
          [
            8.440176278865048,
            47.110626512136186
          ],
          [
            8.440309124584653,
            47.11060123730316
          ],
          [
            8.440407447452634,
            47.110611157194995
          ],
          [
            8.440422150152806,
            47.11073365731917
          ],
          [
            8.440450214789577,
            47.11075051339387
          ],
          [
            8.440509276004429,
            47.11076556104833
          ],
          [
            8.440606788586992,
            47.1107434094612
          ],
          [
            8.440801033455456,
            47.11062852422194
          ],
          [
            8.440880020863625,
            47.11059516344904
          ],
          [
            8.440901256058618,
            47.11059137104823
          ],
          [
            8.440941042686479,
            47.11060443659047
          ],
          [
            8.441091921588972,
            47.11079861364072
          ],
          [
            8.44148058688688,
            47.11095354628763
          ],
          [
            8.441526480789424,
            47.111007767276284
          ],
          [
            8.44178382557552,
            47.111208094035625
          ],
          [
            8.441921386400798,
            47.11142471336277
          ],
          [
            8.442089054792374,
            47.11140414309978
          ],
          [
            8.442184329097202,
            47.11140315842036
          ],
          [
            8.442297326796838,
            47.111440205314175
          ],
          [
            8.4424935163744,
            47.11142564637496
          ],
          [
            8.442652094288889,
            47.11141218925128
          ],
          [
            8.442762107415046,
            47.111432691828256
          ],
          [
            8.442738291783508,
            47.11153925507784
          ],
          [
            8.442898679940937,
            47.11163008601235
          ],
          [
            8.44309063294271,
            47.11161021067822
          ],
          [
            8.443211542809362,
            47.11157444895739
          ],
          [
            8.44347847704897,
            47.11144393719673
          ],
          [
            8.444716552833068,
            47.11145060402712
          ],
          [
            8.444922177965747,
            47.111462792291
          ],
          [
            8.445606261787766,
            47.111244567790386
          ],
          [
            8.445746260510317,
            47.11128232830505
          ],
          [
            8.44601356495657,
            47.11127071150331
          ],
          [
            8.446130919369987,
            47.11124571861838
          ],
          [
            8.44643359448971,
            47.11121406340377
          ],
          [
            8.4465119395756,
            47.11118942113171
          ],
          [
            8.446693147885624,
            47.11116588278451
          ],
          [
            8.446849407296579,
            47.11115604742763
          ],
          [
            8.446931271678164,
            47.11113148194582
          ],
          [
            8.447289212178497,
            47.111095156703406
          ],
          [
            8.447377381666415,
            47.111066766405294
          ],
          [
            8.44760732561948,
            47.111068238538444
          ],
          [
            8.447686694996998,
            47.11107982985041
          ],
          [
            8.447669441595972,
            47.11117538893303
          ],
          [
            8.447731713676822,
            47.11114390630904
          ],
          [
            8.448155750838163,
            47.11117211744146
          ],
          [
            8.448297530618778,
            47.11120081861228
          ],
          [
            8.448424592093954,
            47.111256069069285
          ],
          [
            8.448624209078202,
            47.11136681461512
          ],
          [
            8.449308335660128,
            47.11337282642503
          ],
          [
            8.450007648525318,
            47.11442437241105
          ],
          [
            8.45194780646534,
            47.11413792117209
          ],
          [
            8.453080072333819,
            47.11396805524918
          ],
          [
            8.454709369053404,
            47.11346029972139
          ],
          [
            8.4548112537685,
            47.113408870619885
          ],
          [
            8.455383747305532,
            47.11340346643671
          ],
          [
            8.455382042708026,
            47.11334003530494
          ],
          [
            8.456899411374373,
            47.11288345189804
          ],
          [
            8.457265627734992,
            47.1124172106956
          ],
          [
            8.45810562898494,
            47.11261343409167
          ],
          [
            8.459244245606833,
            47.113083913235414
          ],
          [
            8.459620678449776,
            47.11270255549568
          ],
          [
            8.45972936079522,
            47.11233403715385
          ],
          [
            8.459853486136208,
            47.111931719766986
          ],
          [
            8.461218520829437,
            47.11218057495207
          ],
          [
            8.461312316122592,
            47.112031636186224
          ],
          [
            8.461569638498615,
            47.1121030838175
          ],
          [
            8.461543435478665,
            47.111750039973266
          ],
          [
            8.46144683464585,
            47.11139101073679
          ],
          [
            8.462283431883177,
            47.11137668175764
          ],
          [
            8.46231948577303,
            47.111338210125915
          ],
          [
            8.462779659975599,
            47.11132075241323
          ],
          [
            8.463194976300823,
            47.11122382032474
          ],
          [
            8.463903007618393,
            47.1111310229024
          ],
          [
            8.464348332844086,
            47.11096782682635
          ],
          [
            8.46484977526067,
            47.111010380335664
          ],
          [
            8.46531012434635,
            47.11121812607619
          ],
          [
            8.46551880937496,
            47.11129416428746
          ],
          [
            8.465740807519305,
            47.111285883841944
          ],
          [
            8.46588657497222,
            47.11132686079406
          ],
          [
            8.466347541609244,
            47.11137549075989
          ],
          [
            8.467236997005655,
            47.11165117677049
          ],
          [
            8.468040497628493,
            47.111967368574206
          ],
          [
            8.468611595083003,
            47.11211427024742
          ],
          [
            8.469199894797267,
            47.112262715055486
          ],
          [
            8.470598451907383,
            47.11277761905226
          ],
          [
            8.470824151899048,
            47.11209673512691
          ],
          [
            8.471122485536638,
            47.112117156618176
          ],
          [
            8.471202018308551,
            47.11169044367404
          ],
          [
            8.471585339788199,
            47.111799724234295
          ],
          [
            8.472109207554078,
            47.111853082312564
          ],
          [
            8.47256555448107,
            47.11196356513032
          ],
          [
            8.47257976274939,
            47.111968537867114
          ],
          [
            8.4731091123055,
            47.11223057747067
          ],
          [
            8.473408156921518,
            47.11226793447036
          ],
          [
            8.473662427809261,
            47.11220643571146
          ],
          [
            8.473770171121433,
            47.112156475098416
          ],
          [
            8.474071442284679,
            47.11202473679932
          ],
          [
            8.475353579425049,
            47.11136689527987
          ],
          [
            8.475394422761157,
            47.11121348358227
          ],
          [
            8.475432625292495,
            47.110977416487756
          ],
          [
            8.475429238399402,
            47.11085892009838
          ],
          [
            8.475406468998681,
            47.110726808174874
          ],
          [
            8.475337919305199,
            47.11050384809039
          ],
          [
            8.475300413064117,
            47.11032988626189
          ],
          [
            8.475272621600594,
            47.11015474832443
          ],
          [
            8.475265525797523,
            47.10997325269572
          ],
          [
            8.475275956384028,
            47.10979390188295
          ],
          [
            8.475285653909236,
            47.10949155085527
          ],
          [
            8.475355728045255,
            47.10900419896506
          ],
          [
            8.475318617939717,
            47.10863276049257
          ],
          [
            8.475323910196648,
            47.10848000219734
          ],
          [
            8.47539135333126,
            47.10798818504858
          ],
          [
            8.475431717977791,
            47.10784966535811
          ],
          [
            8.47556649565759,
            47.107591811855244
          ],
          [
            8.475695756345324,
            47.107421337979304
          ],
          [
            8.476005201864645,
            47.10709960367828
          ],
          [
            8.47604375814877,
            47.10701070221642
          ],
          [
            8.476061478484283,
            47.10693377315062
          ],
          [
            8.476057057876027,
            47.10685653117882
          ],
          [
            8.476023427033207,
            47.10675342041405
          ],
          [
            8.47606708284407,
            47.10665572011091
          ],
          [
            8.476270290989834,
            47.106136814023
          ],
          [
            8.493054282543552,
            47.10017957390211
          ],
          [
            8.507948807053031,
            47.09488982771074
          ],
          [
            8.487162864839133,
            47.078940847769765
          ],
          [
            8.487106118851854,
            47.07868960164653
          ],
          [
            8.48711350855294,
            47.07795921409897
          ],
          [
            8.487135950030206,
            47.07786172019815
          ],
          [
            8.487200856011853,
            47.07776741897768
          ],
          [
            8.48721541293223,
            47.07771924877571
          ],
          [
            8.487211672856153,
            47.0776647056831
          ],
          [
            8.487261093561331,
            47.077579208687325
          ],
          [
            8.487310783955357,
            47.07753375829988
          ],
          [
            8.487335774354706,
            47.07748311794858
          ],
          [
            8.48737663116552,
            47.07743846783703
          ],
          [
            8.487389125793548,
            47.077331340273005
          ],
          [
            8.487412808052602,
            47.077213171721986
          ],
          [
            8.487376046015623,
            47.07718845418786
          ],
          [
            8.487229477052804,
            47.07715378225853
          ],
          [
            8.487119248075556,
            47.07715119914513
          ],
          [
            8.48706163053837,
            47.07711584998106
          ],
          [
            8.487007593505373,
            47.07704945974632
          ],
          [
            8.486903645793841,
            47.07689198418277
          ],
          [
            8.486780867972797,
            47.0766489598059
          ],
          [
            8.486686248315976,
            47.07642835667895
          ],
          [
            8.486584424203114,
            47.076271626088136
          ],
          [
            8.486316309017548,
            47.07603572033206
          ],
          [
            8.486262140488721,
            47.07588837814952
          ],
          [
            8.486269302301826,
            47.0758505666417
          ],
          [
            8.486397779293629,
            47.075692130992564
          ],
          [
            8.486302929512302,
            47.075549198989364
          ],
          [
            8.486188153293899,
            47.07549163844443
          ],
          [
            8.485780607435194,
            47.07526905727527
          ],
          [
            8.485583448852088,
            47.07513094349559
          ],
          [
            8.485349062014018,
            47.075017565125734
          ],
          [
            8.485221580404561,
            47.074986270067285
          ],
          [
            8.485208721376017,
            47.07482266448492
          ],
          [
            8.48498611030873,
            47.0747228696301
          ],
          [
            8.484813395335813,
            47.07469611522313
          ],
          [
            8.484640385221734,
            47.07457999041921
          ],
          [
            8.484063914972051,
            47.07415086062949
          ],
          [
            8.483655540103602,
            47.07372872673462
          ],
          [
            8.483476521580759,
            47.073524946254736
          ],
          [
            8.483400325735518,
            47.07330620588985
          ],
          [
            8.483257869522024,
            47.073079171309246
          ],
          [
            8.483276053292814,
            47.07281832690846
          ],
          [
            8.483249192873563,
            47.07272847869921
          ],
          [
            8.483261530580819,
            47.07258590069123
          ],
          [
            8.483297250656193,
            47.072339820726555
          ],
          [
            8.483335445104105,
            47.0721437076553
          ],
          [
            8.483452689848427,
            47.07197240545592
          ],
          [
            8.483408397922348,
            47.0718508708515
          ],
          [
            8.483325319541985,
            47.07180246470724
          ],
          [
            8.483245947070083,
            47.07173070779308
          ],
          [
            8.483137663385685,
            47.07155975663998
          ],
          [
            8.482901375967119,
            47.07130852166147
          ],
          [
            8.482835096288293,
            47.07120721130443
          ],
          [
            8.482800685391842,
            47.07107438691105
          ],
          [
            8.482851502375595,
            47.070941552318644
          ],
          [
            8.48280634502659,
            47.070860650193254
          ],
          [
            8.48278279719109,
            47.070737982194146
          ],
          [
            8.482772088547105,
            47.07060052538372
          ],
          [
            8.482787659919945,
            47.07043329657612
          ],
          [
            8.4828020784196,
            47.070362368861
          ],
          [
            8.482867482103423,
            47.07025043371103
          ],
          [
            8.482833519217028,
            47.070093262702905
          ],
          [
            8.48281126211492,
            47.07003685472923
          ],
          [
            8.482861747370091,
            47.06989582797117
          ],
          [
            8.483004449723442,
            47.069533098728186
          ],
          [
            8.482992829512312,
            47.06948675027555
          ],
          [
            8.482978869176758,
            47.06945815374788
          ],
          [
            8.482852247097162,
            47.069364102895435
          ],
          [
            8.482849796903524,
            47.06908551740735
          ],
          [
            8.482941438153176,
            47.06891742595218
          ],
          [
            8.483043880077714,
            47.06880704297368
          ],
          [
            8.4832145799807,
            47.068638133366676
          ],
          [
            8.483205541411998,
            47.06858778531854
          ],
          [
            8.483188008168883,
            47.068104116567454
          ],
          [
            8.483295111840581,
            47.06782495734829
          ],
          [
            8.48336872977578,
            47.067721277177185
          ],
          [
            8.483386424430362,
            47.06761585675058
          ],
          [
            8.483389812658624,
            47.06749514771873
          ],
          [
            8.483619447098468,
            47.0673044442788
          ],
          [
            8.483632142183907,
            47.06714046186294
          ],
          [
            8.483688656739593,
            47.067063825431475
          ],
          [
            8.483825700607358,
            47.06676337005333
          ],
          [
            8.483971012805686,
            47.06635293790061
          ],
          [
            8.484051172225186,
            47.066298629444056
          ],
          [
            8.484083612454434,
            47.06600897619079
          ],
          [
            8.48412024961956,
            47.06595281491677
          ],
          [
            8.484161422734084,
            47.06591997435225
          ],
          [
            8.484202814492315,
            47.06591252684333
          ],
          [
            8.484229351991361,
            47.065887339963325
          ],
          [
            8.484251691325774,
            47.065833206924935
          ],
          [
            8.484286035913822,
            47.065789795482885
          ],
          [
            8.484270261625028,
            47.06558783110703
          ],
          [
            8.484211181758374,
            47.065520639841736
          ],
          [
            8.484077681222589,
            47.065412403649404
          ],
          [
            8.484065977375787,
            47.065336783784346
          ],
          [
            8.484025850165008,
            47.06515787232062
          ],
          [
            8.48405114607689,
            47.06501027331068
          ],
          [
            8.48411743434192,
            47.06483614140795
          ],
          [
            8.484136622235162,
            47.06459744379976
          ],
          [
            8.48412155549794,
            47.06454447891394
          ],
          [
            8.48411217103424,
            47.06437714400429
          ],
          [
            8.484154765536196,
            47.064260620786264
          ],
          [
            8.484265869139584,
            47.06399752633939
          ],
          [
            8.484310394984217,
            47.06393754190073
          ],
          [
            8.484356196695064,
            47.063820800475405
          ],
          [
            8.484363044021872,
            47.06373920041643
          ],
          [
            8.484327197543774,
            47.06358536622467
          ],
          [
            8.48451530305263,
            47.063483071462414
          ],
          [
            8.48465731863124,
            47.0632337014545
          ],
          [
            8.484711312802846,
            47.063175267827965
          ],
          [
            8.484763999803128,
            47.06303499350483
          ],
          [
            8.484899292691138,
            47.062802164659146
          ],
          [
            8.484821334791535,
            47.06269370213339
          ],
          [
            8.484949835023114,
            47.062469040280256
          ],
          [
            8.485029751534142,
            47.06221306587086
          ],
          [
            8.485239664758266,
            47.06207166437153
          ],
          [
            8.485328261031304,
            47.061818039468065
          ],
          [
            8.485341621232402,
            47.06147939746342
          ],
          [
            8.485482170812412,
            47.061289591684194
          ],
          [
            8.485510778226494,
            47.061174355801825
          ],
          [
            8.48557228073043,
            47.06080615546387
          ],
          [
            8.485628453472495,
            47.060638330751694
          ],
          [
            8.485715775910405,
            47.06041137155603
          ],
          [
            8.485777585860628,
            47.06021812723519
          ],
          [
            8.485761946266482,
            47.06015269957929
          ],
          [
            8.485785160662113,
            47.05982539216324
          ],
          [
            8.485826037122303,
            47.05955587450063
          ],
          [
            8.485774528552682,
            47.05937529503888
          ],
          [
            8.48573975030476,
            47.05928701268398
          ],
          [
            8.485834335244661,
            47.056956142037
          ],
          [
            8.485812989878546,
            47.056948330451235
          ],
          [
            8.485341508530038,
            47.056969901220306
          ],
          [
            8.485180413551404,
            47.05693399209548
          ],
          [
            8.4852883462858,
            47.05678194201536
          ],
          [
            8.484834265683565,
            47.056617166245864
          ],
          [
            8.484737645282502,
            47.05655156766229
          ],
          [
            8.48447761523934,
            47.056620145380556
          ],
          [
            8.484105112233253,
            47.05627990748427
          ],
          [
            8.483546373920797,
            47.05605873138784
          ],
          [
            8.483428121882675,
            47.05605018195127
          ],
          [
            8.483150249109396,
            47.05589128960529
          ],
          [
            8.482840349539176,
            47.05586136360772
          ],
          [
            8.482246208531862,
            47.055727231584086
          ],
          [
            8.481979357989399,
            47.055554112871675
          ],
          [
            8.481435524572799,
            47.05538715271272
          ],
          [
            8.481166641916447,
            47.055465437841704
          ],
          [
            8.480920281130649,
            47.055456402705914
          ],
          [
            8.479987993717506,
            47.0551757101745
          ],
          [
            8.479801473701881,
            47.055140968708194
          ],
          [
            8.479361471323475,
            47.05514520956336
          ],
          [
            8.479043660484786,
            47.05512984627377
          ],
          [
            8.478864777767113,
            47.05501785026729
          ],
          [
            8.478491561980684,
            47.055102759615025
          ],
          [
            8.477878129745502,
            47.05496177211638
          ],
          [
            8.477310196699303,
            47.054967873609954
          ],
          [
            8.477139665666334,
            47.05494912163003
          ],
          [
            8.476825343786052,
            47.05517304439353
          ],
          [
            8.476121637660947,
            47.05522898971492
          ],
          [
            8.475646828788651,
            47.05518881279432
          ],
          [
            8.475116239163588,
            47.05516714700058
          ],
          [
            8.474912038005288,
            47.054977416041524
          ],
          [
            8.474770781865807,
            47.054985239734116
          ],
          [
            8.47439138701436,
            47.05467554671295
          ],
          [
            8.474228110431262,
            47.05451295447026
          ],
          [
            8.474133767587041,
            47.05433742512496
          ],
          [
            8.474025828840606,
            47.0541182808321
          ],
          [
            8.47393101931324,
            47.0538087274284
          ],
          [
            8.473425652399865,
            47.05335330198039
          ],
          [
            8.472974042941226,
            47.053068201913554
          ],
          [
            8.472774402903738,
            47.053039801380706
          ],
          [
            8.472549082376352,
            47.05283450488952
          ],
          [
            8.472417102914713,
            47.052658224566684
          ],
          [
            8.472127837434295,
            47.05242527423681
          ],
          [
            8.471780009152416,
            47.05211473083223
          ],
          [
            8.471437210298962,
            47.051830714676534
          ],
          [
            8.47082191670409,
            47.051482003090804
          ],
          [
            8.469868618137918,
            47.05105977058074
          ],
          [
            8.46936698623067,
            47.050811286821784
          ],
          [
            8.46849983904215,
            47.05019703740915
          ],
          [
            8.46825203433138,
            47.04998248872861
          ],
          [
            8.468037187524997,
            47.049783008809804
          ],
          [
            8.467797031610367,
            47.049409920973744
          ],
          [
            8.46768047750048,
            47.04931059982476
          ],
          [
            8.467282864380648,
            47.049033548693565
          ],
          [
            8.466724270812312,
            47.04880266486639
          ],
          [
            8.466315541414488,
            47.048879855694516
          ],
          [
            8.465940881528674,
            47.04878093576989
          ],
          [
            8.46555542576921,
            47.04868724778497
          ],
          [
            8.464901349597891,
            47.048481983545585
          ],
          [
            8.464868663403324,
            47.04842107746679
          ],
          [
            8.461841807505877,
            47.050239016129176
          ],
          [
            8.453558115963217,
            47.05521403711922
          ],
          [
            8.452002924377616,
            47.05591693659797
          ],
          [
            8.450697980304277,
            47.0564805950946
          ],
          [
            8.449835571585796,
            47.05685521899589
          ],
          [
            8.449325667355732,
            47.05700450354097
          ],
          [
            8.449147501933611,
            47.05707007622201
          ],
          [
            8.448728777468258,
            47.057246721285544
          ],
          [
            8.447901824496471,
            47.057508373912846
          ],
          [
            8.447208004970294,
            47.05771931175139
          ],
          [
            8.446404133480538,
            47.05806891784186
          ],
          [
            8.445924976086465,
            47.058264002325345
          ],
          [
            8.445238185402161,
            47.05873672300958
          ],
          [
            8.444481018398903,
            47.05925483660192
          ],
          [
            8.445218313023235,
            47.05985907792973
          ],
          [
            8.445782109340321,
            47.06025163768922
          ],
          [
            8.445994011097227,
            47.06034701383573
          ],
          [
            8.445365484347128,
            47.06072153019123
          ],
          [
            8.444445330736835,
            47.0612684187948
          ],
          [
            8.443825109534236,
            47.06163699749406
          ],
          [
            8.443209666363261,
            47.06200318305935
          ],
          [
            8.442947886982003,
            47.06215893962314
          ],
          [
            8.441387242514196,
            47.06308745031048
          ],
          [
            8.439516254641692,
            47.06370033106872
          ],
          [
            8.439415619195506,
            47.06373328676994
          ],
          [
            8.439379836089197,
            47.06373745774549
          ],
          [
            8.439344140296773,
            47.06373078812081
          ],
          [
            8.439194616343379,
            47.06371466623075
          ],
          [
            8.439052041905178,
            47.06370763224388
          ],
          [
            8.438899501076321,
            47.06366739177164
          ],
          [
            8.438876874083096,
            47.06363863166203
          ],
          [
            8.438866649786666,
            47.06363676864207
          ],
          [
            8.438593140311204,
            47.063586759438216
          ],
          [
            8.438291372160899,
            47.06361472746969
          ],
          [
            8.438009000838852,
            47.063641572370464
          ],
          [
            8.43777482229233,
            47.06374737541811
          ],
          [
            8.437681492628485,
            47.06378954060052
          ],
          [
            8.437616043112486,
            47.063714249149335
          ],
          [
            8.437562934940365,
            47.063713469693866
          ],
          [
            8.43746053276943,
            47.063600753586414
          ],
          [
            8.437409877940988,
            47.063588204332376
          ],
          [
            8.437301024040693,
            47.06360900448043
          ],
          [
            8.437101187694905,
            47.063653813483654
          ],
          [
            8.436883380480161,
            47.06361302229009
          ],
          [
            8.436832657730708,
            47.06352963219757
          ],
          [
            8.436587948435115,
            47.06350967443503
          ],
          [
            8.43656947195055,
            47.06350013761777
          ],
          [
            8.436553213640941,
            47.063488827360814
          ],
          [
            8.436539573741035,
            47.06347602804983
          ],
          [
            8.436528820523584,
            47.06346200722589
          ],
          [
            8.436510920902196,
            47.063456585419594
          ],
          [
            8.436491930473244,
            47.063453386031654
          ],
          [
            8.436472416733027,
            47.06345248509209
          ],
          [
            8.436452960172762,
            47.06345394952266
          ],
          [
            8.436440260077037,
            47.06344991284646
          ],
          [
            8.436426560136175,
            47.06344803482911
          ],
          [
            8.436412559138311,
            47.063448372369
          ],
          [
            8.436399126817996,
            47.06345097188406
          ],
          [
            8.436388695353063,
            47.063454948656286
          ],
          [
            8.436379658068144,
            47.06346027166656
          ],
          [
            8.436372366169739,
            47.06346671297134
          ],
          [
            8.436367118381751,
            47.063474054078874
          ],
          [
            8.436275931469359,
            47.063512547243555
          ],
          [
            8.43613865279343,
            47.06359552862688
          ],
          [
            8.436067389538978,
            47.06358478600189
          ],
          [
            8.436026165132835,
            47.06360713852669
          ],
          [
            8.436035356508121,
            47.06368016678393
          ],
          [
            8.435999342354043,
            47.06372147297325
          ],
          [
            8.435958643227126,
            47.06375154821921
          ],
          [
            8.435897125353952,
            47.06376365090412
          ],
          [
            8.435847511755483,
            47.06381132714785
          ],
          [
            8.435835817171734,
            47.06382384276266
          ],
          [
            8.43582065115606,
            47.06383445444223
          ],
          [
            8.435802610996952,
            47.06384271620959
          ],
          [
            8.435782479935046,
            47.06384827043048
          ],
          [
            8.435759631799272,
            47.06385071773389
          ],
          [
            8.43573657431512,
            47.06384969450918
          ],
          [
            8.435714401162414,
            47.063845254230756
          ],
          [
            8.435694169709736,
            47.063837621607675
          ],
          [
            8.435506879169784,
            47.0638584532945
          ],
          [
            8.435430178306875,
            47.063883812245805
          ],
          [
            8.435387955706346,
            47.063932521610575
          ],
          [
            8.43532261620277,
            47.06398055899832
          ],
          [
            8.435304957012422,
            47.06398949205749
          ],
          [
            8.435284983338839,
            47.06399572849752
          ],
          [
            8.435263545914875,
            47.063999000059134
          ],
          [
            8.435241603116799,
            47.06399916348957
          ],
          [
            8.435186301608859,
            47.06398875857326
          ],
          [
            8.435058630683017,
            47.063966900319116
          ],
          [
            8.434903660995412,
            47.06392334722055
          ],
          [
            8.434852183824203,
            47.06391612043395
          ],
          [
            8.43462225249352,
            47.06387745415816
          ],
          [
            8.434590725074075,
            47.063873328675484
          ],
          [
            8.434558617200649,
            47.06387339121864
          ],
          [
            8.43452711334321,
            47.063877622520245
          ],
          [
            8.434497395633725,
            47.06388587739452
          ],
          [
            8.434448024688008,
            47.063906284947414
          ],
          [
            8.43439543188978,
            47.0639205043845
          ],
          [
            8.434283721030342,
            47.06394210005405
          ],
          [
            8.434081259263946,
            47.06392439741222
          ],
          [
            8.434065134975128,
            47.06392595849231
          ],
          [
            8.434049937501058,
            47.06392993138035
          ],
          [
            8.434036413776457,
            47.06393612968872
          ],
          [
            8.434025255581627,
            47.06394423257272
          ],
          [
            8.433925592133837,
            47.06404536240325
          ],
          [
            8.433879820013402,
            47.06414407307
          ],
          [
            8.43387462688056,
            47.06415367150584
          ],
          [
            8.433866385771834,
            47.06416218988361
          ],
          [
            8.433855563535674,
            47.064169246337634
          ],
          [
            8.433842679338769,
            47.06417444055758
          ],
          [
            8.433735325816825,
            47.06420741346876
          ],
          [
            8.433685143352278,
            47.06426996357209
          ],
          [
            8.433659891837035,
            47.06434297554775
          ],
          [
            8.433657650616748,
            47.06438466304167
          ],
          [
            8.433653311611415,
            47.064435328425915
          ],
          [
            8.433630340553396,
            47.06445600165205
          ],
          [
            8.43360765611235,
            47.064467289876895
          ],
          [
            8.433592273113716,
            47.064486107211756
          ],
          [
            8.433586918540676,
            47.06449339513732
          ],
          [
            8.433583918639412,
            47.064501292362344
          ],
          [
            8.43358341152707,
            47.06450943786254
          ],
          [
            8.433584807148451,
            47.06451583070901
          ],
          [
            8.433587764479784,
            47.064521958146415
          ],
          [
            8.433592175715209,
            47.06452768617299
          ],
          [
            8.4336954616664,
            47.06461104503488
          ],
          [
            8.433703079228474,
            47.06461858039931
          ],
          [
            8.433709233396536,
            47.06462671316296
          ],
          [
            8.433713816530167,
            47.064635318318985
          ],
          [
            8.433716773306585,
            47.0646442524157
          ],
          [
            8.433718003451853,
            47.06465449685314
          ],
          [
            8.433717193346203,
            47.064664758968156
          ],
          [
            8.433714378972129,
            47.06467484953922
          ],
          [
            8.433710476179273,
            47.06468304245267
          ],
          [
            8.433705237421085,
            47.06469089610892
          ],
          [
            8.433698752667743,
            47.06469829278427
          ],
          [
            8.433642338839727,
            47.06473509718634
          ],
          [
            8.433638234393312,
            47.06474235629155
          ],
          [
            8.433636019755513,
            47.06475000383034
          ],
          [
            8.43363576939854,
            47.064757796273724
          ],
          [
            8.433637492146904,
            47.06476549965712
          ],
          [
            8.433654843768853,
            47.0647988493053
          ],
          [
            8.433653464005287,
            47.064804663484416
          ],
          [
            8.43364941347618,
            47.06480986210797
          ],
          [
            8.433643129373582,
            47.06481388365473
          ],
          [
            8.433525907874238,
            47.064857889610394
          ],
          [
            8.433516743050573,
            47.064861333393175
          ],
          [
            8.433501433351863,
            47.0648670793297
          ],
          [
            8.43349591612789,
            47.06486915115444
          ],
          [
            8.433424399227837,
            47.06490014911358
          ],
          [
            8.433372592233953,
            47.064918472295204
          ],
          [
            8.43336987185443,
            47.06491944040562
          ],
          [
            8.433336650457262,
            47.06493118866088
          ],
          [
            8.433268237642292,
            47.06495352376706
          ],
          [
            8.433182093196388,
            47.06494472535031
          ],
          [
            8.433018006160033,
            47.064991727372536
          ],
          [
            8.432858046207189,
            47.06501920875158
          ],
          [
            8.432828597426342,
            47.065031364988066
          ],
          [
            8.432803545753378,
            47.065066242264926
          ],
          [
            8.432711839550445,
            47.06511748393491
          ],
          [
            8.432695970732258,
            47.06513994860453
          ],
          [
            8.432677727582943,
            47.06515151304768
          ],
          [
            8.43259467519643,
            47.065154705675035
          ],
          [
            8.43255533113001,
            47.065178497951635
          ],
          [
            8.432500250644935,
            47.065180054099564
          ],
          [
            8.432408548688839,
            47.06519674301964
          ],
          [
            8.432366804009545,
            47.06522171644739
          ],
          [
            8.432125723718142,
            47.06536597011214
          ],
          [
            8.431953009254103,
            47.06547469271044
          ],
          [
            8.431703959367171,
            47.065490861739484
          ],
          [
            8.431406829402173,
            47.06551055835746
          ],
          [
            8.431068923162897,
            47.065434757460515
          ],
          [
            8.430838429630892,
            47.0653836923761
          ],
          [
            8.430741659547433,
            47.06538479822258
          ],
          [
            8.430431411986309,
            47.065406341799616
          ],
          [
            8.430243290740922,
            47.065418958930444
          ],
          [
            8.400481727158725,
            47.05967865120861
          ],
          [
            8.400025539754983,
            47.05959430464866
          ],
          [
            8.39924188877478,
            47.059449411440674
          ],
          [
            8.398911751010841,
            47.0596093446237
          ],
          [
            8.39816486507276,
            47.05997114985905
          ],
          [
            8.39713937991343,
            47.06011631250377
          ],
          [
            8.393495901120195,
            47.06063198851626
          ],
          [
            8.392246389865686,
            47.0608088081935
          ],
          [
            8.391515938306707,
            47.061029147481314
          ],
          [
            8.390525080523908,
            47.06132803172833
          ],
          [
            8.39054848560685,
            47.06200880786644
          ],
          [
            8.390555930955495,
            47.06205447100205
          ],
          [
            8.390567377680572,
            47.062074886186984
          ],
          [
            8.39055324100746,
            47.06210316871508
          ],
          [
            8.390561757380045,
            47.06213500566681
          ],
          [
            8.390582987871046,
            47.06215112079938
          ],
          [
            8.390586680044521,
            47.06217000802966
          ],
          [
            8.390609977449984,
            47.062203926390765
          ],
          [
            8.390688352566698,
            47.06228815958051
          ],
          [
            8.390756267533757,
            47.062342290063164
          ],
          [
            8.390760776475492,
            47.06237010318835
          ],
          [
            8.390728450037509,
            47.062413406329775
          ],
          [
            8.390654644286602,
            47.06247089759994
          ],
          [
            8.390622713304824,
            47.0625149800521
          ],
          [
            8.39059849357808,
            47.06253516012857
          ],
          [
            8.390572137997824,
            47.06258037478014
          ],
          [
            8.39054847209243,
            47.06259467610156
          ],
          [
            8.390520320344478,
            47.06263882615065
          ],
          [
            8.39045885843511,
            47.06276507660528
          ],
          [
            8.390434446450787,
            47.06278630173226
          ],
          [
            8.390312358472771,
            47.06285080469227
          ],
          [
            8.390306254512174,
            47.062865886986025
          ],
          [
            8.390312674117604,
            47.06289974735305
          ],
          [
            8.390287966459214,
            47.06293250730744
          ],
          [
            8.390269794997618,
            47.06297751013667
          ],
          [
            8.39026419061921,
            47.06301406987523
          ],
          [
            8.390243457194623,
            47.06303562430414
          ],
          [
            8.390190493967062,
            47.06307481634609
          ],
          [
            8.39017709806385,
            47.06309887372575
          ],
          [
            8.390186919848205,
            47.06317163903629
          ],
          [
            8.39016921268273,
            47.06320497965099
          ],
          [
            8.390147761329313,
            47.06327436982086
          ],
          [
            8.390122962956408,
            47.06331241992202
          ],
          [
            8.390091762102868,
            47.0633836090167
          ],
          [
            8.39012375687306,
            47.06372517821059
          ],
          [
            8.390002827518856,
            47.06423506320064
          ],
          [
            8.390011631310909,
            47.06476914216443
          ],
          [
            8.38986275158929,
            47.06523167147885
          ],
          [
            8.389786613743304,
            47.0657420846215
          ],
          [
            8.38978743422777,
            47.06627227145017
          ],
          [
            8.38966456301681,
            47.066843162197955
          ],
          [
            8.389487444965226,
            47.06739983894058
          ],
          [
            8.389583532872955,
            47.06774014872953
          ],
          [
            8.389433870496337,
            47.06808422014483
          ]
        ]
      }
    }
  ]
}