{"type": "FeatureCollection", "features": [{"type": "Feature", "properties": {"bfs_nummer": 1364}, "geometry": {"type": "MultiPolygon", "coordinates": [[[[8.559920477127712, 47.01021401338313], [8.560520229946235, 47.01016361803919], [8.560818063295836, 47.01004015638863], [8.56142211443193, 47.00997602922264], [8.562854700533746, 47.01035313838815], [8.56466346566788, 47.01060526367706], [8.56552266409305, 47.010978235488345], [8.565994413889305, 47.01123986093139], [8.566665203984638, 47.01150854856009], [8.568429810148515, 47.01192152300886], [8.569129880814897, 47.01197453560242], [8.569670074973796, 47.012074915021735], [8.570417578033123, 47.01213707574747], [8.57076463979548, 47.0123160825644], [8.571237774559112, 47.01257283708464], [8.572562955837174, 47.01253553139904], [8.574675324600232, 47.01245909752153], [8.576844577054874, 47.01206938242725], [8.57819930548088, 47.01144708394654], [8.58133860786105, 47.01202665625632], [8.584548261626592, 47.01250918463947], [8.585745910782093, 47.01291049290442], [8.587493331268764, 47.01286824935014], [8.589422980587933, 47.01336201850073], [8.590343631732985, 47.01375661729303], [8.59219751582782, 47.0141428047742], [8.592739605941265, 47.01427813957807], [8.59322167369222, 47.01449197283234], [8.593580529896325, 47.01475608157821], [8.593801476352658, 47.014826993981096], [8.594243073210576, 47.01481030805211], [8.595046546809046, 47.01495873978029], [8.595419370603171, 47.01510683472634], [8.596054807993951, 47.015191187327524], [8.596487046166317, 47.015319695533854], [8.597078741818066, 47.01560717038374], [8.597273139568435, 47.015728632173406], [8.597498964599879, 47.01582467638824], [8.597764196381553, 47.01598455444253], [8.598012772908989, 47.016037725921514], [8.59819087288944, 47.01610483424215], [8.59856281777988, 47.01625480521688], [8.599418086323597, 47.016667255620874], [8.599605044482828, 47.0167538841239], [8.599838266125097, 47.01687584799735], [8.600300584670409, 47.01706098095516], [8.600815811084694, 47.01724854498464], [8.601173488080768, 47.017449579226195], [8.601596131382692, 47.01766261967557], [8.60201981253289, 47.01781476298731], [8.602303131393441, 47.01794142284093], [8.602627024905336, 47.01811328841751], [8.603155021691526, 47.018295036387364], [8.603381383999992, 47.01836695453532], [8.60381625185099, 47.018488020963744], [8.604135628197845, 47.018542438158335], [8.604617388416175, 47.018557312770625], [8.604822873713406, 47.01859818707286], [8.605052907214425, 47.01862830327275], [8.605410637473797, 47.01844814668854], [8.605554407756328, 47.018474546341125], [8.605724869105751, 47.01848344732195], [8.605822539330633, 47.0184695893699], [8.605919015613397, 47.01850602354226], [8.606640121868528, 47.01846346135039], [8.60672439882329, 47.01846882017289], [8.606879166570527, 47.018420417673475], [8.607139964048587, 47.018431367569534], [8.60743662154659, 47.018426825902075], [8.607565473863927, 47.01842058261048], [8.607814633108507, 47.01853326451044], [8.607947533461795, 47.01863361215083], [8.608057362887678, 47.01868274510268], [8.60845977092858, 47.01881104823021], [8.608515090801676, 47.01884934749106], [8.608976161697937, 47.01902130328458], [8.609078236254224, 47.01912059791559], [8.609175122065553, 47.019175053086975], [8.60921736307012, 47.0192312523441], [8.609397249964012, 47.01934954064002], [8.60951076409789, 47.019411309103184], [8.609692558004427, 47.019520350972044], [8.609796794418116, 47.01954636416572], [8.609916502500269, 47.01955980501911], [8.609992653103637, 47.019660972751275], [8.609987292129773, 47.01974617622213], [8.610113450146233, 47.01987180535217], [8.610257339708802, 47.01995043639575], [8.61061549472028, 47.020056988739476], [8.611053975647945, 47.0202118378087], [8.611140362217297, 47.0203834192325], [8.611173255749302, 47.02053236558636], [8.61132144083427, 47.02077292080875], [8.611399923839492, 47.020881908030304], [8.611404066993403, 47.020943849210596], [8.611570722575582, 47.021043072612926], [8.611717723435293, 47.02104769710316], [8.61181311951948, 47.02093941380102], [8.612115957182311, 47.02051218948219], [8.612502983560995, 47.02016576889819], [8.61279160189454, 47.01991988899714], [8.61293081544703, 47.019865844707844], [8.612992871037877, 47.0198072821927], [8.61312808649701, 47.01976771740963], [8.613353844489033, 47.01984057539987], [8.613557233782066, 47.019958724879686], [8.614012575039427, 47.01959454124872], [8.614259633917058, 47.019388486799656], [8.615203256931075, 47.0186540296299], [8.615415713369718, 47.01852177287762], [8.61543859400565, 47.01849923691058], [8.615629843157365, 47.01838844716867], [8.615828203558324, 47.01824089779455], [8.616503097193215, 47.018190659397206], [8.616867366212675, 47.01837250808438], [8.617932166172851, 47.017871486133274], [8.61797665080562, 47.01786540630173], [8.618276039293708, 47.0176927238325], [8.618402246920025, 47.01761063046007], [8.618409876391635, 47.01758491317811], [8.618310043003804, 47.01755998635031], [8.61800421919581, 47.01733517796323], [8.618248247603095, 47.017035514422226], [8.618276189601554, 47.01700756370568], [8.618748563975517, 47.017268162727625], [8.619261374207655, 47.017388758653844], [8.61985312039815, 47.01771357863816], [8.620933764055719, 47.017037932065634], [8.62076049448507, 47.016765318121266], [8.62109322103034, 47.01647789706639], [8.621484466605482, 47.01665946255594], [8.621922201295648, 47.01676359313737], [8.622043624000439, 47.01665213746518], [8.622213313757582, 47.01652551039895], [8.62231011595762, 47.016420821173014], [8.622234590867338, 47.016342883324924], [8.622319486077624, 47.016213037701725], [8.622456603099263, 47.016045131040514], [8.622546461067707, 47.01594587571027], [8.622349314743305, 47.0159356313689], [8.62227724245787, 47.01591218445174], [8.622153455698324, 47.0156784297995], [8.620930716429543, 47.01503378523096], [8.621157539271918, 47.01483365717969], [8.621057468800869, 47.01473691040358], [8.62076283718701, 47.01462582338722], [8.621448003781948, 47.01366681162826], [8.621404586562019, 47.01359643275065], [8.621343605018795, 47.013543714433006], [8.621339652966208, 47.013510613470146], [8.621349784525359, 47.013489305138926], [8.621190898917579, 47.01331568990669], [8.621222163255263, 47.013281668245085], [8.621575692839391, 47.01343773094469], [8.622029330492525, 47.0132973189438], [8.621960957013961, 47.013272043506454], [8.62172082770474, 47.013196973888455], [8.619450439729288, 47.0125430505456], [8.619460839399794, 47.01251238365269], [8.619287255850546, 47.01245881730117], [8.619141262645801, 47.01239728414948], [8.619033655590108, 47.01233903524579], [8.61892829321539, 47.01226801570348], [8.618837541174832, 47.01219150206153], [8.618758687755976, 47.01210759710178], [8.618716000444882, 47.012051639754276], [8.61867497736634, 47.01198642629971], [8.618490723377601, 47.01161549662434], [8.618438348802991, 47.01154482239396], [8.618617329820692, 47.0114970838357], [8.619130773661668, 47.011155671304195], [8.619941302222754, 47.01139005971141], [8.620176347630244, 47.011426466030024], [8.620701150487319, 47.01148181899144], [8.622212448671585, 47.01157694258896], [8.622275261450486, 47.01159706658185], [8.622384741982792, 47.01168233493706], [8.622635435682202, 47.01170176123428], [8.622610157888907, 47.01162968443003], [8.623229870664721, 47.01168966877545], [8.623850656882356, 47.011755315181254], [8.625756035517915, 47.0120444763148], [8.626135601084805, 47.01209540599629], [8.62641875583286, 47.01212836890825], [8.627366751103109, 47.01220184406227], [8.627722667969616, 47.01221642639636], [8.627866944401418, 47.01221073860538], [8.6278690932573, 47.01217713381957], [8.628299094405964, 47.01213871493584], [8.628431860420493, 47.01214896996863], [8.62891760449102, 47.01209644938935], [8.62900525848899, 47.010829517459655], [8.630209421482203, 47.01072970828542], [8.629948786672928, 47.009620117863335], [8.629735546322705, 47.00959193439235], [8.630240815150502, 47.008642229816914], [8.632100020690423, 47.00919565675719], [8.632292413335799, 47.00891153667687], [8.63247400517182, 47.00886504413319], [8.633396514124502, 47.007586689184244], [8.633804825489428, 47.00769700110015], [8.63421077974682, 47.00736431306124], [8.635669872362994, 47.00618881102391], [8.63570960175608, 47.006164034899975], [8.636214609824805, 47.005687401968515], [8.636811260670124, 47.00515021917573], [8.637562693203924, 47.00561782171073], [8.638204782593924, 47.00601166120674], [8.638287852273333, 47.006046111240124], [8.639826373245208, 47.003406384882744], [8.639981382331314, 47.003521153444716], [8.640731796546829, 47.003911343296465], [8.641449004375222, 47.003032871374266], [8.641602414549206, 47.0028168394358], [8.641874412325045, 47.00233035359669], [8.641969967884624, 47.002086608070364], [8.639122856944622, 47.00129176032608], [8.639308782753744, 47.00127933398283], [8.639556630431514, 47.00119749263765], [8.639575906191334, 47.00121975368221], [8.639598407388076, 47.001212771050554], [8.639664258871091, 47.00118734221425], [8.639718559622422, 47.00115404580381], [8.639790660750764, 47.00111819692579], [8.639817070456884, 47.00107726688594], [8.639900500664648, 47.00104056165868], [8.639995648293835, 47.000989798622314], [8.64005480068739, 47.00093943986255], [8.639415940155576, 47.00060486414374], [8.639352793681313, 47.00056542056817], [8.639266450448137, 47.000497702714604], [8.63892349108786, 47.00043181545995], [8.63888295029122, 47.00002297230803], [8.638428552226538, 46.99980764660633], [8.637655586571451, 46.9994706030342], [8.63726018361871, 46.99934294256034], [8.637081550056912, 46.999322444332364], [8.637436663168547, 46.999017239977725], [8.637473756179993, 46.99890232342224], [8.636808830225505, 46.99866777076525], [8.636341615117514, 46.99816176127659], [8.636237018503232, 46.99805649216375], [8.636133125171554, 46.997884284574624], [8.636436463970572, 46.997655718524975], [8.635962228557942, 46.99699937683551], [8.635584178582707, 46.99694072797609], [8.635387049290026, 46.9968368296682], [8.634936407477904, 46.9967073820688], [8.635129905312033, 46.996428178368994], [8.635210328092889, 46.99633160380091], [8.635312824849045, 46.99609034058222], [8.635309464933552, 46.996029238744775], [8.635481849931727, 46.995912154060775], [8.63550991491503, 46.99582866495373], [8.63582389610784, 46.995564088160684], [8.636168244847974, 46.99551460448279], [8.635991690067739, 46.995283567896976], [8.63585226236978, 46.99520504915056], [8.635196565721435, 46.995119743452776], [8.635040916443131, 46.99514288492152], [8.634903613036123, 46.99523404394304], [8.63470159555286, 46.99528578262839], [8.634375488844928, 46.99525754348468], [8.634311587985984, 46.995139505661065], [8.634166257017222, 46.99500256763562], [8.633914769514318, 46.994956007196436], [8.63359428996665, 46.99499024856305], [8.632977379881536, 46.994809507217525], [8.632477748817749, 46.99468386947356], [8.632089615148034, 46.99448774482594], [8.632135241093136, 46.99437543898545], [8.632120586489505, 46.994259181507104], [8.632232303169745, 46.99420106408981], [8.632298823809107, 46.9939741637513], [8.632086489062893, 46.99397746256858], [8.631693582702027, 46.99406502576716], [8.631640131033887, 46.9941417257184], [8.631641047882445, 46.994226756955214], [8.631592798032454, 46.99431864195314], [8.631369023246709, 46.99433781385973], [8.631102326958356, 46.99427281057545], [8.630938760682751, 46.994222334884135], [8.630780226704823, 46.99414147221461], [8.630682849262994, 46.99399559867831], [8.63060031856624, 46.99381610394553], [8.630552264991872, 46.99364502162963], [8.630448423007044, 46.99361666530599], [8.630426162634967, 46.99357931979376], [8.630315852895944, 46.99355455706076], [8.63031634757195, 46.99352056469512], [8.63016375894197, 46.99346286514181], [8.630061315076903, 46.993407433475184], [8.629594269788566, 46.993285905588586], [8.629504706278682, 46.993245021856794], [8.629276811704067, 46.993219491115255], [8.629174810314172, 46.993180976043], [8.62894007989322, 46.993143028756776], [8.628752010837786, 46.993055190671484], [8.628599257363005, 46.992937100324156], [8.628173996626655, 46.992859727999324], [8.627961660980475, 46.992501845028634], [8.62753360439529, 46.99221605092648], [8.627363030392058, 46.99215803154375], [8.627227254187924, 46.99219960656643], [8.626781758862299, 46.992166464715964], [8.626765258575201, 46.99273331792886], [8.62668770387469, 46.99298776836072], [8.626566418439804, 46.993003976668184], [8.626432585866343, 46.99309132116791], [8.626496912891382, 46.99322835788563], [8.6264055376858, 46.99334856538292], [8.626174737580156, 46.993409187242875], [8.626032198747296, 46.99349892328731], [8.625901569974644, 46.993536835819235], [8.62574481387145, 46.99354490034316], [8.625485433984283, 46.99351356213748], [8.625376649883613, 46.99348988568817], [8.625405396213845, 46.993383029376076], [8.625364894156624, 46.993195340625796], [8.625356051822783, 46.99298560771386], [8.625361109654632, 46.992813496148116], [8.625328943514829, 46.99267519003327], [8.624890865957548, 46.99261306977678], [8.624682850793631, 46.99262957867323], [8.624488878045806, 46.9926669305146], [8.624249552898275, 46.99276836197594], [8.624122939839733, 46.99277853155341], [8.62383634849467, 46.99277699539063], [8.623774564899053, 46.992760829103595], [8.623561258103058, 46.992623403948684], [8.623394873012273, 46.99257814504435], [8.623327980244545, 46.99258483668646], [8.623120125461973, 46.992547238640384], [8.622955118196941, 46.99249169145405], [8.622654339530921, 46.9924477025121], [8.622441460125037, 46.99245945376293], [8.62223570859664, 46.9924217874048], [8.621910681334311, 46.9924109462159], [8.621773203499396, 46.992398771875926], [8.621730388110697, 46.992409217434606], [8.62133130683966, 46.992404662181436], [8.62108448013592, 46.9922188371716], [8.621003776488262, 46.99197028925552], [8.621011812632648, 46.99176922432672], [8.620929193120583, 46.9916193378007], [8.620823059799923, 46.991529481312966], [8.620272349407747, 46.99150439040125], [8.61850540551223, 46.99121916237799], [8.617141761820697, 46.990645747379396], [8.616293151011373, 46.990641810348365], [8.615511155387278, 46.990343970305055], [8.614558410902509, 46.989802885357165], [8.614108853737704, 46.989583481117215], [8.613878504802765, 46.98913429819872], [8.61375257371351, 46.98883417213628], [8.61405555750943, 46.98845527306363], [8.614305312947428, 46.98818115674132], [8.614505244160522, 46.9880638594344], [8.614674369808753, 46.98784392359455], [8.614885806613934, 46.987500675653145], [8.614976239942132, 46.98732900996602], [8.615147308098983, 46.986918692830315], [8.61520840682927, 46.986717461250954], [8.615392859174445, 46.98659062385133], [8.615520465233173, 46.98669163919594], [8.615526668699678, 46.98614275834441], [8.615652967711954, 46.9856596275623], [8.61574231512062, 46.98493698946584], [8.615740794168062, 46.984664961164384], [8.615752683415746, 46.9842915116753], [8.615841419260258, 46.984062033968605], [8.615703774765786, 46.98386437033722], [8.615533602035006, 46.983723985299285], [8.615512689991846, 46.983692920275246], [8.61552676172272, 46.98363143081724], [8.615511253035347, 46.98356920165586], [8.6154722365081, 46.98353139544179], [8.615452825840576, 46.98346746993807], [8.615370328320399, 46.9834113682584], [8.615355419556028, 46.983384936596416], [8.61535457512296, 46.98336978706506], [8.615361694177343, 46.98335393455367], [8.615374422162965, 46.983342020584864], [8.615394015746778, 46.983332680798654], [8.615424562139326, 46.98317893870625], [8.615360404394528, 46.98309521308783], [8.614969584134613, 46.98303182018094], [8.614090011637465, 46.9829505289477], [8.614004472009002, 46.98292579385354], [8.613377270120543, 46.98285707236874], [8.613294365124604, 46.98282716388784], [8.612822512881047, 46.982728194894484], [8.612796221731742, 46.98272758226603], [8.612582942900834, 46.98275248023141], [8.6123082671186, 46.98275359000275], [8.612061457348926, 46.982781716001966], [8.611971522676997, 46.98284936068501], [8.611798859473186, 46.982871150980195], [8.604141738352974, 46.98232979017039], [8.603148518917422, 46.98683803598206], [8.597147821795144, 46.99020944728737], [8.582424895783424, 46.99340702970427], [8.571049221040221, 46.99015533346395], [8.561542022276859, 46.98661410404043], [8.557863709610892, 46.9912488801514], [8.557495719450769, 46.99167217557207], [8.557277667250759, 46.99196416478469], [8.557179525520054, 46.99208034649569], [8.556964400950138, 46.99258790263275], [8.555911085794447, 46.99321056139483], [8.555670246711127, 46.99360524183581], [8.55525852559355, 46.99416514321116], [8.554691328274888, 46.99433034951335], [8.554390258351702, 46.99488197359988], [8.554084935562182, 46.99553142267189], [8.554041519789596, 46.99597042336811], [8.55315267457234, 46.99629952071617], [8.55259897371895, 46.99638146290997], [8.551905004564317, 46.99653970701144], [8.551644447083808, 46.996580561796996], [8.55137843765892, 46.99666230954634], [8.551064008688348, 46.99688279394213], [8.551016472878313, 46.996898459126704], [8.550852848991843, 46.996921187300394], [8.549731676046406, 46.997570718237114], [8.549252048207794, 46.99799891129153], [8.549035985506077, 46.998723868811666], [8.549110648472082, 46.99937304042082], [8.549498959275333, 46.999863091859716], [8.549875038453578, 47.000060696117785], [8.550249168555059, 47.00034882681317], [8.550292152847856, 47.0005124992679], [8.550180211573519, 47.00082035224095], [8.549372259154204, 47.001138850989776], [8.549836538860148, 47.001857548823594], [8.551051233970293, 47.002839045731264], [8.551256763723071, 47.00295986645958], [8.551873343377002, 47.00314864601832], [8.552171744117045, 47.00332791723024], [8.552328803864933, 47.00355264932928], [8.553152939755153, 47.00432138172179], [8.553469770844389, 47.00453266879926], [8.554465232715032, 47.005235856338935], [8.555064465916415, 47.00738210876059], [8.55723306633666, 47.00907397542643], [8.5577457366708, 47.00941596299249], [8.558648525486873, 47.00972211481208], [8.559325895815387, 47.01005935199018], [8.559920477127712, 47.01021401338313]]]]}}]}