{"type": "FeatureCollection", "features": [{"type": "Feature", "properties": {"bfs_nummer": 139}, "geometry": {"type": "MultiPolygon", "coordinates": [[[[8.530660054297579, 47.30048557683768], [8.530796501851645, 47.300683694156234], [8.53129275477949, 47.30104226207299], [8.53156932370244, 47.301242097006075], [8.532309653624239, 47.30177702903128], [8.532558051629543, 47.30195650576372], [8.532783862389751, 47.30211965571066], [8.533024900792926, 47.30225794990579], [8.533333051918774, 47.30252068667465], [8.533661194327001, 47.30256912568966], [8.533663372563687, 47.30255992077569], [8.533698330568512, 47.302565417962555], [8.533654893643265, 47.30279443728773], [8.533551700815469, 47.30323640297974], [8.53350056254161, 47.30343171789603], [8.533486056183268, 47.303566488438804], [8.53348576284167, 47.30382618590726], [8.533510836186263, 47.303940944035226], [8.533563784357437, 47.3040388322812], [8.533755884935616, 47.304198213955715], [8.533953726440712, 47.3043253915842], [8.53415284268303, 47.304432164237326], [8.534347543465906, 47.304492589657414], [8.53459826431736, 47.304547256271434], [8.534763679832876, 47.30457770801061], [8.534962931279836, 47.3046078828968], [8.535287376722762, 47.304681708873126], [8.535663188459718, 47.304798708739554], [8.535967261093399, 47.30487980590873], [8.536147540623, 47.30492237472645], [8.536389301341506, 47.30495465218281], [8.536544230075584, 47.30496122839286], [8.536764045826901, 47.3049604490541], [8.53701193354422, 47.304970412209116], [8.537222289544918, 47.304984852074504], [8.537239375045388, 47.30501951911886], [8.537233976911669, 47.30503931524148], [8.537290971745696, 47.305078360604305], [8.537398263854227, 47.30517285064379], [8.537776380516117, 47.30544765254221], [8.537926148992485, 47.305534289259384], [8.538101384106666, 47.30562455102037], [8.538527284794213, 47.30578812689556], [8.538679837615533, 47.30585510841144], [8.538829821291353, 47.30592767335036], [8.538958794544072, 47.305995913864315], [8.539090092154003, 47.30607167913459], [8.539222325467545, 47.30615496439964], [8.539349084122126, 47.30624209780054], [8.539476148126818, 47.30633760280724], [8.539592775669256, 47.3064336300739], [8.539648715820384, 47.30648293017532], [8.539790479817771, 47.306625511071054], [8.539862726001097, 47.30667028376564], [8.539951326170167, 47.30675901333146], [8.540049081560507, 47.306909426087906], [8.540130264264855, 47.307005908089145], [8.540259854536195, 47.30713010996622], [8.540295026277022, 47.30719832729216], [8.540484285636863, 47.30722176062506], [8.540664156271237, 47.30725100436938], [8.540609012861479, 47.3073601585722], [8.540767000832034, 47.307390258868296], [8.54022121559828, 47.307716684356826], [8.540471778597706, 47.30797730467157], [8.540600112348717, 47.30819102155971], [8.540684378854923, 47.30838483861491], [8.540720424908844, 47.308538880728605], [8.540758222490261, 47.308738656422285], [8.540522311562167, 47.308759457782855], [8.54028208981885, 47.30879567296797], [8.540304526013596, 47.308998419716474], [8.540350729844121, 47.309119190549914], [8.540299802837547, 47.30912263612455], [8.54029441701012, 47.309390315822824], [8.540248877153118, 47.30966052880791], [8.54021337595717, 47.30975648780618], [8.540164937273198, 47.309778628998764], [8.54029132619211, 47.30997483368541], [8.540420073830994, 47.310064232223546], [8.540557611043349, 47.31014501011199], [8.5406466365263, 47.31019058471501], [8.54069305976171, 47.31020597307361], [8.540737066699013, 47.3102369283442], [8.540816893432151, 47.310277679231035], [8.54094458225536, 47.3103253488868], [8.541073992830995, 47.31035647752795], [8.54126870760882, 47.31038349179632], [8.541660206121822, 47.310430096219015], [8.542075338056273, 47.310461891785856], [8.542340587809415, 47.310491432766426], [8.542360723558506, 47.31048915331862], [8.542720267603498, 47.31053499859454], [8.542737019314288, 47.31054177333273], [8.543103188283563, 47.31058755321772], [8.543281964224494, 47.31060417424571], [8.54345916451082, 47.31061495415162], [8.543756741058532, 47.31061901279869], [8.544064986202521, 47.31060815313615], [8.544341980708476, 47.31053422005442], [8.544617392883508, 47.31048608204627], [8.544701041527247, 47.31047560120809], [8.544788280538867, 47.31047498971763], [8.544847499770482, 47.310488706511975], [8.54488933046853, 47.31050833803151], [8.544936146563646, 47.31053750169651], [8.544975874890802, 47.310571194972816], [8.545113985038123, 47.31074237353304], [8.545175383778698, 47.31080505765487], [8.54525062397919, 47.31087126109274], [8.545304599413711, 47.31083872899077], [8.545447242733372, 47.310936956716304], [8.545549479422503, 47.310996217472784], [8.545814748107171, 47.311129753267174], [8.545941297394245, 47.31119931396357], [8.546035354288623, 47.31126715345117], [8.54611256971712, 47.3113449594336], [8.546235454719397, 47.311494739295995], [8.546242143780377, 47.31149393747645], [8.546247441319473, 47.31150001243301], [8.546284622284563, 47.31155873674026], [8.546327885209102, 47.31165368064005], [8.546354645411451, 47.31175453092544], [8.546368193535454, 47.312127517060354], [8.54637672971123, 47.31221761302222], [8.546393802093334, 47.31232643618087], [8.54647372414747, 47.31270719580555], [8.546496849940992, 47.31285592708183], [8.546514729381553, 47.313098529796505], [8.546507210347501, 47.31339002307718], [8.546576492934992, 47.313411108339544], [8.547567024362849, 47.313674536009856], [8.548408791929832, 47.31389095591043], [8.548375709542787, 47.31394745889853], [8.548333317231291, 47.3140447552892], [8.549064916969774, 47.31415529960257], [8.549411945191006, 47.31421291886809], [8.549229745443698, 47.31431208353179], [8.549283741084947, 47.31435546085867], [8.54925726426052, 47.31437215022653], [8.549233654435376, 47.31439376841648], [8.54921795145305, 47.314415886165], [8.549208616219392, 47.314439543788644], [8.549206690142608, 47.31447283598976], [8.549227358035777, 47.31456852697199], [8.54953472048815, 47.314621626046765], [8.550032393914261, 47.31469887829667], [8.550050588488883, 47.31465351054066], [8.550808153033175, 47.31479322847751], [8.55150329200278, 47.31483223752998], [8.551702861478715, 47.31484555892756], [8.552006575577758, 47.31487193475048], [8.552251764867083, 47.31478380674225], [8.553347341268474, 47.31505771171608], [8.55391452222389, 47.31526732587921], [8.555113187347374, 47.31551164918566], [8.556182264872415, 47.315750396822956], [8.556252440204917, 47.31576893979061], [8.556280455418786, 47.315716513523114], [8.556299593945523, 47.315658344400866], [8.55630216365004, 47.31563199027456], [8.556368499190095, 47.31556824556724], [8.556394780578646, 47.31552841145049], [8.55640367207998, 47.31547930055075], [8.556396266700617, 47.315473075554564], [8.556402078341238, 47.31543478914433], [8.556423851709136, 47.315432329356845], [8.556432986422086, 47.31542639389253], [8.55644395614785, 47.31538176100315], [8.556457190069239, 47.31538208253303], [8.556471557899208, 47.31537339757559], [8.556471795248317, 47.31535315582111], [8.556465759457254, 47.31534916642527], [8.55644255057748, 47.31534624286097], [8.556450959997733, 47.31530568247785], [8.55647278984264, 47.31530592074569], [8.556486496538788, 47.31529724232987], [8.55649644685464, 47.31523552801168], [8.5564381651223, 47.315231595242956], [8.55651090435046, 47.31482070358053], [8.556566584949659, 47.31454265798206], [8.556545979572112, 47.314443009497964], [8.556445111230277, 47.314205610753724], [8.556472484467863, 47.31406007111325], [8.556541410330002, 47.31406704921954], [8.556554581403107, 47.314001255511336], [8.556476332683037, 47.313991219279075], [8.556485346518512, 47.313947954378555], [8.556563519760115, 47.31395439314007], [8.556570728944042, 47.3139196913512], [8.556292789463363, 47.313898663535326], [8.556306203973648, 47.31388047091552], [8.556281718306572, 47.313788766831465], [8.556266826240734, 47.31377683037392], [8.556261166859949, 47.313749755277804], [8.55629263936257, 47.31374498867784], [8.556272274193208, 47.31371802904603], [8.556318870442706, 47.313668688062485], [8.556355257674735, 47.313639028694816], [8.556602435510547, 47.31363378233635], [8.556740301823202, 47.31318133950613], [8.55680725484305, 47.312961645586334], [8.556825834200836, 47.31296461377836], [8.556867093844007, 47.31294532375571], [8.556903572482094, 47.31295036713643], [8.556917809368617, 47.312903903161555], [8.556880659952599, 47.31289841628973], [8.556854260840657, 47.31286943730374], [8.556753429568026, 47.31285467283782], [8.556759636338663, 47.31283527268305], [8.556770774204631, 47.312568309127194], [8.556781794525214, 47.31253055694725], [8.556850704110385, 47.312542527520556], [8.556867664049985, 47.31249914944826], [8.556848404870262, 47.31249528838488], [8.556921798592443, 47.31227374169602], [8.556941709340242, 47.31227714651708], [8.556969452556693, 47.31224404472451], [8.55697227793055, 47.31222107928892], [8.556949156685075, 47.31219071914998], [8.556868267447873, 47.312149225191796], [8.556850622822488, 47.31215929119489], [8.556834140267235, 47.312161699760466], [8.556820114064664, 47.312155089251355], [8.556821843156262, 47.31214292871585], [8.556776367673807, 47.312055665030265], [8.556785929005022, 47.312022784169805], [8.556761687086857, 47.312018458566], [8.556717240162188, 47.311999216573625], [8.556699616079053, 47.31194587414674], [8.556708221426174, 47.3118862955757], [8.55673213282699, 47.31186727254139], [8.556757994644451, 47.311838443671924], [8.556736726906191, 47.3118220355196], [8.556762006270167, 47.311754046598786], [8.556801113654851, 47.31176653984493], [8.556842945566048, 47.311821950388975], [8.556838335803464, 47.311866432027905], [8.556852009788864, 47.311866335452315], [8.556864108581506, 47.31183083054508], [8.556855283441907, 47.311802274928006], [8.556783673133975, 47.311724484760546], [8.556772504199573, 47.31167938245744], [8.556816744246108, 47.31154042546504], [8.556894402788144, 47.311386131352684], [8.556904412120502, 47.31135064667925], [8.55691066508768, 47.31127602373332], [8.55688253868342, 47.3112220096038], [8.556884483716487, 47.31121068366722], [8.556892883600325, 47.311211375832116], [8.556902992696235, 47.31118191703609], [8.556911555391423, 47.31118280550408], [8.556947352702156, 47.311051243545734], [8.557203233003644, 47.31107558690187], [8.557208257291459, 47.311059733380034], [8.556927338801842, 47.31102333622545], [8.556945589359124, 47.31097908222029], [8.557089378313062, 47.31070872775734], [8.55716314468309, 47.31072600293654], [8.557371571284772, 47.310542276169265], [8.557372698252285, 47.31046985276636], [8.557361828733644, 47.31042453175898], [8.55734030511368, 47.31037571582176], [8.557414602240547, 47.31041957622562], [8.557691804174688, 47.310205065460885], [8.55763690208823, 47.31017346663369], [8.557659858578331, 47.310093176660445], [8.557699658306532, 47.31007313581659], [8.557720144811809, 47.31007248729521], [8.55797523560379, 47.30987526342867], [8.558034816604772, 47.309911143271265], [8.558068024203008, 47.30988515771962], [8.55824332280768, 47.30998240517458], [8.55829865344455, 47.30994048973845], [8.558334697057198, 47.30989336408777], [8.558365185801875, 47.30989666632003], [8.558490951635248, 47.309681806032046], [8.558470323745512, 47.309675709548884], [8.55844349410411, 47.309500111136146], [8.55845867224321, 47.30949861442112], [8.558444903185954, 47.30940969409413], [8.558246056977882, 47.30941927020865], [8.55823638718535, 47.3093366067092], [8.558340564682078, 47.30932771567361], [8.558339235998574, 47.309258698711865], [8.558427735896137, 47.309253342253335], [8.558434233800046, 47.309247881527455], [8.558427537261123, 47.3092438984735], [8.558401790271988, 47.309245947583904], [8.558403622677767, 47.30923873342509], [8.558392364301653, 47.309237943213105], [8.558424179201408, 47.3090523305356], [8.55843676913806, 47.309053557427866], [8.558439725670913, 47.309036887230434], [8.558427806299763, 47.30903610357165], [8.558440822972429, 47.3089631149064], [8.55845275180017, 47.30896434828425], [8.558456312931835, 47.30894497370594], [8.55844372308759, 47.30894374689661], [8.558521869572356, 47.308508063299485], [8.558535120477726, 47.308509283708354], [8.558541052479205, 47.308476842879436], [8.558527810935256, 47.308476072047554], [8.55855079273514, 47.30834226794364], [8.558341203149245, 47.30831236895813], [8.558356098599392, 47.308265898226665], [8.558525906600199, 47.30829078628137], [8.558530931466686, 47.308278143985056], [8.558340552813345, 47.30824985751346], [8.558350470591632, 47.30821827753726], [8.5585448538129, 47.308248324315386], [8.558563299618179, 47.30824499689356], [8.558573670184693, 47.30823500130073], [8.55857208366613, 47.30822242318704], [8.558558672298888, 47.30821355815609], [8.558654778583177, 47.30790903229364], [8.558673866315365, 47.30790479883395], [8.558682225129646, 47.30789347351408], [8.558679363527425, 47.30788315663056], [8.55866862494822, 47.30787561481696], [8.55865138843504, 47.30787353347345], [8.558636937987938, 47.307878171566095], [8.558646685569666, 47.30783849729309], [8.558696430722636, 47.30784566012651], [8.558755010758803, 47.307612112020074], [8.558782844174411, 47.307614990031354], [8.558798778169836, 47.30755501613638], [8.55872254094159, 47.30754586173668], [8.558828430990621, 47.30714049256366], [8.55890003976845, 47.30714969180754], [8.55891962888434, 47.30707484023831], [8.55884869079142, 47.30706608429442], [8.558953369756944, 47.30666612365029], [8.558991705120274, 47.306665301554766], [8.559004785871064, 47.30665842799502], [8.55901316323033, 47.30664800191586], [8.559015884175423, 47.306557122409586], [8.559003040479794, 47.30648078670362], [8.559038969186748, 47.306333813943404], [8.559076775357777, 47.30633929369978], [8.559112815677663, 47.30632365161179], [8.55911944597355, 47.306293003031], [8.559096467389637, 47.30626938805726], [8.559040735994785, 47.3062604846171], [8.559045401809692, 47.30623075458517], [8.559059974432344, 47.30623196214864], [8.559078014645367, 47.30608336351748], [8.55908595737152, 47.30608373609161], [8.55908984875827, 47.306048616374696], [8.55908190613887, 47.306048243922916], [8.559085306401167, 47.30602122486528], [8.55905535937335, 47.30588613558425], [8.559042836679774, 47.305787290307656], [8.559167910554383, 47.30579139157639], [8.559168218758046, 47.30572355461219], [8.559034161913617, 47.30571865901037], [8.55902286369152, 47.30562963368301], [8.559037437814144, 47.30550490676805], [8.559200493825303, 47.30552356222862], [8.559236731970502, 47.30551736346407], [8.55925244737154, 47.30551001449968], [8.559272554334605, 47.30549137854387], [8.559374271021017, 47.30517105535975], [8.55940079978852, 47.305174845307555], [8.559403888118327, 47.30516447066754], [8.559437708028602, 47.30516908950731], [8.559457484468942, 47.305103231253604], [8.559397787358135, 47.30509436617981], [8.55942986994895, 47.30498476108206], [8.55966593813823, 47.30501664947086], [8.559761872719708, 47.30501931519579], [8.559855937289399, 47.30499591257748], [8.559932312510806, 47.304948844073664], [8.559983783046679, 47.30488087856199], [8.559986313561351, 47.30481248924223], [8.55995281469033, 47.30475075589192], [8.559868870446396, 47.30466728538361], [8.559790647123625, 47.30450045309809], [8.559761029979787, 47.30441258648273], [8.559771937612133, 47.30433377102575], [8.559850228796977, 47.304189084529085], [8.559914023611755, 47.30420420611536], [8.559950902322724, 47.30413413359762], [8.55987114697187, 47.304114669393165], [8.55991656263108, 47.3039788477062], [8.559922937269096, 47.303967541507824], [8.559980149500511, 47.303984076540985], [8.56001782133865, 47.30392029305327], [8.559957974280625, 47.303904233422706], [8.559971375200341, 47.30388116497362], [8.56005641815452, 47.303806126554925], [8.560098491471482, 47.30382595704322], [8.560132159093158, 47.303791897118565], [8.560090765928894, 47.30377295975995], [8.56012330963892, 47.30374835571909], [8.560085873426333, 47.30372892997048], [8.56008957546086, 47.30371630059932], [8.56009689459715, 47.303718478287166], [8.560135123414796, 47.30368122544602], [8.560167176472687, 47.30369620583369], [8.56021121336601, 47.30365215016935], [8.560179830888215, 47.30363761308669], [8.560228429147651, 47.30359036470795], [8.560305218618499, 47.303626049109184], [8.560342776854391, 47.303588353142416], [8.560266658103236, 47.30355311220843], [8.56034117928441, 47.30348087412947], [8.560401271695596, 47.30350862512842], [8.560443372264006, 47.30346683704032], [8.56038328932072, 47.303439535729474], [8.560442898725464, 47.30338138577729], [8.560536404077832, 47.303425902903804], [8.560577276846242, 47.303388624387146], [8.560482421107821, 47.30334277123167], [8.56059255441695, 47.303234655336574], [8.560795887755104, 47.30306221539167], [8.560845515470671, 47.30306398141546], [8.560938473070317, 47.30311390085652], [8.561224209647289, 47.302866896201735], [8.561188756804071, 47.302847451435404], [8.561177941159738, 47.30277334469973], [8.561185145784266, 47.30273864245598], [8.561220195377526, 47.302730745210695], [8.561279064039685, 47.30270284443843], [8.561330416435919, 47.302670932996044], [8.56137979190472, 47.30263494771671], [8.561418008416629, 47.3025990709364], [8.561467928350037, 47.302508514336104], [8.561478276924209, 47.30247428536237], [8.561507509964354, 47.302441356415464], [8.561561595443138, 47.30246646665661], [8.56158234272028, 47.30244692464392], [8.561409021542131, 47.30236484712343], [8.561438005479257, 47.30234710488773], [8.561416765059029, 47.30229479675759], [8.561432259322775, 47.30228705380587], [8.561450116401407, 47.302289794438984], [8.561459725328637, 47.30228138919642], [8.561429579529406, 47.30227155404663], [8.561239941442492, 47.30219075963299], [8.561230397972384, 47.30220290630271], [8.560951761685319, 47.30215850914337], [8.560930139415639, 47.30216159808059], [8.560912551702945, 47.302173553136804], [8.560846455113072, 47.30216835831554], [8.560855774904045, 47.30211474535227], [8.560841116187582, 47.30210940075507], [8.560445261012601, 47.30203967877454], [8.56020692474376, 47.301948922621385], [8.559562493549615, 47.301903311480594], [8.559293845838479, 47.301801665892086], [8.55925566324288, 47.30184991014921], [8.559163153803105, 47.30183312396941], [8.559130425985884, 47.3018564880369], [8.559083401821354, 47.30194719528236], [8.559085069628505, 47.301922702716546], [8.559066720409314, 47.30189965497636], [8.558837620357497, 47.301781333971206], [8.558801679966257, 47.30175369857591], [8.558783974866518, 47.30172793696795], [8.558776004619899, 47.30169786207067], [8.558779909930838, 47.30166781573697], [8.558795019724059, 47.301639846478544], [8.558598308363678, 47.30151845811975], [8.558443949330378, 47.30145174486191], [8.558042261738956, 47.30142133568155], [8.558040254517632, 47.30143029654139], [8.557581958174982, 47.30138669971492], [8.557496901823832, 47.30139168076253], [8.557329185346784, 47.301324178137875], [8.557280317108996, 47.30132323085324], [8.557041977601004, 47.30127042797394], [8.557036690448356, 47.30127874591279], [8.556793170788916, 47.301226721378974], [8.556692701122673, 47.3012104873927], [8.556463310895552, 47.301182738605], [8.556407774508537, 47.30117151107978], [8.556367529248645, 47.30115923585037], [8.55637839974797, 47.30113273828037], [8.55635905612714, 47.30112843717562], [8.556386890507259, 47.3010765880433], [8.556350077030018, 47.301012861870305], [8.556334172016932, 47.30103068301926], [8.556307905841829, 47.301045015292935], [8.556275786885637, 47.30105201917307], [8.556242105739571, 47.30105073525616], [8.556095464768449, 47.30100821401456], [8.556000235598754, 47.30098519108411], [8.55540842921578, 47.3008753691215], [8.555248966546792, 47.300836200290675], [8.555145824066871, 47.30080149635768], [8.5550496572405, 47.3007614264443], [8.554686870026188, 47.30059324356849], [8.554668188452245, 47.30058137964734], [8.55465289990374, 47.30056483220712], [8.554489177860782, 47.30050149679497], [8.554356820465188, 47.30044059261288], [8.554317775125028, 47.30041798725179], [8.554287944484875, 47.30039401542681], [8.554203566935609, 47.300385854334365], [8.554050142272965, 47.300357716744436], [8.553858502734672, 47.30029796119658], [8.553757407915658, 47.300245974252384], [8.553510525340998, 47.30020475201329], [8.553406369829329, 47.30019106965025], [8.553285661731008, 47.30018829669229], [8.552967436414253, 47.30030399457538], [8.552943984979224, 47.30035943468769], [8.552864815366561, 47.30048482133968], [8.552831724258352, 47.300525080404114], [8.552479548760886, 47.300404975605446], [8.55232554116656, 47.300336191067025], [8.55216839805525, 47.30025083118819], [8.552033204834496, 47.30019392741553], [8.551864885944441, 47.300148371550655], [8.551577207173413, 47.300096825072835], [8.551485240484975, 47.30007472040648], [8.551508083536524, 47.300045211123475], [8.551468916576127, 47.30002113972853], [8.55141154557748, 47.29999728881957], [8.551358379230145, 47.29996961029913], [8.551315013395216, 47.29994202609], [8.551285319210997, 47.299917548335905], [8.551182258854839, 47.299780634554], [8.550795476348025, 47.29941123762689], [8.550781808971372, 47.29939182255091], [8.550775313652986, 47.29937074615142], [8.55070507330819, 47.299286390481505], [8.550673773094827, 47.29917272137936], [8.550639038863123, 47.29897227137252], [8.550605151858496, 47.29884549395334], [8.550556677828403, 47.29874400807194], [8.550521060465565, 47.29869285308583], [8.550481397518967, 47.298647440145466], [8.5504312665526, 47.29860224505115], [8.55037393642217, 47.29856121214623], [8.550311922957107, 47.298525774489114], [8.550237390302053, 47.29849238243257], [8.550166656973479, 47.29846808399741], [8.550089752684306, 47.298450330708086], [8.549871628360743, 47.29841994122878], [8.549845704320123, 47.298409441548436], [8.549826788234913, 47.29839130922804], [8.549821914112702, 47.298362337169316], [8.549997348255687, 47.29789577582325], [8.55002481072261, 47.297868399210564], [8.550065487940255, 47.29785016049808], [8.550113261879993, 47.29784379922902], [8.550161011086786, 47.29785022059355], [8.54983460915799, 47.29768589886236], [8.549464274640268, 47.297404241258484], [8.549438680605384, 47.29737779860304], [8.548968061486978, 47.29732073983927], [8.548976529211819, 47.29704128060466], [8.548934241588725, 47.29697890014255], [8.548956774393007, 47.296547914726816], [8.548975476140605, 47.29647314525392], [8.548669990836393, 47.296435345658125], [8.548677112523027, 47.296370870377174], [8.54866194724668, 47.29630859754409], [8.548466355878473, 47.295957942541115], [8.54799574900748, 47.29587095122866], [8.547299035294838, 47.29590778491048], [8.546258137895371, 47.295820735531535], [8.545767359742506, 47.29529337802813], [8.5458754832615, 47.29522416424394], [8.54584611618884, 47.29520246148036], [8.545773618788647, 47.29522604157435], [8.545714065470113, 47.295223464771766], [8.545646741820763, 47.295209619354985], [8.544524817551858, 47.294885592521084], [8.544487852554365, 47.29484174376496], [8.544500073451902, 47.29479979813325], [8.54375167369815, 47.294530715055366], [8.543788645032548, 47.294464424674985], [8.543478382290404, 47.29426599026012], [8.543181582151028, 47.29417429097791], [8.542759089232636, 47.29397619974271], [8.542940979786978, 47.29382460426367], [8.542808197831711, 47.293746265276205], [8.542308567300916, 47.29342783674815], [8.542228103549204, 47.29349005400863], [8.54218613731982, 47.29352009526812], [8.542098892360459, 47.29357792459872], [8.542053652760014, 47.29360568534291], [8.541987512315826, 47.293643819743956], [8.541928394181326, 47.29367563516847], [8.541805858799117, 47.2937353400685], [8.541678015755885, 47.293789662403405], [8.540428084005773, 47.294276816366434], [8.540226312399668, 47.294359234142114], [8.539931452449826, 47.29448691449039], [8.539741836844351, 47.29457349704924], [8.539593618225775, 47.2946440232518], [8.539447193572837, 47.294716286239826], [8.539298407116567, 47.29479265547326], [8.539151613992196, 47.294870813564614], [8.539006879151746, 47.29495070589657], [8.538907412210417, 47.29500730003393], [8.538730847513289, 47.29511140530074], [8.53855769456582, 47.295218131383166], [8.538388058191725, 47.29532743231808], [8.537876380456199, 47.29566427436074], [8.537601961739538, 47.295849710820235], [8.53738344521218, 47.296002383705186], [8.537168505839105, 47.296157387915066], [8.536905028127569, 47.29635428641395], [8.536698713389324, 47.29651410101681], [8.536447351137, 47.29671648719761], [8.536250750231545, 47.29688070616472], [8.53605798554187, 47.297046993204646], [8.53586766425325, 47.2972170617054], [8.535589636232988, 47.29747595641033], [8.534920877719811, 47.29812337550365], [8.534784161403135, 47.298249341157316], [8.5346447090885, 47.29837217524362], [8.534428342461407, 47.29855254545395], [8.5342017336494, 47.29872939640032], [8.533965894021573, 47.298901755886725], [8.533885449320085, 47.2989580389521], [8.533681109621314, 47.29909580854632], [8.533471361102567, 47.299229734123635], [8.533256321078508, 47.299359733564714], [8.533036185658293, 47.299485697040176], [8.53281105918523, 47.29960755161641], [8.532581150976394, 47.299725187311154], [8.532441060281716, 47.29979342306798], [8.532299350316027, 47.29986009083331], [8.532156060914106, 47.29992519919693], [8.532011230657664, 47.29998869383733], [8.531864899213152, 47.30005057436858], [8.531545339287657, 47.30017887148828], [8.531371741967543, 47.300244715792566], [8.531196326781997, 47.30030833720509], [8.53101922522147, 47.300369698494386], [8.530840423708085, 47.30042878178411], [8.530660054297579, 47.30048557683768]]]]}}]}