{"type": "FeatureCollection", "features": [{"type": "Feature", "properties": {"bfs_nummer": 1505}, "geometry": {"type": "MultiPolygon", "coordinates": [[[[8.385585879462186, 46.99831866971195], [8.386093264754587, 46.99849246360729], [8.386254023500584, 46.99847622105108], [8.386558963342498, 46.99854968883302], [8.387198096339008, 46.998714103671354], [8.387921377915928, 46.998792592194626], [8.388277969737777, 46.99887863642429], [8.38862327630772, 46.99899039356492], [8.388847442657893, 46.99901295203129], [8.389130905348669, 46.99914363414518], [8.390379386325314, 46.999580204091416], [8.390671548235797, 46.99962420748817], [8.391060153799662, 46.99969163570084], [8.391404077907659, 46.99969819930062], [8.391851347899422, 46.999730377779805], [8.392658573298947, 46.99991716884421], [8.393126343726893, 46.999996579804176], [8.393420210937201, 47.00005265255365], [8.393766991701076, 47.00006439446664], [8.393999099734879, 47.00008428698233], [8.394270150500683, 47.00007584137575], [8.394357973994024, 47.000117263453426], [8.394506658233713, 47.00019666339636], [8.394807342770482, 47.00029350823905], [8.394929227794323, 47.00035063251952], [8.395138201632115, 47.00043290311739], [8.395394478310276, 47.00060536788461], [8.395523771443372, 47.00066784566216], [8.395744831988374, 47.00071916765376], [8.396129397147252, 47.000808436123975], [8.396352803725184, 47.000871844507344], [8.3964394883972, 47.000835263244106], [8.396593411575145, 47.000770305371496], [8.396615637350624, 47.00076092600462], [8.396663274472798, 47.000740828588405], [8.396746043843358, 47.00070589953228], [8.396944203279123, 47.000703045997085], [8.397015994051731, 47.0007020245871], [8.397257497973683, 47.00069855059286], [8.39746747865945, 47.000658815325316], [8.397966545339564, 47.00038576930122], [8.39804509966971, 47.00037419741377], [8.398169166760448, 47.00035590040761], [8.39836465345776, 47.00032708024932], [8.398546731447134, 47.00025876329235], [8.398644797217996, 47.0002219772273], [8.399045388438747, 47.00000546525442], [8.399224378422504, 46.999908719185854], [8.399975932945996, 46.99983787803439], [8.40003596069044, 46.99983433444187], [8.400142919364962, 46.99982799491777], [8.400289860797056, 46.99981929527385], [8.40042439871049, 46.999842635256925], [8.400693753181868, 46.99988934148888], [8.40082010178337, 46.99989002708804], [8.401120045285552, 46.99989161935565], [8.401196660633607, 46.99989203968027], [8.401248972977626, 46.99989232077208], [8.401649867007832, 46.99980027506178], [8.40173512951217, 46.9997807042929], [8.40202281693393, 46.99981066568645], [8.40215723679249, 46.9998500716671], [8.402278109819733, 46.99988551846723], [8.402619601900602, 46.99995857464549], [8.403078025964987, 46.99998534301188], [8.403185583105907, 46.999934762750726], [8.403361907282349, 46.999851866651206], [8.403474309965793, 46.99984264432839], [8.403607680957492, 46.999831707380274], [8.403661643990937, 46.99982728614308], [8.403791784975319, 46.99981661009471], [8.403945504415205, 46.99972858664924], [8.404193673917995, 46.99975021999438], [8.404461465509602, 46.99977355765914], [8.405362270967922, 47.00006870663312], [8.405604357852683, 47.00019417285277], [8.405773476509847, 47.000136954583866], [8.405942463461695, 47.00007978132307], [8.406011286432182, 47.00005649472312], [8.406139718526891, 47.000013039994926], [8.406278017777352, 46.99996623660377], [8.406364013816683, 46.99993713785431], [8.406437515535718, 46.99991227346896], [8.40669713033185, 46.99980594374988], [8.407084693757167, 46.999863214884485], [8.407264565935927, 46.9998897899406], [8.407356655139656, 46.99987485245304], [8.407423152105737, 46.99986407094137], [8.407578159115058, 46.99983892218473], [8.40766242801681, 46.99980452927295], [8.407681041533257, 46.99979694141508], [8.407739792418726, 46.99977296580168], [8.407782279304916, 46.99975562256857], [8.407803881525858, 46.99974680379138], [8.40783451646351, 46.999734310286065], [8.40785293385891, 46.99972678702315], [8.407868558121478, 46.999720420677875], [8.407905406007089, 46.99970539159152], [8.407941389969896, 46.99969069116498], [8.407958149128449, 46.999683855715375], [8.408047103710633, 46.99964755200403], [8.408172530064094, 46.99959636957581], [8.408227181888593, 46.999574065551315], [8.408524244954453, 46.99953202386503], [8.408742524515695, 46.99950111200217], [8.408924124811497, 46.999482178179534], [8.409024264625296, 46.99946970735877], [8.409194122016759, 46.999448560389396], [8.409236077830986, 46.99944333843145], [8.4094535676137, 46.99935645063803], [8.409592518751273, 46.9993102420674], [8.409657986643781, 46.9992884740428], [8.409775254633065, 46.999249475549426], [8.410047030145963, 46.999354836702814], [8.41015411327231, 46.99941213261177], [8.410300901448789, 46.999450992376175], [8.410535898684387, 46.99924905973638], [8.41068855387703, 46.999169744464474], [8.411182219179654, 46.99902776827057], [8.411384968691477, 46.998975239506265], [8.411424741856127, 46.998937416070405], [8.411547292484846, 46.99882087752504], [8.411690050947646, 46.99883261962331], [8.412096406221579, 46.998771290760494], [8.41223172317717, 46.998756260526385], [8.412592392943093, 46.998616370156576], [8.412829038706118, 46.998515378560384], [8.41298926392901, 46.99844701602356], [8.413211490720586, 46.99835217354563], [8.413416106831477, 46.9982875440949], [8.413767719785412, 46.998229184635356], [8.414301535166718, 46.99819049507379], [8.414390781501437, 46.9981930368066], [8.414465267639038, 46.99819516445712], [8.41462222476603, 46.99819963024382], [8.414942495564695, 46.99828566080354], [8.415351929694449, 46.99834279315632], [8.415629374371791, 46.998381504279735], [8.416932016973586, 46.99841385229927], [8.417393943199375, 46.998379110385414], [8.419072853550363, 46.99827200575781], [8.419689520278308, 46.998329883609266], [8.420132975371944, 46.99825657092535], [8.421326353866771, 46.99817119353856], [8.421764853621207, 46.998244042214615], [8.422328759667044, 46.99819299532522], [8.422413749314789, 46.99800481151514], [8.422719879621633, 46.99800938054352], [8.423081198207607, 46.998014772236814], [8.423637261787556, 46.99807822289515], [8.424045618182653, 46.998117535396325], [8.424518601369583, 46.998151856054996], [8.42467597278823, 46.99809714946673], [8.425174184844817, 46.99814340451118], [8.426013356454005, 46.998141068277796], [8.426378918195608, 46.99833920095659], [8.426966614915107, 46.998635466960586], [8.427440348762854, 46.998799276259064], [8.427417137579821, 46.99886338173039], [8.427124343380946, 46.99915303886965], [8.426738495541214, 46.99944333557968], [8.426784024508706, 46.99963612324813], [8.426948414503434, 46.99991364997046], [8.426980644761917, 47.00033495824027], [8.42696820552888, 47.000410842142344], [8.426912860349823, 47.00074830398878], [8.426945942639996, 47.001384486989394], [8.426979612099446, 47.0017029487293], [8.426769347883862, 47.002248936118896], [8.427985387800149, 47.01720756617955], [8.45847562132763, 47.011332808956816], [8.469069312981789, 47.00928943352347], [8.46816713490357, 46.99652358139248], [8.46523693418911, 46.984270220481804], [8.450763995898484, 46.98358913286817], [8.428227542556419, 46.98401062992483], [8.419045011604101, 46.9808737939567], [8.415792843462642, 46.97898828610719], [8.415273302977493, 46.97872376488822], [8.415220459066157, 46.978681538801915], [8.415157310379154, 46.97874269049105], [8.41512616849582, 46.978728013637536], [8.415114331746732, 46.978692913769585], [8.4150833087317, 46.978663806585224], [8.415015971358441, 46.978627587082705], [8.414941703453959, 46.97859838932146], [8.414819111997394, 46.97855797131454], [8.414541093430666, 46.97892837498751], [8.414506461799359, 46.978963969368756], [8.414491194467718, 46.97899395646793], [8.414474039321858, 46.97906834502621], [8.414446046360897, 46.97910906445996], [8.414275939100087, 46.97930962558938], [8.414227694935631, 46.97929267423808], [8.414096469060546, 46.9794847086815], [8.413784894213158, 46.979524844452726], [8.412996690202641, 46.97957093761092], [8.406112003702903, 46.97847548399565], [8.38785009718179, 46.972438012522574], [8.387951456130583, 46.97325562860779], [8.388140884909257, 46.97345001542622], [8.388644172705396, 46.976571569075524], [8.38868101784503, 46.97687649094067], [8.38875269251503, 46.97756922053904], [8.388763066746712, 46.97775445690597], [8.388049594998042, 46.9783832979435], [8.387812683787336, 46.978747057142755], [8.3873848415538, 46.97932575259242], [8.386379739374872, 46.980295120085046], [8.385657975492897, 46.980733699999334], [8.385375913912085, 46.98102443899004], [8.385093912653888, 46.981414106489446], [8.385038594542992, 46.981541972364916], [8.384639849487513, 46.983409747075505], [8.386011077485787, 46.98464247713397], [8.38728101747833, 46.98611277750365], [8.387786144251875, 46.987211773806784], [8.388780602805685, 46.98891409601838], [8.386365529176707, 46.99267055918383], [8.3829003035211, 46.992651960985015], [8.378240565666374, 46.99308870165967], [8.37410781965198, 46.99507938670915], [8.374488648865071, 46.99523788094905], [8.374697907381714, 46.99534174839093], [8.374882504666674, 46.99542478291271], [8.375631215417863, 46.99571577159413], [8.375799962985347, 46.99587194706674], [8.376142317771142, 46.99608235875809], [8.37646153616969, 46.996241726704554], [8.376742947319874, 46.99632990438698], [8.377133684538755, 46.99647663126592], [8.37744242680189, 46.99655919487856], [8.377598228073733, 46.9965942710468], [8.377921514223235, 46.996618997488206], [8.378137735641845, 46.996618224523964], [8.378345646649048, 46.996667760127494], [8.379055530536917, 46.996779560328115], [8.379636377541209, 46.996803349670046], [8.380486910155112, 46.996959146792925], [8.38071761755312, 46.99701726287924], [8.381047291301511, 46.99703258236157], [8.38132883876682, 46.99708064517843], [8.381408098281401, 46.997097193708385], [8.382039634265391, 46.997283935849616], [8.382806085729332, 46.99740454388256], [8.383105970017324, 46.997540953811345], [8.38333927698599, 46.99756490461644], [8.383918468662364, 46.99770088207127], [8.384431731411077, 46.997988070494976], [8.384598427490037, 46.99804244320186], [8.384885299789323, 46.99821831908681], [8.38538460815547, 46.998213974681185], [8.385585879462186, 46.99831866971195]]]]}}]}