{"type": "FeatureCollection", "features": [{"type": "Feature", "properties": {"bfs_nummer": 1509}, "geometry": {"type": "MultiPolygon", "coordinates": [[[[8.385038594542992, 46.981541972364916], [8.385093912653888, 46.981414106489446], [8.385375913912085, 46.98102443899004], [8.385657975492897, 46.980733699999334], [8.386379739374872, 46.980295120085046], [8.3873848415538, 46.97932575259242], [8.387812683787336, 46.978747057142755], [8.388049594998042, 46.9783832979435], [8.388763066746712, 46.97775445690597], [8.38875269251503, 46.97756922053904], [8.38868101784503, 46.97687649094067], [8.388644172705396, 46.976571569075524], [8.388140884909257, 46.97345001542622], [8.387951456130583, 46.97325562860779], [8.38785009718179, 46.972438012522574], [8.386974971657322, 46.96508703219832], [8.383419518004603, 46.96412006788173], [8.382043278424414, 46.96349405819329], [8.379864296398738, 46.9622993358232], [8.379014898570029, 46.96186309282105], [8.378518953459794, 46.961158507032934], [8.37758835307833, 46.95991977426983], [8.376684017500292, 46.95875459366861], [8.376085008428067, 46.9589275267058], [8.37575301372559, 46.95903155205333], [8.37326749607364, 46.95664986823557], [8.372570502474614, 46.95572607628108], [8.372870396112628, 46.95566418800904], [8.372751310113204, 46.95535421875516], [8.372707126866462, 46.95508817714221], [8.372071739327984, 46.95418776436143], [8.371865059915192, 46.95405635539083], [8.371719512236496, 46.95411645405397], [8.371125206464466, 46.95386168338307], [8.370659990826331, 46.953719484533906], [8.370465757742254, 46.95362746322435], [8.37031403407566, 46.95360110704529], [8.370296046828484, 46.953586590438796], [8.369688252712116, 46.95345874398306], [8.368872056379482, 46.95283578550707], [8.36959942242122, 46.95262751623161], [8.37014530808439, 46.95247653289905], [8.36960332564482, 46.95217771623179], [8.36949087935418, 46.95205839201117], [8.369235342163739, 46.95171368906206], [8.36906270137068, 46.95134078554577], [8.368638441812307, 46.95071457027104], [8.368337784656514, 46.95079022650299], [8.36777032614183, 46.95004721017234], [8.367435463982442, 46.94952529260009], [8.367203501784815, 46.94909896466457], [8.367312494148768, 46.94871327149186], [8.367449360218952, 46.94869789533514], [8.367829774593016, 46.9482909932578], [8.367830384205691, 46.94815446061538], [8.367748287990214, 46.948063559062504], [8.367640561872726, 46.94777568754674], [8.367534113369356, 46.94758296297521], [8.367369498343045, 46.947068677323145], [8.367284818104082, 46.94683565430643], [8.367281045205683, 46.94660586065563], [8.367390441597877, 46.946156640527576], [8.367407228585716, 46.94602889895097], [8.36732097381979, 46.94587199158776], [8.367447458463591, 46.945818764652365], [8.36784715718547, 46.94548374486526], [8.367994518681353, 46.94530921234637], [8.368097139086716, 46.944989562634255], [8.36813521070261, 46.94483157225012], [8.368102857377174, 46.9447554627815], [8.368077712344391, 46.944669976841276], [8.36806542763392, 46.94459911834195], [8.36805540851124, 46.94447997069781], [8.368049000434853, 46.94433109036269], [8.368051741122573, 46.94422132171597], [8.368065946099996, 46.944095491342], [8.368084506499805, 46.94403163377512], [8.36810770612437, 46.94398541484687], [8.368218737634441, 46.94380674157294], [8.36841651904134, 46.94355160371745], [8.368474179030382, 46.943486816722476], [8.368548962627898, 46.94341338147037], [8.368828229657597, 46.9431710572785], [8.368908068148793, 46.94309453967938], [8.368952169655426, 46.943028881869765], [8.368984753407991, 46.942948141804976], [8.369017948293385, 46.94273792264585], [8.369087194751653, 46.94196412727499], [8.369352286405745, 46.940888824294774], [8.369116795819822, 46.93843770478013], [8.369443125557433, 46.937182001320025], [8.370045771290584, 46.936411584776124], [8.369676018072578, 46.936068272006295], [8.369724069844912, 46.93588526787151], [8.369489368900604, 46.935755844893066], [8.369278310429447, 46.935628037267925], [8.368842801208425, 46.93543007717028], [8.368433084419, 46.9352804831351], [8.367995059307214, 46.935165310820565], [8.367254487145711, 46.93505232004538], [8.36669413850791, 46.935047241167645], [8.36602480233491, 46.935074259640274], [8.365337237509257, 46.9351104272145], [8.364858117156993, 46.93489571880196], [8.364627544714315, 46.93477705674476], [8.364414022578336, 46.93450442057697], [8.363790953994064, 46.93439521635041], [8.363494890547688, 46.93443899787603], [8.363192675072522, 46.93442974468327], [8.36252853823982, 46.934376659983464], [8.36201349265631, 46.934286369172376], [8.361784520942072, 46.93433679378075], [8.36137736357452, 46.934411150330334], [8.360925217872008, 46.93446606579091], [8.360759038386508, 46.93457895061837], [8.360544567323645, 46.93463285959402], [8.360019382752998, 46.93456423421055], [8.35965548652009, 46.9344817101933], [8.359074793202433, 46.93431546948777], [8.358280910812264, 46.93404750338103], [8.357956112968196, 46.93402313211552], [8.357541133101376, 46.93394820497679], [8.357124663611662, 46.933785140650194], [8.356876335084575, 46.93375664459268], [8.356594145072657, 46.933789401006564], [8.356182622794456, 46.9336082904795], [8.355948106443584, 46.933334014657675], [8.355552648333699, 46.93309341081743], [8.354624809255952, 46.93274641950379], [8.354216235487469, 46.93250681868258], [8.354042261075664, 46.93231570968783], [8.352439202323708, 46.93218731528017], [8.352218729020938, 46.93204155293055], [8.351007207482828, 46.93192260312559], [8.349865966158989, 46.93148823454038], [8.349243212156454, 46.93136276423996], [8.347499066200706, 46.93150797727746], [8.34591988119266, 46.93139100813865], [8.345323285785408, 46.93128960187648], [8.345821057294907, 46.93518514554399], [8.34609050262162, 46.936326127033865], [8.346186358573982, 46.93721875456102], [8.346600026030675, 46.93985553706365], [8.34678819894566, 46.940963150177915], [8.346877394425924, 46.941266469377965], [8.346967625074775, 46.94163096119697], [8.346975058769498, 46.94183779405398], [8.347024502752928, 46.94204338517414], [8.347066421032672, 46.942191471950316], [8.347204610135634, 46.94251869992005], [8.347184742452042, 46.94281838624074], [8.347147697144267, 46.94311282034543], [8.34711919214444, 46.943213797802144], [8.347113156574187, 46.943400038043855], [8.3470584080838, 46.943580376543316], [8.3470167818602, 46.94399267763749], [8.347073702866924, 46.944716322216884], [8.346954082884716, 46.945022206417185], [8.346955268140622, 46.945247081353564], [8.346861594604942, 46.94568857741461], [8.34667869273348, 46.946140477364025], [8.346711829767687, 46.94629579494189], [8.34674584109548, 46.94642348971794], [8.347041892986411, 46.94669386527784], [8.347156167845343, 46.94691964210536], [8.347118637255349, 46.947263268495256], [8.347045174318737, 46.9475871559688], [8.34703082087574, 46.94779887621183], [8.347088054266836, 46.94803899591319], [8.347103253290589, 46.948186728966014], [8.347160404635437, 46.94846390313229], [8.347106367035057, 46.948587033453805], [8.346950956690636, 46.9488338490719], [8.347036655576238, 46.94927198416217], [8.34693795404046, 46.949449614034116], [8.346930703359513, 46.94958803514032], [8.34702903207134, 46.94991526068372], [8.346939646018606, 46.95021421663633], [8.346955312463002, 46.95033357443325], [8.34707876472788, 46.95035101897434], [8.34715127195036, 46.950387083688874], [8.34727441880109, 46.95075565100895], [8.347408875194834, 46.95133381948741], [8.347529528502786, 46.95155696425679], [8.347565142220446, 46.95178065761922], [8.347697590053992, 46.95210065548127], [8.34795713306676, 46.952315204746796], [8.348132047515024, 46.952466114185015], [8.348254177096617, 46.952606961785435], [8.348279323762359, 46.9526994540526], [8.34824730172863, 46.95289545629613], [8.34847131664318, 46.95319170588554], [8.348588269551243, 46.95344175826308], [8.348644703509779, 46.953640115842894], [8.348792254408895, 46.95381174263629], [8.348582295228056, 46.955526581042456], [8.348411949771558, 46.95699238036876], [8.34845760498654, 46.958203386080676], [8.348694014358628, 46.95829679967221], [8.348253198893332, 46.95882249311297], [8.348483930298476, 46.958931172996884], [8.348502721357614, 46.95942018603794], [8.346454924347636, 46.96005881979429], [8.343333481159874, 46.960743652906054], [8.342569468979647, 46.96312239114042], [8.341671953391826, 46.965765977317275], [8.341921974840002, 46.96604482614133], [8.341817260428378, 46.96626501454414], [8.341742595476182, 46.96653346331282], [8.34180814851093, 46.96685382904935], [8.342815399561662, 46.968463265872735], [8.342933690094334, 46.96939049273983], [8.345718263401574, 46.97015165663956], [8.347956529884478, 46.97094536114515], [8.34857480551833, 46.97011148005873], [8.350516310723547, 46.9695049623373], [8.35127840802777, 46.970060827287625], [8.351129824971787, 46.970177452368986], [8.351872519860787, 46.97104364107538], [8.35217753379148, 46.97240356253894], [8.352370226597614, 46.97258271955918], [8.352958777867244, 46.972878212983886], [8.353381963226141, 46.97297921070832], [8.353906153231076, 46.97308805629715], [8.354357521912206, 46.97320530740503], [8.35498141238649, 46.9733948543733], [8.355458075790468, 46.97346460754509], [8.356314960209188, 46.97409369351993], [8.356686730186771, 46.97418752518683], [8.357115283214162, 46.974249353299044], [8.357641272947488, 46.97424483831791], [8.358131928331332, 46.97429599089361], [8.358199110092793, 46.974245094021256], [8.358749737420611, 46.974256459615646], [8.359251190382121, 46.97436193018453], [8.359513965151539, 46.974466914464514], [8.359995828912663, 46.97464996549165], [8.360484880082637, 46.97492138868026], [8.36103116548869, 46.97506172517394], [8.361382057975812, 46.975325745908755], [8.361799487626085, 46.97549672556916], [8.362203530290188, 46.975742817764555], [8.36253095509326, 46.97611199645494], [8.362867030459777, 46.97604809912796], [8.363742887514883, 46.97627687872754], [8.364737986528256, 46.976625294282776], [8.365335089348973, 46.97703447531556], [8.366203065410065, 46.97723016549224], [8.366637572263643, 46.97765167777321], [8.366837902230634, 46.97798520552684], [8.368690277018455, 46.978337672260324], [8.369673297243908, 46.978677515196566], [8.371296106596175, 46.97939879360622], [8.373336199289248, 46.98003726039841], [8.374592380328576, 46.98028386548308], [8.375988491008581, 46.980480583356744], [8.37707901917576, 46.98087557528487], [8.37812897105332, 46.980829534374145], [8.378891260262039, 46.98098999588954], [8.380682553380538, 46.98121522333752], [8.382277648690353, 46.981429562845015], [8.382598287912257, 46.98146502976993], [8.382905268334023, 46.9815041342298], [8.383142633240661, 46.98161258449568], [8.383681482738261, 46.98183907485742], [8.38397596127715, 46.981927093384876], [8.383910728067729, 46.98170278436117], [8.384328968298764, 46.981665211806494], [8.384712747986036, 46.98160782443587], [8.385038594542992, 46.981541972364916]]]]}}]}