{"type": "FeatureCollection", "features": [{"type": "Feature", "properties": {"bfs_nummer": 156}, "geometry": {"type": "MultiPolygon", "coordinates": [[[[8.66741164172925, 47.26121528180347], [8.666718426700056, 47.2614219421394], [8.666702749487904, 47.26142975557685], [8.666692470248094, 47.261442458979346], [8.666691480004852, 47.26145686256681], [8.666701729380105, 47.26147159620585], [8.666718449801111, 47.26148041372511], [8.666748226025353, 47.261482345383975], [8.666823062778574, 47.26146130768974], [8.666842654028924, 47.26150877579354], [8.666847898261183, 47.26153570685673], [8.666843711234158, 47.261612214534324], [8.666823773217692, 47.26166460177335], [8.66676340855963, 47.261740358716665], [8.666686364566537, 47.26180909679973], [8.666629775620606, 47.26184793125905], [8.6665135211137, 47.2619067420188], [8.666405481373884, 47.261949272966746], [8.666388761904006, 47.26196924153487], [8.666339782436415, 47.261986162364785], [8.666284449142546, 47.26198363916376], [8.666214723425254, 47.26199021998929], [8.666179741267369, 47.262006137228255], [8.665243450759828, 47.26207139284718], [8.665201755522014, 47.26207120694807], [8.66520207994933, 47.262044486239155], [8.665186467622709, 47.26204536305548], [8.665186578660741, 47.26205134411942], [8.665160508048396, 47.26205082086502], [8.665164078971651, 47.2620216099149], [8.66514558251492, 47.26202176178965], [8.665146718682953, 47.26198722439733], [8.665068046443976, 47.261986883164134], [8.66506996962879, 47.262070630358956], [8.664675496766614, 47.26206888112093], [8.664615603812932, 47.26206861881026], [8.66463499904045, 47.26205754550405], [8.664586968049816, 47.26205421528591], [8.664585789198147, 47.26206847719481], [8.664181032993483, 47.26206430782062], [8.664162466360896, 47.26205334160033], [8.664099874742226, 47.26205237891479], [8.66410096173487, 47.262002999221025], [8.664068993052721, 47.261968867862436], [8.664008458651168, 47.2619671367502], [8.664013837997404, 47.26181973982579], [8.663992595214582, 47.26181883228335], [8.663980488565086, 47.26179741637], [8.663959082780442, 47.26178594960105], [8.663945139055068, 47.261782949375586], [8.663910831806636, 47.26178511325026], [8.6638925221285, 47.261793403984896], [8.663879589721935, 47.26180568564941], [8.663873974999355, 47.26182013851947], [8.663634721964781, 47.261816834306096], [8.663619684082674, 47.26182374092735], [8.66362057168482, 47.26183362689505], [8.663634566978471, 47.261838875530444], [8.663644423596963, 47.261836521792105], [8.663650874476556, 47.26182970660019], [8.663901346370121, 47.26183244146877], [8.663935477557065, 47.26188020522908], [8.663945313253558, 47.2619057382368], [8.663949255264159, 47.26196236887934], [8.663930119532077, 47.262018750171826], [8.66389984962415, 47.26201144339408], [8.663860458713835, 47.262022998731744], [8.663857599839467, 47.262060811012084], [8.663614488522148, 47.262058132743185], [8.663615603785805, 47.2620203390899], [8.663396052968519, 47.262016474473484], [8.663341386070313, 47.2619346641927], [8.66331517458321, 47.261927413380675], [8.663285425451436, 47.26190073353136], [8.663223322505809, 47.26187208560145], [8.663174252220472, 47.261869521485316], [8.663150166212278, 47.26186448791889], [8.663108474373923, 47.26186559655613], [8.663035710777995, 47.2618774342032], [8.662984102267291, 47.26190479847119], [8.66294211782461, 47.261943296078535], [8.66292297551251, 47.26197637849901], [8.662915338890592, 47.26201159661425], [8.662881700899133, 47.26203258993233], [8.662818895237264, 47.262053992082464], [8.662742353546994, 47.26209184011297], [8.662664869997103, 47.262106471292256], [8.662613240206747, 47.262132351245825], [8.662598948168798, 47.262148173447024], [8.662284694916009, 47.26228698462258], [8.662244008074708, 47.26228583332201], [8.66219234343608, 47.26231020235277], [8.66215790967134, 47.262309749194486], [8.662108435249985, 47.26233859265844], [8.662054064222477, 47.26238325785204], [8.661989377018251, 47.262472551479], [8.661926251911352, 47.262538898597214], [8.661846298607518, 47.26258017335773], [8.661755237944838, 47.262615359129946], [8.661694984450529, 47.26262708116686], [8.66165471490459, 47.262647622815535], [8.661528848690292, 47.26266440381026], [8.661526067812979, 47.26268088631486], [8.661760591072653, 47.26278218038347], [8.661749205579701, 47.26280434055132], [8.66158798416912, 47.26275216756564], [8.661589736509166, 47.26283966741577], [8.66157847438306, 47.26290184780987], [8.66155979533384, 47.262958097894305], [8.661451232076592, 47.26295378042947], [8.661445209426867, 47.262964306284736], [8.66148087873194, 47.26299677984499], [8.661466761835609, 47.26302143367191], [8.661539267106765, 47.2630495944544], [8.661515169410306, 47.26307292391961], [8.66148521297337, 47.2630873918441], [8.661465255779193, 47.2631316911932], [8.661465179571396, 47.263180304533726], [8.661437723960015, 47.26321569677459], [8.661381172497732, 47.2632558234792], [8.661352720329097, 47.263292710611324], [8.661342726566089, 47.263314487202], [8.661300509664267, 47.26334177799976], [8.66128003996039, 47.26336138975443], [8.66121616113025, 47.263400091789514], [8.661222657710814, 47.26341199608444], [8.661180491910985, 47.263441526185154], [8.661157717644464, 47.26344994478928], [8.661109480141926, 47.26343763760991], [8.661111845659311, 47.26345034140952], [8.661101784686545, 47.263469761906286], [8.661043855356793, 47.263510334808], [8.66075978748736, 47.26368561357909], [8.66085350052299, 47.2637673797609], [8.660910672398801, 47.26384670887455], [8.660906504016843, 47.263872453296884], [8.660865398507978, 47.2639027187127], [8.66082190272226, 47.263918040732825], [8.66082118278097, 47.263934510374895], [8.660785760976003, 47.263957330141515], [8.660765230632194, 47.26392349036689], [8.660760804121065, 47.26390329709177], [8.66077496838974, 47.26385816873763], [8.66081079779511, 47.26380696347043], [8.660768204187697, 47.26376468593179], [8.660708972754582, 47.263717187288655], [8.660607993522133, 47.263779878114896], [8.660526660026239, 47.2639215219808], [8.660486973535106, 47.26406407388478], [8.660313961505596, 47.26409739229808], [8.660336313728184, 47.26415022959555], [8.660469845535498, 47.26412407638737], [8.660458230540772, 47.26416512948555], [8.660448730432762, 47.26435638748248], [8.660455517123872, 47.26442198381538], [8.660273348514608, 47.26445944746505], [8.660186439664685, 47.26447296248829], [8.660010444663149, 47.26449146951346], [8.65992201912706, 47.264496454519154], [8.659756883868186, 47.26449865409983], [8.659731203540629, 47.2642713365986], [8.659736344447113, 47.26423841193958], [8.659756478284647, 47.26420234188915], [8.659805683848285, 47.26415929821436], [8.659898938649405, 47.26412858857037], [8.66013591238135, 47.26408843067453], [8.660132508894556, 47.26407424464184], [8.660090959548533, 47.26408281702129], [8.660077331740458, 47.26407920127114], [8.660017144712338, 47.26409391724595], [8.659997254218526, 47.26409034985878], [8.659849687221856, 47.26411702929205], [8.659849866024457, 47.264126005036836], [8.659826013196067, 47.264132932521534], [8.659817552962343, 47.26412703107127], [8.659780391716165, 47.264146045751566], [8.65974964144801, 47.26417323250304], [8.6597350761676, 47.26417485309317], [8.65971773690043, 47.264194440364875], [8.65972722034424, 47.26419885570495], [8.659722320979727, 47.26421460503798], [8.659707704264132, 47.26421397723841], [8.659685959625131, 47.26424374948483], [8.659662546876545, 47.26424507692168], [8.659660876039316, 47.26422980187423], [8.659608751932998, 47.26423305272439], [8.65961042272549, 47.26424832773721], [8.659514080887918, 47.2642538460872], [8.659192286142448, 47.264253206292835], [8.659133327893219, 47.26423266373272], [8.659085779403997, 47.264239518446686], [8.659049397801702, 47.2642348390358], [8.659006929904923, 47.26422058066526], [8.658967290674163, 47.264220226726614], [8.658943164724441, 47.26421231416332], [8.658865144480853, 47.264211143324275], [8.658642919246612, 47.26418255969979], [8.65866308503944, 47.26411083089772], [8.658646943686213, 47.26410130450967], [8.658621882818899, 47.26409932083308], [8.6586023506482, 47.264108541265074], [8.658500350282837, 47.264104682203225], [8.658488456658091, 47.26410061613981], [8.658425772699422, 47.26409455079804], [8.65838724487315, 47.264097144484886], [8.658350611501357, 47.264090110731736], [8.65832673054594, 47.26409812672853], [8.657870840111826, 47.264080983023014], [8.657855570931236, 47.2639950471448], [8.65782015749874, 47.26399687011634], [8.657821801175173, 47.26400635215907], [8.657773147193401, 47.264008782892454], [8.657752536153705, 47.264004907751335], [8.657495311268153, 47.26401995221495], [8.657487845286273, 47.2640257525321], [8.656704549086788, 47.264019100493336], [8.656670606761642, 47.264124258217585], [8.656614021402252, 47.26411383655838], [8.656619017857906, 47.26410230528254], [8.656539518902, 47.2640890221261], [8.656518419927862, 47.26410083141393], [8.656445189770388, 47.2640906576019], [8.65644448224214, 47.26405963010052], [8.65642992916625, 47.2640588844692], [8.656442471242434, 47.26403228667502], [8.656434559221125, 47.26400057068096], [8.656372973823073, 47.263997461226005], [8.65634086697313, 47.26400810944201], [8.656339842698845, 47.264018825092336], [8.65631476962418, 47.264019197903814], [8.656315860697124, 47.264009093256064], [8.656282284180747, 47.26399759176606], [8.656231265007712, 47.264001774001464], [8.656201266304791, 47.26401389310026], [8.656187991495255, 47.2640280665503], [8.656219678825982, 47.26415493906742], [8.656164740892216, 47.264170991757744], [8.656126270708405, 47.26417728124524], [8.656119879308571, 47.26416994533367], [8.65603246978014, 47.264178910692806], [8.656041685671427, 47.264223197817145], [8.656023154516648, 47.264235195800026], [8.655978326709183, 47.26423563324712], [8.655953496063244, 47.26424548487692], [8.655803982817655, 47.2642558618018], [8.655781022710586, 47.26414310125222], [8.655715130524856, 47.263890120248725], [8.655620205998426, 47.26389229198371], [8.655641295539585, 47.26398445434955], [8.655643063479467, 47.26409103396537], [8.655481683571132, 47.26411242927878], [8.655421771288344, 47.2640864796086], [8.655409791984633, 47.26406066265291], [8.655370992217325, 47.26406871873956], [8.655358476880926, 47.264041414149425], [8.655227833249965, 47.26407029294793], [8.655213723463431, 47.264058855258355], [8.655129553481014, 47.26407370487535], [8.655101361862942, 47.26407176252156], [8.65506298882893, 47.26408173884714], [8.65504214416437, 47.26408267849527], [8.65501539790664, 47.264100682144694], [8.654998653704775, 47.2640971526213], [8.654965648550318, 47.264115950993904], [8.654884275311765, 47.264113769173846], [8.654863757886487, 47.26413024076777], [8.654857738083791, 47.26414211555261], [8.654868385130037, 47.264206348981425], [8.654908770174583, 47.26422900575241], [8.654937718739586, 47.26439880746407], [8.654880980189635, 47.264422866532655], [8.654830136176596, 47.264435924934716], [8.65480861354873, 47.264433210537646], [8.65465410517277, 47.26421436705372], [8.654782749354181, 47.264176577375075], [8.654775928542794, 47.26416720394589], [8.65473944090084, 47.2641706114731], [8.65472396043939, 47.26417963548072], [8.654685408420072, 47.264180015256635], [8.65467769808223, 47.26419541616542], [8.654496282534758, 47.264247516637795], [8.654483745375247, 47.26424941222432], [8.654467226630532, 47.264219801777536], [8.654414099297874, 47.26422253014926], [8.654378692306478, 47.26426528214373], [8.654243428319763, 47.26428571649657], [8.654201535435503, 47.26427401427062], [8.65419520120527, 47.26425698927186], [8.653708151829155, 47.26434038686393], [8.653706006268592, 47.2643332128275], [8.653512276156373, 47.264356394792934], [8.653447153185398, 47.264360445486325], [8.653447369445326, 47.26437227257807], [8.653390113794492, 47.26437651927556], [8.653397284312502, 47.26450063704283], [8.65344844263565, 47.264629185324], [8.65338595336991, 47.2646415387168], [8.653329935441066, 47.26450269614117], [8.653296358672794, 47.264507998180164], [8.653287239304902, 47.264484705682584], [8.653298427923849, 47.26448278818176], [8.653260435136024, 47.26438108842344], [8.653159723782744, 47.264397891800016], [8.653213220649336, 47.264540979350826], [8.65312362394, 47.26455726067472], [8.65312711882093, 47.264576123764485], [8.653038255628775, 47.2645909492926], [8.653024018695115, 47.264582616344136], [8.653003119721124, 47.2645805966182], [8.652980422863273, 47.26459190951226], [8.652753588236884, 47.26461625740636], [8.652733658602186, 47.2646097925618], [8.652713651254492, 47.26461443823314], [8.65263847050242, 47.264459155978805], [8.652417638687957, 47.26451095762543], [8.652426624834852, 47.26452840444734], [8.652623137780255, 47.26448225629668], [8.652666117857219, 47.26457086028455], [8.652655092291576, 47.264579971966285], [8.652663469060265, 47.26459967410534], [8.652606284335846, 47.26461287024553], [8.652612505571952, 47.26462494880823], [8.65236374458054, 47.264668948543054], [8.652311718165821, 47.26464745710202], [8.652266612715989, 47.26453682714565], [8.652073590608394, 47.26455400802583], [8.652059125310764, 47.26456004343118], [8.65197693703983, 47.264569706373564], [8.651885539703814, 47.26458758923336], [8.651863395791375, 47.264605804641896], [8.65182208679958, 47.26461514502677], [8.651825748281679, 47.26462216806366], [8.6517987452427, 47.264628344410916], [8.651783842603828, 47.264612219185445], [8.651731883187514, 47.264621590755674], [8.651706004281476, 47.264630714810885], [8.651636256786384, 47.26463655836179], [8.651637747207806, 47.264646905632986], [8.651702402569239, 47.264729884464266], [8.651668511633597, 47.26475048125633], [8.651585717351512, 47.264683435647726], [8.651518463337357, 47.26471877654566], [8.6515353252955, 47.26473389175934], [8.651525528808078, 47.26473894241532], [8.651508302438703, 47.26473687471743], [8.65144603683606, 47.264759119387065], [8.6512372349922, 47.26490434653014], [8.651219575719637, 47.264941414389824], [8.6512282757296, 47.26494627050501], [8.651213724923084, 47.264958441755944], [8.65119299020861, 47.26494911534273], [8.65112611690066, 47.26499485086688], [8.651131134139083, 47.26500396472845], [8.651071490001597, 47.26502528203765], [8.651032509824542, 47.2650598034213], [8.651059020960034, 47.26508200469777], [8.651053094880744, 47.2650997973697], [8.651020030642563, 47.265114916002595], [8.650999229856009, 47.2650974402341], [8.650629604551309, 47.26530348587523], [8.650665863773035, 47.26534528512787], [8.6506526410104, 47.265362416821546], [8.650676626988032, 47.265380497673185], [8.650637547809119, 47.26541125983117], [8.650571091338971, 47.26537000304863], [8.650583707390819, 47.26535642186162], [8.65055227618531, 47.2653485933413], [8.650502890488022, 47.265382324394466], [8.65050306528107, 47.26539119223718], [8.650561089118474, 47.26542539531085], [8.650561629009712, 47.265453842859756], [8.650440701203474, 47.26565842398532], [8.650408400594936, 47.2656693692568], [8.650397194744865, 47.265682791552635], [8.650384783403714, 47.26568734787766], [8.650399931491231, 47.265716037741484], [8.65032717867207, 47.26583354751753], [8.65032748477776, 47.265849943537276], [8.650190926675213, 47.266080964818116], [8.65013217147682, 47.26615261160705], [8.65010351813408, 47.26622880880836], [8.650080365601216, 47.26626786823775], [8.650059582985213, 47.26627974486271], [8.64998185527696, 47.266409873655036], [8.649953992276764, 47.26644344123045], [8.649939979014784, 47.2664391445551], [8.649925935248694, 47.26646088168299], [8.649891247511302, 47.266469153197754], [8.649838957869521, 47.26651475270148], [8.649796601928909, 47.26653511400663], [8.649724517349975, 47.26655340384102], [8.649650674057602, 47.26658971240652], [8.649612542254014, 47.26659820912153], [8.649493216414085, 47.26661025729854], [8.649493999367737, 47.26661564644026], [8.649568589419937, 47.26664140007702], [8.649586656576039, 47.26673881259347], [8.649511356949278, 47.26674005333262], [8.649473304526861, 47.26672291170175], [8.649460854900248, 47.26672754033835], [8.649434744375023, 47.266712522022736], [8.649413755697509, 47.26669025347965], [8.649355491331747, 47.2667142539987], [8.6492688842485, 47.26662475785714], [8.649255478410234, 47.266616352878145], [8.649238200589155, 47.266612036512356], [8.649207883790556, 47.2666155032891], [8.649163928666079, 47.26662945832209], [8.649129668735515, 47.26663386624292], [8.649035007754135, 47.266626314440245], [8.64867844109121, 47.26663725465905], [8.64861532906349, 47.26664620216706], [8.648554194094132, 47.26666600451718], [8.648504212393144, 47.26666944394301], [8.648211360170789, 47.266670043466696], [8.648133723804323, 47.26668480138868], [8.648097654909542, 47.26669687409509], [8.648039502021518, 47.26672582043252], [8.648012183990998, 47.266744997819785], [8.647960546749621, 47.26679906347813], [8.64794077573729, 47.266810119558635], [8.647892400177831, 47.26689559952996], [8.647883770922844, 47.26693413732702], [8.647839222498082, 47.26694934843883], [8.647836704581975, 47.26695721006474], [8.647792117702839, 47.26697714427041], [8.647768783529687, 47.266997179392234], [8.647752838211494, 47.267022534287435], [8.647745354785009, 47.2670760826734], [8.647732359177848, 47.2670834604088], [8.647732694627722, 47.267101196215705], [8.647749610569036, 47.2671128750343], [8.64774404174379, 47.26714767442752], [8.647760977909135, 47.26716082834304], [8.647766706588891, 47.26718737724418], [8.64776178276968, 47.26720221761355], [8.647767984939833, 47.2672531845458], [8.647791209016075, 47.26726563384272], [8.64786343473682, 47.267500390327214], [8.64773807929861, 47.26750890149453], [8.647761956865242, 47.26760040639445], [8.647712501789382, 47.267604973177185], [8.64768859365998, 47.26751211912258], [8.647661774919786, 47.26751425374808], [8.647576773707067, 47.26749972656425], [8.647548838546983, 47.267510346536035], [8.647498859307317, 47.2675145229342], [8.647422700278243, 47.267512290071785], [8.647382118749698, 47.26751711450216], [8.64729969358918, 47.26751420967424], [8.64729801220671, 47.26752458142125], [8.647275694505575, 47.26752356501074], [8.647271533383991, 47.26751372231594], [8.64721620406264, 47.26750982265305], [8.647178525641515, 47.26750277832224], [8.64716912116219, 47.26750767157736], [8.647147940567498, 47.26750609452367], [8.647141101974901, 47.267554292794124], [8.647074267369316, 47.26755004610201], [8.64707703096342, 47.26752617849543], [8.647016152038455, 47.26752231895612], [8.64700648851749, 47.26759168662394], [8.646974067247715, 47.26758977772976], [8.646986687997588, 47.2675050865439], [8.646984350963015, 47.26749058300511], [8.646912391082623, 47.26749052785873], [8.64689451519742, 47.267482565103705], [8.646867523413295, 47.2674887402231], [8.646846569793876, 47.26748376037519], [8.646809082761209, 47.26748750867048], [8.646810352168227, 47.2674799479969], [8.646760022991993, 47.2674750782822], [8.646752787229756, 47.26750573914096], [8.646709704438317, 47.26749989378743], [8.646694664052914, 47.26756526982341], [8.646345600732639, 47.267528447306276], [8.646353727051233, 47.267493333145794], [8.646406605948355, 47.26748647316347], [8.646404314127546, 47.267476880820695], [8.646381306366653, 47.26747339771318], [8.646354290691752, 47.26747735101702], [8.646289480175973, 47.267469106406246], [8.646251002795983, 47.26747464600694], [8.64608190688163, 47.26746516400665], [8.645992054358555, 47.26745639887173], [8.645954584003341, 47.26745971498758], [8.645785371003786, 47.267445052200664], [8.645781687840952, 47.267451072899924], [8.645685557884708, 47.267444055468154], [8.645679764803116, 47.26753857004313], [8.645650046858007, 47.26753933088397], [8.645641905964581, 47.26761767795612], [8.64562812456572, 47.2676803420416], [8.645534051745214, 47.26766963276973], [8.645621752120709, 47.26739839625951], [8.645529600926029, 47.26738496847138], [8.645540709396005, 47.267350218840065], [8.645447196193361, 47.26733500585643], [8.645434146397639, 47.267371574860675], [8.645329402792422, 47.26735647953015], [8.645341974792776, 47.267328011424446], [8.645317379481304, 47.26732152222434], [8.645306678502612, 47.26733278893926], [8.64526331291867, 47.26730213597431], [8.645139039235708, 47.267559155002914], [8.64509713235723, 47.26754920353313], [8.645128991834646, 47.26747125601585], [8.64491021640593, 47.26742129035981], [8.644874476942856, 47.26738422462664], [8.644923416629348, 47.26731530086758], [8.644913334833422, 47.26730776030808], [8.64503362153677, 47.26713982179927], [8.644938555579813, 47.26711669052083], [8.644924440528538, 47.26714121649096], [8.644809834148717, 47.26711363875269], [8.644758904213145, 47.26719918016143], [8.644707792995128, 47.267188920359324], [8.644723719344196, 47.26716266635548], [8.644727337746497, 47.26714733594178], [8.644620622962323, 47.26713271023295], [8.644624162163671, 47.26712557565105], [8.644555746677714, 47.267109226907564], [8.644529173243368, 47.26715909778272], [8.644443739971551, 47.26714175722766], [8.64442916517629, 47.26716934638319], [8.64432013343456, 47.26713990173402], [8.644302296030132, 47.267169324043564], [8.644072769062824, 47.267100209573904], [8.644011817954432, 47.26715167214506], [8.643930105503653, 47.26713228674169], [8.643969828317895, 47.26698929095294], [8.643933883616993, 47.266980563281685], [8.643873269254495, 47.26697374873784], [8.643864795105834, 47.266967171601756], [8.64382093857334, 47.26696389706144], [8.643808476273868, 47.2669662313221], [8.643807790190587, 47.26697622396112], [8.643689481777868, 47.2669666840201], [8.643683102101985, 47.26695337394758], [8.643545268946772, 47.26694357932462], [8.64354020616284, 47.26695465186164], [8.643546529821686, 47.26702406776027], [8.643500174969184, 47.26703717310945], [8.643447148028578, 47.26704507692781], [8.643390845455192, 47.267044864797555], [8.643339941180905, 47.267032047361795], [8.643297804920236, 47.266871277563546], [8.643272781325448, 47.26688034584625], [8.643263489119068, 47.26687675467698], [8.643243786930917, 47.26688211506438], [8.643210425350212, 47.26688243678648], [8.643204052222261, 47.26687584660386], [8.6431790475711, 47.266877556166286], [8.643157605299443, 47.26690068317661], [8.643053972441617, 47.266934195057296], [8.643054298971588, 47.266950420035776], [8.64302828164902, 47.26695938159788], [8.643016796122074, 47.266952295983366], [8.642933939004847, 47.26698117389323], [8.642826837381675, 47.26699624496256], [8.642844392715835, 47.2670122987115], [8.642892888318608, 47.26708240741707], [8.642878456064901, 47.26708705590316], [8.642905095103343, 47.267124999982144], [8.642809982174077, 47.267156587857784], [8.642749144388079, 47.26715452458667], [8.642674622959914, 47.26704375776804], [8.642737616248345, 47.2670242088994], [8.642711232245487, 47.26702628373889], [8.642699210921753, 47.26699132639131], [8.642623238455753, 47.267021355696116], [8.642663925690961, 47.267089216281754], [8.642518148316023, 47.26710046295832], [8.642500714063834, 47.26711615352319], [8.642479847711979, 47.26711560678329], [8.642417820029198, 47.26714281884858], [8.642342173339454, 47.26715742581143], [8.642306084524684, 47.267139361793824], [8.642301267672554, 47.26713086631517], [8.642275533271645, 47.26713714408253], [8.642257796288291, 47.26711771871027], [8.642232041606754, 47.267134233786564], [8.642181234674554, 47.26714801469323], [8.642207253944388, 47.267199530664335], [8.642220903961228, 47.26720531646845], [8.642226329689246, 47.2672156137201], [8.642208668281093, 47.267219477228245], [8.642202328654227, 47.26721437088608], [8.642167992708526, 47.26721838161151], [8.642143875354792, 47.267211967770194], [8.642130121926533, 47.26720100169964], [8.642115488444743, 47.267199652258114], [8.642074365891467, 47.26720744914278], [8.642061368188617, 47.267187794402055], [8.642100751898756, 47.26717613864971], [8.642101260523283, 47.26716938664554], [8.642089807094903, 47.26715961107619], [8.64207921694282, 47.26715882208434], [8.642018733928827, 47.267172497151435], [8.64196696050269, 47.26719147861749], [8.641963829651912, 47.26719915755617], [8.641907472474104, 47.26721998608385], [8.641774207563344, 47.26725870872575], [8.641794044509675, 47.26728863720637], [8.64166588958427, 47.26732600200871], [8.641656747969373, 47.267309734342554], [8.641626670698948, 47.26731741563119], [8.641633158028707, 47.267330841380065], [8.64141890793191, 47.26735782403073], [8.641380480370117, 47.26736559240376], [8.64138391445802, 47.26737958969092], [8.641353731068419, 47.267384321494035], [8.641325018175246, 47.267355763220145], [8.64124111592144, 47.267384651020556], [8.64123265873496, 47.26737882002516], [8.641178773472548, 47.26739559225993], [8.641141319189828, 47.26739963519493], [8.641116644549983, 47.26741836058504], [8.641043774063464, 47.26742423017953], [8.641042458945263, 47.26743507478056], [8.64073781113376, 47.26745078301156], [8.640738704652067, 47.267461118742816], [8.641048232674647, 47.26744439708096], [8.641153370443758, 47.26759442625387], [8.640676624637432, 47.26769745059575], [8.64064179174648, 47.267617752904314], [8.640629927143648, 47.267618470400095], [8.640629331667164, 47.26761373600184], [8.640397330248618, 47.26762773263892], [8.640359370380887, 47.26751769842611], [8.640606995293664, 47.267480933287565], [8.640634809510324, 47.26751302739715], [8.640642005430431, 47.26750980380396], [8.64060537036198, 47.26746745675761], [8.640270826652062, 47.26751772186776], [8.640280254678977, 47.267554955474566], [8.640120715681844, 47.26757196479921], [8.639105024790354, 47.267727960992], [8.639100878854078, 47.267736361025996], [8.638759570467426, 47.26785741526705], [8.638767212088842, 47.26786460417109], [8.638733927599853, 47.267887205788234], [8.638787159188878, 47.26803417926927], [8.63872125565834, 47.26804431083517], [8.638624044900713, 47.267776858721305], [8.63847831078036, 47.26770191305067], [8.638384399122167, 47.2677865495645], [8.638344092818128, 47.26784544033155], [8.638392809853135, 47.267896208455376], [8.638401303081553, 47.26792130768022], [8.638137345317595, 47.26829017473202], [8.6381475074956, 47.26830131369574], [8.638121475875826, 47.268319125726244], [8.637882088714719, 47.26856643138716], [8.63785878162376, 47.268567276361935], [8.637845669852714, 47.26858309206342], [8.63782519673873, 47.268626556035045], [8.637716628294534, 47.26874073271746], [8.637602509985767, 47.268887918187865], [8.637556626600249, 47.268905684671104], [8.637534837160075, 47.268905254617735], [8.63752172501222, 47.26892106129232], [8.637548964354721, 47.26893407348078], [8.637537946756224, 47.26895134269103], [8.63755085820484, 47.2689548429024], [8.637493206995448, 47.26903181489873], [8.637355273010959, 47.26898062495437], [8.637432684340599, 47.26888785812393], [8.637425803638576, 47.26888453834454], [8.637434159786933, 47.268874106513785], [8.637363486003283, 47.26884605563813], [8.637308164760336, 47.26891319821715], [8.637280165549175, 47.268902244890526], [8.637244128469144, 47.268945348613116], [8.637331590955277, 47.26897830748477], [8.63732850399673, 47.26899150911278], [8.637360008652438, 47.26900966746356], [8.637349391650256, 47.269044788679416], [8.637287796109902, 47.26911562166191], [8.637243948550548, 47.26919289085527], [8.637203484844083, 47.26923662531101], [8.637147484944304, 47.26932596692156], [8.63715594658797, 47.269330826604296], [8.636848562430258, 47.26971105375258], [8.636841130327081, 47.26970907998124], [8.636749246762648, 47.2698160568772], [8.636803689126657, 47.26983985103437], [8.636733914927365, 47.26991674178697], [8.6367446148895, 47.269924168960905], [8.636707420768465, 47.26997053199407], [8.636698846331242, 47.26997007230671], [8.636669362880758, 47.26999430693393], [8.636650853948831, 47.270000508276006], [8.636667776099248, 47.27002018585021], [8.63663783722272, 47.27005416739725], [8.63660745485087, 47.27005247697922], [8.636588499164462, 47.27003935149359], [8.636588086178753, 47.27006689137074], [8.636557245124953, 47.2700777455835], [8.636528194767, 47.270075924508866], [8.63655151933787, 47.27009940346619], [8.636577399014705, 47.27011305096214], [8.63654213074114, 47.27014276116048], [8.636505648253543, 47.270166078777464], [8.636413619047284, 47.27018767078199], [8.636380937255518, 47.27020897000446], [8.636337647060495, 47.27021926093273], [8.636268844807113, 47.270247016530696], [8.636253324087942, 47.27024797836503], [8.636219811364594, 47.27023281810284], [8.636210613682671, 47.270238158077255], [8.636225342951883, 47.27024905163104], [8.636196233741975, 47.27024755496632], [8.636175395248497, 47.2702612648376], [8.636172313802062, 47.27027119198208], [8.63575665620538, 47.27037403783279], [8.635761054958712, 47.270385137705794], [8.635772549796231, 47.27038498256791], [8.635804880025193, 47.27047650961578], [8.63567034519691, 47.27049804761777], [8.635642468011191, 47.2705143674537], [8.635587214851892, 47.27052280339437], [8.635569887027774, 47.2705009437458], [8.635538815708383, 47.27050212993604], [8.635534042682982, 47.270530920814366], [8.635490591057826, 47.27053756101948], [8.635478280284445, 47.27052902590909], [8.635427699166256, 47.270537179195195], [8.63541505297344, 47.27052842259858], [8.635401693402757, 47.27053382370772], [8.63538933034976, 47.27055301400116], [8.635271368726325, 47.27057101545799], [8.635233479519439, 47.270565210590945], [8.635138500540483, 47.27058143479018], [8.634880182863283, 47.270614835577355], [8.634672629234045, 47.27064825784875], [8.634609568890728, 47.27065510109329], [8.63444132078848, 47.27068500272497], [8.634419197299813, 47.270669687791035], [8.634404770308409, 47.270672869045896], [8.63441134317198, 47.27068840822182], [8.634373097716677, 47.27069265505217], [8.63435922142848, 47.27067498768501], [8.634311452249888, 47.270671201367925], [8.634298269801535, 47.270637892407386], [8.634280691385698, 47.2706396309661], [8.634302634257155, 47.270718879796604], [8.634246353199442, 47.270727469605916], [8.634212248861969, 47.27065046106712], [8.63409848779213, 47.270675479120776], [8.634092910423036, 47.27066249320318], [8.634039638356905, 47.27067384033885], [8.63404587635701, 47.27068681938432], [8.633928842066306, 47.27071322061342], [8.633941267553014, 47.270736930170045], [8.633908405211123, 47.27074491682283], [8.633886485459964, 47.27077884173432], [8.633870298284284, 47.270780736817876], [8.633863957085579, 47.270772004697456], [8.633815203504392, 47.270769712482945], [8.633693901057274, 47.270785525048694], [8.63365547499505, 47.27069311606538], [8.633685861908978, 47.270663115555685], [8.63377213696621, 47.27065007709495], [8.633830858943726, 47.27067555541576], [8.63384119807267, 47.27066510331335], [8.633836467669278, 47.27065629172437], [8.633777920179234, 47.270633294373944], [8.633749254268086, 47.270603186553174], [8.633734631013871, 47.270598192689754], [8.633689510464064, 47.27061944922395], [8.633684037451756, 47.27064064554858], [8.633649618886926, 47.270676525858825], [8.633610998632934, 47.2706758377536], [8.63352031741447, 47.27069869098523], [8.633480911916267, 47.27069775908363], [8.633377714658115, 47.27071706277446], [8.63336416820385, 47.27071353291973], [8.633296995508845, 47.27072265793078], [8.633282784874252, 47.270735515987596], [8.63325678927937, 47.27073142251487], [8.633229899509088, 47.270734030996486], [8.633223876044053, 47.27074303502907], [8.63316806903609, 47.27074978426441], [8.63315898731014, 47.27076032231901], [8.633112278386303, 47.27075726203806], [8.633087462908442, 47.270759840032596], [8.633063957690412, 47.27077431468699], [8.633001993941969, 47.27078411414899], [8.632912076540876, 47.270795048748624], [8.632868568815024, 47.270795661400975], [8.632687720117971, 47.27081828767233], [8.632677993123336, 47.27080056813137], [8.632666607559257, 47.27080146868602], [8.632676584322073, 47.27083035816485], [8.632647633372162, 47.27083299682062], [8.632636081439582, 47.27082645967788], [8.632608128045272, 47.27082760383741], [8.632627531191892, 47.27088322960094], [8.632577541737518, 47.270893642405795], [8.632552751239249, 47.270937528012624], [8.632540936648713, 47.27091156300596], [8.632549495188226, 47.27091012508553], [8.63251226956292, 47.270805127189895], [8.632509330315814, 47.2707664676757], [8.632496648325473, 47.27075548949864], [8.632481064334808, 47.270754220599066], [8.632473046202502, 47.27076623175741], [8.632489810616777, 47.2707741901308], [8.632494637591913, 47.27080387961461], [8.632469809053323, 47.27080646660996], [8.632417795923647, 47.270829809080425], [8.632393761565508, 47.27083245079344], [8.632343803693574, 47.27082535774548], [8.632308646392424, 47.27082882525056], [8.632310913551613, 47.27084155762496], [8.632258520314242, 47.270847308590454], [8.632252755795761, 47.27083184179035], [8.632162991234173, 47.27085021362685], [8.632159231795665, 47.27085822267098], [8.632107946222899, 47.27086386313707], [8.632047044688749, 47.27085556098412], [8.63203586864371, 47.270864654297625], [8.631950036456379, 47.270873296987], [8.631945771522036, 47.27086815069296], [8.63190229709767, 47.27087025591532], [8.631895243009428, 47.27087927960311], [8.631859021855806, 47.27088127372189], [8.631828166308745, 47.27089212698399], [8.631810570969211, 47.27089311860956], [8.631787613618378, 47.27088599782496], [8.631741087343274, 47.270891112111016], [8.631726626870895, 47.270904044554236], [8.631496329144783, 47.27092700966405], [8.631407139258439, 47.27092556671235], [8.631403202740461, 47.270936303237114], [8.631361755814831, 47.270940429246906], [8.631358588433363, 47.27093294168381], [8.631289304609641, 47.270939883420006], [8.63129125839593, 47.27094747353414], [8.631200676821894, 47.27095650667072], [8.631197212544427, 47.27094637744064], [8.631104385790815, 47.2709655447481], [8.631067985097513, 47.27096009219028], [8.630992490944585, 47.270967097998216], [8.630981221981445, 47.270973223602674], [8.630849803653275, 47.27098175231566], [8.6307019868273, 47.27099870837167], [8.630688044191396, 47.27100761435627], [8.630645239005926, 47.271011880108034], [8.630642911750538, 47.27099880648973], [8.630629451650817, 47.270999728335966], [8.63062282682081, 47.2709812209596], [8.630580366213673, 47.270982568545314], [8.63057953799448, 47.27099223840168], [8.630519098072378, 47.27099513915066], [8.630513072854114, 47.27098572913088], [8.630455078111531, 47.27098803801186], [8.63044705840614, 47.27097098432426], [8.63043492349891, 47.27096673791866], [8.63032651240967, 47.27098463539751], [8.630305000747164, 47.27099609328922], [8.630170876032599, 47.27102253237546], [8.630115999258916, 47.271024799711014], [8.630093324022006, 47.27103031447726], [8.63006115886785, 47.27102928859784], [8.629989847859106, 47.270991578649806], [8.62992963082976, 47.270941079118316], [8.629887749052266, 47.270921568740036], [8.629845122460955, 47.27091546955306], [8.62983337525678, 47.2709007571451], [8.629781151813933, 47.270882136269734], [8.629736918746891, 47.2708976339595], [8.629724449643433, 47.27089558581814], [8.629689358520501, 47.270902029371406], [8.629590659860403, 47.270937637062495], [8.629576498201542, 47.27095273402346], [8.629519961620723, 47.2709736121637], [8.629487875605465, 47.2709755447272], [8.629453029879102, 47.27099240257642], [8.629431332454164, 47.27099494755914], [8.629427515664041, 47.27100988376534], [8.629339721280099, 47.271023024419], [8.62931025922652, 47.27100334060824], [8.629288694140904, 47.271011821280496], [8.629265036146421, 47.271065733225285], [8.62912513565521, 47.27111235371292], [8.6290904724724, 47.27113740465034], [8.629038932365798, 47.27115003581004], [8.62902153589525, 47.27115994871747], [8.628997700676305, 47.2711602757091], [8.628973196591335, 47.271176244079896], [8.628942171153518, 47.2711789211931], [8.628930918160808, 47.27118577508556], [8.62890191713933, 47.271186182435706], [8.628871190007523, 47.271202241906636], [8.628744798431034, 47.271250152827506], [8.628728216838958, 47.271250378022266], [8.628682999122137, 47.27126738763311], [8.628663296118008, 47.2712669163756], [8.628568944106199, 47.27131141089552], [8.628547130058829, 47.271308730465535], [8.628531924117228, 47.27132383803765], [8.62845979938674, 47.27134270854201], [8.628381912317808, 47.271381752559165], [8.628338364598674, 47.27142627127084], [8.628277857421946, 47.27145465597768], [8.628238066877314, 47.27148273689802], [8.628164759146408, 47.27154107392057], [8.628156041153657, 47.27156798879946], [8.628031602836543, 47.27165679045429], [8.628001206659663, 47.27168773390751], [8.62798774028097, 47.27173407416764], [8.62794334329909, 47.27178677837698], [8.627929816906427, 47.27178474086798], [8.627900268811304, 47.27180748060885], [8.627874092414471, 47.271815450820554], [8.627816471166406, 47.27181855501873], [8.627760420653827, 47.271845903981735], [8.627747004143846, 47.27185532578979], [8.627690012996728, 47.271887326107006], [8.627649993692831, 47.271927715163606], [8.627629353734143, 47.2719427527173], [8.627593874209417, 47.27199174861974], [8.627584768150257, 47.27203449944858], [8.627569154405533, 47.272084738744965], [8.627519163595794, 47.27215335965974], [8.627342885714494, 47.27227594281932], [8.627265241544192, 47.27232540046522], [8.62722223244679, 47.27234907032986], [8.627291072767783, 47.272399878289775], [8.627136805657388, 47.27251324735196], [8.626979818029339, 47.27261366396714], [8.626779294929126, 47.2724486025731], [8.626793121107669, 47.27243916757338], [8.626761415963461, 47.27241132925073], [8.62645720086125, 47.27256437515727], [8.626517582129882, 47.27266450344386], [8.62625876975302, 47.27279400728096], [8.626137053329487, 47.27275882887113], [8.626114850645713, 47.27274106651887], [8.626155916487077, 47.27272269735309], [8.626143106086756, 47.272706502341954], [8.62608870365244, 47.27272958763846], [8.625956578946026, 47.27279989939774], [8.625793473589013, 47.27287437114783], [8.625782385337738, 47.272888671293856], [8.625806224469574, 47.27288907374318], [8.625937195243921, 47.27301176442916], [8.625854278975421, 47.27308934130478], [8.625822949254655, 47.27312475561332], [8.625795047186518, 47.27312886600243], [8.625728591124835, 47.273169229719976], [8.625644324316031, 47.27320093415365], [8.625565351999954, 47.27323774746055], [8.625552252076782, 47.273254308258615], [8.625518351493982, 47.27326743092243], [8.625481167330488, 47.27327315708464], [8.625427745149093, 47.27329400106801], [8.625367573862002, 47.273291867855164], [8.625314115229479, 47.27331048121838], [8.625256572512715, 47.27332314557626], [8.625229258953885, 47.27331686891511], [8.625209700720504, 47.27332235061263], [8.625194948392103, 47.27331213956694], [8.625171307343642, 47.273320649822686], [8.625178776306516, 47.27333022528936], [8.625168622241492, 47.27334434490498], [8.624983807735921, 47.273388885772526], [8.624854933589924, 47.27340098856843], [8.624778027688599, 47.27339163287602], [8.624737685800214, 47.27339443202075], [8.624731231105937, 47.27338410832504], [8.624685827521533, 47.27338276739677], [8.624605370772134, 47.27342002719641], [8.6245623039911, 47.27344475822072], [8.624511158868215, 47.27346282550857], [8.624458034749393, 47.27348819069057], [8.62437681250299, 47.27351242351484], [8.62431690732934, 47.27351037701923], [8.62423801465439, 47.27349785697688], [8.624203257536735, 47.27350754281076], [8.624167342975731, 47.273540107205775], [8.624195981064485, 47.27358282938378], [8.624232846679185, 47.273610957233196], [8.624167024050093, 47.27364897466756], [8.623973689862211, 47.27348364552499], [8.6239080493474, 47.273510218598446], [8.623825544452458, 47.273528482165965], [8.623815664133472, 47.27355019104276], [8.623825732436545, 47.27358280439848], [8.623854286411873, 47.27359911666901], [8.623677845760524, 47.27375366591345], [8.623608371579785, 47.27378082685794], [8.623580416179845, 47.27378195975536], [8.623563397485183, 47.27380898631185], [8.623522569094288, 47.27383634761377], [8.623478080710466, 47.27383993528928], [8.623420934176018, 47.273879437329214], [8.623397279762077, 47.273887965323155], [8.623400615727551, 47.27389832988581], [8.62337164615023, 47.273900219815445], [8.623365799269942, 47.2739166787748], [8.623335283398072, 47.273942404776186], [8.62331682462236, 47.27395159000241], [8.623317346299228, 47.27397391163042], [8.623331011796633, 47.2739833965044], [8.623330357421258, 47.27399977509487], [8.623272364814904, 47.274048218334826], [8.623188252273758, 47.274133478818186], [8.623151282045177, 47.27414889014232], [8.623133295055073, 47.27417815753829], [8.623134834102567, 47.274200468658584], [8.623090156510333, 47.27424201932692], [8.623030481751524, 47.27430759840922], [8.622999457106793, 47.274311002491686], [8.622913137665877, 47.27439035739281], [8.622836936967104, 47.27441225268253], [8.622758271427747, 47.27446247315108], [8.622671228665613, 47.2745098291645], [8.622681084704103, 47.27453349408554], [8.62270384254036, 47.27453517650593], [8.622752283305546, 47.2745792609808], [8.622703278228038, 47.274604501982786], [8.62270934429578, 47.274609837007034], [8.62266164056469, 47.274634164962634], [8.622713582482273, 47.2746817577736], [8.62261235844443, 47.27473632099217], [8.622478782110178, 47.27461995904368], [8.622389384230777, 47.274664847130204], [8.622224218983057, 47.274736897237815], [8.622184610343119, 47.27471679376574], [8.622172485625278, 47.27472136206556], [8.622120463821195, 47.27466715823244], [8.622081860418934, 47.274684646037365], [8.622157674230085, 47.27476572717489], [8.622113164469557, 47.27478507505669], [8.622049901708309, 47.27471867140027], [8.62202627297015, 47.274727189890655], [8.622008481663903, 47.27471999614433], [8.621987944844221, 47.274728473872386], [8.621931607681041, 47.27471214051532], [8.621908336742615, 47.27469088001244], [8.62189188616812, 47.2746970668996], [8.62196327325259, 47.27476627464236], [8.621884660879713, 47.27480105766262], [8.621857386652907, 47.2747756913308], [8.62183996638163, 47.27473871840672], [8.621797373742742, 47.27473484662563], [8.621797977257811, 47.274760891526356], [8.62182773546082, 47.27479396870528], [8.621823862565673, 47.274827957691386], [8.621625215046793, 47.27491367264151], [8.621584761646298, 47.27491270233414], [8.621545814857871, 47.2749326042883], [8.621578331785033, 47.2749500010758], [8.621531445849596, 47.27498562752388], [8.62150234414456, 47.27498158129162], [8.621487456832075, 47.27496466944684], [8.62146981064719, 47.27496342921722], [8.621449408419162, 47.27497858911868], [8.621454476864287, 47.27498483404982], [8.621391886757142, 47.275008432879694], [8.621373450419865, 47.27501090682957], [8.62131690312463, 47.27503104321575], [8.621313907939413, 47.275037838640486], [8.62125215675902, 47.275055761457445], [8.621247699962044, 47.275062805774795], [8.621218257554021, 47.275069638514296], [8.621164477886891, 47.275094190300905], [8.620990045742538, 47.27515318192861], [8.620993917382123, 47.27515850364468], [8.62092124686568, 47.275185911557905], [8.62095317700393, 47.27522516463671], [8.620889614667242, 47.2752496545307], [8.620935107779442, 47.27530451079578], [8.62086641468727, 47.275330096631485], [8.620852835047556, 47.275320304780735], [8.620819567725041, 47.275315572420844], [8.620786714866131, 47.2753301582239], [8.620805917839641, 47.27535275603014], [8.620684237989424, 47.275399323276964], [8.62067190700215, 47.27538682885427], [8.620604005610419, 47.27540936625547], [8.620585246302097, 47.275404422078545], [8.620556460054946, 47.27541523297541], [8.620566114866584, 47.27542923906704], [8.620499424745304, 47.27545993181683], [8.62027634396255, 47.275541927912705], [8.620273208333884, 47.275554922793454], [8.619439531462103, 47.275871264570334], [8.619385247802795, 47.27589700803732], [8.619305452309227, 47.27581506630979], [8.619284527779984, 47.27582517572581], [8.619306922877746, 47.27584869461946], [8.619314646266254, 47.27587160806526], [8.61934997465998, 47.27592172026924], [8.619308068897535, 47.27594835327762], [8.61930566787566, 47.2759796375629], [8.619234741817596, 47.27600592899951], [8.619155991600353, 47.27605317037909], [8.619157651041231, 47.27606485659479], [8.619200201828514, 47.27610625027922], [8.619135465430244, 47.27613749801832], [8.61904693114651, 47.27604889870411], [8.618743984125148, 47.27618648330899], [8.618733183809669, 47.276176248973364], [8.618708965360511, 47.27618684184163], [8.618704220940852, 47.276181493037754], [8.618648615120035, 47.276207249651726], [8.618662147930882, 47.27622150418154], [8.618632675008454, 47.27623477729981], [8.618576851802649, 47.27624950748449], [8.618565645878862, 47.27625859971923], [8.618477348792398, 47.276295548446264], [8.618430246004296, 47.276321496862806], [8.618382929905312, 47.2763377951634], [8.61834681956265, 47.27634499223987], [8.618294926856205, 47.27638686676185], [8.618234959947396, 47.27641387317736], [8.618158142419514, 47.27643617657959], [8.618150740290348, 47.27642958657112], [8.61813415693023, 47.27642981010532], [8.618124043881464, 47.27644111295986], [8.618134892908653, 47.276458939129576], [8.617992723078912, 47.27652295771965], [8.617951593187646, 47.27654586724183], [8.617808495019792, 47.27664987991945], [8.61774339371511, 47.276686221934916], [8.617710459738667, 47.276670879318715], [8.617692146843032, 47.276686754854445], [8.617693503080075, 47.27670088207142], [8.617607558428869, 47.27675044484409], [8.617613674459216, 47.27675864931234], [8.617585210511999, 47.27677453863443], [8.617579001282417, 47.2767716875643], [8.61753691000632, 47.27678938923218], [8.617458225922308, 47.276840343901206], [8.617312627785914, 47.276910827984786], [8.617254363754839, 47.276947360800605], [8.617275884764707, 47.27698279031102], [8.617255329701752, 47.27699052055834], [8.617246798222068, 47.27697947130059], [8.617226115084788, 47.27698199453558], [8.61717665733245, 47.2769953276275], [8.617250802135487, 47.27707163473296], [8.617144795458445, 47.2771267633513], [8.617126679259853, 47.277124024809844], [8.617086422392314, 47.27713202848354], [8.61705261249293, 47.27714886287278], [8.617042518835907, 47.27716165871572], [8.617068458930987, 47.277166143416075], [8.617073883933436, 47.27717238496043], [8.6168935883728, 47.27726867146396], [8.61659529807796, 47.277417186123785], [8.616538033887386, 47.277452952717596], [8.61644669389364, 47.27749292636151], [8.616358688704514, 47.277543264826626], [8.616166770336745, 47.27762927924033], [8.616053078783205, 47.27768965796764], [8.616015027122804, 47.27770358472652], [8.615842222039895, 47.277809427642346], [8.615822040946545, 47.27778737862926], [8.615699249275762, 47.277858294052315], [8.615656257577939, 47.27783582100466], [8.61558460992207, 47.27778398259686], [8.615560755470426, 47.277783569415845], [8.61543694828148, 47.27786600014772], [8.615391280471565, 47.277833650253704], [8.615328776969417, 47.27787403961589], [8.61528513921615, 47.27788042177703], [8.615298031077101, 47.277893801737314], [8.615258813962612, 47.277919029744695], [8.615241299657272, 47.27791302818613], [8.615210826807074, 47.27794098248775], [8.61520625192008, 47.27795230970268], [8.614976866150934, 47.27810234754423], [8.615190930728017, 47.27827917454972], [8.61508570079383, 47.278362557327824], [8.615070304976262, 47.27835371867908], [8.615008191289569, 47.27823426207252], [8.614992422378002, 47.27823847110972], [8.615026867012672, 47.278301987752656], [8.614980143773504, 47.278339921806236], [8.614935472808495, 47.278328818215044], [8.614865759344715, 47.27839898388676], [8.614893187545052, 47.278413996704096], [8.614853890161523, 47.27844701529853], [8.6148049043757, 47.27842365868878], [8.614792483057233, 47.27842383037661], [8.614788109421848, 47.2784443038591], [8.614763417621921, 47.27846649587036], [8.614707331760195, 47.27847125086998], [8.614638549596076, 47.27843548460673], [8.614512818080282, 47.278548311759195], [8.614420583022401, 47.278501575895476], [8.614372025961657, 47.27854749848149], [8.61448639280358, 47.27860885101753], [8.614108225890638, 47.278933397243165], [8.614008152964592, 47.27904101441803], [8.613966789239521, 47.279023444888274], [8.613905451490817, 47.27908928775621], [8.613941647973895, 47.27911230742051], [8.61382933616207, 47.27923444168491], [8.61380668172619, 47.27922612664115], [8.613793893291604, 47.27924085672514], [8.613761022325116, 47.27925601635397], [8.613743371691497, 47.27925402835146], [8.613716212408079, 47.2792908719338], [8.613711769351248, 47.2793244256738], [8.613664154654643, 47.2793741971845], [8.613673976094562, 47.27939101778496], [8.613389210525455, 47.279747848099895], [8.61336888291731, 47.27975337145328], [8.613232484096878, 47.27991154383709], [8.613114831393258, 47.28002778587698], [8.613009773436149, 47.280150538356146], [8.612860097979652, 47.28030075852261], [8.612828002935508, 47.28028452455992], [8.612725697502247, 47.28037860718116], [8.612710984880051, 47.28037199213607], [8.612604538270023, 47.28047915123797], [8.612615437311476, 47.280484266794446], [8.612572883973312, 47.28052505361934], [8.612616980445772, 47.28054664369442], [8.612527019216644, 47.28063346670015], [8.612684035086401, 47.280710578950874], [8.612658798154454, 47.2807351237244], [8.612615381910368, 47.28071442609414], [8.612577856945798, 47.280751239981456], [8.612614780526533, 47.28076883708407], [8.61254277366342, 47.28082455974936], [8.612521479624965, 47.280847472197856], [8.612491761230263, 47.280833525882294], [8.61246396013322, 47.280861694992126], [8.61250671554724, 47.28088239928761], [8.61244781921916, 47.280939220825395], [8.612491324474666, 47.28096396549367], [8.612131947265585, 47.28130270619773], [8.611974074248863, 47.28143385699136], [8.61195071084988, 47.281422175673384], [8.611911247014287, 47.281453207126845], [8.611889765639594, 47.28144055296202], [8.61179485016145, 47.281512583282925], [8.611770064611433, 47.281497543054876], [8.611714835275468, 47.281540833678875], [8.611631118923206, 47.28149086072371], [8.611580470014045, 47.28152543303559], [8.611499582489902, 47.28154706243926], [8.61148527660866, 47.28155534897439], [8.611496888010878, 47.28156641236876], [8.611444750066024, 47.281595800088205], [8.61142488091611, 47.281585522406026], [8.611409563473266, 47.28159530339582], [8.61142846695622, 47.28160855940959], [8.611396249347132, 47.281628884157165], [8.611391509382317, 47.28162553201971], [8.61126772496656, 47.28170730074449], [8.611286513871418, 47.281720153189895], [8.61035943535052, 47.282333176224576], [8.610365461631595, 47.28233671323893], [8.610357670018908, 47.282343089208545], [8.610435350357927, 47.282389076396306], [8.610441554338852, 47.28240070760625], [8.61042010283502, 47.28241711747748], [8.610402201689766, 47.28241460070278], [8.61033054751398, 47.28237215037694], [8.610325349843405, 47.28237625116981], [8.610345440645487, 47.2823881909915], [8.610267865468622, 47.28245060743435], [8.610225712624858, 47.2825134015571], [8.610205986698316, 47.28255965891095], [8.610139383521403, 47.282638965280675], [8.610107136904118, 47.282703205952345], [8.610119524850324, 47.2827255687989], [8.610317937810331, 47.28279146888578], [8.610289848013005, 47.282830066352105], [8.610277043023746, 47.28284772900212], [8.610283169705296, 47.282849816675835], [8.610223048140087, 47.28294137207281], [8.610474421952835, 47.2830050243796], [8.61050549508378, 47.282993932023466], [8.610539202226656, 47.282987211633866], [8.610574187713128, 47.28298512895981], [8.610670038020888, 47.282985594137664], [8.610691731238672, 47.28299283102534], [8.610885776377385, 47.28303431592081], [8.61090279836669, 47.28304313847166], [8.610926686129249, 47.28305100016427], [8.611037169049053, 47.283069460349786], [8.611113202813224, 47.28308613858083], [8.611186920124588, 47.283105665423804], [8.61125212090258, 47.28312568254332], [8.611253413513404, 47.28312494974542], [8.611313725672675, 47.28314686129044], [8.611370786764512, 47.283172422067345], [8.611425333377632, 47.28320206536747], [8.611475538088571, 47.283235045176674], [8.611489943564681, 47.283222844658084], [8.6114998314779, 47.28322945476394], [8.611526286416298, 47.283251251685364], [8.611541032651425, 47.28326721227085], [8.611553027759921, 47.28328369587099], [8.611569660281667, 47.28331810551804], [8.611577811602512, 47.28335337500479], [8.611578555995054, 47.283379436395485], [8.611574869738691, 47.283405398959694], [8.611529729806245, 47.28353497069188], [8.611524968442396, 47.28355592466935], [8.611525996462102, 47.283587677314614], [8.611532097886336, 47.28360846683178], [8.611542438616306, 47.283628466576914], [8.611556785125863, 47.28364727417647], [8.611618591203587, 47.283698648456195], [8.611767734708206, 47.28378774295931], [8.611786884689497, 47.28380255260509], [8.611800960814564, 47.283819878652885], [8.61180714607196, 47.28383244540361], [8.611810591791162, 47.28384547183471], [8.611811093692504, 47.283867109901024], [8.611813734817735, 47.283881421861665], [8.611820165330549, 47.28390033693112], [8.611832775659716, 47.283923147157196], [8.611844065152086, 47.283936984303345], [8.61198102886103, 47.284081767591445], [8.61200300747908, 47.28409895922292], [8.61201966246001, 47.284109107577834], [8.612052568045094, 47.284124236012694], [8.612087291023016, 47.2841348391877], [8.612453179674416, 47.28420623657053], [8.612636317940904, 47.284202304206346], [8.613687573199213, 47.28457553316445], [8.613779715561103, 47.28461822229396], [8.613883054401182, 47.284669882729155], [8.613991668543699, 47.28473417295283], [8.61403444048206, 47.28474885842095], [8.614070471009887, 47.284740755041824], [8.614276540077547, 47.28472030394589], [8.614258337063202, 47.284800189377115], [8.614274346347203, 47.28481279986407], [8.614326049410659, 47.28483143316955], [8.614430369179534, 47.28482614169218], [8.614626802155668, 47.284777541866795], [8.61469115007832, 47.284776075958135], [8.614769597109877, 47.28475451426575], [8.61479873348331, 47.284756915731435], [8.614861186497588, 47.284728842443315], [8.614878995138234, 47.28470311358715], [8.614903095671723, 47.2846869459548], [8.61492584635346, 47.28467547091568], [8.614972778716572, 47.28466356804134], [8.615065630976956, 47.28465982320655], [8.615155480756494, 47.28465180902335], [8.615212568542558, 47.28462683973571], [8.615328830950789, 47.28455702676698], [8.615385072955116, 47.284535673321244], [8.615441950288812, 47.284537152823866], [8.615527029039477, 47.28452261133528], [8.615630006198739, 47.284510415024805], [8.615718625939252, 47.28449457827288], [8.615784034882061, 47.28447529001824], [8.615821585650794, 47.284451617324414], [8.615953614269584, 47.28440142377825], [8.615971738830043, 47.28437146369038], [8.615990124221119, 47.2843239596578], [8.6160797613762, 47.28428895141729], [8.616249775489008, 47.284294771548346], [8.616280639262966, 47.28430956879133], [8.61654487527301, 47.28431443508296], [8.61669600351137, 47.284285724876526], [8.61674176772635, 47.28429281355835], [8.616794331896807, 47.28433248627655], [8.616800379426076, 47.28434294922006], [8.616861176529623, 47.284354921796734], [8.616964704734565, 47.28432579794186], [8.617082386926636, 47.28430247537224], [8.617270030355497, 47.28429246158323], [8.617326468645745, 47.284286037615544], [8.617385782177955, 47.284260153901926], [8.617452558302203, 47.28424894650293], [8.61754250596153, 47.28425738229306], [8.617605611877527, 47.28426555268492], [8.617703009297518, 47.28425216098697], [8.61794155315815, 47.28418252522987], [8.617987970674143, 47.284153354825044], [8.618028445811863, 47.28410651530258], [8.618131765163856, 47.28409791115899], [8.61821387119813, 47.28411640302171], [8.618323319241242, 47.28412788647179], [8.61837941961294, 47.28412352560163], [8.618434695180886, 47.28410039037264], [8.618507419426793, 47.28399943635583], [8.61854153411006, 47.28396391483457], [8.618582412859054, 47.28391743055108], [8.618672765639259, 47.28384850904091], [8.618677933953805, 47.28384908576813], [8.61871537242185, 47.28381920653595], [8.619038599868526, 47.28390396397777], [8.619109107941531, 47.283918084768445], [8.619216492289706, 47.2839319179308], [8.619242036275773, 47.28392670885938], [8.619297993724256, 47.28392307746221], [8.619334372738422, 47.28390030614707], [8.619385787064136, 47.283887905716895], [8.619414263393564, 47.283896339709116], [8.619457875297233, 47.28394896659094], [8.619516236067817, 47.28397031800698], [8.619567116501978, 47.28396426466417], [8.619849411611085, 47.28388438964361], [8.619898954997428, 47.28384061370173], [8.62008466549422, 47.283743340674064], [8.620145350943854, 47.28367018886015], [8.620180127278676, 47.28364729004769], [8.620246774200984, 47.28357534479396], [8.620396977581343, 47.28350981143553], [8.620466687815238, 47.283490881060885], [8.620541554798761, 47.283453492966935], [8.620556521507183, 47.28343568136548], [8.620563971135278, 47.28340255561071], [8.620649583978816, 47.28336511114844], [8.620698177152992, 47.28335370143799], [8.620763530006696, 47.283321277362695], [8.620865312428544, 47.28329409283363], [8.620945856897059, 47.28327849666493], [8.621013625518406, 47.283262033107746], [8.621094282447862, 47.28325510716935], [8.621134800408552, 47.283207977901185], [8.621204944640668, 47.283134664690365], [8.621325196685723, 47.28318995911324], [8.621399924056151, 47.28311766932058], [8.621487735301335, 47.283039272267125], [8.621589498675247, 47.28295160149541], [8.62163694469032, 47.28291769587402], [8.621628633312593, 47.28291129535099], [8.621731203896964, 47.28287380198054], [8.621761647098886, 47.282856461139886], [8.621805601230463, 47.2828057521935], [8.621843356073601, 47.28278310984566], [8.621869154806697, 47.2827607971549], [8.621928203148945, 47.28273445498281], [8.622040423760579, 47.28270711735827], [8.622124990184698, 47.282706645209515], [8.622180160957273, 47.282687269335966], [8.622254818650346, 47.28265366043381], [8.622302811231208, 47.282609242596855], [8.622366121971222, 47.28258675163656], [8.622516962335846, 47.282602654201916], [8.622647666381253, 47.28264402300141], [8.62274797756673, 47.282630471125835], [8.622904677379244, 47.282555323426706], [8.622924145265516, 47.28253904851656], [8.62296692203806, 47.28251875605488], [8.623152739429838, 47.282524475573155], [8.623211999897382, 47.28251190275493], [8.623247499312575, 47.282497864853], [8.623296747238387, 47.282465973623104], [8.623319650477407, 47.282413285567536], [8.623377382790764, 47.282364017745365], [8.623436799363889, 47.28236683442071], [8.623557481990536, 47.28240814313474], [8.62364105098238, 47.28240920933875], [8.623743136155435, 47.28243511075624], [8.623933633531792, 47.28252481704997], [8.623945078637513, 47.282540171788476], [8.623996940929635, 47.28255996848231], [8.624100697322756, 47.282648587933], [8.624129530040957, 47.2826611551882], [8.624146068644476, 47.28272134509456], [8.624193228746206, 47.28276808687536], [8.624311665949424, 47.28284513005125], [8.624323598539643, 47.28284671647505], [8.624370595182622, 47.28290335475375], [8.624386198034061, 47.282945203392686], [8.624436094932816, 47.28299551515286], [8.624465779472098, 47.28303452036906], [8.624501622082462, 47.28306509635045], [8.624710343607504, 47.28318474895044], [8.624735793315685, 47.283205086933016], [8.624753163837847, 47.28322532810954], [8.62487036197916, 47.28326496216067], [8.625052983692576, 47.283308780553284], [8.625131914069078, 47.28336338081044], [8.625181766924753, 47.28346460720576], [8.62519980528353, 47.283485740983814], [8.62523842585122, 47.28352231518164], [8.62524559323659, 47.28354086218412], [8.625264277998655, 47.28357323370819], [8.625279453506932, 47.283607710292316], [8.625328999599997, 47.28368321270301], [8.625335257033024, 47.28374467772766], [8.625415898507123, 47.28385242376277], [8.62546244518083, 47.28387861642186], [8.625485464361047, 47.28390674237194], [8.625580148455455, 47.28400212787538], [8.62560095141984, 47.284043536141084], [8.62568637746988, 47.28407509449635], [8.62580246330256, 47.284195977646256], [8.625838308618288, 47.28422244227804], [8.6258620810826, 47.284264809316404], [8.625925114816063, 47.28429463717384], [8.626092293363543, 47.28439163262469], [8.626157614420867, 47.28441373660509], [8.626177640809797, 47.28441723652525], [8.62622381188913, 47.28441045524474], [8.626269532466798, 47.28442502489308], [8.626353342307592, 47.28450986202077], [8.626453434513639, 47.284536258405474], [8.626541838112553, 47.284532837987804], [8.626738121786428, 47.28455585965776], [8.62691015616087, 47.284570360388685], [8.62698316458183, 47.28458144635896], [8.627142610363453, 47.28457857980824], [8.627172579699522, 47.28458333546075], [8.627242805366414, 47.28457215881839], [8.627309793360613, 47.28461269475803], [8.627430217896519, 47.284649747692185], [8.627476949524524, 47.2846586393115], [8.627561268904657, 47.28463979721735], [8.627648065425976, 47.28467462338429], [8.627706666184563, 47.28466679568991], [8.627800441916428, 47.2846481525759], [8.627850859668783, 47.28465931785525], [8.627907378292226, 47.28469511279331], [8.62794067683401, 47.28471222966885], [8.628008444968394, 47.28477350986471], [8.628085739687178, 47.28478175306939], [8.628157059405414, 47.28475203385844], [8.628194471276036, 47.2847253270334], [8.62826483171167, 47.284701806537804], [8.62828990192783, 47.28467416562887], [8.628340966064531, 47.28466924891628], [8.628429007432679, 47.28469227767822], [8.628529268070674, 47.28462533291594], [8.628689272292181, 47.284578128421806], [8.628710876956667, 47.28456761456064], [8.628790425370214, 47.284575555220705], [8.628855601283561, 47.28460947028985], [8.629033247754384, 47.284663390898594], [8.629064401541644, 47.284649521973144], [8.629071448314482, 47.28463709840512], [8.629058354934912, 47.28458407001939], [8.629076956547685, 47.28457464854239], [8.629111475307733, 47.284565251672305], [8.62915770481225, 47.28456051051151], [8.62948574457242, 47.28459273646913], [8.629628001335089, 47.28458261359351], [8.629699578615131, 47.2845858233393], [8.629817370264817, 47.28461798003751], [8.629926010742318, 47.28464110080901], [8.630089877399847, 47.28474390044749], [8.630118997822171, 47.28476804975165], [8.630144582877103, 47.284796103288684], [8.63018646112223, 47.284786531103585], [8.630257246259632, 47.2847885795331], [8.630365283809763, 47.28478229963839], [8.630422067794594, 47.28479910114324], [8.630525479112453, 47.284893519894496], [8.630545951591424, 47.28493237586966], [8.630613479428915, 47.28495076647874], [8.630692031089144, 47.28498685408509], [8.63074948385101, 47.28503655411868], [8.630797637823285, 47.28507239822473], [8.630799767090847, 47.285102034574855], [8.630812298938482, 47.28512864871093], [8.630816214257546, 47.285184398497144], [8.63105270724677, 47.28529457742595], [8.631074539156218, 47.285322651710594], [8.63109498949747, 47.28532557066882], [8.631131398832913, 47.285339254200906], [8.631186189766941, 47.285373320438644], [8.631248543007981, 47.285386105827456], [8.631330127400089, 47.285369124061], [8.631395489169659, 47.28539585732255], [8.631432170911582, 47.285403384993394], [8.631478304322155, 47.2853659181515], [8.631481585218195, 47.2853488646596], [8.631529878148896, 47.28529622699002], [8.63176201680847, 47.28520852077218], [8.631828663005622, 47.28520281165706], [8.631875146274357, 47.28524134443933], [8.631953022379442, 47.285238280571775], [8.631991809632337, 47.285225267475205], [8.632046282650958, 47.28522794216102], [8.63208873110063, 47.285210762091076], [8.632320534713491, 47.28513946601137], [8.63237802110049, 47.28509244501185], [8.632393625386221, 47.2850512728703], [8.632441121909544, 47.285049386862205], [8.632627963054137, 47.2850886069182], [8.63269853335974, 47.285112362066926], [8.632756494507957, 47.28514509930797], [8.63282316833269, 47.2851879113292], [8.632919943410997, 47.28517159874787], [8.633001642961503, 47.28518462362311], [8.633126354657254, 47.28516962282869], [8.63319225552232, 47.28520209780094], [8.63326976315848, 47.28521210749545], [8.633291861749425, 47.2852248770736], [8.633324010792249, 47.28523011225524], [8.633392666365618, 47.28522735896258], [8.633731421194568, 47.28515975598148], [8.633796926354746, 47.285117256907725], [8.633897658336627, 47.285109421091924], [8.633974627358713, 47.28511840141015], [8.634043055044774, 47.28514680177706], [8.634104039489904, 47.285154508781076], [8.63429948357611, 47.285243696805324], [8.634302352866023, 47.2852797301425], [8.634355237611594, 47.28529883712525], [8.634388248576862, 47.28537560451086], [8.634427921444551, 47.28538385583443], [8.634531423280274, 47.285359187250194], [8.634720449668983, 47.285368956934164], [8.634853910015693, 47.28535619312897], [8.634935492933403, 47.28533270507996], [8.635014070782026, 47.28537334127521], [8.635088216443714, 47.285368982776916], [8.635123850230334, 47.285400511279114], [8.635164470113079, 47.285422695669425], [8.63516810065925, 47.28548381870073], [8.635182654209506, 47.28550970069781], [8.635282996342568, 47.285585886226684], [8.63541412693203, 47.28565317031896], [8.635577347388928, 47.285770775033974], [8.635613961335116, 47.28582535777829], [8.635693089834106, 47.28585099226752], [8.635745078128371, 47.28586191289124], [8.635781738767815, 47.28590029405642], [8.63591684227987, 47.28598904464816], [8.63598311293782, 47.2859919098339], [8.63606810794135, 47.28603860455137], [8.63611728669723, 47.28610991424784], [8.636172441336809, 47.28613996274914], [8.636224485146455, 47.28620757213116], [8.636351012638332, 47.28625164056399], [8.636413671348718, 47.286277931470046], [8.636495237683002, 47.28622774380622], [8.636585107336101, 47.28620295390272], [8.636628007648604, 47.286172355206], [8.636665293418321, 47.286153131215386], [8.63670515034978, 47.2861530499148], [8.636766667656463, 47.286140851520244], [8.63680864523464, 47.286144544326], [8.636926228740016, 47.286121130654635], [8.637005717574597, 47.28611329710714], [8.637055686556575, 47.286127872467965], [8.63713723385167, 47.286095135696804], [8.637201253383797, 47.286080752079016], [8.637336674634035, 47.28607872368649], [8.63742642420629, 47.28608275621973], [8.637503581646952, 47.28610415512414], [8.637569451341829, 47.286113878200105], [8.637552778227198, 47.286184990580765], [8.63757137738589, 47.28619198457867], [8.637637994373689, 47.28620732173659], [8.637691882467815, 47.28627630597717], [8.637733157439357, 47.286281669942156], [8.637785989169554, 47.28624946534371], [8.63784479342668, 47.2862630397904], [8.637902311984739, 47.286247041173056], [8.637941676655045, 47.28619914441934], [8.63802827016959, 47.28625039992534], [8.638080252951895, 47.2862575054395], [8.638120321018528, 47.28623504062998], [8.638146581346543, 47.28620054846312], [8.638205693563554, 47.28619781961892], [8.638269017305456, 47.286171892392396], [8.638426806936309, 47.28618337526476], [8.638499397225262, 47.28619447609679], [8.638544249633696, 47.286166078278995], [8.638606239121229, 47.2861796102161], [8.63867563871454, 47.28619991067653], [8.638757758065024, 47.28620501100574], [8.63887920466989, 47.286234089050666], [8.638981553124736, 47.286260451047795], [8.639098380682656, 47.28625342384277], [8.639135896630243, 47.286219192086065], [8.63923535927705, 47.2862165733266], [8.63930122658583, 47.28617150352483], [8.639457713707456, 47.28614152021643], [8.63950017322033, 47.28616956697906], [8.639583606073375, 47.28613314762868], [8.639667473208794, 47.286144823119166], [8.639746530966683, 47.28616250348395], [8.63985205575672, 47.28617901751524], [8.63992038186575, 47.286207406341134], [8.639966415523105, 47.28622213821095], [8.640005694746185, 47.286248076979206], [8.640084769243785, 47.28626530735429], [8.640134503377258, 47.28629760488668], [8.64019265323111, 47.28630028236109], [8.640271733798041, 47.28631660392679], [8.640348301664272, 47.28630880751857], [8.640380178438745, 47.28629130315167], [8.640432303299583, 47.28631234891841], [8.64049981567338, 47.28631630525703], [8.640652985630453, 47.2862922558736], [8.640711468712343, 47.28624280036023], [8.640798505806487, 47.286266073140254], [8.64083318075054, 47.28626893214201], [8.640921506919657, 47.286316569261], [8.640990064475876, 47.28631822027602], [8.64121508987889, 47.28633425159779], [8.641420987579053, 47.28639847342633], [8.641520989187127, 47.286452024520614], [8.641555312521854, 47.286472131347274], [8.64171772677816, 47.28664122671865], [8.641855306010468, 47.28667622331042], [8.641906243402149, 47.28676476590428], [8.64194882773339, 47.28680061855213], [8.6419784251653, 47.28683626496402], [8.642036618335675, 47.28693818896045], [8.642048249028845, 47.28704595136707], [8.642019711204561, 47.287117134241576], [8.642024514471107, 47.28717186699246], [8.642035363789619, 47.287219160457674], [8.642073437142907, 47.287260142734475], [8.64211742594213, 47.28732894939455], [8.64220191054646, 47.28734093138967], [8.64219183222043, 47.28740993353574], [8.642225729867706, 47.2874709294518], [8.642207676413566, 47.287543892032275], [8.642274567604488, 47.287561274963494], [8.642300286691228, 47.287593750391025], [8.642232381137656, 47.28763691836495], [8.642281332119548, 47.287738147184356], [8.642253286264822, 47.28777838025784], [8.642300433190027, 47.28782304582774], [8.642362859866147, 47.28786521316847], [8.64236934920324, 47.287889163568686], [8.64241100680741, 47.287948351344895], [8.642417902811768, 47.28804309269741], [8.6424602290228, 47.28804984732924], [8.642523658596795, 47.28813060407048], [8.642583917744231, 47.28813995111596], [8.642741246879522, 47.288211001799], [8.642839203846998, 47.288338975375694], [8.642941461088578, 47.28834167680734], [8.643002940339047, 47.28836524186434], [8.643089521350712, 47.288376293070264], [8.643177483336592, 47.28844913801483], [8.643398071203757, 47.28848660334798], [8.643449002743385, 47.28853544796126], [8.643433853347567, 47.288584722049904], [8.643451948829329, 47.28860154355944], [8.643537904976275, 47.28864346465527], [8.64362742536611, 47.28860842714876], [8.643742388509184, 47.28861757978237], [8.643895454948078, 47.28865780072444], [8.643958022604073, 47.28868269417808], [8.644121226968753, 47.288673612199474], [8.644155499209038, 47.28872120913348], [8.644338000306321, 47.288834804160935], [8.644423019435694, 47.288899582964575], [8.644458460683055, 47.28887716442912], [8.644567879830442, 47.288956899399146], [8.644605113107025, 47.28901848949078], [8.64468236079816, 47.28907282435348], [8.644708517042847, 47.28917195168158], [8.644748600411118, 47.28921982067151], [8.644722610715908, 47.28924510016044], [8.644739491702298, 47.28932516411793], [8.644742828609402, 47.28938566920183], [8.644756098828184, 47.2894171048226], [8.644751476362798, 47.289498652976604], [8.644812743377438, 47.28955954178233], [8.644794386990805, 47.28960785997146], [8.644798575710217, 47.28969318396332], [8.644750005088113, 47.28974424703007], [8.644812099469796, 47.28977093523104], [8.64483231037083, 47.28979357251669], [8.644828904340939, 47.289848211100576], [8.644808287273, 47.289918771982954], [8.644903128177893, 47.28994359737668], [8.644889134254287, 47.29002056571051], [8.644913344997606, 47.29006223171589], [8.644797577725294, 47.29018146440952], [8.644818911902941, 47.290230986660795], [8.6448638365451, 47.29026487975434], [8.644890664821151, 47.29029365483721], [8.644962196092424, 47.29035820544156], [8.644958839864024, 47.29042615698246], [8.644937226080835, 47.29045786785287], [8.644954748096676, 47.290551634433804], [8.644933622029962, 47.29060203218402], [8.64497254976961, 47.29074438441653], [8.645021330613286, 47.29077161656333], [8.64500194601406, 47.290828275263515], [8.645061555614385, 47.29085026645157], [8.64514926466771, 47.29092742121051], [8.645191558736114, 47.29093789939045], [8.645328176838841, 47.29099353768924], [8.645411998747154, 47.2910852788486], [8.645395207929495, 47.29113324801114], [8.645460123513018, 47.29119399927083], [8.645534925206567, 47.2912358733683], [8.645788549230149, 47.291452638491926], [8.645837982372896, 47.291510421318904], [8.645895425364648, 47.29160025220628], [8.645926957389076, 47.29164111275352], [8.645923437307973, 47.2916836446666], [8.645953542068165, 47.29173271510124], [8.646031993771166, 47.29180438010253], [8.646082954169737, 47.29183730116577], [8.646110835683068, 47.29186698248245], [8.646107595761432, 47.29191488175377], [8.646094563052104, 47.29195011886219], [8.646101119407563, 47.29199388555264], [8.64612295335283, 47.29201690147752], [8.646175633037535, 47.292057432646686], [8.646229925296907, 47.29210612379948], [8.64624991252356, 47.29215913218553], [8.646260031894029, 47.29223590218688], [8.646309636506128, 47.292336861521285], [8.646307146916437, 47.29240097188572], [8.646349873754554, 47.292470842574005], [8.646339742907026, 47.29249583933481], [8.646367455216284, 47.29255483876588], [8.646376462358905, 47.29264087682541], [8.64645363183503, 47.292703712155514], [8.646602992543373, 47.2927764691609], [8.646623193472069, 47.292806176736796], [8.646699250258603, 47.292844357860226], [8.646822747330798, 47.29303325705168], [8.64680951820172, 47.29309719211405], [8.64686946591784, 47.29321281397574], [8.646921508437988, 47.29321809828446], [8.647062041738714, 47.293217390582875], [8.647166994791728, 47.29328267791952], [8.64717877268464, 47.293307661093955], [8.647322294087727, 47.293333800438184], [8.647504392631047, 47.29349750026217], [8.647581236309833, 47.29355749612499], [8.647634504377686, 47.293685754346406], [8.648369538287275, 47.29436329337506], [8.648434528155192, 47.29437041075865], [8.648427720813732, 47.29444867155744], [8.648479910611277, 47.29451174064167], [8.648489130018442, 47.294597056788156], [8.648515575731466, 47.294627436290696], [8.648516428357318, 47.294689541851795], [8.648599271491305, 47.294724169816185], [8.64866946330071, 47.29506391615045], [8.648672249867895, 47.29554777772261], [8.648602455933027, 47.29557844722484], [8.648565204607058, 47.29560220848832], [8.648534857677541, 47.29563015221764], [8.648513124379118, 47.29566010152829], [8.648499752499777, 47.29569084470431], [8.648494100804632, 47.29572267630825], [8.64849630732912, 47.29575468631731], [8.648500354547156, 47.29577048502177], [8.648514165847198, 47.295801122910866], [8.648540464307928, 47.29582848138746], [8.648555953727879, 47.29584098463508], [8.648572890743155, 47.295852600131354], [8.648610584437344, 47.2958728404958], [8.648652582175696, 47.29588870883811], [8.648674869345339, 47.295894852870354], [8.648721249269805, 47.29590337983861], [8.648745036738733, 47.295905711989725], [8.648761378044922, 47.29592546550293], [8.648806343448685, 47.29599173188652], [8.64892543470747, 47.2960970350805], [8.648967486543324, 47.29619806395248], [8.64904993455311, 47.29629212897056], [8.649256316150016, 47.29638835697684], [8.649303008849342, 47.29644269520048], [8.649487017221153, 47.29661927266592], [8.649522283267293, 47.296831414524135], [8.649736985103202, 47.29698302922029], [8.649919390345136, 47.29724791327156], [8.650127294697082, 47.29753565690733], [8.650242169116007, 47.29763260104165], [8.65032414624447, 47.297604969223606], [8.650407311023208, 47.29757898009123], [8.650491545051127, 47.297554661823874], [8.650576795467595, 47.29753201498958], [8.650662984167427, 47.29751109435853], [8.650750044877872, 47.297491891657785], [8.65087720999368, 47.297466825135466], [8.650937507056828, 47.29745693498044], [8.650998820613873, 47.29745046150098], [8.651060702114854, 47.297447454259135], [8.65112272876327, 47.297447926720764], [8.651184477339669, 47.29745187434888], [8.65124553742827, 47.297459274472764], [8.651305511211905, 47.29747007729436], [8.651363960626282, 47.297484206484334], [8.651874949485807, 47.297624344542726], [8.652301411564546, 47.297738563110705], [8.652938735626543, 47.297890761293715], [8.65360648352583, 47.298034565994094], [8.653927884587342, 47.29808796842009], [8.654302194115584, 47.2981211388966], [8.654377212527576, 47.29812477384262], [8.654452437070777, 47.29812410668089], [8.6545272992767, 47.29811914341521], [8.654601310810246, 47.29810992518046], [8.654673890780266, 47.29809649406819], [8.654744566155578, 47.298078981048924], [8.654812836566888, 47.29805748130379], [8.654878216634353, 47.298032161974255], [8.65503321167874, 47.29795993010036], [8.65506247333721, 47.297948278054356], [8.655093069080868, 47.2979383031021], [8.655124762992509, 47.29793009767433], [8.655157357807115, 47.29792370883658], [8.655190616601885, 47.297919184074715], [8.655224301578672, 47.29791653483545], [8.65525820230689, 47.29791580838768], [8.65529206717405, 47.29791698936195], [8.655325671434547, 47.29792008011697], [8.655358789547725, 47.29792504706812], [8.65539119614095, 47.297931865580665], [8.655422652261294, 47.297940493232254], [8.655452931719765, 47.2979508694205], [8.65548187384432, 47.2979629059046], [8.65550923903563, 47.29797653324735], [8.655534840159532, 47.29799166346234], [8.655758962903427, 47.29813623120888], [8.655802442027664, 47.29816064497107], [8.655826485837311, 47.298170682075], [8.655878219276275, 47.298185950169305], [8.655933208868507, 47.2981944012522], [8.655961330815167, 47.29819597548413], [8.656017636949565, 47.29819373497211], [8.656061565798712, 47.298186839477616], [8.656098854769215, 47.298171747175985], [8.656133976803655, 47.29815441083822], [8.656166604497876, 47.29813496888051], [8.656196516797223, 47.29811358555058], [8.656223440174632, 47.29809044363629], [8.656247140801666, 47.29806572555109], [8.656267438266873, 47.29803964003564], [8.65628417890544, 47.29801240466362], [8.656279258927823, 47.29804134135474], [8.65627941988198, 47.298055930461295], [8.656281311420154, 47.29807044732104], [8.656290226207144, 47.29809895010629], [8.65629719185241, 47.29811272973341], [8.65631593171575, 47.298138924867835], [8.656340646764715, 47.29816272705284], [8.656355041886853, 47.29817352265899], [8.656387436850709, 47.29819256605754], [8.656431367773495, 47.2982019883841], [8.656476336046989, 47.298208773034034], [8.656522010143405, 47.298212878534905], [8.656568032078663, 47.29821426367546], [8.656614057921828, 47.29821292309367], [8.656659730555443, 47.29820885160745], [8.656752543927793, 47.29819261500378], [8.656909604490373, 47.29818256335211], [8.657142791304128, 47.29819280178025], [8.657195425720086, 47.298192488594076], [8.65724776770571, 47.29818863421916], [8.657299289072308, 47.29818127123035], [8.657349489099465, 47.29817047689199], [8.657397854450911, 47.29815635557347], [8.657443938740395, 47.29813904695212], [8.657705762331277, 47.29802750578666], [8.658356443534444, 47.298645810156664], [8.659173662113432, 47.2994652886066], [8.658712712816067, 47.29965194787981], [8.658646739482284, 47.29968314072182], [8.659000378518217, 47.300192589255964], [8.659193348293854, 47.30042311014374], [8.6591687748985, 47.300426419671616], [8.659309943835748, 47.30067582995078], [8.65957343362628, 47.300839630027625], [8.659885029883787, 47.301009063645246], [8.660544876657719, 47.30132619336804], [8.660832452404199, 47.301105913013124], [8.661208378296193, 47.300850584341255], [8.661558344397996, 47.30073674171455], [8.662014901530583, 47.30094809811354], [8.662081034262542, 47.30097809841872], [8.662218817514862, 47.30076827347583], [8.662263739118314, 47.30074520913397], [8.66236062751708, 47.30070644503436], [8.662808953959242, 47.30056167217506], [8.663113985774137, 47.30042615470233], [8.66338034501468, 47.30025758348947], [8.663695869153011, 47.30002337077649], [8.664223247767685, 47.29965563408003], [8.664446803110726, 47.299480498664494], [8.664547210459363, 47.29946154825443], [8.664630576940043, 47.29952280338128], [8.664674748032796, 47.29950169804635], [8.664767034461434, 47.299609886951146], [8.664856502529311, 47.29974331122222], [8.664914772169372, 47.29988633252134], [8.664987539188443, 47.30014866040736], [8.665039571084876, 47.300280305611054], [8.665132780583615, 47.30013681606634], [8.665487689662172, 47.29987958297725], [8.665888847705734, 47.29965669635592], [8.666192024753325, 47.29953767927309], [8.666514920492936, 47.29944584285121], [8.666701110898552, 47.29938045984347], [8.666849692862536, 47.29928115894359], [8.667115523548658, 47.299053600815846], [8.667662282778664, 47.29873244541313], [8.667970874465345, 47.29846942766408], [8.668204003553345, 47.298171635942424], [8.668317725530544, 47.29793411909364], [8.668368475004401, 47.29768556141633], [8.668331942783658, 47.29756000412804], [8.668121735247961, 47.29731600988461], [8.668103218979876, 47.297288851808624], [8.668093408829005, 47.297263076157954], [8.668090169065964, 47.29723321846735], [8.668094321212712, 47.297206817211624], [8.668106546359088, 47.29717842284551], [8.66812902974438, 47.29714933440231], [8.668156467617177, 47.29712638209145], [8.668460004478591, 47.29693486860163], [8.66904507313372, 47.296357013493015], [8.669167499851564, 47.29622670152036], [8.669482586095834, 47.29592574730131], [8.669545219286807, 47.29580236120607], [8.669584028232148, 47.295564445741086], [8.669501255902304, 47.295256016036376], [8.669497048110074, 47.29480463565608], [8.669588674339801, 47.294687461758166], [8.669840222226407, 47.294544976217125], [8.670060973669646, 47.294379547413165], [8.670633683002961, 47.29382496179259], [8.670915666693858, 47.29351487634326], [8.671426387472186, 47.29288244486775], [8.671588132669728, 47.292710771432965], [8.671925597804083, 47.29245794979548], [8.672139617336764, 47.292348577427674], [8.67211185552019, 47.29231784863731], [8.672067238016876, 47.29228205577013], [8.672207930515603, 47.291974817489155], [8.672350447729842, 47.29189990673632], [8.672586069982549, 47.291855250137026], [8.672991172658385, 47.29180971404422], [8.673086868319928, 47.291811891929804], [8.67313183266457, 47.291296726489975], [8.673202623941119, 47.29071376478282], [8.673235730020105, 47.290654300324], [8.673348988205156, 47.29059673928086], [8.673756349975246, 47.290568115494466], [8.674641939183795, 47.2906714111212], [8.674752235494854, 47.290273595453925], [8.675033856303177, 47.289901800165495], [8.674871132240817, 47.2894566334343], [8.675179165990766, 47.289231004489594], [8.675510621445039, 47.28902177453205], [8.675849076157292, 47.288885341680896], [8.676227750941846, 47.28877245829483], [8.676534203786236, 47.28863531351454], [8.676902921443919, 47.28842681036475], [8.677459998018643, 47.28817295975886], [8.677605658444117, 47.288047398844064], [8.677849979293548, 47.28794668474437], [8.678132593480967, 47.28787703389605], [8.678345938817765, 47.2878435969427], [8.67937040959439, 47.287724737660504], [8.679519982348301, 47.28771823447558], [8.679677075773634, 47.287699721619255], [8.679780415501563, 47.28765568203024], [8.679836970442164, 47.2876390699266], [8.679821857678435, 47.28759806847903], [8.679946791283943, 47.28743032170506], [8.680059559470545, 47.28731876688421], [8.680249815615435, 47.28723404821223], [8.680351125359675, 47.28717952312486], [8.6803557167122, 47.28722912967224], [8.680810332894241, 47.28743202304704], [8.681454061553689, 47.28774513254032], [8.681487130559525, 47.287779948956235], [8.682189936054781, 47.28784840174132], [8.682538276406202, 47.28715179976865], [8.682656456523357, 47.28717173644533], [8.682680311777016, 47.287117505396694], [8.683040460118827, 47.287186483711785], [8.683119563211811, 47.28674889200768], [8.683052751615492, 47.28671164279429], [8.683064343501906, 47.286427966784665], [8.683107868244377, 47.28609464987245], [8.683170242975784, 47.28612704441594], [8.68323799825411, 47.285943369292994], [8.683227003441992, 47.28579441272549], [8.683156104084235, 47.285783088022335], [8.683149490515463, 47.28560714191821], [8.683188136871996, 47.28540486288425], [8.683157450854823, 47.28542178203641], [8.683134646402594, 47.28543993847011], [8.683103033242364, 47.285485707595534], [8.683585091502167, 47.28424985716228], [8.68352182091102, 47.28422091772396], [8.683530258297118, 47.28419270630022], [8.683471360182205, 47.28412677446014], [8.683284873921977, 47.28394103026716], [8.683159015516708, 47.28378254504178], [8.683088301498037, 47.28363104807439], [8.683025504685224, 47.283105724059865], [8.682996526552174, 47.28297807387546], [8.682918195992611, 47.28284002666356], [8.682783367299683, 47.282672534711516], [8.682628229014979, 47.282542251768525], [8.68237441280123, 47.28235935622086], [8.682176959671093, 47.282242051042196], [8.681699246268598, 47.282008377751595], [8.681400045139977, 47.281777950784395], [8.681369103177229, 47.281748031946435], [8.681345101850724, 47.281715294673596], [8.68132600661362, 47.281672411372256], [8.681318839941328, 47.281627465426446], [8.681324433329042, 47.281580969625125], [8.681343158558796, 47.28153583457758], [8.681471748190544, 47.28137033198651], [8.681682070394512, 47.28112306836963], [8.68166324882312, 47.28114020109046], [8.681638681287307, 47.28115354561419], [8.681609932942935, 47.28116219449143], [8.681578894938339, 47.28116561459562], [8.681270090325002, 47.281140292047525], [8.68099523648639, 47.28113161364945], [8.680597286781856, 47.28062518118841], [8.68013415321952, 47.28002458005574], [8.679854143739602, 47.280102636153394], [8.679572766108874, 47.280163380683405], [8.679323769084881, 47.28020343699685], [8.678868425318967, 47.280259403656274], [8.678717218510075, 47.28027320111662], [8.67856475345269, 47.280278933645135], [8.67820792600003, 47.28027274869112], [8.677761324005683, 47.2802731498496], [8.677627940233483, 47.28029055055606], [8.677505810666508, 47.28034063736393], [8.677780949998562, 47.28005599098405], [8.677860472119578, 47.279960232286555], [8.677997058018464, 47.27975965449533], [8.67809927207165, 47.27955043244332], [8.678142980429707, 47.27942151371526], [8.67815668662479, 47.279356543718784], [8.678159681446637, 47.27930789905263], [8.6781543905041, 47.279259352464315], [8.678139092929607, 47.27920681144939], [8.678119892256243, 47.279166069697574], [8.678091217495414, 47.27912206541934], [8.678063261663914, 47.27909137596329], [8.678025077914583, 47.27906082343636], [8.677980188989958, 47.27903467886018], [8.677929694192851, 47.27901360508463], [8.677880550995994, 47.27899950636872], [8.677821330133575, 47.27898860143294], [8.677721965400071, 47.278980574671785], [8.67762525932138, 47.27898458243143], [8.677110385200137, 47.27905866036717], [8.67693909219411, 47.27892727419244], [8.676814444784036, 47.278840770146424], [8.676566790578965, 47.27861304168343], [8.676452135386368, 47.27850078343996], [8.676387572336655, 47.278445856389354], [8.67629393836904, 47.278321767928], [8.676107628916288, 47.27813597468464], [8.675915942625066, 47.27795480886322], [8.675667734397617, 47.27749513254679], [8.675685147895173, 47.27742235041801], [8.675684166849852, 47.27729044857914], [8.67566946913864, 47.277223732679765], [8.675885786640686, 47.27720793601301], [8.676091393991207, 47.27710188362555], [8.67561052519206, 47.27644020534831], [8.67557238413332, 47.27619112906803], [8.67565911149123, 47.276167403481914], [8.675740696122055, 47.27613507923831], [8.675803154457862, 47.276096474389306], [8.675852420650765, 47.27604985203472], [8.675717972547577, 47.27601176763664], [8.675688203014262, 47.27599224244894], [8.675636634327432, 47.27598056170423], [8.675625866833599, 47.27598477024218], [8.675603583167918, 47.27600651779824], [8.675481613802033, 47.27601868386409], [8.675426419246211, 47.27602793866469], [8.675350975083347, 47.2759846961171], [8.675330733374135, 47.27593310728434], [8.675298148259873, 47.27590671266239], [8.67525887255742, 47.27583227212712], [8.675146328563589, 47.27578396716022], [8.675112253361823, 47.275747441410076], [8.67504546078996, 47.275724454210305], [8.674968730417877, 47.275718674178165], [8.674909396243264, 47.27569869246011], [8.67474531790613, 47.27568753385913], [8.674623762631246, 47.27567359821258], [8.674536296949265, 47.27567512938497], [8.674372283260965, 47.27564676984643], [8.6742828407882, 47.275643410438896], [8.674170222658788, 47.275616982605555], [8.674085808537637, 47.27562242994936], [8.673972333453891, 47.275558382410104], [8.673843586863144, 47.27551980334351], [8.673840080831503, 47.275515657951345], [8.673841809507211, 47.27547611255961], [8.673778544863893, 47.27540732596712], [8.673597846962553, 47.275350178240664], [8.673513782027896, 47.27528612119312], [8.673393872343688, 47.27524897605573], [8.672999987080281, 47.27519115077198], [8.672932902915743, 47.27516119393738], [8.672832684591372, 47.275109030613855], [8.672782879159417, 47.27497629309996], [8.672702855805959, 47.27483141113238], [8.672657450169924, 47.27479522192012], [8.672617636489665, 47.274677283521704], [8.672564589833767, 47.274623868454675], [8.672521667667025, 47.274598474363735], [8.672484239991617, 47.274555749778685], [8.672424481362567, 47.274461242488584], [8.67238720929276, 47.27438749025053], [8.672315020588336, 47.274286998803746], [8.672230497407387, 47.27419782082397], [8.672210004762299, 47.274082572070384], [8.672207349255958, 47.27398936959326], [8.67217727116764, 47.27391574742123], [8.672171809832367, 47.27381321962495], [8.672082955445891, 47.27378654449837], [8.67206915115635, 47.273765121007855], [8.671989135887305, 47.273698239882584], [8.671920965753086, 47.273575395610955], [8.671866197527232, 47.273500021987445], [8.671862805548031, 47.273433885234304], [8.671829310143405, 47.27338682719217], [8.671773117534098, 47.27335792246806], [8.67170372423822, 47.27320609848199], [8.671720569224014, 47.273169179995435], [8.671730947461354, 47.27308746048865], [8.671667062150231, 47.273024167066836], [8.671776425922102, 47.272965505716854], [8.671817072411866, 47.27291189757054], [8.671873665155008, 47.27287917770234], [8.671899574833072, 47.272812413754075], [8.671975348312081, 47.27274663662539], [8.671958135346369, 47.27267834591441], [8.67202879273837, 47.27260280906127], [8.67208638525177, 47.27255044991624], [8.672242904178306, 47.272558094356334], [8.672316523276459, 47.272512948928835], [8.672326262620176, 47.27246082298614], [8.672362220862153, 47.27240455709763], [8.672328504891222, 47.27226385670152], [8.67244023545454, 47.272220785651484], [8.672464930262977, 47.272181012059164], [8.672522849827349, 47.27206456199551], [8.67247801833879, 47.27165849980376], [8.672469491133695, 47.27153255308397], [8.672502387658312, 47.271414169026755], [8.672505803749685, 47.271307471235694], [8.672456891710706, 47.27127840806375], [8.672470366932114, 47.27124498886415], [8.67247132127144, 47.27118561646901], [8.672456569024373, 47.271151744177864], [8.672437168814229, 47.27107402252102], [8.672441087230899, 47.27107029236382], [8.67219456672532, 47.2707370686991], [8.672292286998719, 47.27026220270954], [8.672234772033116, 47.27015135220105], [8.672208625446318, 47.27012941254542], [8.672208794616802, 47.27008470154329], [8.672220318412144, 47.27004004954772], [8.672207645513653, 47.26989136117687], [8.67217926068645, 47.269811414855965], [8.672202280462175, 47.269783821950355], [8.672204020887765, 47.26975617780208], [8.67216183013717, 47.26976571454685], [8.672139503477142, 47.269731761030094], [8.672039046493895, 47.26967336565272], [8.672004325512559, 47.26967957516185], [8.671973730868975, 47.269659581338466], [8.671949086157756, 47.269621955531264], [8.671886756953894, 47.26961272699774], [8.671867487470022, 47.26959611143275], [8.671810714801712, 47.26958655365884], [8.671713189173927, 47.26952857677579], [8.671610847142023, 47.2695087114006], [8.671610386502888, 47.269453834159066], [8.671547961553284, 47.269440450393084], [8.671567903871066, 47.269393477704206], [8.671557731320028, 47.26932324040434], [8.671414535718668, 47.2692677394154], [8.671346078194734, 47.26926781479771], [8.671260578710019, 47.26922123205869], [8.671277995455595, 47.269162736238115], [8.671247012298478, 47.26910586370945], [8.6712170347319, 47.269078827586675], [8.671124112965604, 47.26904848909398], [8.671061760309357, 47.269020450631714], [8.671023899907997, 47.26897764932357], [8.670893819142416, 47.26894061045876], [8.670774488735942, 47.2688711622275], [8.67067986504215, 47.268773320485494], [8.67062602382017, 47.268742411117486], [8.670577997826836, 47.26869947543587], [8.67039038280381, 47.26859740977782], [8.670374471057126, 47.268578509059466], [8.670269013161173, 47.268503082958944], [8.6702108621929, 47.26843426690027], [8.670191995931956, 47.268424213373436], [8.670182579765635, 47.2683998638017], [8.670285483394427, 47.268252243182914], [8.670264017584397, 47.268187344113], [8.67025061458063, 47.26811562104859], [8.670196667656208, 47.268061171177116], [8.670192999089672, 47.26797603027273], [8.670168626716302, 47.267939237750554], [8.670207465890154, 47.2678807107224], [8.670232714989334, 47.267800217754896], [8.67022551838275, 47.26770592133014], [8.670262098551387, 47.26768124230435], [8.670348167116368, 47.267677012175], [8.67042746051553, 47.267625420346526], [8.670469371484089, 47.267614717300205], [8.670576196117207, 47.26755925102767], [8.670615845827362, 47.267525003502065], [8.67060591795399, 47.26743264333734], [8.670583694418887, 47.267408232740394], [8.670623189267728, 47.26735581577327], [8.670589303576769, 47.26733629757459], [8.670626503108577, 47.26728750336076], [8.670609690635851, 47.267097784866635], [8.670596497223631, 47.267053487330664], [8.670576609033377, 47.26701114154043], [8.670482071745523, 47.26685157060209], [8.670431566625334, 47.26673831536995], [8.670467851371342, 47.26671804735466], [8.670477178797894, 47.26667610885787], [8.670459346165732, 47.2666535493428], [8.670393939494986, 47.26662130629223], [8.670371755535339, 47.266622083107826], [8.670237153384512, 47.26663340755123], [8.670132058473026, 47.2666675354644], [8.670092076605458, 47.26627239786843], [8.670118209131632, 47.26620330203613], [8.670134914966544, 47.26598901858717], [8.669753371169387, 47.2659646769611], [8.669740487718098, 47.265744592219804], [8.669768806065495, 47.26519816446034], [8.66965505471654, 47.264821111501305], [8.668815012531311, 47.26335898547033], [8.668572643107574, 47.26288840133522], [8.668346066885267, 47.26261875944391], [8.668564660432315, 47.2625287012967], [8.668432342902276, 47.26235072165207], [8.668049815939721, 47.261907078969486], [8.667673375502918, 47.26169032192874], [8.66741164172925, 47.26121528180347]]]]}}]}