{"type": "FeatureCollection", "features": [{"type": "Feature", "properties": {"bfs_nummer": 160}, "geometry": {"type": "MultiPolygon", "coordinates": [[[[8.60291212537265, 47.33486738385173], [8.603178375876881, 47.335033109304604], [8.603616367173347, 47.3352405481905], [8.604384453448931, 47.335553890966345], [8.604652020331624, 47.335685065802295], [8.605009517653434, 47.33579452532218], [8.605401940499693, 47.3359476991406], [8.605857256325242, 47.33608378343503], [8.606423215498303, 47.336260547936696], [8.606865416611384, 47.336398748880846], [8.607182791051834, 47.33666714219196], [8.607047829388035, 47.33668999825788], [8.606739909172761, 47.33679768565031], [8.606712195048555, 47.33680591801445], [8.606683336749496, 47.336812057021106], [8.606653676884148, 47.336816036248884], [8.606623545014187, 47.33681779838645], [8.606593470734376, 47.33681735607552], [8.606563639062191, 47.3368146984423], [8.60650611044488, 47.33680292988037], [8.60686085245339, 47.33690870574341], [8.60705758236958, 47.33699688395389], [8.607586677722196, 47.337265551734085], [8.607709434435113, 47.337366216567396], [8.607969432982626, 47.33724553674152], [8.60806443052705, 47.33729562261343], [8.608318135451169, 47.33754637749624], [8.608143058604227, 47.33770118927811], [8.607854449097609, 47.33789433765113], [8.608139993445242, 47.33802492599875], [8.608400268283479, 47.337841922674315], [8.609521405125289, 47.33847453107804], [8.609636292725162, 47.33836776021105], [8.610703616823459, 47.338844725985346], [8.610843069469762, 47.33890681701174], [8.610936064800528, 47.33894260063225], [8.610877995135946, 47.33901052949397], [8.61109311251955, 47.33908870051189], [8.61112818195833, 47.33911766009037], [8.61134946423987, 47.33921075439076], [8.61130488893728, 47.33926346121828], [8.612044244049441, 47.33986002359858], [8.612233992502711, 47.34001310312225], [8.612265155330121, 47.34003827015722], [8.61220094860904, 47.34007204379308], [8.612307230466037, 47.34007221367904], [8.612806387847023, 47.34023588150321], [8.613251661762744, 47.340380970645555], [8.61318590491559, 47.34043989356231], [8.612631912756516, 47.34149461136604], [8.613177094576091, 47.34156319526256], [8.613556855799134, 47.34176338055595], [8.613670616187932, 47.34216711210915], [8.61491756830258, 47.34216137409717], [8.614963270098068, 47.34216579283499], [8.615395636330497, 47.34220652401728], [8.615555246193429, 47.34222013312557], [8.615606672474955, 47.34227165588061], [8.615581976355026, 47.34236094367349], [8.615670783582114, 47.34247638396107], [8.615687960675633, 47.342573484693176], [8.615826916298575, 47.342635736592705], [8.615902289070931, 47.3427210714199], [8.615923052261762, 47.342761788415714], [8.615958746593229, 47.3427870433196], [8.617349496271059, 47.34294915336481], [8.617673729029558, 47.34232097968647], [8.617882391686711, 47.34192423979839], [8.618047048142472, 47.34173333116359], [8.618081363092326, 47.3417123631621], [8.61858334372355, 47.341491911011786], [8.618826799852144, 47.34141924036755], [8.619139823904757, 47.341269379087365], [8.620106561135472, 47.34133191022482], [8.620228183481554, 47.341398373583516], [8.62052047950714, 47.34128195850724], [8.620717265376646, 47.34120371668644], [8.620753941546441, 47.341244557894306], [8.621225065450545, 47.34159731633068], [8.621530940569473, 47.34185330299189], [8.621726133956514, 47.342071311474385], [8.621361152744312, 47.34221806010993], [8.62166120423175, 47.34255256403812], [8.621764582046657, 47.34252301618772], [8.622202501689125, 47.342944693045204], [8.622068800719054, 47.343006908457106], [8.622299943209972, 47.34326477515909], [8.622459448739301, 47.343572076277255], [8.623093363710446, 47.34345180031331], [8.623957097525345, 47.3432080645668], [8.624044210419509, 47.34330533636009], [8.624125170724222, 47.343405037051745], [8.624199828697881, 47.34350697931962], [8.624268061243061, 47.343610984544966], [8.624350500815883, 47.3437557457551], [8.624420474537137, 47.34390350456827], [8.624477759407531, 47.344053759549915], [8.62452214581599, 47.344206018077834], [8.624605194919965, 47.34454175385827], [8.623642788344378, 47.34469306288135], [8.623802570388763, 47.3452135055052], [8.62374432569728, 47.34540531843473], [8.623884974816404, 47.34570017321776], [8.623894403114369, 47.3461225620994], [8.623794511816373, 47.346143098683896], [8.62406215937214, 47.346659689190844], [8.624076190707266, 47.34668716986766], [8.624348611612323, 47.347212805684336], [8.624545417237002, 47.34816246711043], [8.624868303499031, 47.34821627068187], [8.624812992683433, 47.34824425681086], [8.624839898112102, 47.34825009723741], [8.624865325198805, 47.34825849854097], [8.624888687496771, 47.34826927782464], [8.624909569610123, 47.348282205493305], [8.624927489362037, 47.34829702563203], [8.624942108718225, 47.34831341786128], [8.624953142616008, 47.348331061308755], [8.624960345054236, 47.348349607672716], [8.625012400279717, 47.34853223606227], [8.625018558519855, 47.34855262821468], [8.625025626796567, 47.34857287606574], [8.62503361816353, 47.34859297051023], [8.625042600981404, 47.34861300978907], [8.625052492854095, 47.34863285981837], [8.625063279756874, 47.34865248476942], [8.625107945242263, 47.34872900793696], [8.625155307520027, 47.34880478371857], [8.625205351995115, 47.3488797493285], [8.625244808036193, 47.34893568163006], [8.62528577531302, 47.34899112163137], [8.625328187054167, 47.34904604301782], [8.625372082564114, 47.349100427397225], [8.625397948131484, 47.349130295895556], [8.625425610005557, 47.349159399315646], [8.625455027872754, 47.34918771106467], [8.625485931882984, 47.34921500004558], [8.625518470610677, 47.349241399673325], [8.625552537374574, 47.34926687503878], [8.625852074670675, 47.34948320035885], [8.62590129175362, 47.34952152710823], [8.625946193927092, 47.34956222799719], [8.62598657749264, 47.34960507125194], [8.626022159145903, 47.349649816914756], [8.62605292486432, 47.349696429176376], [8.626078507318779, 47.34974446202865], [8.626098781787242, 47.3497936648801], [8.626113635586252, 47.34984373305346], [8.626154705369164, 47.350019016422046], [8.626207172518386, 47.350012467825614], [8.62745807593275, 47.349273114204834], [8.628363925716105, 47.34914996420672], [8.629345498498477, 47.34880359766451], [8.629877219788241, 47.34856680533255], [8.629995784225239, 47.34864203331858], [8.630187895736462, 47.34812536283729], [8.630395928563365, 47.347922717050295], [8.630714066379197, 47.34776393768761], [8.630646941212179, 47.34764041371668], [8.630509934852183, 47.34759095954677], [8.630419824813826, 47.34717095104528], [8.630892029340815, 47.346865935305935], [8.630745798387295, 47.34677616045251], [8.630563653760165, 47.346724554712566], [8.63058110366122, 47.346689886280544], [8.630731958436328, 47.346664445919856], [8.630919130042995, 47.3465981510481], [8.630794160624466, 47.3465074367656], [8.630285703332065, 47.34630592690611], [8.630295226117228, 47.34616173139574], [8.630196102938758, 47.346135993282914], [8.629577273210788, 47.34601096548261], [8.62932350737925, 47.34596541279787], [8.629334545083847, 47.34593517339494], [8.629132837664901, 47.345902873300034], [8.629551137825699, 47.34498417744161], [8.629587685520763, 47.34495780380071], [8.629995413174848, 47.34522105660111], [8.63092083056852, 47.34465169160624], [8.631185871234319, 47.343916828462206], [8.631986478171402, 47.344987936828105], [8.63204665950249, 47.34506140064283], [8.632105550593979, 47.345124515086674], [8.632229079705263, 47.345236669647775], [8.632378306651416, 47.34534624656846], [8.632480057400567, 47.345408971574535], [8.632898273789941, 47.34564750309241], [8.632923965325773, 47.34562693473812], [8.634982575643148, 47.34518275410041], [8.635010876656041, 47.34515702183498], [8.634134685103573, 47.344716815787336], [8.634075600862918, 47.34468118528719], [8.634024772168246, 47.34464010804543], [8.636058289951222, 47.34365510583802], [8.63609209955114, 47.34363310326543], [8.634824987790445, 47.34240663125101], [8.63603946070125, 47.341813821260665], [8.635854669233655, 47.34172278853769], [8.635765038643914, 47.341673397812585], [8.635664904664035, 47.34160827501527], [8.6355735831487, 47.341537186751786], [8.635545272536268, 47.34151227516697], [8.635598435044939, 47.34148524143784], [8.635502970808933, 47.34138817235261], [8.635428526111234, 47.341288915301256], [8.63577682576619, 47.341169155357115], [8.636027169825347, 47.34101414089048], [8.636002972753758, 47.34098971753442], [8.636004346751808, 47.34081278189479], [8.636064772378353, 47.340798661862365], [8.637679777723648, 47.34079928726037], [8.637900626482688, 47.340148578201294], [8.63789918779097, 47.34009872265114], [8.637884725135537, 47.340054066833005], [8.637858186804447, 47.3400120551628], [8.637820558597754, 47.33997415266287], [8.637786016417614, 47.339903402923994], [8.63808110470978, 47.33975780531785], [8.638268402758127, 47.33964093397954], [8.638769098346208, 47.33953543141719], [8.638873816261679, 47.33964489598591], [8.638962680181196, 47.3396055616157], [8.638988055740219, 47.339526498058405], [8.638694630974047, 47.33948295295029], [8.639185752350178, 47.33879988357987], [8.639531387248583, 47.338817346440415], [8.639603565069937, 47.33881222375679], [8.63967125318822, 47.3387981253554], [8.639733747475807, 47.3387755173368], [8.640042317655658, 47.33862913548648], [8.640152008239177, 47.33858628214347], [8.640121834456133, 47.33854447974679], [8.640217386562034, 47.33851372841869], [8.640751032963307, 47.33839127701355], [8.64087041139243, 47.338358504837274], [8.641173336537701, 47.338260151127606], [8.641315633943401, 47.338208591185015], [8.641885226425703, 47.33796108354334], [8.642073368827978, 47.33787290113114], [8.642272264137524, 47.33777336197902], [8.642341805143236, 47.33773180663514], [8.642404825632234, 47.337685713589494], [8.642554706122047, 47.3375410874422], [8.642648076217322, 47.33747009330693], [8.642707784095602, 47.33743379469812], [8.642779854197771, 47.3373970342382], [8.642847830693825, 47.33736827738791], [8.642928180752467, 47.337340731732084], [8.643069066100617, 47.33730593371354], [8.64321582451978, 47.337285691698575], [8.643813090166464, 47.337265801907506], [8.643917277199868, 47.33725839923487], [8.644019654526776, 47.337246454697166], [8.64446658900632, 47.33717657857465], [8.644600998919973, 47.337148664781445], [8.644907400964508, 47.3370706660754], [8.644970892712196, 47.33705139098839], [8.645062714877055, 47.33701276746123], [8.645266224755243, 47.336901165924424], [8.645680000921645, 47.336646263004894], [8.64606923429153, 47.33642910823676], [8.645898766084631, 47.33596932864472], [8.645730169454959, 47.33558510852228], [8.645582939029392, 47.33507549254668], [8.645463897873741, 47.33486715293528], [8.645068329509838, 47.334488515082064], [8.644644402346987, 47.334182081757056], [8.644343038590605, 47.33392263601558], [8.644601832534835, 47.33374422450279], [8.645452131004937, 47.333282704572234], [8.645989623310653, 47.33319386640941], [8.645982151462144, 47.33286552138782], [8.645995275938198, 47.332650339275744], [8.64602500220537, 47.332463049126794], [8.646118277972604, 47.33205181835501], [8.646141805858015, 47.3318555256591], [8.646145039306733, 47.331009434221], [8.646152820584478, 47.33057813852907], [8.646175036152853, 47.330357221056865], [8.646242139604073, 47.329973601248895], [8.646232357117675, 47.3299143607474], [8.646198917516957, 47.329855115949826], [8.646143569011462, 47.32980353958958], [8.646104334173769, 47.32977935662044], [8.646065411395117, 47.32976135924518], [8.645728265281837, 47.32964994279138], [8.645516536000969, 47.32957417589214], [8.644694427941886, 47.329248086206675], [8.644653181006516, 47.3292366882381], [8.644604699233746, 47.32923007946925], [8.644560197071117, 47.3292297798958], [8.644516318734865, 47.32923483507223], [8.644331986391142, 47.32920030247654], [8.644406129784384, 47.328940332661986], [8.64444427125363, 47.32886412038105], [8.644443970548211, 47.328560570454826], [8.644244296002315, 47.32830138368405], [8.644236248612598, 47.32826904811805], [8.644075998725238, 47.32709694941454], [8.64326100777134, 47.32606281375803], [8.642797520480443, 47.326152559470906], [8.642654404658952, 47.32615405289384], [8.642215484327327, 47.326191033697214], [8.641700037690283, 47.32631060630084], [8.64133707641838, 47.32639073422853], [8.6408097232274, 47.326482927351314], [8.63914461931123, 47.326692528360404], [8.638603395963383, 47.32671659745924], [8.637766308524963, 47.32672788890283], [8.636846581886209, 47.32676201723869], [8.63617188023726, 47.3266978124303], [8.636132698432599, 47.32665800934525], [8.635979276438771, 47.32673089907129], [8.63598976373346, 47.32673188770162], [8.635359369847007, 47.327069809269574], [8.634585489403149, 47.32743627269692], [8.63447663548531, 47.32732852017722], [8.634517641757803, 47.32730751369865], [8.634542255410564, 47.327288269287585], [8.634560551863071, 47.32726343221415], [8.63456757220877, 47.327238424136965], [8.634567258538125, 47.32718135140293], [8.634529465505652, 47.32690601506904], [8.63453190897492, 47.32679252133298], [8.634555203368265, 47.326693788861135], [8.634600067068064, 47.32659110883896], [8.634664044872258, 47.326494185585794], [8.634741236868313, 47.32641013273105], [8.634722359141549, 47.3263618249425], [8.634644155709555, 47.32629219205545], [8.634406736366365, 47.32594670847055], [8.634224541229612, 47.325778285236694], [8.633984708572767, 47.32558289652175], [8.633851042647667, 47.32533001532219], [8.633721580538204, 47.32492163084729], [8.633450077638464, 47.32483590916498], [8.632281340469092, 47.32371173114637], [8.632270365183263, 47.32370015022952], [8.632256332032176, 47.32367073630947], [8.632214965170483, 47.32363001005083], [8.632240010344555, 47.32361826388937], [8.632243261372407, 47.32357080636003], [8.632128193070518, 47.32349812603092], [8.632129980258291, 47.32340771217556], [8.632176521734259, 47.3232930157609], [8.632151452396272, 47.32326287923879], [8.632209980638313, 47.32311925558217], [8.632280984149421, 47.32308091971114], [8.632317549679888, 47.32301882381271], [8.632431488623952, 47.32294411627537], [8.632514819664545, 47.3228140614602], [8.632592663634062, 47.32276396088325], [8.632640506535589, 47.322658417264385], [8.632729712398737, 47.322628933427445], [8.632748514059916, 47.32260187847544], [8.632684979501182, 47.32259619434908], [8.632136173330831, 47.32227599381948], [8.631679020136122, 47.322399131924634], [8.631628064416025, 47.322363766927], [8.631702301758736, 47.322298501850476], [8.631729649069106, 47.322219364852934], [8.631722888301603, 47.322138889399284], [8.631676520440108, 47.32206554303394], [8.63141196363359, 47.32184121439097], [8.630832161191142, 47.321948200141016], [8.630355861509079, 47.3221068165646], [8.630078205068466, 47.322226246832955], [8.629300423679581, 47.321734861631505], [8.628515353321646, 47.32199893360392], [8.628269945026306, 47.321998495365364], [8.627943478619349, 47.32195159412336], [8.627697691353369, 47.32193532665691], [8.627452570537095, 47.32196617881953], [8.627229934251417, 47.32204314330884], [8.6270443333411, 47.322157281882596], [8.626489323597536, 47.32259054883858], [8.626445948164868, 47.32262871313841], [8.626188215934885, 47.3228093311639], [8.626039787142565, 47.32290219807104], [8.62588216224829, 47.32298787316007], [8.625716112043587, 47.3230659167182], [8.62480021081535, 47.32344562258147], [8.624667473653682, 47.323545288910985], [8.624600497162822, 47.32358414498486], [8.62453538932981, 47.323614822948954], [8.624382594129267, 47.32362277951832], [8.623996765966057, 47.32356717551328], [8.623801116925756, 47.32356243857826], [8.623498840599465, 47.32361734725962], [8.623320528263534, 47.32372426353724], [8.623075754591822, 47.323717041995955], [8.622091240673504, 47.32381939050489], [8.621538175614235, 47.323916319527584], [8.621362527958702, 47.32391215588298], [8.621196026699451, 47.32387956263126], [8.620800518154235, 47.32381448519354], [8.62061066036262, 47.32381440597038], [8.620411883919617, 47.3238458926252], [8.620227852681548, 47.32407305796389], [8.620032571714669, 47.324344289877786], [8.619954327084294, 47.32446714954714], [8.619891172606916, 47.3245963763911], [8.619806437936719, 47.32468844830177], [8.619650859144164, 47.32478176700122], [8.619439346055218, 47.32480938908943], [8.619215950304813, 47.3248620313817], [8.617316461224027, 47.32534145303081], [8.616977770602233, 47.325498067549525], [8.61684515247483, 47.32549558943245], [8.61662219425151, 47.32545689063896], [8.616248080480359, 47.32550186242706], [8.61570137931019, 47.325576668359496], [8.615159923627168, 47.32577300907824], [8.614663745025412, 47.32608252508954], [8.614165973077203, 47.326375880007056], [8.613800612170047, 47.326697848830186], [8.613532348329755, 47.32675090041175], [8.613357509369482, 47.32674238070189], [8.613165491808878, 47.32668853653832], [8.613044766156316, 47.32662121111751], [8.612841866962848, 47.326536380172385], [8.61269842334322, 47.32648455984023], [8.612538001426804, 47.32647883357036], [8.61238206322176, 47.326491690839184], [8.61223286263955, 47.32652034722791], [8.611800005642056, 47.326614459379705], [8.611113623132123, 47.32658722535462], [8.610799764924638, 47.32651799151726], [8.610669124439873, 47.326630277352265], [8.61064752920193, 47.32666985161687], [8.610654404439517, 47.3268243950628], [8.610761159993732, 47.326888869500145], [8.610777080574842, 47.326920389628945], [8.610790110941299, 47.32710937681027], [8.610810511236304, 47.32715268944091], [8.610811690143747, 47.32717442835911], [8.610866815756035, 47.32723922019339], [8.61089084461487, 47.32729171622993], [8.611013663364034, 47.32739533714293], [8.611079960601481, 47.32756868898556], [8.61122237065404, 47.327751558569986], [8.611371885471328, 47.32783630552739], [8.611437235693316, 47.32790211777018], [8.611423203953414, 47.32793185554008], [8.611493700004328, 47.32796091427814], [8.611503838923175, 47.328000831663736], [8.611502844324809, 47.32810599882037], [8.6114827669809, 47.32812554323069], [8.611515920463251, 47.32816514620153], [8.61150940656289, 47.328193817964326], [8.611551199419194, 47.32824124864282], [8.611512345715006, 47.32824326243137], [8.611511692487243, 47.32824965583851], [8.611534660817423, 47.32829538896567], [8.61157067866383, 47.32832686676919], [8.611540434953314, 47.32838348542875], [8.611609366031548, 47.32850260368441], [8.611667382490594, 47.32854834033373], [8.611695513168165, 47.32870185792337], [8.611731327924767, 47.32876078269585], [8.611731524519726, 47.32880520918697], [8.611689308682482, 47.328907016867554], [8.611739180816276, 47.32899089577121], [8.61172172736003, 47.32902749559375], [8.611735304139545, 47.329109395936705], [8.611762604632679, 47.32915356457596], [8.61175972159375, 47.329239050125516], [8.611794538313605, 47.32927062985024], [8.611780847280205, 47.329309260325516], [8.611816849559453, 47.32939173296129], [8.611619251044406, 47.329369590280855], [8.611414489086386, 47.32930569073176], [8.610901545208227, 47.329136536018495], [8.61062865257619, 47.3290674976934], [8.610318840963751, 47.3289590290796], [8.609898922194233, 47.32882150682729], [8.609685187409504, 47.32877056755869], [8.608842968229036, 47.328530748073696], [8.608522226888002, 47.328448462865744], [8.608113067441074, 47.32831793973375], [8.60780420539991, 47.32888195897934], [8.607769520910326, 47.32892027988777], [8.607622117441586, 47.328944414462306], [8.607486866670866, 47.32897671952023], [8.607342014678338, 47.329023721135925], [8.607205188647718, 47.32908077007625], [8.607096751833677, 47.32913644299038], [8.6069959029055, 47.329198470687544], [8.606879902403273, 47.329285775769826], [8.606770461111559, 47.32938805458705], [8.606743278149382, 47.329404053646385], [8.606714364663832, 47.32941353058321], [8.60714151366042, 47.32960161778268], [8.607590668241652, 47.32978243718785], [8.607756538153907, 47.3298413229754], [8.607990528749925, 47.32991080757726], [8.608186281436195, 47.3299548984537], [8.608375236544033, 47.329985843674024], [8.608623897115747, 47.33001530182532], [8.609094123290573, 47.33006101602552], [8.609340843527958, 47.33009306487797], [8.609452124196345, 47.330113326958575], [8.609551029995647, 47.330135801881546], [8.609748291731098, 47.33019429429287], [8.609654564798046, 47.330303459652505], [8.609718606641643, 47.33035183473038], [8.609744522113642, 47.33041612279543], [8.609727238751299, 47.33049248928628], [8.609694271408882, 47.33056440919801], [8.609713225909381, 47.33063887862118], [8.60976904412024, 47.330747777065], [8.609902558070742, 47.330950158808264], [8.608882020065007, 47.33143012401615], [8.609029650294229, 47.3316331190202], [8.609137746844693, 47.33176257305075], [8.608458317861945, 47.33193104591215], [8.607489339641972, 47.33207351869556], [8.606985639786584, 47.33220923207796], [8.60671635354282, 47.33231019631471], [8.606031551778376, 47.332732629692], [8.605595319423514, 47.33302482954045], [8.605172492527867, 47.333243490527714], [8.604888997186974, 47.33331467532661], [8.604696567433844, 47.333348571080556], [8.604480685174703, 47.33335678776646], [8.603769045412772, 47.33343760961776], [8.603803349112772, 47.333541492883114], [8.603347579876514, 47.33365910181872], [8.60279605659442, 47.33382672706092], [8.602817460285214, 47.33392890598879], [8.602984584636902, 47.33416065966632], [8.603465131896158, 47.33459024359894], [8.60287806346091, 47.334763615145384], [8.60291212537265, 47.33486738385173]]]]}}]}