{"type": "FeatureCollection", "features": [{"type": "Feature", "properties": {"bfs_nummer": 161}, "geometry": {"type": "MultiPolygon", "coordinates": [[[[8.564262166606456, 47.346028375238944], [8.565097647886228, 47.346444056242916], [8.565240729339008, 47.346462152861626], [8.565762556646229, 47.34665938140471], [8.565701362891577, 47.346742888428544], [8.565708108314585, 47.34674517067825], [8.56564379435896, 47.346836992496165], [8.56588947331052, 47.34691131561615], [8.566658459721424, 47.347057140798405], [8.566822758525804, 47.347126490377335], [8.567049010297222, 47.34688055277435], [8.567154249778692, 47.346930320339425], [8.567364217888532, 47.34672680089193], [8.56742190810608, 47.34673424274988], [8.569692766935859, 47.347595581767855], [8.570302316732777, 47.34672000832551], [8.571710242910571, 47.34711418879341], [8.57164431052055, 47.34727389913076], [8.571689506935673, 47.34726447827082], [8.572051236959027, 47.34734667933932], [8.57209705817186, 47.347339878801755], [8.572206737614378, 47.34736414155545], [8.572152272680837, 47.34743938203918], [8.5730108767912, 47.34764705101535], [8.573096455975175, 47.34751266639547], [8.573229730434722, 47.34755538860523], [8.57367661693878, 47.347662906192404], [8.576262166605767, 47.348383797562065], [8.576895222557871, 47.34858985574655], [8.5768670592762, 47.34877844065188], [8.577872813682543, 47.34865193415926], [8.578280382130638, 47.34888017865021], [8.578522772040179, 47.348728167633496], [8.578694131564443, 47.34885627734592], [8.578754996701244, 47.34885107971117], [8.578749848773507, 47.34886844645413], [8.578837990782734, 47.348863789026616], [8.57887504515266, 47.348854256955605], [8.579206473798507, 47.34903350772224], [8.582469492002176, 47.35061487573547], [8.582294241199351, 47.35090157303154], [8.58221780003474, 47.35100636942479], [8.582489158859156, 47.350997969537545], [8.582876242054969, 47.35096371225157], [8.583007908371679, 47.35094552323553], [8.583138417939146, 47.35092277600832], [8.58336138817405, 47.35086950859022], [8.583487796318696, 47.351040442840365], [8.583657847510437, 47.350981573711096], [8.58399616320058, 47.3508435590907], [8.584066417384305, 47.350935855208625], [8.584232016045936, 47.351128168214494], [8.58438902815869, 47.351157967685474], [8.584179043194725, 47.35129198479413], [8.584217093580229, 47.3512930465132], [8.584379165503801, 47.351329146573704], [8.584633349345319, 47.351412708868104], [8.584597804343655, 47.351451858313546], [8.584779432349304, 47.35152146010466], [8.58492988726611, 47.3516784177588], [8.58506191220031, 47.3517458303562], [8.585184429049049, 47.351912149846044], [8.585309567819795, 47.35201199544029], [8.58549318253222, 47.3521233860273], [8.585917382564109, 47.35230550805881], [8.586057932272714, 47.35247492219644], [8.586108600899237, 47.3525991469676], [8.586306843872991, 47.352880229563944], [8.586434101359156, 47.352851978940976], [8.586530791942392, 47.35281188829207], [8.586642404665692, 47.35283164776763], [8.586826292587647, 47.35285771366363], [8.586947981131342, 47.35285361625591], [8.587076225177979, 47.352785155066904], [8.58721793933833, 47.35273983957382], [8.587355860969458, 47.35269053168808], [8.587487438520814, 47.35267239241617], [8.587659796523814, 47.352728517088075], [8.587737802804734, 47.35282264103086], [8.58778267105922, 47.35293301645218], [8.587854397133304, 47.35303665700003], [8.587938457983507, 47.353067744537995], [8.587980405278689, 47.35306714711493], [8.588046310627362, 47.35305425747934], [8.58813484638775, 47.35298591152856], [8.588227186435583, 47.352922124194514], [8.588476787521616, 47.35288337886338], [8.588646569899169, 47.35286910355198], [8.588802378995307, 47.35285136011657], [8.58893379190973, 47.3528194580071], [8.589043954128433, 47.35280261880327], [8.589212206161678, 47.352858521292056], [8.589431075238942, 47.352849413752395], [8.589475425052605, 47.35286201487297], [8.589600420731692, 47.35287623194558], [8.589721529236002, 47.35287593326883], [8.589853391067201, 47.352852580240324], [8.590009591967219, 47.35285300171332], [8.590148481585533, 47.352860881728745], [8.590219754305483, 47.352826879351795], [8.590273508902259, 47.35277237153919], [8.590386511610141, 47.3527154737217], [8.590477207493073, 47.352710521191725], [8.590578132045792, 47.352762406585676], [8.59063211277052, 47.35284643272564], [8.590756978734074, 47.35296490507768], [8.590850820344176, 47.3530810064105], [8.590985220981727, 47.35315062894349], [8.591057951286029, 47.35319631880422], [8.591190252494465, 47.35320553172161], [8.591330539906295, 47.353161673704086], [8.591375107180795, 47.35313531347965], [8.591417853201275, 47.35310431174315], [8.591517559837424, 47.35302019991022], [8.591664541796815, 47.35293093823371], [8.591790311696217, 47.352870754042364], [8.591906181918834, 47.352781263101825], [8.591926677457996, 47.35273744039585], [8.591943990681935, 47.352681127917535], [8.59194434555616, 47.3526179774911], [8.591999910707386, 47.352494277058994], [8.59203146745693, 47.35245393278537], [8.592132268083642, 47.3523843908475], [8.592303073585253, 47.35229516017684], [8.592482020895927, 47.35223354442509], [8.592592054410494, 47.35221086508135], [8.592846662364257, 47.35218358304947], [8.593175331057363, 47.35219557099608], [8.593319232177429, 47.35217209351354], [8.593413322452951, 47.35214668537828], [8.593513153907098, 47.35211195462659], [8.59363720136743, 47.352033534382436], [8.59369781125281, 47.35195961646524], [8.593730172801584, 47.351864842174635], [8.593769074231666, 47.351809222121844], [8.593787574899423, 47.351771166874464], [8.59385837892158, 47.35166071591707], [8.593915721121995, 47.35160706996504], [8.593970532479455, 47.35159545729185], [8.594042031910506, 47.35159654085872], [8.594195039073494, 47.351645203317524], [8.594281199095938, 47.35166314115008], [8.59455357785654, 47.351747489182245], [8.594717784540656, 47.35167163406427], [8.59487575456702, 47.35161949875525], [8.594951441397379, 47.35160614738121], [8.595145245698072, 47.351698836839645], [8.595330393653791, 47.35177686042568], [8.59548889830311, 47.35185919853517], [8.595580419564987, 47.351892373700956], [8.59565252303208, 47.3518968685677], [8.595723808259304, 47.35188805845292], [8.595818107498284, 47.351835750509274], [8.595842183207504, 47.35174969417084], [8.595971839742393, 47.35168596725201], [8.596211294806606, 47.3517108224529], [8.596355534357983, 47.35172133997577], [8.596460273084016, 47.351692674149746], [8.596570083495758, 47.351641559131025], [8.596668027978824, 47.35161089232712], [8.596727670030909, 47.351535273727364], [8.596723642989287, 47.35145345699657], [8.59679950974769, 47.35141185733346], [8.596901314398323, 47.351400491544126], [8.597047052637866, 47.35146784338045], [8.597081119592701, 47.35147622699054], [8.597138747870567, 47.35148464406996], [8.597200586901563, 47.35148582267725], [8.597283008997136, 47.35145961990052], [8.597331159517596, 47.3514643539778], [8.597630996822543, 47.35156344115368], [8.597754303740137, 47.35160960854615], [8.597926150173537, 47.351654029110016], [8.598123789768406, 47.35165501298376], [8.59824694800441, 47.351651707235646], [8.598396321708854, 47.351575725764754], [8.598598803616142, 47.35144640831592], [8.598678306149761, 47.351438143492636], [8.59885335066002, 47.351453115983595], [8.599032261144487, 47.35147542555954], [8.599191611860826, 47.351468696704465], [8.599332876992468, 47.35145810148193], [8.599444172015597, 47.35144492892668], [8.599528637088667, 47.35145181580513], [8.599612145972483, 47.351451875613336], [8.599748075507028, 47.35136037584579], [8.59988213065626, 47.351340857081524], [8.599975555721828, 47.35130942332483], [8.600043687032937, 47.35124703028687], [8.600187998404849, 47.35115148772251], [8.600270837447479, 47.35111413342809], [8.600335762131163, 47.351098997796946], [8.600635669861964, 47.3510492942773], [8.60068187751373, 47.35104990868961], [8.600879524735323, 47.35103919382304], [8.600945188267506, 47.35104581910641], [8.601052377733193, 47.35104473999099], [8.601183061444555, 47.35097991733555], [8.601332296536933, 47.350855358798704], [8.601411723074529, 47.350807243739126], [8.601514039795836, 47.35075269118992], [8.601611414236308, 47.350726433561476], [8.601728131664347, 47.35070707853395], [8.601810898801723, 47.35070291647426], [8.601941795116515, 47.35070555562794], [8.602394967950223, 47.350725366059066], [8.602630688247325, 47.35072469896896], [8.602848612492412, 47.35075767336882], [8.602952984388752, 47.35076093875333], [8.603008455091185, 47.35075782468782], [8.603001662298137, 47.35098982911549], [8.603033405546359, 47.35104330101218], [8.603044461908066, 47.35112531675711], [8.602986015229417, 47.35118248692706], [8.603019053505092, 47.35121039908249], [8.603030474505703, 47.35126668451284], [8.603074642510862, 47.351361769686996], [8.603083472130773, 47.3514024293194], [8.603059889643312, 47.351480207099875], [8.602996254716135, 47.351530143243515], [8.60301823275783, 47.35160314348212], [8.603018156249707, 47.35167843509046], [8.602954337439067, 47.351744204933965], [8.603043311074629, 47.35190900180835], [8.60310559458845, 47.35193050216141], [8.60319957627827, 47.35200943277307], [8.603213367979532, 47.352065154655655], [8.603059143451915, 47.352185448448346], [8.603141732851286, 47.352263954251576], [8.60320436986319, 47.352289498856294], [8.603337909822905, 47.35240994846746], [8.603428344821413, 47.35252642507937], [8.603422637461426, 47.35258630147289], [8.603571263527968, 47.35275499349136], [8.603723269773758, 47.352787552512154], [8.603750931421555, 47.35281165069582], [8.603766595263833, 47.35291062073937], [8.603815077838389, 47.35300314312432], [8.60395169555514, 47.353015958945306], [8.604013355751565, 47.353045201080526], [8.604102543302687, 47.35317716161731], [8.604133565601149, 47.35317937615143], [8.604237406779262, 47.353146034800595], [8.604318897560468, 47.35316203339449], [8.604325915972481, 47.35317427713697], [8.604306664722662, 47.35322611360932], [8.604319873133495, 47.35324298142538], [8.604398011314302, 47.35324488206405], [8.604692587221404, 47.3533141400652], [8.604766796643027, 47.35338454341795], [8.604959962897317, 47.3535014294965], [8.605068526263867, 47.35358712861695], [8.605162828177397, 47.353571522723705], [8.605289137103355, 47.35361522329143], [8.605422049670995, 47.35357960818067], [8.60552742740124, 47.35359833297111], [8.60571023607897, 47.35360475214429], [8.605957951044338, 47.35360721368521], [8.606080379231434, 47.353624776289834], [8.606278854655004, 47.353554765016206], [8.606407245895062, 47.35354240260648], [8.606763145966323, 47.35347421640668], [8.606861796006383, 47.35342752224985], [8.607003761441264, 47.35343058356475], [8.607147582207626, 47.35342166220037], [8.607178927908812, 47.35339633808528], [8.607295698738373, 47.353385891060796], [8.607381913199003, 47.35336973551617], [8.60751789595666, 47.35337825388317], [8.607609312384682, 47.353357268969454], [8.60777514177653, 47.35332644517505], [8.608082825444923, 47.35332863670474], [8.608235109986952, 47.35339240027279], [8.608269179118615, 47.35341220473329], [8.608362683094379, 47.35343329598202], [8.608479726852895, 47.353380387264565], [8.60861109137573, 47.353448680023334], [8.609072602736731, 47.353476296069786], [8.609171606540906, 47.35345847121949], [8.609280299172541, 47.35350091563386], [8.609364468579928, 47.3534941254127], [8.609473952686086, 47.353513524719986], [8.609552797020584, 47.35348726855622], [8.609762655674126, 47.35340481211183], [8.609851079984544, 47.35338745382873], [8.609895946877067, 47.35344142044699], [8.609944870124735, 47.35345648610142], [8.610079922224442, 47.3534159863941], [8.610227772629228, 47.35342842913307], [8.610329978697564, 47.353422624525976], [8.610431749343089, 47.35336869930741], [8.610541148030721, 47.353395654364675], [8.610686846922944, 47.35341198627664], [8.610772923439425, 47.353473899859274], [8.610878600665453, 47.35346402063338], [8.611079644016622, 47.35351712077172], [8.61114689923499, 47.35357184903591], [8.611210870798619, 47.35358560091654], [8.611309887544445, 47.353640006507675], [8.611368867876303, 47.353781893467726], [8.611409908662631, 47.35383634810588], [8.611435644631795, 47.3538629827325], [8.611454701511839, 47.35386880703693], [8.611536189611737, 47.35387851285395], [8.611572407558658, 47.35394237163744], [8.611636990204701, 47.35397184090234], [8.611714393227969, 47.35397034384232], [8.611818126615955, 47.35394427396089], [8.61202258347857, 47.35407416675177], [8.612039746374144, 47.35407813018617], [8.612054887116814, 47.35409245880198], [8.612061136965378, 47.35414186956054], [8.61211757385777, 47.35416206620245], [8.612223568467376, 47.35424473534567], [8.61234955695204, 47.354249490567874], [8.612470041903595, 47.354322926894014], [8.612562285342705, 47.35436416816878], [8.612613807339919, 47.35435951553603], [8.612633273433584, 47.354293732791355], [8.612737100011756, 47.35430194229413], [8.612855314972984, 47.35429030558628], [8.613177608932972, 47.354247007426636], [8.613227866768707, 47.354221030462405], [8.61339177406191, 47.35416846757718], [8.613575958859453, 47.354153100452336], [8.613617293472002, 47.354112650716665], [8.613696481662473, 47.35408403134417], [8.613705237760124, 47.35409273074181], [8.613741517978509, 47.354079417146444], [8.613811172456675, 47.35409329877073], [8.613864631916465, 47.35407086903126], [8.61387630790182, 47.35401926989955], [8.613958506627943, 47.35402394747135], [8.614014658865438, 47.35407503606759], [8.614081233911353, 47.354060919226896], [8.614129910328428, 47.35406591081244], [8.61420693730799, 47.35410198055308], [8.614352866226996, 47.35407938260169], [8.614419496443247, 47.35405276158901], [8.614715991882523, 47.35405520218281], [8.614772498417114, 47.35407491112307], [8.614968882890409, 47.35405815812532], [8.615052229191473, 47.35411603955516], [8.61517215920005, 47.35414197442012], [8.615209193734335, 47.35409805996123], [8.615258154821618, 47.35413213907672], [8.61530147111205, 47.35416954998048], [8.615432259994167, 47.354318025214894], [8.61547943335681, 47.35435685398487], [8.615530230811759, 47.35438355608756], [8.615584667145454, 47.35440180144825], [8.615643266290215, 47.354412538244524], [8.615703676052219, 47.354415349661785], [8.615768974512635, 47.35440935875628], [8.615835308536878, 47.35439271579359], [8.615889443068253, 47.354369108876824], [8.615938687289294, 47.354335647933674], [8.615963743097945, 47.35436553580396], [8.616136454374177, 47.354365879661025], [8.616197980119503, 47.35436048471802], [8.616258282245116, 47.354350631553686], [8.616344983101067, 47.354327780712204], [8.616551222919172, 47.35425499178636], [8.616848643698287, 47.35417344625051], [8.61695963946537, 47.354150248101796], [8.617083718386409, 47.35413626252666], [8.617189927989582, 47.35413368537338], [8.617295821965408, 47.35413958494202], [8.617633408119937, 47.35418821272446], [8.61771292257872, 47.354195982442036], [8.618087982745786, 47.354203288479], [8.61817318939451, 47.35420807621318], [8.618294136949585, 47.35422427368414], [8.61840194999529, 47.354248691965694], [8.61844445582496, 47.354024427301795], [8.61845618712076, 47.353815839700815], [8.618532901746319, 47.35382212615247], [8.618997654937047, 47.35384270667515], [8.619382559276822, 47.353867286176666], [8.619770595139011, 47.35384557850597], [8.61981301354264, 47.35383455705601], [8.619812293066818, 47.35368373930846], [8.619896802292553, 47.35366484806643], [8.619933775067103, 47.353682271620315], [8.6199797309559, 47.3536947008093], [8.620028691997048, 47.35369938119922], [8.6200778730563, 47.35369607139882], [8.620735615220438, 47.35354032243974], [8.620857376236579, 47.353515633961145], [8.620981921234314, 47.35349770831922], [8.621693092335326, 47.353418173208155], [8.622049135739742, 47.353345404120624], [8.622090607266216, 47.35334245136423], [8.622140984332392, 47.353351299128356], [8.622184676989528, 47.35337446405032], [8.622204718795826, 47.35339658504901], [8.622275278404269, 47.35351437558295], [8.622305785905148, 47.3535505929253], [8.622370932152753, 47.353600424951026], [8.622451153877343, 47.35363707709239], [8.622530013309218, 47.35365708373124], [8.62293682060106, 47.353719000285395], [8.623454868923442, 47.35380520391667], [8.623932465394349, 47.35390443217985], [8.624038827899465, 47.353930200330275], [8.624219931161727, 47.35398892454101], [8.624306003573482, 47.35402430090784], [8.624388440570286, 47.35406345662055], [8.624535379889888, 47.3541483656995], [8.624609429608117, 47.354218677227806], [8.624879962843316, 47.35409649378492], [8.625052111611657, 47.353987122511], [8.62513125598744, 47.35393123960214], [8.62525020613808, 47.353830267613], [8.625490059170124, 47.35358409116737], [8.625646217978439, 47.35344036824278], [8.62566587809726, 47.35341792960512], [8.625686501361304, 47.3533745399291], [8.625688755540088, 47.353331905861936], [8.625675958959468, 47.35329341143337], [8.625639046947216, 47.35323597787838], [8.625720787106442, 47.35319449656513], [8.625695166777803, 47.353151960130575], [8.62656621230817, 47.35150090153935], [8.626750818365661, 47.3515317359763], [8.626871215019143, 47.35155840951013], [8.626981159390146, 47.35162566940985], [8.626983388069895, 47.351619952434945], [8.626988771274867, 47.35159363963357], [8.626986948303848, 47.3515700456364], [8.626977543683656, 47.351544199905106], [8.626962928116543, 47.35152269858957], [8.626520994448452, 47.351109800340616], [8.626447869043066, 47.35102326199023], [8.626390370939891, 47.35093115660172], [8.626360209144462, 47.35086475747293], [8.626338286890302, 47.350796870303114], [8.626154705369164, 47.350019016422046], [8.626113635586252, 47.34984373305346], [8.626098781787242, 47.3497936648801], [8.626078507318779, 47.34974446202865], [8.62605292486432, 47.349696429176376], [8.626022159145903, 47.349649816914756], [8.62598657749264, 47.34960507125194], [8.625946193927092, 47.34956222799719], [8.62590129175362, 47.34952152710823], [8.625852074670675, 47.34948320035885], [8.625552537374574, 47.34926687503878], [8.625518470610677, 47.349241399673325], [8.625485931882984, 47.34921500004558], [8.625455027872754, 47.34918771106467], [8.625425610005557, 47.349159399315646], [8.625397948131484, 47.349130295895556], [8.625372082564114, 47.349100427397225], [8.625328187054167, 47.34904604301782], [8.62528577531302, 47.34899112163137], [8.625244808036193, 47.34893568163006], [8.625205351995115, 47.3488797493285], [8.625155307520027, 47.34880478371857], [8.625107945242263, 47.34872900793696], [8.625063279756874, 47.34865248476942], [8.625052492854095, 47.34863285981837], [8.625042600981404, 47.34861300978907], [8.62503361816353, 47.34859297051023], [8.625025626796567, 47.34857287606574], [8.625018558519855, 47.34855262821468], [8.625012400279717, 47.34853223606227], [8.624960345054236, 47.348349607672716], [8.624953142616008, 47.348331061308755], [8.624942108718225, 47.34831341786128], [8.624927489362037, 47.34829702563203], [8.624909569610123, 47.348282205493305], [8.624888687496771, 47.34826927782464], [8.624865325198805, 47.34825849854097], [8.624839898112102, 47.34825009723741], [8.624812992683433, 47.34824425681086], [8.624868303499031, 47.34821627068187], [8.624545417237002, 47.34816246711043], [8.624348611612323, 47.347212805684336], [8.624076190707266, 47.34668716986766], [8.62406215937214, 47.346659689190844], [8.623794511816373, 47.346143098683896], [8.623894403114369, 47.3461225620994], [8.623884974816404, 47.34570017321776], [8.62374432569728, 47.34540531843473], [8.623802570388763, 47.3452135055052], [8.623642788344378, 47.34469306288135], [8.624605194919965, 47.34454175385827], [8.62452214581599, 47.344206018077834], [8.624477759407531, 47.344053759549915], [8.624420474537137, 47.34390350456827], [8.624350500815883, 47.3437557457551], [8.624268061243061, 47.343610984544966], [8.624199828697881, 47.34350697931962], [8.624125170724222, 47.343405037051745], [8.624044210419509, 47.34330533636009], [8.623957097525345, 47.3432080645668], [8.623093363710446, 47.34345180031331], [8.622459448739301, 47.343572076277255], [8.622299943209972, 47.34326477515909], [8.622068800719054, 47.343006908457106], [8.622202501689125, 47.342944693045204], [8.621764582046657, 47.34252301618772], [8.62166120423175, 47.34255256403812], [8.621361152744312, 47.34221806010993], [8.621726133956514, 47.342071311474385], [8.621530940569473, 47.34185330299189], [8.621225065450545, 47.34159731633068], [8.620753941546441, 47.341244557894306], [8.620717265376646, 47.34120371668644], [8.62052047950714, 47.34128195850724], [8.620228183481554, 47.341398373583516], [8.620106561135472, 47.34133191022482], [8.619139823904757, 47.341269379087365], [8.618826799852144, 47.34141924036755], [8.61858334372355, 47.341491911011786], [8.618081363092326, 47.3417123631621], [8.618047048142472, 47.34173333116359], [8.617882391686711, 47.34192423979839], [8.617673729029558, 47.34232097968647], [8.617349496271059, 47.34294915336481], [8.615958746593229, 47.3427870433196], [8.615923052261762, 47.342761788415714], [8.615902289070931, 47.3427210714199], [8.615826916298575, 47.342635736592705], [8.615687960675633, 47.342573484693176], [8.615670783582114, 47.34247638396107], [8.615581976355026, 47.34236094367349], [8.615606672474955, 47.34227165588061], [8.615555246193429, 47.34222013312557], [8.615395636330497, 47.34220652401728], [8.614963270098068, 47.34216579283499], [8.61491756830258, 47.34216137409717], [8.613670616187932, 47.34216711210915], [8.613556855799134, 47.34176338055595], [8.613177094576091, 47.34156319526256], [8.612631912756516, 47.34149461136604], [8.61318590491559, 47.34043989356231], [8.613251661762744, 47.340380970645555], [8.612806387847023, 47.34023588150321], [8.612307230466037, 47.34007221367904], [8.61220094860904, 47.34007204379308], [8.612265155330121, 47.34003827015722], [8.612233992502711, 47.34001310312225], [8.612044244049441, 47.33986002359858], [8.61130488893728, 47.33926346121828], [8.61134946423987, 47.33921075439076], [8.61112818195833, 47.33911766009037], [8.61109311251955, 47.33908870051189], [8.610877995135946, 47.33901052949397], [8.610936064800528, 47.33894260063225], [8.610843069469762, 47.33890681701174], [8.610703616823459, 47.338844725985346], [8.609636292725162, 47.33836776021105], [8.609521405125289, 47.33847453107804], [8.608400268283479, 47.337841922674315], [8.608139993445242, 47.33802492599875], [8.607854449097609, 47.33789433765113], [8.608143058604227, 47.33770118927811], [8.608318135451169, 47.33754637749624], [8.60806443052705, 47.33729562261343], [8.607969432982626, 47.33724553674152], [8.607709434435113, 47.337366216567396], [8.607586677722196, 47.337265551734085], [8.60705758236958, 47.33699688395389], [8.60686085245339, 47.33690870574341], [8.60650611044488, 47.33680292988037], [8.606563639062191, 47.3368146984423], [8.606593470734376, 47.33681735607552], [8.606623545014187, 47.33681779838645], [8.606653676884148, 47.336816036248884], [8.606683336749496, 47.336812057021106], [8.606712195048555, 47.33680591801445], [8.606739909172761, 47.33679768565031], [8.607047829388035, 47.33668999825788], [8.607182791051834, 47.33666714219196], [8.606865416611384, 47.336398748880846], [8.606423215498303, 47.336260547936696], [8.605857256325242, 47.33608378343503], [8.605401940499693, 47.3359476991406], [8.605009517653434, 47.33579452532218], [8.604652020331624, 47.335685065802295], [8.604384453448931, 47.335553890966345], [8.603616367173347, 47.3352405481905], [8.603178375876881, 47.335033109304604], [8.60291212537265, 47.33486738385173], [8.602541416940138, 47.33502341352641], [8.602252300169113, 47.33517293474492], [8.602150675618029, 47.335231727399545], [8.602140048932563, 47.33522014949853], [8.601845090978895, 47.33538527277564], [8.601615999683816, 47.33558430042045], [8.601515763995728, 47.335765747773635], [8.601231183561246, 47.33579466496336], [8.600811548887446, 47.335866517618655], [8.60068884381121, 47.33585614894297], [8.60043123622118, 47.33576263565127], [8.60000921446431, 47.33567628109278], [8.59975933647512, 47.33560524890961], [8.599464638328605, 47.33541673787923], [8.598966883462383, 47.33507632074424], [8.598416823088602, 47.33478738567219], [8.59799722354701, 47.33461593056431], [8.598101772377772, 47.3344748048569], [8.598137119559482, 47.33449083035839], [8.598489029221929, 47.334083880228796], [8.598772120308702, 47.33376539743877], [8.598993612772372, 47.333533843415346], [8.59926840321548, 47.33331154815696], [8.599069855195465, 47.333191486474895], [8.598819912379954, 47.33308950882323], [8.598600687424463, 47.33300728165203], [8.59840458716646, 47.332916914824544], [8.598161484990179, 47.33281421019469], [8.597975175378085, 47.33272252974989], [8.597710054981652, 47.33256064004206], [8.59778839506615, 47.33239180186439], [8.597901259264379, 47.33221645450884], [8.597977576176607, 47.331977121481], [8.597976483355724, 47.33181787841805], [8.59755065400119, 47.33182380125806], [8.596855688593367, 47.33191093526458], [8.596492013266879, 47.33185014109651], [8.595592014048837, 47.33175928990199], [8.595174992749229, 47.33170033965587], [8.594849768925407, 47.331622954569816], [8.594651513876972, 47.33151565581025], [8.594254526031035, 47.33133324750974], [8.59376832425527, 47.33109224461752], [8.593304257379481, 47.33089562606021], [8.592897997106503, 47.33063464149758], [8.59273322668137, 47.33051888203195], [8.592463068951478, 47.33031064179368], [8.592284045499833, 47.33012613733461], [8.59214366292003, 47.32993882653346], [8.591983022326222, 47.329791171682835], [8.589789815536005, 47.330067482688314], [8.589264013420536, 47.32988755619023], [8.588498061384627, 47.329760385357005], [8.588386380051313, 47.32971251834193], [8.588304335684372, 47.32971375821664], [8.588258063034235, 47.32972338519319], [8.58817965562927, 47.32976814429583], [8.588116281228865, 47.32981978804893], [8.58813200263484, 47.32986352871333], [8.588130087901714, 47.32989502233751], [8.588039399650429, 47.32996546842877], [8.58794706149775, 47.33000233328943], [8.587895916017278, 47.3300658368335], [8.587781603486802, 47.3301451984133], [8.58778587955863, 47.33020304978107], [8.587687189137917, 47.33022820285693], [8.587659564079143, 47.3302663481265], [8.5875924858839, 47.330284295958144], [8.587545473910435, 47.33031859532679], [8.587502957242265, 47.33032755514319], [8.587473132587593, 47.3303551079202], [8.587389890818116, 47.33037943215565], [8.587308042326145, 47.33047276372282], [8.587216891911515, 47.3305199967802], [8.587200684811133, 47.33055691294182], [8.587133204257809, 47.33065022728057], [8.587073233485595, 47.330708879830894], [8.586977634577156, 47.33071175597137], [8.58696342240774, 47.3307510001148], [8.586866243061431, 47.33078987316264], [8.586860385183222, 47.33083614040559], [8.586755687020402, 47.33089575948362], [8.586678285439437, 47.33096833017948], [8.586594216901247, 47.33099303085701], [8.586514445256768, 47.33105877947792], [8.586529895915056, 47.33111212096336], [8.586436502255108, 47.331116674805045], [8.586437961178822, 47.33115803877357], [8.586372708657905, 47.331194498025106], [8.586283888567774, 47.33122898772055], [8.586158591741302, 47.33126479353609], [8.586024204060756, 47.33125750294187], [8.585978601258786, 47.33128358394325], [8.585921300733904, 47.331259776129244], [8.585864432898521, 47.33126100698945], [8.585812922092277, 47.33128615715027], [8.585666290725339, 47.33126695207225], [8.585577420320456, 47.33127881850994], [8.585355089935364, 47.331372716791044], [8.585178618649763, 47.331484473761506], [8.585107871525661, 47.33157992423899], [8.584994568127879, 47.33157605716004], [8.584939009344708, 47.33168932930213], [8.58487412980982, 47.331737064172465], [8.584920571824112, 47.33177401437064], [8.584801375181321, 47.33187768186293], [8.584781152949782, 47.3319298125623], [8.584681312133062, 47.331983543544304], [8.584623272984457, 47.332020209024584], [8.584582415168596, 47.33206459279446], [8.584446474225853, 47.332301079977555], [8.584366290455716, 47.332344154012105], [8.584373629147462, 47.33241477540765], [8.584306138002198, 47.33244755857852], [8.584292146509457, 47.33250828096231], [8.58424551189137, 47.33254801736471], [8.584105351670775, 47.33257643036906], [8.58394928110523, 47.33263846369284], [8.583929547787447, 47.332669657395805], [8.583696356558919, 47.33278439463942], [8.583490357228367, 47.332878262323376], [8.58343813911098, 47.33289277686202], [8.583382004130259, 47.33294057683466], [8.583341417674404, 47.33299706526858], [8.583342903263144, 47.33303484882323], [8.58331315054101, 47.33315964813789], [8.583166541906703, 47.33314724028607], [8.58251490327627, 47.33313038366439], [8.581468030026059, 47.33365496060575], [8.58142257290969, 47.33364851125511], [8.581330293035444, 47.3335823646789], [8.581297445573307, 47.333509189138944], [8.581211560546372, 47.333448771990135], [8.581118604570328, 47.333396745603835], [8.581074540581648, 47.33334412730258], [8.58092641320682, 47.33323670488653], [8.580841330723075, 47.3332093915518], [8.58069801054983, 47.33304279497075], [8.580675934467399, 47.33298690954156], [8.580606191712427, 47.332936902002004], [8.580469839519143, 47.3329430723915], [8.580417868267764, 47.332921556985305], [8.580323555940334, 47.33283576562572], [8.58027461484903, 47.332812394120296], [8.580224689636244, 47.33279744296364], [8.580132622467541, 47.33278499544266], [8.580043251297523, 47.33274518445973], [8.579961958968314, 47.332741589626885], [8.579712680859922, 47.33268923681927], [8.579608352820557, 47.33266276947962], [8.579559288649666, 47.3326571286707], [8.579450994077721, 47.33263203163892], [8.579421060814997, 47.33262877434173], [8.579217558225343, 47.33266831393412], [8.579047724273282, 47.33272617657049], [8.578888390769263, 47.33275346817278], [8.578769631587578, 47.33279962690302], [8.578737683482728, 47.33285934753584], [8.5786746410718, 47.33290545054246], [8.578587909408446, 47.33298725591169], [8.578515547687356, 47.3330121229314], [8.578451899870252, 47.33301443350889], [8.578405924106805, 47.3329997664155], [8.578348717197418, 47.332944965083406], [8.578231076574545, 47.33295371864064], [8.578153239721752, 47.33302703424909], [8.578069191097091, 47.33306476275824], [8.578037898766876, 47.33309514294047], [8.578022937788534, 47.33312010873332], [8.57789832677201, 47.33317361935544], [8.577840320945334, 47.3332517763096], [8.577754807816115, 47.33329282925053], [8.577645436631304, 47.333299746487995], [8.57756448353961, 47.333331902931924], [8.577455523626433, 47.3333543688601], [8.577229787530088, 47.33346272230496], [8.577130223059182, 47.33348400686865], [8.577065249754549, 47.33351599629905], [8.576970766659743, 47.333528010287885], [8.57681056640095, 47.333585531821484], [8.576687999179882, 47.3336140050533], [8.576637641951462, 47.33364081282187], [8.576595094956357, 47.33364608066823], [8.57653884233025, 47.33362169120629], [8.576518726084169, 47.33360103836985], [8.576463282082807, 47.33357857491068], [8.576358770972115, 47.33355904169046], [8.576287383864464, 47.33348452617932], [8.576218717441245, 47.33344263707544], [8.576143043105795, 47.33341028006422], [8.576079320086835, 47.33336689390152], [8.576019164127397, 47.3333623412494], [8.575894941093386, 47.33332742194675], [8.575845854433949, 47.33330025399003], [8.575804333938079, 47.33325745850744], [8.575722216285786, 47.333230067142345], [8.575673189942961, 47.333198895519445], [8.575608406703639, 47.333138635444755], [8.575541770353208, 47.33309572733855], [8.575499315468983, 47.333040734291124], [8.575441053311682, 47.33302133844704], [8.575361437316216, 47.33298837213342], [8.575337790476917, 47.332949790098965], [8.575285223388182, 47.332926919824644], [8.575232507671505, 47.3328871309526], [8.57515857957035, 47.332891331086415], [8.575118896958086, 47.33289935876072], [8.575093020903283, 47.3328896557044], [8.574941242527885, 47.332869254514954], [8.574790658855916, 47.3328794440698], [8.574645843442008, 47.33290388830024], [8.574613314944049, 47.33289308123788], [8.57447122972226, 47.33278476354274], [8.574389300207404, 47.3327648984541], [8.574340368166876, 47.33273747641333], [8.57429409257246, 47.33272109247268], [8.574234479356996, 47.33273890436086], [8.574129870181237, 47.33274511441232], [8.574074765487094, 47.33270744378949], [8.574007044283398, 47.332620936368826], [8.573982472541125, 47.33259977782745], [8.573958736484947, 47.33258989159432], [8.573742205891778, 47.332402824492156], [8.57369768939866, 47.33237518800672], [8.573642876622506, 47.33235055815465], [8.573519855456802, 47.33232094087845], [8.573201529155824, 47.332235625922614], [8.573007447799935, 47.332223077489864], [8.572919888452743, 47.33219843746836], [8.57269987571854, 47.332166704100736], [8.57259467819434, 47.33218253460257], [8.572498488749813, 47.33218142866742], [8.572306075394648, 47.33214024019472], [8.571928608319618, 47.3321202443423], [8.571830296251155, 47.33208397832246], [8.571632315166168, 47.33203105022446], [8.57161784951557, 47.332059518738895], [8.571564782105025, 47.33205284328221], [8.57155475307583, 47.332079028064925], [8.571600573580364, 47.33208712415953], [8.571597467028557, 47.33209659977997], [8.571547006942394, 47.33208809945674], [8.571531982411884, 47.332128275898725], [8.571563184698878, 47.33213336726309], [8.57153382557582, 47.33221506252396], [8.571523865853395, 47.332213361193034], [8.571520097825829, 47.332222843277506], [8.571530719164782, 47.33222453833476], [8.571521917603443, 47.332246213592164], [8.571501326905986, 47.33224236743656], [8.571453942020728, 47.33237866182839], [8.571416106385868, 47.33237273629156], [8.571404312602887, 47.33240928305095], [8.57148993414945, 47.33242238579371], [8.571480451337615, 47.332451866476354], [8.571444213294235, 47.33248130363209], [8.571438181496374, 47.33250879858786], [8.571393769778464, 47.332504736864124], [8.571329935002112, 47.33276927666831], [8.571281269437803, 47.33276430292572], [8.571266203278121, 47.33279069011335], [8.571258877118144, 47.332819547056594], [8.571224654026352, 47.33282797862415], [8.57121682180674, 47.33283300295558], [8.571201517388127, 47.332891172838394], [8.571190915164436, 47.33289037726626], [8.571182380547972, 47.33292464314103], [8.571192992379553, 47.33292588845027], [8.571165383568891, 47.332934255021414], [8.571147586103889, 47.33299964567192], [8.571136974325526, 47.33299840043889], [8.57112910110016, 47.33303265981818], [8.57114899223683, 47.33303471359343], [8.571135624338797, 47.3330906157014], [8.57107130193546, 47.33308360076103], [8.571059517326683, 47.333120597175025], [8.571067473805128, 47.33312141870462], [8.571043808895753, 47.33319091458305], [8.571035852401616, 47.33319009304498], [8.571019100704875, 47.333242430159935], [8.571026405288746, 47.33324370783872], [8.57101334541421, 47.33328296553989], [8.571005388919035, 47.3332821440145], [8.570988637173212, 47.33333448113531], [8.570999646380333, 47.3333369908646], [8.570986926265796, 47.333375426648054], [8.570977504393225, 47.33337476341591], [8.57096197230963, 47.333427214476664], [8.570971412083198, 47.333429343771826], [8.570952635350764, 47.33347667239155], [8.570897173783859, 47.33347196317381], [8.570833225408782, 47.33367147663342], [8.570935458556573, 47.33369661419738], [8.570852247252002, 47.33382831204442], [8.570910108819177, 47.333842586864165], [8.570891019224895, 47.33387830552122], [8.57086772498284, 47.33387178732981], [8.570861330191052, 47.33388219492108], [8.570835371070844, 47.33387480336358], [8.57077710668228, 47.33396622745567], [8.570825717477797, 47.33398104273268], [8.570767971371096, 47.33406571539881], [8.570702642554467, 47.33404251825061], [8.570664628226861, 47.3340905661961], [8.570767304250312, 47.334127789741075], [8.570597596789396, 47.334330049131594], [8.570412388474814, 47.33451896764836], [8.570280006910483, 47.33464080260414], [8.569550492588805, 47.33527582444104], [8.569455833996667, 47.335367154672255], [8.569371173226845, 47.33546198473277], [8.56930935904563, 47.335542198808184], [8.56926063098079, 47.335615537903884], [8.569208382010691, 47.33571005055819], [8.56916853896619, 47.335796795738965], [8.569101687033573, 47.33598275325176], [8.569126909146092, 47.33598655421871], [8.56906396500854, 47.33620080905277], [8.568903352454278, 47.33617719498404], [8.568952840466862, 47.33601479492848], [8.568990825164871, 47.33599643236144], [8.568997516213082, 47.33599996496503], [8.569012011592504, 47.3359971244074], [8.569013767325545, 47.335986312861515], [8.56900772823858, 47.33598232412143], [8.568992542785567, 47.335983822131304], [8.56894080994734, 47.33600906580609], [8.568823074928604, 47.336385322379066], [8.568866195658849, 47.33639074748943], [8.568861275366148, 47.336408336470285], [8.568818787546514, 47.336401555894646], [8.56874108204265, 47.33664928257074], [8.568620111907697, 47.33662937275406], [8.56859051410143, 47.336720101150746], [8.568713800159946, 47.336736264300754], [8.568684919300262, 47.33682834414098], [8.568574916821069, 47.33723623278385], [8.568548098181438, 47.337228930110115], [8.568525030434751, 47.337320602078805], [8.56849951375055, 47.337332905480004], [8.56848693327051, 47.33735369979428], [8.568501066731331, 47.33736311445704], [8.568485762319966, 47.33739025013849], [8.56854027193883, 47.33740231007485], [8.5685238159104, 47.337437552683774], [8.568545088784777, 47.33744229203354], [8.568495087927332, 47.33754937563515], [8.56847382451097, 47.33754508591267], [8.568457378065103, 47.337580778356866], [8.56832710494176, 47.33755281866487], [8.568316949522574, 47.337573157453875], [8.568302501284393, 47.33757824626429], [8.568298099353635, 47.337589083689636], [8.5683055758544, 47.33759845556951], [8.568296091436839, 47.337619237546726], [8.568423038441075, 47.33764633065168], [8.568408000303535, 47.33768605675618], [8.568429263698887, 47.33769034640399], [8.568382436526145, 47.337791102154675], [8.568361163528252, 47.337786362776875], [8.568342789712924, 47.33782477282592], [8.568189863077396, 47.33778938869973], [8.568145933383656, 47.33787077608614], [8.568261164074135, 47.33790697902272], [8.568212542212766, 47.33801674738944], [8.56819796049381, 47.33801554075561], [8.568185902665666, 47.33803728341323], [8.568173719783717, 47.33803625119987], [8.568155323781504, 47.33806863434261], [8.568165902308529, 47.33807264167512], [8.568100268280483, 47.33815142596887], [8.568094278499512, 47.338156647873696], [8.568087336257248, 47.338153135676926], [8.568057180125326, 47.33817883344395], [8.567991767078608, 47.3381830716106], [8.567939142037222, 47.33826004645525], [8.567800805658441, 47.33822631809677], [8.567768996153495, 47.338223930680066], [8.567761657772937, 47.338252337610484], [8.56781812398296, 47.338263029346976], [8.568021955041605, 47.33832760061268], [8.56801142792829, 47.33833040208545], [8.567998597520754, 47.338349417576794], [8.568009372150703, 47.338358307499085], [8.568003589934724, 47.33836645981301], [8.567988270383763, 47.338361662182784], [8.567963894684704, 47.338397881795345], [8.567991869155472, 47.33840660412859], [8.567763434635792, 47.338742563682274], [8.567700152594774, 47.338722493180974], [8.56768911628905, 47.33873249597108], [8.567584106801242, 47.33867910152104], [8.567569786637193, 47.33865900209893], [8.567615326380754, 47.33846605763561], [8.567681724827441, 47.33835206761514], [8.567765955499649, 47.33836158827256], [8.567769629456976, 47.338347609643336], [8.567667480938558, 47.338335565663265], [8.567595395386371, 47.33846220469615], [8.567550479016985, 47.33865334399792], [8.567531190604214, 47.33871110277881], [8.567529777138498, 47.3387381024875], [8.567535706771242, 47.33876817850444], [8.567526493049199, 47.338770517312085], [8.567537496041927, 47.3387901993055], [8.56754474425888, 47.338788779250685], [8.567545577097238, 47.33879686686792], [8.56740520163603, 47.33904201180383], [8.56741185501566, 47.339043745956765], [8.567364077712657, 47.33913101757454], [8.567353702667663, 47.339141013728984], [8.567331210860605, 47.33914123348486], [8.567314182636407, 47.33914949574187], [8.567281011112089, 47.33920783965959], [8.567283980723985, 47.33922310260746], [8.567300104748192, 47.339234638968406], [8.56728797346063, 47.339255446601626], [8.56745866987219, 47.33928616084623], [8.567397947055243, 47.33951208650756], [8.567206875864725, 47.33948786799523], [8.56721055459709, 47.339505372864174], [8.567196126746158, 47.339518961810725], [8.567144293930061, 47.33966727002578], [8.567136083754555, 47.33967639050913], [8.567119563484525, 47.33972367834622], [8.567132589589898, 47.33972639356941], [8.56702778703632, 47.34006126892284], [8.567060968370138, 47.340065892125736], [8.5670584840338, 47.3400735624647], [8.567025312145056, 47.340069388855255], [8.56695171667975, 47.34037504830531], [8.566933364801457, 47.34038332327775], [8.566923084641246, 47.34039781619866], [8.566926082878794, 47.34041442831216], [8.566940222425133, 47.34042598393192], [8.566913616659145, 47.340544531875835], [8.566883249011177, 47.34079804562562], [8.566867343404217, 47.340796851663725], [8.566863369039607, 47.34082792430197], [8.566856744052288, 47.340827539203964], [8.566846519949383, 47.34090724731386], [8.566853144942105, 47.340907632407074], [8.566848385880515, 47.34093915329697], [8.56686310108346, 47.340940368060636], [8.566852800817268, 47.3410164787369], [8.566773272819146, 47.34101050930886], [8.566768570185443, 47.341038440620984], [8.566849421283278, 47.3410443970874], [8.566823156663396, 47.34124165050057], [8.5667767815968, 47.34123895503233], [8.566766962398844, 47.34130651599053], [8.566813998664585, 47.34130920450886], [8.566807558596206, 47.34134884654037], [8.56679033924005, 47.34134811516456], [8.566788925315594, 47.3413751148268], [8.56680416007875, 47.34137586564748], [8.566794059549759, 47.34146141958627], [8.56672910383775, 47.34145620706096], [8.566714300377773, 47.34156969219282], [8.566780560303485, 47.341573992454926], [8.566726215946048, 47.341976612119964], [8.566869378199772, 47.34198780647148], [8.566854874895867, 47.342084197553845], [8.566713687435287, 47.342072533989565], [8.566684375688405, 47.342283444860264], [8.56661910598221, 47.34227844243086], [8.566623748377362, 47.34224953124086], [8.566528624749674, 47.34224272476275], [8.566516469125522, 47.34233000771161], [8.566610225173653, 47.34233534334434], [8.566617155462882, 47.34228946270748], [8.566682996476022, 47.34229331721471], [8.566607438499558, 47.34283682101287], [8.566559729661597, 47.34283368901371], [8.566551808714353, 47.342897183145475], [8.566506036956772, 47.342891783355626], [8.566474156895177, 47.34294876512265], [8.566380476515958, 47.34293079016595], [8.566367758634367, 47.34295520163498], [8.566460106455098, 47.34297273991409], [8.566298877427975, 47.343233828375084], [8.566112269003657, 47.343558392343816], [8.566102534187548, 47.34355552792229], [8.566093585944271, 47.34357045762304], [8.56608237145728, 47.34360339976833], [8.565945841564206, 47.343843557490324], [8.565967135740996, 47.34384919660448], [8.56596268518851, 47.34385778544378], [8.565941391052524, 47.343852146381536], [8.565920923932985, 47.34388562876456], [8.565875343228306, 47.34398322272848], [8.565892620414777, 47.34398665221993], [8.56588628028027, 47.343999757305234], [8.56586434350472, 47.34399502400648], [8.56584109118814, 47.344035738857784], [8.565765278757462, 47.344095568856126], [8.565697768485444, 47.34418127817766], [8.56571983465963, 47.34423346032127], [8.565696853905491, 47.34427326381512], [8.565727069621127, 47.344356624813194], [8.565705085189572, 47.344349643122754], [8.565611392089119, 47.344487735633734], [8.565640682493878, 47.3444959952748], [8.565409286244835, 47.34491293569573], [8.565381075228506, 47.34492445500405], [8.565318851879537, 47.34504874733829], [8.565283594610984, 47.345102613113625], [8.565279957694138, 47.34511839050971], [8.565239417236258, 47.345172757779224], [8.565216080727748, 47.345164439757106], [8.564994896758694, 47.34550122200094], [8.564970993531213, 47.34549740710639], [8.564903054690426, 47.34557048188429], [8.564878683186148, 47.345607150549334], [8.564827638404294, 47.34563418424928], [8.564787776614319, 47.34562170982319], [8.56476255731242, 47.34566023066245], [8.56479287112845, 47.34567994958115], [8.564744900122799, 47.34572719283564], [8.564494683268324, 47.3459428209888], [8.564487991232918, 47.3459392880896], [8.564471264295324, 47.34596193951305], [8.564423579229468, 47.34599141399335], [8.564383295470869, 47.34602666356721], [8.564273776502688, 47.345979606688225], [8.5642627759922, 47.34599140778226], [8.564286821562153, 47.34600196763844], [8.564262166606456, 47.346028375238944]]]]}}]}