{"type": "FeatureCollection", "features": [{"type": "Feature", "properties": {"bfs_nummer": 2045}, "geometry": {"type": "MultiPolygon", "coordinates": [[[[6.962132973536617, 46.88409512100779], [6.961752642128345, 46.88397681057225], [6.9617678907639124, 46.88392920737804], [6.961297098560663, 46.88347160201936], [6.961191496344203, 46.883220987292], [6.961057195365566, 46.88296380292314], [6.960964663167974, 46.88282517394828], [6.960723356101436, 46.882575962294425], [6.960592611944655, 46.88248843807813], [6.95818297460999, 46.88153614639637], [6.958158880217608, 46.881472492105395], [6.958113589547678, 46.8814537437918], [6.959688959909339, 46.879153815717984], [6.959676792457115, 46.87911337507415], [6.959635584863173, 46.879082680502975], [6.959112902048774, 46.87893783488971], [6.95906479026273, 46.87870500965937], [6.959085617371349, 46.87866156811629], [6.959213578774755, 46.87857619010726], [6.959272480141732, 46.878519073530605], [6.959355513537987, 46.87846116767168], [6.9594483583067435, 46.878401926692106], [6.959475421824787, 46.878390193325735], [6.959514231116262, 46.87835149592758], [6.959564364488336, 46.878327175780825], [6.959608905121647, 46.87832095798672], [6.95966905586183, 46.87828252102763], [6.959789928655635, 46.87824743320492], [6.959808238901913, 46.87821986698279], [6.959928316491547, 46.87815330957095], [6.960020444014265, 46.87811256864362], [6.960080266034811, 46.878056480670764], [6.960242251119522, 46.877941972959874], [6.9604302920569765, 46.877824155967], [6.960540430255619, 46.87774072579482], [6.9606518635038945, 46.877669453838735], [6.9609217585717476, 46.87746649514059], [6.961027088270894, 46.87736159925106], [6.961131803790653, 46.877272613769506], [6.961161287096875, 46.87720260864811], [6.96179869638022, 46.877283372274974], [6.962196701930984, 46.87732821289624], [6.9621624290417286, 46.877289200425786], [6.964929339105445, 46.87372704465357], [6.964938157783451, 46.8736924488299], [6.964864713395539, 46.87368350825106], [6.964623301288893, 46.873613555486045], [6.964395221728166, 46.87352674608348], [6.964424586550909, 46.87333584976264], [6.964441181747777, 46.873291121348984], [6.964260140905469, 46.87321044421121], [6.964369035806013, 46.87319322077651], [6.964944542562541, 46.87249964237281], [6.964994294650178, 46.87251019369799], [6.965091529765484, 46.87247627962588], [6.965128348025427, 46.872440783433944], [6.965057959585875, 46.872430587309985], [6.967104200929437, 46.86991617079205], [6.969437477797828, 46.86734005629986], [6.96488349729591, 46.86539180931728], [6.962762126617312, 46.86799826642536], [6.962960830216577, 46.86808610810817], [6.960229930856892, 46.87144343472943], [6.957903582578819, 46.87078296142228], [6.957024002716989, 46.87186267421089], [6.957030053643377, 46.87187538333579], [6.9569425442899, 46.871952015152424], [6.956813016653398, 46.8720904480062], [6.956553583442907, 46.87198428523466], [6.95515728410442, 46.87366324442739], [6.954484483135862, 46.87447961716277], [6.954372708584329, 46.874524569945265], [6.954530013784486, 46.8747123429465], [6.95395420696329, 46.875391216103615], [6.953867215629006, 46.875377443443874], [6.952917715317206, 46.87500091296522], [6.952124968683256, 46.87464212623146], [6.952058380592774, 46.87465110774267], [6.9518452689664665, 46.87499256647012], [6.95115627597787, 46.874792714766365], [6.951087234852116, 46.87481176007161], [6.950506739436259, 46.87575741003939], [6.950536266004744, 46.87579945524574], [6.951601892123411, 46.87601189327609], [6.952426918059641, 46.87602412740668], [6.952429148873079, 46.87620062720511], [6.952422884492996, 46.87624035860041], [6.951916031917318, 46.87652624109931], [6.9515958258094575, 46.87671323984373], [6.951460872156761, 46.87683967959844], [6.951579954655605, 46.87697457953426], [6.951222814441671, 46.87734233612349], [6.951700296822239, 46.87762125428738], [6.9516892637085865, 46.87763721009074], [6.951451012953018, 46.877783907561096], [6.951295224987661, 46.87780626180931], [6.951216891780474, 46.877909105098205], [6.9511010709181615, 46.87792184265115], [6.950926520645964, 46.87795887771746], [6.950817237286464, 46.878002848165266], [6.950735401066679, 46.87805799127579], [6.950584729658732, 46.878080195618125], [6.950456914871965, 46.87812786441349], [6.9503270973205264, 46.87815053530789], [6.95033380430623, 46.87823521122958], [6.950296524205056, 46.87828101846734], [6.950168917789536, 46.87832014234913], [6.950076170990316, 46.878291139734216], [6.949993954403875, 46.87830149240368], [6.949951722703615, 46.87834359022519], [6.9498880852737255, 46.87835932956055], [6.949852490910353, 46.87834964192351], [6.949616172654627, 46.878571357978664], [6.949302905537738, 46.87884564816415], [6.949154771051163, 46.8788928687176], [6.948935304428722, 46.87893348633088], [6.94859606802098, 46.8789735894448], [6.94855597469994, 46.87901119821188], [6.94854820781022, 46.87905722156641], [6.948541841070411, 46.87929467443745], [6.948406147672645, 46.87952932306616], [6.948293081166936, 46.87974265943428], [6.948001531554287, 46.88003330946875], [6.94795589673493, 46.880131622628184], [6.947667041812816, 46.88021475755871], [6.947481729031728, 46.880279896664305], [6.9473947955948825, 46.880388098026415], [6.947371117373576, 46.88050970467569], [6.947394160487246, 46.880643746070234], [6.947321388363421, 46.88095467575191], [6.947216779812771, 46.88111749270208], [6.9471135166996625, 46.881247931594174], [6.946450046247504, 46.88189158464356], [6.946245119957929, 46.88220465058553], [6.946125004639696, 46.882355345679755], [6.945808904793792, 46.88283055960225], [6.945719394180679, 46.88304849259479], [6.945418828409568, 46.88310475633621], [6.945232600214916, 46.88309684464088], [6.944697336737215, 46.88334947901428], [6.944307575996059, 46.8834302794918], [6.944011734880872, 46.88345607408958], [6.943633893157217, 46.883439323486854], [6.943308726414179, 46.8834881073367], [6.942461377002499, 46.88373522827819], [6.942182630187349, 46.88387002743377], [6.941894080883162, 46.884129549777256], [6.941535511227949, 46.88460808444549], [6.9420516268236225, 46.884954488743965], [6.941920699800834, 46.885246359799865], [6.941871370762978, 46.88526017803539], [6.941826440261589, 46.8852948846644], [6.941869912063728, 46.8853737841115], [6.941906899972266, 46.885403360229745], [6.941898465426668, 46.88542158427721], [6.941774657625572, 46.88551414846899], [6.9417309500983055, 46.88562927981075], [6.941738100395394, 46.88569164033751], [6.941685608730074, 46.88579189114197], [6.941654302085757, 46.8858146932161], [6.9416405314216645, 46.88586788627149], [6.9414789316431955, 46.88593392887547], [6.94149618113689, 46.8860263872659], [6.941459538838822, 46.886085507707776], [6.941354860361447, 46.886111318317056], [6.9413080354059655, 46.886109675060105], [6.941251780185863, 46.886120404404274], [6.941026876325425, 46.88623555544893], [6.940992421633257, 46.88627093728095], [6.940937440842797, 46.88629984286171], [6.940870485361453, 46.886374932739876], [6.940758099639146, 46.886411144004875], [6.940683526718706, 46.88640218308206], [6.940559978623087, 46.88642530200969], [6.940503146214617, 46.88644161457888], [6.940460696636583, 46.88644916545254], [6.940329231269098, 46.88657316969825], [6.940211347335124, 46.886637611083934], [6.940162553594926, 46.88668965252207], [6.9400224630859535, 46.886672857859956], [6.93983121740772, 46.886696759779824], [6.939673770430721, 46.88672206853412], [6.939550659303045, 46.88668680786552], [6.939360343105215, 46.88687452114223], [6.939088066146109, 46.88716999919062], [6.939115264123161, 46.88718001324258], [6.939127434465761, 46.887211640647415], [6.939082639144584, 46.887217381582815], [6.93910247138772, 46.88729698826712], [6.939132806521416, 46.887308275331904], [6.939153865658122, 46.88734488898842], [6.939233114574232, 46.887497250504815], [6.939247052715024, 46.88755038433208], [6.939311055539061, 46.8876364812324], [6.939536397832792, 46.8878828538066], [6.939581229316583, 46.88790149052173], [6.938645570332547, 46.88954368153633], [6.938675396072411, 46.889590048807065], [6.940808471335252, 46.89016112840407], [6.940916067762958, 46.89015545371875], [6.94107174407025, 46.890138159444525], [6.941295786078048, 46.88995919982728], [6.942369189121917, 46.88917867674178], [6.945603032981519, 46.89126970323977], [6.944443358853151, 46.89211281428263], [6.944175944992971, 46.89231366665199], [6.943948350187306, 46.89251926056486], [6.943993829871594, 46.89254218009607], [6.9419616250260905, 46.8944514257096], [6.941982304204609, 46.894528174837], [6.945295489989247, 46.8959392282904], [6.945372953662486, 46.89593075652245], [6.9432568580829725, 46.89768150433003], [6.946379050061483, 46.89945098995405], [6.946454880354346, 46.899387935195755], [6.9497025916924065, 46.901227332990494], [6.952287620462205, 46.899084478182914], [6.95224738020922, 46.89906166526202], [6.956593670203583, 46.8954596869072], [6.9604376834981, 46.89227433552837], [6.957192378739972, 46.89043341284216], [6.959305709421899, 46.88868276292343], [6.9593772334425115, 46.88853872229812], [6.959478342241455, 46.88798195702581], [6.959557366128055, 46.888002924270474], [6.959591404446914, 46.888015858632606], [6.959631934072845, 46.888021857907304], [6.959671728749769, 46.8879823009388], [6.959708572954611, 46.887929319435536], [6.959674250824247, 46.88788498081705], [6.959728376338964, 46.887827466220294], [6.959785209785438, 46.88783405547544], [6.9598346121428065, 46.887804406785136], [6.959847613098331, 46.88775904340393], [6.959823722721528, 46.887707282402936], [6.960000114692105, 46.887672553173054], [6.960034156450058, 46.88757037279022], [6.96011995464223, 46.88752759937663], [6.960159731959659, 46.8874428493191], [6.9602356722799605, 46.88738137793101], [6.960264944155055, 46.88730786380556], [6.9602755016371445, 46.887196562497046], [6.960321870980259, 46.88712437945592], [6.9603419135529, 46.88705293174299], [6.960402138197515, 46.88694983546445], [6.960412567981088, 46.886885201947564], [6.960455504885904, 46.88683741817134], [6.960472775563896, 46.88674129325117], [6.960569463343096, 46.88661594205712], [6.960688856315876, 46.88649274582194], [6.9607203898286105, 46.8863832234933], [6.960806128361992, 46.886285001403444], [6.960856271098821, 46.886158744474656], [6.960878743197429, 46.88606040141957], [6.96098253190866, 46.88593891160203], [6.961026814156293, 46.88589461447827], [6.961010776639384, 46.88575657535205], [6.961150585797528, 46.885643259975936], [6.961253343057626, 46.885495984779986], [6.961202535699823, 46.885434657031546], [6.961269944090016, 46.88534808801356], [6.961199880032956, 46.885268671173286], [6.9610792570352285, 46.885195887954765], [6.961009800387862, 46.8851853424707], [6.960938317106624, 46.885137178564904], [6.9609311637560705, 46.885057925766866], [6.9607410575702096, 46.88492911574592], [6.96077549553504, 46.88488962595932], [6.960881946063723, 46.884891843652404], [6.96100411905064, 46.884813986756946], [6.961147713072089, 46.88476308867575], [6.961244312306532, 46.88469724135614], [6.961471698671703, 46.88466022246642], [6.961469727333768, 46.88460307532074], [6.961545435608352, 46.88454936505121], [6.96166920327551, 46.884502971130196], [6.961821469440319, 46.88446964957369], [6.961858068165187, 46.88440097844661], [6.961887599771983, 46.88432882348399], [6.96205549956646, 46.8843241003666], [6.962022351856067, 46.88420077844441], [6.962132973536617, 46.88409512100779]]]]}}]}