{"type": "FeatureCollection", "features": [{"type": "Feature", "properties": {"bfs_nummer": 2051}, "geometry": {"type": "MultiPolygon", "coordinates": [[[[6.956593670203583, 46.8954596869072], [6.95224738020922, 46.89906166526202], [6.952287620462205, 46.899084478182914], [6.9497025916924065, 46.901227332990494], [6.949633771436471, 46.9012845728148], [6.949299303360475, 46.901561916345166], [6.947001345356081, 46.903464872990924], [6.946962710613159, 46.90354168938247], [6.94787862832207, 46.904671199601495], [6.947787414210531, 46.90470651930337], [6.947772563834957, 46.904743012738], [6.947057326059226, 46.9050152041115], [6.9470756256973045, 46.90503920179572], [6.9470845380450115, 46.90510072368613], [6.947072109630144, 46.90510631911722], [6.947034168474135, 46.90520328825557], [6.9469323789245925, 46.90526812961329], [6.946854059940102, 46.90536986324424], [6.9467809892541625, 46.90543311903385], [6.946755616010952, 46.905526373121575], [6.94671162533515, 46.905552998914295], [6.946727055826471, 46.90560217132606], [6.9466891112575295, 46.90566077489897], [6.94668721088879, 46.905792099686536], [6.946610565528801, 46.90585148095169], [6.946584170729516, 46.905904386182485], [6.946497700099545, 46.90596312229323], [6.946437177157435, 46.90599622536716], [6.9463656479352345, 46.90599722131949], [6.946302688740097, 46.906041198285315], [6.9462889734846796, 46.906085432522325], [6.946277682784238, 46.90609146474393], [6.946233818249206, 46.90606996539568], [6.94617673767592, 46.90610408164039], [6.9459900578877996, 46.90613808848492], [6.945903190071842, 46.906151377682626], [6.94586531655158, 46.90618496500692], [6.945746861962215, 46.90616472667242], [6.945645150312473, 46.90618074913472], [6.94559792185969, 46.90620822403649], [6.9455375108098565, 46.90619908457902], [6.945483175593397, 46.906237188337755], [6.945403051751437, 46.90620647368421], [6.945326021629062, 46.90619331340843], [6.945258259533701, 46.90621281052894], [6.945166616268149, 46.90618445668855], [6.945087702266604, 46.90620485894087], [6.944968447977727, 46.90621592050053], [6.944871497140157, 46.90621092253062], [6.944753373273458, 46.90621181482396], [6.9446085126784505, 46.90623838116203], [6.944521327863106, 46.906303103573734], [6.944334248826951, 46.906337519863236], [6.944271502875756, 46.90636524169066], [6.944209612255724, 46.906372799610516], [6.944137471987601, 46.90643713697532], [6.944056876106732, 46.90645053274307], [6.944013868024704, 46.906502726499454], [6.943863330938074, 46.90655829543225], [6.943806374754827, 46.90662422778945], [6.943714565908977, 46.90677170566521], [6.943571668320475, 46.90684698888158], [6.943431452972908, 46.9068705873243], [6.943329938319567, 46.9068963145108], [6.943064772781332, 46.90692356224338], [6.942910829378646, 46.90694413197614], [6.942806101780752, 46.9069680997561], [6.942786571617874, 46.90700208955871], [6.942668025943174, 46.90701007522588], [6.942587049025702, 46.90705318929789], [6.94252626762092, 46.907052817125134], [6.942421129838369, 46.907126734128425], [6.942322078303245, 46.90710604587005], [6.942259564618572, 46.90712832550244], [6.942231975295815, 46.90709987894974], [6.942159764000636, 46.90709781074564], [6.942035001662248, 46.90710522891505], [6.941887079185203, 46.90707084354218], [6.941808218537387, 46.907086629162876], [6.941703527918052, 46.90707818551888], [6.941604830615307, 46.90710994129056], [6.941567361115169, 46.90708965531337], [6.941432226340532, 46.90709597494196], [6.9412743548279225, 46.907095556805835], [6.941103607269882, 46.9070937060985], [6.941030121064527, 46.90704653726069], [6.940999176224589, 46.90706010240534], [6.940922064328019, 46.90709391277502], [6.940867708461269, 46.90717903319977], [6.940797982914433, 46.90719480393303], [6.940765415677257, 46.90729969238172], [6.940694666094587, 46.9074130048325], [6.940672444655968, 46.907431339534], [6.9406463874861855, 46.907452823874046], [6.940617076293411, 46.907479835194], [6.940535102959226, 46.907555075104845], [6.9399687664787155, 46.908077350725705], [6.939117083416117, 46.90884932983225], [6.939085917803547, 46.90887797883855], [6.938764344013305, 46.909173510275835], [6.938531966078964, 46.90938807683097], [6.937621046023602, 46.91022421978548], [6.9368266048790455, 46.91095142022285], [6.935880869499688, 46.91181722514374], [6.9351589115693475, 46.91247688959777], [6.906810574775999, 46.934728551919356], [6.928196307678074, 46.95339791830918], [6.961720326288019, 46.927484895422616], [6.9617420100702825, 46.92746070755879], [6.964900904915974, 46.924389232265476], [6.965045616163043, 46.924386918001694], [6.96513574077872, 46.9243719007519], [6.9652015344450415, 46.924407570317804], [6.965285941586661, 46.92438430744953], [6.965395401999896, 46.92440101584204], [6.965440990973339, 46.924400773024125], [6.965478508024159, 46.924418028461346], [6.965579789102383, 46.92439602292856], [6.965754844104877, 46.92435049415366], [6.9658201271338305, 46.92428337163036], [6.965876127137355, 46.924208789097676], [6.965985362747945, 46.92418248020206], [6.965985305300544, 46.924120547486886], [6.966209745946085, 46.92403268389559], [6.966342606324716, 46.92393880073687], [6.966478473817668, 46.92386864130673], [6.96660020180243, 46.92383258749784], [6.9666713362893455, 46.923786636647876], [6.966760055400454, 46.92380729664631], [6.96676983049264, 46.92380207478172], [6.966944271819441, 46.92362454394782], [6.967005015364805, 46.92359253731204], [6.967078929365249, 46.92352006999546], [6.967243870737507, 46.923529746740556], [6.967499051894629, 46.92356332722246], [6.967592330772934, 46.92353723854597], [6.967699384183633, 46.92355731721693], [6.967758467396631, 46.92351249409552], [6.9678393558469365, 46.92349641111805], [6.967966994660077, 46.92344042846341], [6.968124628660535, 46.923449389625134], [6.968173827810355, 46.92341917894261], [6.968215527780153, 46.92340568697036], [6.96828647839467, 46.92343281238091], [6.968500905520291, 46.92339751609258], [6.9685294885792075, 46.92340350769559], [6.968590299497475, 46.92344604529379], [6.968641565639493, 46.923430145697196], [6.968792734374298, 46.923363338193624], [6.968838843825362, 46.92330960075014], [6.9689398063670955, 46.923289056805885], [6.969035694571442, 46.92330969068332], [6.969187817636776, 46.923262784809694], [6.969246859709942, 46.923219471851766], [6.969313034392828, 46.9230078218916], [6.969469071588221, 46.922864591113424], [6.969547142287516, 46.92284175786434], [6.969682127377261, 46.92269754071962], [6.969802875256318, 46.92266940426905], [6.969853014888239, 46.92258401929077], [6.96994144209714, 46.922573416873234], [6.969959374434059, 46.92253314623076], [6.970104371070394, 46.922467526237114], [6.970179549199486, 46.922341395766274], [6.970226511006855, 46.92230105555048], [6.9703767052152, 46.92220994544965], [6.970431618651784, 46.922155065016305], [6.970485027590753, 46.92211608204961], [6.970550164354845, 46.9220962533677], [6.970576087017603, 46.92206706177982], [6.970631921614023, 46.922046502563575], [6.971532910534094, 46.92119147643672], [6.972579239243612, 46.921573989363246], [6.973327164152138, 46.921855680632625], [6.974217772694597, 46.92112374894879], [6.974433114287314, 46.92123148061197], [6.974782541733838, 46.921433551375124], [6.975206747995511, 46.92180507372054], [6.975426532416946, 46.92202671195123], [6.975848137426448, 46.922326464997134], [6.976081092902792, 46.922463175959535], [6.9764541015818615, 46.92270637375073], [6.9767200254277775, 46.922861693237714], [6.977124214582484, 46.923023435855804], [6.97756137541149, 46.92321100992364], [6.978108447189778, 46.92340614927419], [6.97863689838828, 46.92289074036161], [6.978808021204746, 46.922758343158435], [6.9789383394782405, 46.92260422856162], [6.979183136586599, 46.92261344446765], [6.980719600266144, 46.92225874023718], [6.98107096132939, 46.92217014107625], [6.981303726789519, 46.92209514366989], [6.981611353001439, 46.92197412831967], [6.981862400742973, 46.921850421040034], [6.982347024876308, 46.9215990939519], [6.982702121202734, 46.92144249953763], [6.983024480680158, 46.92132036057314], [6.983444748799245, 46.92119121674583], [6.9845246791204545, 46.9208732569078], [6.98485192969751, 46.92075713219134], [6.985157786807707, 46.92062763537757], [6.985508460972909, 46.92046592327368], [6.985821529302641, 46.920287446551875], [6.986118262876701, 46.920084139956714], [6.986395186991626, 46.919864787261304], [6.986651969855377, 46.91961892584823], [6.9869265087416075, 46.91929726716748], [6.98711091788881, 46.91902541871649], [6.987303152390852, 46.91865657687624], [6.987488584183858, 46.91827990000031], [6.987508386771772, 46.91822625793317], [6.987492028063083, 46.9181733185131], [6.984944932326667, 46.9161562768579], [6.984984800976289, 46.91613306531125], [6.981767489747034, 46.913585437590086], [6.984466900395307, 46.911984326648074], [6.981263983889747, 46.90944756812969], [6.9811651729285416, 46.909421085622874], [6.983777037457028, 46.90787115342415], [6.984007576476866, 46.90772432224835], [6.9839613910050895, 46.90769134110476], [6.9839503017079645, 46.907635381518524], [6.979211484891812, 46.90387885034453], [6.97896313987414, 46.903910692685784], [6.976768071050611, 46.905211726650585], [6.977773674478763, 46.90600797030159], [6.975509429949851, 46.90735076226343], [6.97321190777051, 46.90552935086215], [6.973085220100162, 46.90616770568117], [6.9729633032894265, 46.90617774214328], [6.972867943254394, 46.906722213235426], [6.972834156079357, 46.90700350541273], [6.972749142054578, 46.90700044186769], [6.9725899790799355, 46.90691914852016], [6.967615057420878, 46.90409874257616], [6.967581724286441, 46.904126670688484], [6.961900796245061, 46.90090727974181], [6.961934237233331, 46.90087913781305], [6.96190834249119, 46.90081723121172], [6.963756576949711, 46.89928798770164], [6.960091447254886, 46.89720927107348], [6.959949383603675, 46.89732745983385], [6.956659079870322, 46.89546196912195], [6.956593670203583, 46.8954596869072]]]]}}]}