{"type": "FeatureCollection", "features": [{"type": "Feature", "properties": {"bfs_nummer": 2115}, "geometry": {"type": "MultiPolygon", "coordinates": [[[[6.928801960595745, 46.76745500651682], [6.929065853001652, 46.76777366061423], [6.9294952290326375, 46.76815309957659], [6.9301461893886955, 46.7686489935476], [6.930420209015822, 46.768886602916716], [6.93082832227098, 46.769230660671965], [6.930803686488066, 46.76924692273613], [6.930726999862568, 46.76925729434681], [6.930652041513286, 46.76923716963195], [6.930943444894524, 46.7694770054066], [6.931083377899849, 46.769576391842016], [6.931219802329529, 46.76966055991753], [6.931995252152286, 46.77009394820491], [6.932124277229472, 46.77015640286086], [6.933157363302392, 46.77062149577037], [6.933513225867883, 46.77078892675975], [6.933673138497607, 46.77085288409235], [6.934211665571517, 46.77104460160462], [6.9347109333747845, 46.771275282734635], [6.9350469325720345, 46.77138236827582], [6.935054794470495, 46.77143620567894], [6.935310573119152, 46.7715395084783], [6.935313503231506, 46.77161670351315], [6.934736115441037, 46.77211701149194], [6.9339896211109755, 46.77263844553122], [6.933221605794704, 46.77198657377802], [6.931245006251524, 46.772509908245055], [6.933071164350289, 46.77469797551568], [6.931563413133611, 46.775320682915336], [6.9315418132473425, 46.77540488434744], [6.931884806549628, 46.775690239900854], [6.932330134332305, 46.776040538515126], [6.933326878500523, 46.77674833882081], [6.933589816460044, 46.77693094597537], [6.933602093200795, 46.77688971079162], [6.933638025017895, 46.776856037798474], [6.934065176091218, 46.776593677900806], [6.935268155488628, 46.777532500246984], [6.935496414037852, 46.77772529491751], [6.937135431838431, 46.778623536812916], [6.93705973150432, 46.77865461590832], [6.936866664036447, 46.77869155571053], [6.9376235357083855, 46.77949877649116], [6.937986360478109, 46.780374498082665], [6.938051539401711, 46.7808293299005], [6.938069519631051, 46.78100778177475], [6.938109212760811, 46.78124373869684], [6.938725748047973, 46.78151116369766], [6.938778939159185, 46.781480363530484], [6.9387928935810566, 46.78144426239995], [6.9387862884827305, 46.78142228411294], [6.9387708841828575, 46.78140305586883], [6.938773287752373, 46.78135584001117], [6.938802844589049, 46.781303615960844], [6.9388528945665255, 46.78124437503118], [6.938883687833723, 46.78119998236293], [6.938885707480023, 46.781151775031134], [6.938873447417024, 46.7811042245119], [6.938889911067668, 46.781079918679595], [6.938950946249041, 46.781036288166995], [6.93903571232945, 46.780989523435494], [6.939102516850718, 46.78095914161327], [6.939273139536384, 46.78090321829971], [6.939313460395461, 46.78087622812842], [6.939353033613795, 46.78083106394861], [6.939493355532714, 46.781034804306444], [6.940011369317854, 46.78172883337831], [6.94037800950969, 46.7820844138005], [6.940737430329517, 46.782415484446794], [6.941167442490803, 46.7828579660909], [6.941102206856205, 46.78310065065041], [6.9418138100780515, 46.783540041946274], [6.94231278852668, 46.783762698284924], [6.94284860121944, 46.78401033136388], [6.943461442579288, 46.78418598081204], [6.94391709420901, 46.78388148230333], [6.944486500077297, 46.78410820166196], [6.944624451377032, 46.78423050029169], [6.944924481911859, 46.78424377318742], [6.945268934134727, 46.78442669591701], [6.945406489728018, 46.78444969893238], [6.945704234875724, 46.784540841806844], [6.945768922409013, 46.78451431499577], [6.945961384341243, 46.784305011387374], [6.946163998984734, 46.78410230924744], [6.946222766920867, 46.784074317393085], [6.946275225516267, 46.78403603461992], [6.946451443138614, 46.78385127184336], [6.946508040460745, 46.783818583722564], [6.94658698507409, 46.783805251865644], [6.946795161423475, 46.78377995605998], [6.946888474170229, 46.78375633202933], [6.947025039938147, 46.78371282541097], [6.947150331930008, 46.783657674704315], [6.947234326489541, 46.78357607876357], [6.9473452221001, 46.78344825309219], [6.947477707068466, 46.783275102298376], [6.9475125351865366, 46.78320264022168], [6.947549613008266, 46.78306883814089], [6.947571857914829, 46.78302773443048], [6.947627790502748, 46.783023198943965], [6.947754778952006, 46.783028685104014], [6.94788073955021, 46.78302768968274], [6.947999366602531, 46.783013798911405], [6.94808406086735, 46.782988697128445], [6.948189968496006, 46.78294793552653], [6.948328462524181, 46.782936738586585], [6.948435067622814, 46.78294871195722], [6.948606777693274, 46.782886553763646], [6.948626794747386, 46.78288861888212], [6.948748622944123, 46.782927194323385], [6.948891396173111, 46.78299536516973], [6.94896240546816, 46.783004746893205], [6.949043695965304, 46.78302262882385], [6.949141476157301, 46.78307045620791], [6.949222503507125, 46.783088535371704], [6.949289242836848, 46.7830764804332], [6.949361545648349, 46.782958129913126], [6.949404231683954, 46.78285503458283], [6.949578952381874, 46.78282022563434], [6.949654862210698, 46.7827947342024], [6.949836087129633, 46.78278047125316], [6.949992157385443, 46.78279778324317], [6.9501177786578845, 46.78277789361027], [6.950535888443999, 46.78356973587869], [6.9506719503317, 46.78371551666906], [6.95122541338254, 46.78427959715238], [6.951240551174563, 46.78433022589369], [6.9512387927660235, 46.784454815917194], [6.951328723236576, 46.7847073644117], [6.951358366107185, 46.78486547123865], [6.95154219279326, 46.785206406146465], [6.951933506366856, 46.78543693459042], [6.9523188003152825, 46.78565285414186], [6.952736960322424, 46.785842178080216], [6.9529888703137, 46.78599356812521], [6.953788861284666, 46.78635913708717], [6.954339139986955, 46.786666858165496], [6.954773505786424, 46.78662450034253], [6.955438981832991, 46.78686165083816], [6.956103037599508, 46.7870854592154], [6.956665368105678, 46.787306153440504], [6.9569112634971715, 46.787443827000025], [6.957089606843525, 46.78759337650588], [6.957314920873786, 46.787882735840554], [6.957468903889719, 46.78809264120385], [6.957560987521128, 46.78829877637381], [6.957374201562654, 46.78869086809881], [6.957212932871217, 46.78893742967755], [6.957142221719846, 46.789292851606994], [6.9572044410042775, 46.789723147188155], [6.9581692092445895, 46.790112473302415], [6.958631480789321, 46.79030646834993], [6.958651733863592, 46.79040563062136], [6.959097599725366, 46.79035441693631], [6.959203900009366, 46.79036720618957], [6.95932863063958, 46.79032833075464], [6.9597411262454125, 46.79029151987248], [6.9601716178376805, 46.79024576056929], [6.960549155227499, 46.79021197531523], [6.961323778149791, 46.790071178355326], [6.961812557511393, 46.78995797439012], [6.961757166929631, 46.789862389685396], [6.962227341306283, 46.78974081208141], [6.962642291489231, 46.78957989816162], [6.962979176197624, 46.78943142151491], [6.963341480243586, 46.789245907288716], [6.9637735597778505, 46.789011702006974], [6.964025750088125, 46.78887996970306], [6.96399188192385, 46.788851771377445], [6.9640978893217715, 46.788802602587594], [6.964131000517481, 46.78883198511143], [6.964348540591522, 46.7887278230105], [6.964978864086679, 46.788458527767546], [6.965276964955088, 46.78834917548879], [6.965746200364102, 46.78825602404445], [6.966123001853985, 46.78809687318774], [6.966239248700934, 46.788087775069606], [6.966560966731716, 46.787984904427894], [6.966890306511451, 46.787890889003314], [6.967303548859584, 46.787796050619725], [6.967440760887146, 46.787758737960345], [6.967753571591396, 46.78767200094915], [6.968053685867395, 46.78757685378091], [6.968310545498783, 46.78751268799135], [6.968742122493998, 46.78738728999736], [6.968709856377593, 46.787323953726535], [6.968741401468587, 46.78731543908186], [6.968905115716635, 46.7872889662899], [6.969144354535896, 46.787225238805945], [6.969053690421198, 46.78712456466116], [6.968923972998473, 46.786874088400154], [6.968846913947249, 46.786665892476115], [6.96882544380357, 46.78646127212737], [6.968840740233278, 46.786291976004414], [6.968894875194519, 46.786112702058006], [6.969126745765104, 46.785736025083494], [6.969442245775532, 46.78510106961783], [6.969519178189006, 46.78484968190387], [6.969553617342032, 46.784492907223], [6.969532481911375, 46.78420472875405], [6.969791966087465, 46.784149889714776], [6.970112001197974, 46.78400977901334], [6.970290002922171, 46.783887371402024], [6.970436239624998, 46.78372524358224], [6.970544095726742, 46.78355372840471], [6.970602241927775, 46.78340761882953], [6.97065135385429, 46.78323420637917], [6.970690022999324, 46.78306593244318], [6.970810816970608, 46.782855023763496], [6.971175856790995, 46.78227745126417], [6.971561563560716, 46.7820497912014], [6.972105831029775, 46.781742719715055], [6.97246804189499, 46.78161423563721], [6.972722995942044, 46.781462363541046], [6.973426656672735, 46.78094007779161], [6.973451132954321, 46.78095799789602], [6.9739227627805, 46.780731651225146], [6.974388125537904, 46.780533073856574], [6.97490232684969, 46.780325545108155], [6.975357621294173, 46.78007581888668], [6.975576365913069, 46.77992698590428], [6.975928541684936, 46.77963525062635], [6.976188273020273, 46.77928497398449], [6.976476071601051, 46.778936709474706], [6.9768056296243675, 46.77863354669868], [6.97746030318088, 46.77811337839702], [6.977747396194828, 46.77792208966419], [6.977754101121557, 46.7778548120513], [6.978295211631734, 46.77746990375587], [6.978658338455093, 46.77723688384241], [6.978817509650543, 46.77714643753908], [6.979310284742844, 46.776892231930084], [6.979677950267053, 46.776723185158225], [6.980210094413836, 46.77613983243918], [6.980250932763159, 46.77617831792056], [6.980346389923917, 46.77595983212407], [6.980359141600495, 46.77581259033441], [6.980330251656373, 46.77566275221988], [6.980263254549863, 46.77551966031124], [6.9799404361851, 46.7751158547391], [6.9799078875298655, 46.77503129144653], [6.97992754116831, 46.7749499339634], [6.979997247408136, 46.774875101951245], [6.9801066713341395, 46.77483643908658], [6.980059508187871, 46.77455268311269], [6.979734016628528, 46.77404729804998], [6.979051729150141, 46.773551310034534], [6.979094614431081, 46.773276515777916], [6.979153340094334, 46.7732546597976], [6.979316896978745, 46.7731597510157], [6.979244484717303, 46.77314079310953], [6.9793006395587645, 46.773070404428836], [6.9793721269714455, 46.77300757996216], [6.979533567480283, 46.77283840394627], [6.979785160737526, 46.77249943156558], [6.979395376230305, 46.77221733399933], [6.978662396715255, 46.771623259868996], [6.978055746542734, 46.771197539603655], [6.978545058140334, 46.770722763916815], [6.978663692798157, 46.770520249450485], [6.978821356897549, 46.77022561579301], [6.978878233996457, 46.77006436606689], [6.97891360874832, 46.769943464537846], [6.978908368043816, 46.7697785726598], [6.978889866957777, 46.76955834037598], [6.978905750491252, 46.76922424594364], [6.97843474037473, 46.76900394930463], [6.9771404004211215, 46.7684112741097], [6.977429137497625, 46.768124675510535], [6.97757271354125, 46.76788821510408], [6.9777506998825745, 46.767718173371065], [6.97785766001925, 46.767608051031864], [6.9779920403733895, 46.7674512895639], [6.978161043692018, 46.76726587306372], [6.978327309245721, 46.767066726690395], [6.978016442220709, 46.76673329062351], [6.977922126002981, 46.76665148124914], [6.977481203821081, 46.766336111000584], [6.977091037295344, 46.766097460949], [6.976932832963416, 46.765978167965024], [6.976589919999296, 46.765755962615295], [6.97637763599105, 46.76563692598339], [6.974118755822813, 46.76424792668764], [6.974735934212316, 46.76356194550371], [6.974742356671619, 46.76353672999822], [6.974737216114702, 46.76348315840225], [6.974775914305823, 46.76343736666665], [6.974849151197746, 46.76346375225747], [6.974913516804436, 46.763465372733904], [6.97496851597824, 46.76341008503722], [6.974928996577313, 46.76331888887892], [6.975025541078206, 46.7632898665203], [6.975098947133445, 46.763304207489284], [6.975165454602445, 46.76330031328817], [6.975317270800953, 46.76320860062261], [6.975421035034017, 46.76316354120641], [6.975528751201615, 46.763266052299414], [6.975643222018498, 46.76321659236056], [6.975773317246133, 46.76313431702047], [6.975876106833285, 46.76309901343606], [6.975912456872523, 46.7630369207896], [6.975903006126323, 46.76291365202769], [6.975932095248676, 46.76283127186777], [6.976392630389914, 46.762777981668826], [6.97644068773999, 46.76275181972092], [6.976604717778486, 46.762787577283895], [6.976671519417507, 46.76277830403045], [6.976699772184755, 46.76272303289436], [6.976792654417613, 46.76268731942601], [6.9769201608146165, 46.76270951592291], [6.977064828341591, 46.76270432737039], [6.977067273049084, 46.76265285560734], [6.9770437906885, 46.76261452017725], [6.977188040588653, 46.76261526702205], [6.977085314670509, 46.76231702500943], [6.977116790330646, 46.76229796503613], [6.977122177255409, 46.76220719451254], [6.977056146630208, 46.762151145276945], [6.977001033734515, 46.761791665601386], [6.977048664221888, 46.7617845902451], [6.977059462258971, 46.76172376100358], [6.977011972698838, 46.76169308249438], [6.977003864662799, 46.761693688279664], [6.976936739052521, 46.76156707328113], [6.976921594397135, 46.761560894791074], [6.976879092751346, 46.76152560374486], [6.976799293736546, 46.76150749578578], [6.9767944321230635, 46.76145933173574], [6.976881721625706, 46.7613490491761], [6.976899629011934, 46.761335313588816], [6.976928123088249, 46.761270121285655], [6.976933722528503, 46.761185117816474], [6.976878802196225, 46.76110674153619], [6.976901263902264, 46.761093114377196], [6.977015133017988, 46.761090184782866], [6.977008999685235, 46.761037661744034], [6.97704782219377, 46.76099373183509], [6.977159942932264, 46.760846748818835], [6.977115644025488, 46.76073418754667], [6.97702275595527, 46.76068561265902], [6.977084319150823, 46.76056957646912], [6.977182105196874, 46.76044855953573], [6.977262249599748, 46.760249290498585], [6.977398582758041, 46.76014521532652], [6.9774550322000035, 46.760039188280444], [6.977485683850265, 46.76001530323071], [6.977474631319658, 46.75997465242862], [6.9775062804252865, 46.75993672034789], [6.977700362642374, 46.759661828073554], [6.977806618455585, 46.759598407634], [6.97809082545414, 46.7592617108481], [6.9777478632527865, 46.75909855549692], [6.978293141371258, 46.75844950005459], [6.978753743773533, 46.758525997727965], [6.978767479725474, 46.75852539657736], [6.978935463821498, 46.758441813491515], [6.9793286596875665, 46.75815788100715], [6.979517914330878, 46.75824417450159], [6.979923654525024, 46.75810798001492], [6.980292966836623, 46.75777660460271], [6.979968266734538, 46.75747845204211], [6.979607312308679, 46.75682931572987], [6.9793222712291305, 46.756486343174004], [6.9790639618401515, 46.75608049973389], [6.97896130507801, 46.755837204671856], [6.978937435707577, 46.755567232074824], [6.978768827195031, 46.75538664847478], [6.978343291941319, 46.754426116863165], [6.978339105687237, 46.754416708596885], [6.978234909391558, 46.754302007465824], [6.9778805677404625, 46.754172170871925], [6.977837274793755, 46.75422828987927], [6.977750502217493, 46.75436075825167], [6.9774245312857515, 46.754146134984296], [6.977359421924147, 46.754096710297404], [6.976977893896678, 46.75384402507533], [6.976377125202555, 46.753460822023094], [6.9760747861597965, 46.75331044714715], [6.975736291293253, 46.75318078518084], [6.975546074470341, 46.75312996001615], [6.975255630561849, 46.75303800364902], [6.974996847579444, 46.752936946032555], [6.974853951678521, 46.75307510272832], [6.974749165928396, 46.75318615806495], [6.974610310180288, 46.753385321149615], [6.97431292785541, 46.75343455580541], [6.973716461870304, 46.75345257722978], [6.973596290696294, 46.7534914151044], [6.973156118723919, 46.75374275141845], [6.973160324803205, 46.75375430098493], [6.973200711240724, 46.75381220870578], [6.9732436688720325, 46.75385584202596], [6.973265084599945, 46.753869072143196], [6.973280399346734, 46.753894610190464], [6.9732938990722015, 46.753934785655645], [6.973318628323379, 46.75398104308242], [6.97324738714778, 46.75399482992587], [6.9732272966424365, 46.75402204944238], [6.97323679957282, 46.75406580676939], [6.973261102494047, 46.754128056619045], [6.973263379046382, 46.75416747561273], [6.973170693945837, 46.754166709807954], [6.973126261871023, 46.754179985516856], [6.97310585162352, 46.754204810818344], [6.973068659258038, 46.75421333043173], [6.973062058740692, 46.75420321041641], [6.973031336112602, 46.75419765138517], [6.973004526758143, 46.75416490575162], [6.972972783496398, 46.7541487458035], [6.97291837139276, 46.754162790186705], [6.972892610545482, 46.754163134581944], [6.972883796027605, 46.75417440588828], [6.97282051499212, 46.75421053407361], [6.972788535794498, 46.75424276030964], [6.972776000617834, 46.754272574349905], [6.972801178436251, 46.754291190278586], [6.972781465018082, 46.75431412031559], [6.972754531957304, 46.754360625209856], [6.972768763808635, 46.75439633294086], [6.972765338153202, 46.75443068213521], [6.972734785197054, 46.75443724973759], [6.972707671653154, 46.7544260201866], [6.972683808996319, 46.754399115652824], [6.972640988925042, 46.7543758576677], [6.972608921093836, 46.75438355254489], [6.972581159611309, 46.75440933716229], [6.972578476083337, 46.75443656478136], [6.972580473009767, 46.75446137378388], [6.972545470657467, 46.75448598632955], [6.972506441894018, 46.75453570704367], [6.9724696907425185, 46.75459445061949], [6.972445374202824, 46.75462745477414], [6.97243176590263, 46.75467835905236], [6.972462408815053, 46.75468860456355], [6.972520189733432, 46.754687635731514], [6.972612558616198, 46.75471894063693], [6.972627908026484, 46.7547374533986], [6.97261045833848, 46.75476344215932], [6.972647679613358, 46.754837727117746], [6.97262219871247, 46.75485254644892], [6.972535957286048, 46.75494781644949], [6.972501109298824, 46.754954582374154], [6.972458748851364, 46.75497640311939], [6.9724465608812265, 46.755002359424374], [6.972464610017967, 46.755015944699934], [6.972466778497482, 46.75503605870639], [6.97244753190685, 46.755054915609826], [6.972408988246219, 46.75504107542951], [6.972394151757323, 46.7550449187473], [6.9723677141094385, 46.755074963657464], [6.972340718868508, 46.755095344990806], [6.972224884551742, 46.755145182660605], [6.972217737962148, 46.755161804169624], [6.972197597920742, 46.75514935273156], [6.9721231611403045, 46.75512996809184], [6.972070205861878, 46.75512832977978], [6.972053710827403, 46.755107608353185], [6.971991327483167, 46.75504462643344], [6.9719312875368775, 46.75501930061471], [6.971890764094869, 46.755023974146695], [6.971900367609762, 46.75508469777061], [6.9718341128344585, 46.75510736488837], [6.971806485247888, 46.7551025648978], [6.971755925590267, 46.75505415022412], [6.971716068313987, 46.755024301328184], [6.971712879169632, 46.75495444650646], [6.971697571539717, 46.75492813459624], [6.971663789023534, 46.75489207664669], [6.971627128207344, 46.75486191697701], [6.971610307516577, 46.75481542174872], [6.971585620387094, 46.754785536084896], [6.971540260219616, 46.75476692701477], [6.971430521757823, 46.754741837813526], [6.971406857859709, 46.75474333290415], [6.971396732384936, 46.75474124935129], [6.971378154056044, 46.754747937781374], [6.971372970799148, 46.754734405127344], [6.971370641863999, 46.75471473123782], [6.971387052888068, 46.754674282470994], [6.97139359543517, 46.754651883349446], [6.971394542845812, 46.754634732647226], [6.971391593939736, 46.75461711617081], [6.97137030971128, 46.75458576015936], [6.971328032827501, 46.75457384738764], [6.971278315858076, 46.75452797271335], [6.9712412069597836, 46.754516297091925], [6.971219753585295, 46.754528505952244], [6.971209334715033, 46.75454512298949], [6.9711993954966145, 46.75455474344467], [6.971184706895492, 46.75455211939091], [6.971153461395662, 46.75452992491468], [6.971144776933914, 46.754517160501024], [6.971125842412814, 46.75447148411318], [6.971104350144192, 46.754452037347896], [6.971062380007107, 46.75443948706037], [6.971057622938563, 46.75441157218678], [6.971044909595475, 46.75439703707508], [6.971015118990898, 46.754380641708224], [6.971001660257043, 46.75436302707782], [6.970981520800459, 46.754362611473326], [6.970930147968938, 46.75429951234607], [6.970898532392734, 46.754280770586774], [6.970872062218641, 46.75425882953621], [6.970865406105162, 46.75424160261089], [6.970819531861296, 46.75420092497365], [6.9708010492788395, 46.754178566946074], [6.970746292112271, 46.75414646157407], [6.970710436908985, 46.75411709657339], [6.970701857740486, 46.75408021535023], [6.970664487605041, 46.754038439112996], [6.970612123441581, 46.75400961794326], [6.9705484203385515, 46.75398432134592], [6.970485270408333, 46.753936079206746], [6.970407556029236, 46.75389052972957], [6.970362161136912, 46.753876040005466], [6.970323989735978, 46.75385719018032], [6.970275684975675, 46.753801119847864], [6.97022093627881, 46.753775635009845], [6.97018011908487, 46.753835152809444], [6.970149476539635, 46.75383398321719], [6.970119020760496, 46.75381288017596], [6.970135050856114, 46.75369905302185], [6.970108519291771, 46.7536722089462], [6.970090831002342, 46.753606810160306], [6.970151082016847, 46.75355354337204], [6.970164949007295, 46.75348518000577], [6.970215504727108, 46.75342703367707], [6.970196800790673, 46.753407607182965], [6.970094723920629, 46.753410875357766], [6.970054789591854, 46.75339461785572], [6.970055311324016, 46.75336628389019], [6.9700209689603705, 46.753304594724625], [6.969943549224331, 46.75326894133664], [6.969903583701519, 46.75325477964122], [6.969927154778978, 46.75321881336858], [6.969842332768554, 46.75317353114468], [6.969783935799787, 46.75314776117468], [6.969768812740702, 46.753113956424386], [6.969706559412286, 46.75310418274473], [6.969661790560387, 46.7530840370788], [6.969717363247397, 46.75306444872299], [6.9696921702786065, 46.75302824566479], [6.969632182749158, 46.7530092967198], [6.969600889499965, 46.75303028060584], [6.969259850494054, 46.7531760879077], [6.969170243787059, 46.75323220188487], [6.967388087985274, 46.752343324996104], [6.967365906055887, 46.752347569056994], [6.966950189249568, 46.75247206477286], [6.966305769420425, 46.75220037077816], [6.965897814692758, 46.75201937746114], [6.9656076008092525, 46.75187851550356], [6.965290830365136, 46.75171717636027], [6.965026848600953, 46.7516148241201], [6.964543450280269, 46.75222522173617], [6.963679493405472, 46.75195545915859], [6.9632305530212015, 46.75140941544455], [6.962841707323546, 46.751619178343724], [6.962680647658663, 46.75171552259471], [6.9625089937454625, 46.75185833861386], [6.962392391300006, 46.75202867734289], [6.962297727469668, 46.7519946378213], [6.961694866239921, 46.752677615273136], [6.960896548403833, 46.75356631655639], [6.96033778932932, 46.75399116075548], [6.959877923012545, 46.75432425854872], [6.95961386000514, 46.75452163518921], [6.957977263381233, 46.75552227132044], [6.957818485766518, 46.75566852607615], [6.956943724321997, 46.756291500304656], [6.955306363061249, 46.756273762050576], [6.9550544071553855, 46.7564275429962], [6.957819292314273, 46.75856669165196], [6.9575017210892005, 46.75879157257698], [6.957070478549288, 46.759087872385564], [6.956564736944239, 46.75863676268728], [6.95597844745677, 46.75896780865839], [6.955493888996441, 46.75923424706425], [6.955071202627432, 46.75944648540241], [6.95470892200217, 46.75955825402577], [6.953725795836551, 46.75895581931905], [6.952970188067167, 46.75844002082011], [6.952315193442756, 46.75878152038949], [6.951877389860908, 46.75901561165964], [6.951063149495161, 46.75943467593519], [6.948575110033496, 46.760836394508814], [6.947383742687315, 46.761477856994055], [6.947286555859677, 46.76128648803071], [6.947171703538214, 46.761087378634485], [6.947008615393897, 46.761144561357526], [6.947149046510617, 46.76142947338361], [6.9440131348807554, 46.76227885103267], [6.943730033491279, 46.762432038964604], [6.942428576094612, 46.76299894975803], [6.942014300781278, 46.76317455367769], [6.94121197831348, 46.76315338302562], [6.940702018972752, 46.76320174471261], [6.9401369846073395, 46.76339998133071], [6.9364386006051495, 46.76382666346928], [6.935730348959974, 46.76393618915449], [6.93518185809563, 46.764098465650136], [6.934971473933726, 46.76423703921793], [6.934692287194289, 46.764461773603394], [6.934199123097328, 46.76488506441843], [6.933962465739972, 46.7650522604552], [6.934142221139786, 46.76522225548567], [6.933674789252517, 46.765996162400604], [6.933491526906767, 46.766020995975154], [6.933352067585951, 46.766050044829626], [6.932422843729943, 46.76628834028857], [6.932458445402755, 46.76631548538625], [6.931995801513191, 46.76651366022694], [6.931918474799316, 46.766540995515015], [6.931844654296009, 46.766560232342194], [6.931390787839433, 46.766661561575425], [6.931307512587172, 46.76667550254539], [6.931225519090652, 46.766682630507475], [6.930279245828109, 46.76671421181681], [6.929953314281035, 46.766706611949544], [6.929806025931753, 46.76671453559749], [6.929546510205656, 46.766753666906325], [6.929412644566358, 46.76679710183925], [6.9292701329477335, 46.76687427647039], [6.929165714060647, 46.76695039791826], [6.929075068326198, 46.767031924321074], [6.9289728501713705, 46.767142373694604], [6.928895570998829, 46.76724730334631], [6.9288421419586985, 46.767344207690975], [6.928801960595745, 46.76745500651682]]]]}}]}