{"type": "FeatureCollection", "features": [{"type": "Feature", "properties": {"bfs_nummer": 2125}, "geometry": {"type": "MultiPolygon", "coordinates": [[[[7.031226228429755, 46.63457243001729], [7.031233427011779, 46.63458586842176], [7.031213359251904, 46.634635380586445], [7.031261361562253, 46.634703263330124], [7.031289651854397, 46.634735596357366], [7.031336166107853, 46.6347567683245], [7.031375242900843, 46.63476326854901], [7.031369926553996, 46.63482393459433], [7.0313604187308325, 46.63486722376322], [7.03132343270438, 46.63490722092313], [7.031315629156573, 46.6349600066761], [7.031343458498193, 46.63501016761678], [7.031330661685632, 46.63505318408115], [7.031261285423128, 46.6350779882908], [7.031220203723553, 46.635084470783525], [7.031185007611022, 46.63510878585006], [7.031170465349966, 46.6351408122116], [7.03113994675838, 46.63516309299519], [7.0311505881039205, 46.63519791748696], [7.031080526903874, 46.63524589181202], [7.031027108784552, 46.6352758895772], [7.0309392295095305, 46.63533141039594], [7.03088885930867, 46.63537625290879], [7.030830204075927, 46.6354062588347], [7.0307239288068075, 46.63543522139098], [7.030665198776308, 46.63547854059991], [7.030645557192822, 46.63548372352085], [7.03058678094713, 46.63636634973417], [7.0311847994796555, 46.636832954928124], [7.031491094053648, 46.637028072396895], [7.031793991815936, 46.637180375202], [7.032459125971146, 46.63752457357576], [7.032859126627947, 46.63770174337344], [7.033560266358324, 46.63811740006053], [7.03402470599491, 46.63839821826319], [7.034569132010907, 46.638813075412756], [7.034953663958394, 46.63916211561886], [7.035362903808273, 46.63952605740354], [7.036222922232914, 46.640091165028906], [7.036812297526873, 46.64054449070836], [7.037128198644238, 46.64047768065025], [7.038027663230672, 46.64029316812827], [7.038535521365819, 46.64014599581557], [7.039393804183194, 46.63990220871162], [7.039814834336011, 46.640257342609225], [7.040019720866893, 46.64018794930525], [7.04044651021112, 46.63978770023535], [7.0409727082353015, 46.63918568104447], [7.041434575648861, 46.63871427541653], [7.041796725484722, 46.638492421123445], [7.042076903158682, 46.63817330490982], [7.042265502777607, 46.638008487950366], [7.042279311096312, 46.637949389697475], [7.042184687106841, 46.63786644335023], [7.045262558268731, 46.635914822985846], [7.04565281283162, 46.63604635017122], [7.045696951437618, 46.63598051991896], [7.045858081906384, 46.63563273708294], [7.045885278215542, 46.63564261841218], [7.0460770147617655, 46.63565927567164], [7.046696033344673, 46.635546791340296], [7.046877600052238, 46.63556115426349], [7.047153114552913, 46.635678310145344], [7.047600917917786, 46.63591705021124], [7.047864485357684, 46.63603793246862], [7.048141794482654, 46.63615317617347], [7.048242614414657, 46.63618571820406], [7.048421757066247, 46.63622317109648], [7.048548737240164, 46.636230282189764], [7.048584736170936, 46.63622759018671], [7.04843345733252, 46.636023338562495], [7.0485945534366605, 46.63605506191384], [7.048729829677736, 46.63591191107206], [7.048908654479002, 46.635773002765454], [7.049163782419163, 46.63560557872528], [7.049371462940243, 46.63550511692989], [7.0496656768882655, 46.63544598033711], [7.049939186110682, 46.63543455685427], [7.050157016419248, 46.63545840313235], [7.052031312733338, 46.634499954811695], [7.052079373315028, 46.6344686787367], [7.052243882661016, 46.634390130931045], [7.051594169414995, 46.63388699592612], [7.052687065271799, 46.63408879996729], [7.054446887655278, 46.634459487296404], [7.055238713203939, 46.63455445016559], [7.056206464683112, 46.63458856940193], [7.056851830485924, 46.63456254915014], [7.0577912323283005, 46.63448194565134], [7.058673446473518, 46.6342567182893], [7.059418934494495, 46.634057789364526], [7.060099141881834, 46.63385038000979], [7.060888096311684, 46.633604222970604], [7.060866538504995, 46.63377517639734], [7.060867782502696, 46.63405772417996], [7.060841895502197, 46.63440088451415], [7.061127885347351, 46.63428267028472], [7.061192996380956, 46.63422147349742], [7.0612858546899675, 46.634190576175705], [7.061880789640328, 46.6341778345866], [7.06220007891056, 46.63413597543532], [7.062893414256964, 46.63399214676031], [7.062875651485353, 46.634177829887], [7.062874647718724, 46.634252463388286], [7.062900490447951, 46.6343687454728], [7.062903846352222, 46.6344099835911], [7.062928997616528, 46.6344793872203], [7.06299032633654, 46.634550196832905], [7.06342254741373, 46.634501791033344], [7.063397439309508, 46.63443359302309], [7.063506689584596, 46.63442477015484], [7.063822554725964, 46.634424716998474], [7.064043789632718, 46.63436875789086], [7.064162623688431, 46.63431880185635], [7.064320233760307, 46.63428708113594], [7.0645524897524945, 46.63430997614167], [7.064801366931352, 46.634365336525555], [7.064901255375421, 46.63439004359525], [7.065283984215136, 46.63449341219693], [7.065412300994506, 46.634607008105796], [7.065750501872797, 46.63489498086296], [7.06596800124881, 46.63505226392625], [7.0696942999745795, 46.63331604530208], [7.071670773399856, 46.63242690913829], [7.071903715970412, 46.63264545458066], [7.072846855662981, 46.63201175893499], [7.0741136659950445, 46.6311717911166], [7.074835941488051, 46.63088955819116], [7.075179246730065, 46.631365627366534], [7.0755520178588265, 46.63169837221642], [7.076013866174963, 46.632005978790225], [7.076388171958742, 46.632259510154526], [7.076440795118023, 46.63226974426824], [7.076933205550626, 46.632644264022], [7.077034567519324, 46.63277076852054], [7.07736833021828, 46.633046512682704], [7.0776115833712065, 46.63343158005951], [7.077553569982374, 46.633845310840094], [7.0776999196257355, 46.63384395964345], [7.077767230747601, 46.63391153317229], [7.077918724814195, 46.63427880198483], [7.07804650350729, 46.63457415616567], [7.0782237541521695, 46.63497070586846], [7.078452508345531, 46.6351884510004], [7.078546588598513, 46.63534076631419], [7.078932395691878, 46.63571154697918], [7.078962565410123, 46.635734689347466], [7.080034615145358, 46.6356810753455], [7.080575814175888, 46.635659728493636], [7.080776744611438, 46.635530555421894], [7.08099331134678, 46.63542607825055], [7.081418910657422, 46.63523050384474], [7.082245197182507, 46.63522987045361], [7.082788387934774, 46.63508800421344], [7.083038949572878, 46.6348776707355], [7.083301405286318, 46.63451896356299], [7.083643173194979, 46.634129487579045], [7.083983789421555, 46.63380725096114], [7.083759659731413, 46.633826611181576], [7.083478810444367, 46.633775295236134], [7.083177722027547, 46.633729618341384], [7.082831551200613, 46.633682522869336], [7.082734546632442, 46.63366313082304], [7.08258278345547, 46.63364599541355], [7.082207908213496, 46.63346296482693], [7.082070216447079, 46.63335022252416], [7.081938259699969, 46.63327667394234], [7.081633895171674, 46.632979304406064], [7.08161478654226, 46.632767128173136], [7.081626178118817, 46.63253803736382], [7.081764968258855, 46.63213593035823], [7.081656953564165, 46.63199903784132], [7.081411310445935, 46.63186279173085], [7.081218686773093, 46.6317146576674], [7.0809954742434655, 46.63162066163956], [7.0806046879809985, 46.63144136220144], [7.080295085529528, 46.63126646454334], [7.0800619065337225, 46.631110653317656], [7.079892390935324, 46.63096428126334], [7.079632238716257, 46.63083946454683], [7.0793412759442695, 46.630709681524515], [7.078223511479168, 46.63017805565124], [7.077785979446887, 46.6300440697213], [7.077501463876104, 46.62988100925264], [7.077271819969592, 46.62969065847287], [7.078077373752122, 46.62910560068385], [7.078457536848414, 46.62896201419416], [7.07773256220605, 46.62806708200009], [7.078057258690414, 46.62795340185856], [7.078439287309033, 46.627847881470764], [7.078885209190339, 46.62780436237525], [7.07858598383597, 46.627442427905514], [7.07843681237116, 46.62727088470565], [7.078008462526028, 46.62663063455096], [7.078346837767675, 46.62654759103819], [7.0783635523056505, 46.626457579564956], [7.0781639927237485, 46.625966440133666], [7.078449126497517, 46.625911176596354], [7.078246292712844, 46.62540606539877], [7.078660569923049, 46.62532353155005], [7.078727052849158, 46.625220463444016], [7.078780401550189, 46.625298993620824], [7.078775013083942, 46.62523582714147], [7.07874054426533, 46.625194526828004], [7.078535588046421, 46.62490938977107], [7.078972583021918, 46.624761825057256], [7.078732329195838, 46.62444624336123], [7.078516539988101, 46.624143296078636], [7.0784566939685, 46.62416973336915], [7.078115952510058, 46.623898368200834], [7.077274833517685, 46.62332891300913], [7.077503480087815, 46.62299963520402], [7.077512098199044, 46.622937178941854], [7.077667270610713, 46.622949420971715], [7.077683873587923, 46.622375228128874], [7.078191295799634, 46.62234773100804], [7.0781604013850705, 46.62209257964292], [7.078060422853112, 46.621715092600965], [7.078062512056484, 46.6215609137314], [7.077879966785019, 46.621287063676924], [7.07758714417969, 46.62106708863716], [7.0776395426794565, 46.621023491336615], [7.077353891687694, 46.62084417170723], [7.076886920960733, 46.62068059177475], [7.077737999731398, 46.620239545363084], [7.077460165318637, 46.62006523415791], [7.077104197051592, 46.61956745957532], [7.076690099953995, 46.61911431532433], [7.076678557832232, 46.61912029657718], [7.076595762934885, 46.619044037424764], [7.076497771861145, 46.61898714200547], [7.076364864770305, 46.618944717080865], [7.076366929308745, 46.61891143975982], [7.07633848164507, 46.61887062564157], [7.07628501846182, 46.61886689268758], [7.076195207829689, 46.618824488268835], [7.076161640397617, 46.61883445611153], [7.076060929683529, 46.61881129444437], [7.075978817202721, 46.618773493284934], [7.075968027594845, 46.6187607749225], [7.075999917519416, 46.61873817182273], [7.075959598465894, 46.61867473162111], [7.075813865551501, 46.61859257635048], [7.075754085806298, 46.61857884663806], [7.075678717289649, 46.6185051290459], [7.07567046865236, 46.61843887668184], [7.075726954863236, 46.61836975496671], [7.075803336872017, 46.61837240085243], [7.075815156187314, 46.61836983892872], [7.075821836314633, 46.61836271782507], [7.075763535266651, 46.6182864730559], [7.075817529847787, 46.61824027307282], [7.075790848049524, 46.61817968305712], [7.075813352225963, 46.618139436501856], [7.075975727326263, 46.618095795614344], [7.0760388292625205, 46.61802315038962], [7.076125678411124, 46.61799710655447], [7.07627731847982, 46.61790925336789], [7.076351787805868, 46.61788173046306], [7.076374323656602, 46.61784057533616], [7.076480931136829, 46.61781165264338], [7.0766051597101765, 46.6178026574499], [7.076668916148207, 46.617869500400104], [7.076749826672379, 46.61789174372851], [7.0768313464380705, 46.617852413622046], [7.077000258592684, 46.617836291806995], [7.077085738551269, 46.61778459626112], [7.077182993572479, 46.617787469665224], [7.077207945920977, 46.61772655863547], [7.0772173361104755, 46.617716306535655], [7.077339914292012, 46.617698318475526], [7.077355954493216, 46.617626953000766], [7.077468309221425, 46.61759939707525], [7.077497905259525, 46.61756238415548], [7.0774139636670395, 46.617437257171645], [7.07750594471858, 46.61735818118713], [7.077668265961966, 46.61728889112238], [7.077704804779786, 46.61720738077424], [7.07768881557473, 46.61716401587527], [7.077701392637772, 46.617157417091995], [7.077895645482782, 46.61720321062249], [7.07799177379375, 46.61717141956282], [7.078048919729424, 46.61719228202311], [7.078212062453274, 46.61719323187056], [7.078302567390746, 46.617178478435626], [7.078365014255198, 46.617189525460056], [7.078469512233112, 46.617190684602086], [7.078583049194385, 46.61722433769364], [7.078723808797799, 46.617232196647066], [7.0788717943550346, 46.6171960534754], [7.07924916880444, 46.617177728431976], [7.079349011716415, 46.617154547757956], [7.079459294865755, 46.61715935863835], [7.079726977061645, 46.617110135395514], [7.079826452950506, 46.617018532496175], [7.079921057705426, 46.616995739611426], [7.0799026886999945, 46.616942886140365], [7.08001595686334, 46.61687574067477], [7.080126987267811, 46.61684861881136], [7.080196351366988, 46.616759852946444], [7.080177167002502, 46.61671374358649], [7.080239090914811, 46.61666402224396], [7.08024478505757, 46.616587145474725], [7.080303697245344, 46.6165819520464], [7.080355516294498, 46.61660097049194], [7.0804614868052065, 46.61656704070876], [7.080523653596516, 46.616590688229415], [7.080551023209563, 46.61662113482056], [7.080687620720979, 46.61661859716126], [7.080784200638118, 46.616652068557094], [7.080818179087982, 46.61665063744197], [7.0808529173543, 46.616589819408006], [7.08099767469929, 46.61648884074697], [7.081003722798693, 46.616452904443044], [7.081054457588898, 46.61640710532118], [7.081120728265666, 46.61652651546374], [7.081498444349424, 46.61664682442221], [7.081691031897913, 46.61678458676043], [7.08188987017981, 46.616873557695605], [7.082067796185027, 46.616680296817876], [7.082070783641362, 46.61660566045023], [7.08257972787736, 46.61660399305038], [7.083189536148198, 46.616613910649924], [7.083486504326118, 46.61663452293253], [7.084048068086835, 46.61696883845151], [7.084149445593065, 46.61714065700138], [7.0842711972498424, 46.61730734852383], [7.084274202656163, 46.61750342665695], [7.084269049878438, 46.61777076976432], [7.084255142148128, 46.61803931800908], [7.084257160874003, 46.618208775195], [7.084313015473049, 46.61835108952891], [7.084572443266547, 46.61881718959327], [7.0850546672426535, 46.619134286605686], [7.085087460344306, 46.61911277230474], [7.085329154960275, 46.61911318363029], [7.085408179012535, 46.619127282884705], [7.085660819651826, 46.619320044160276], [7.085731492917117, 46.61936732885163], [7.085952201127948, 46.619542314491895], [7.087316223734652, 46.61662465397697], [7.08723929256978, 46.61645630554393], [7.087104071947103, 46.61630595652051], [7.087033240120246, 46.61603332232995], [7.087066165726103, 46.61584705288157], [7.08687169295396, 46.61573450843045], [7.0868176680872415, 46.615577268289684], [7.0867962515246266, 46.61539044383062], [7.086751147296968, 46.61510871390469], [7.0872231873238745, 46.614932603386116], [7.087651580996735, 46.61478082360394], [7.087811789516216, 46.61464386552741], [7.087921007618573, 46.614502746524956], [7.0879866396001105, 46.61442734971378], [7.088163899399761, 46.61438607641205], [7.088521229026668, 46.614288847969995], [7.0889235206666354, 46.61429556666927], [7.0895595254993395, 46.614177162587715], [7.090100041097532, 46.61397898364279], [7.090533359779931, 46.61432317242485], [7.090841478598924, 46.614378270676276], [7.091410012022754, 46.614363693130876], [7.091483972799392, 46.61441310722473], [7.0915543668890155, 46.61443058509232], [7.091639043287478, 46.61434859662091], [7.09174112626395, 46.61435903745767], [7.091924260838383, 46.61435979454596], [7.0923734499742626, 46.61430823940356], [7.093382431663269, 46.6144492074448], [7.094079139318275, 46.614552094071065], [7.093979562153997, 46.61447424026884], [7.0938961344087295, 46.614381970465956], [7.093827062903979, 46.61426378282816], [7.093382545264902, 46.61303596615858], [7.093302074381591, 46.612908540969315], [7.093218612672929, 46.6128099106482], [7.092374121233729, 46.61203429670108], [7.09210621731922, 46.61176037132008], [7.091838584792689, 46.6114446973279], [7.09114286139685, 46.61040865506789], [7.0910475167111455, 46.61020263268554], [7.090992705297565, 46.61001856691193], [7.090966827377655, 46.60986172959138], [7.090967302635078, 46.609664663581576], [7.0910033698350485, 46.60949454064352], [7.09106988708842, 46.60935722818084], [7.091175736560235, 46.60918090499691], [7.0913284850517115, 46.609020791559786], [7.091451461229107, 46.608925103536855], [7.091626248952021, 46.608820614205904], [7.091813941098302, 46.608730988828704], [7.092029836074736, 46.608652145153485], [7.0923105853253645, 46.60857210477069], [7.0940155643069165, 46.60823548031559], [7.094265426159256, 46.60817164133543], [7.0945075474241746, 46.60809343927441], [7.094766177110406, 46.60798498949084], [7.09495166383176, 46.60787968185452], [7.095072800418422, 46.60778653914492], [7.095178118446326, 46.60766648740824], [7.095236821093066, 46.60757568327678], [7.0952683377800945, 46.60748234998494], [7.095264731687641, 46.60738663447093], [7.09522932505023, 46.607291587322486], [7.095145980082878, 46.60718569022077], [7.093596334802979, 46.605758291736834], [7.093440395377157, 46.605585667761794], [7.09330761385472, 46.60540249008425], [7.093197525371286, 46.60519780094827], [7.09311984874248, 46.604982532675635], [7.093066320655604, 46.604764972008844], [7.09304908222961, 46.604483589816276], [7.093062831785736, 46.604232356597656], [7.093124378063708, 46.60370411308121], [7.092525745437016, 46.60346636146127], [7.0925881223086416, 46.60334188028691], [7.092407629074508, 46.60324459089934], [7.09232449537169, 46.6032153265183], [7.092252484653662, 46.603163264961545], [7.092159072704083, 46.603122886525924], [7.091947374648853, 46.60307026392578], [7.091800759741811, 46.60316243511201], [7.091725955810811, 46.603100334397794], [7.0917016087750975, 46.60305865518511], [7.091530328567415, 46.60298425940577], [7.091429046212611, 46.602881173879545], [7.091253361717898, 46.602783619118576], [7.090964313635085, 46.60285147731071], [7.090879475271927, 46.60284992193878], [7.090698054112437, 46.602876847622206], [7.090565857322905, 46.60294518755754], [7.090505383367973, 46.6029985706301], [7.090387913843471, 46.60307001335126], [7.090181484883036, 46.6031271675397], [7.090077105247116, 46.60311994725442], [7.089921321611987, 46.603123831430814], [7.089855202209809, 46.60309155002189], [7.089682282200652, 46.60311150139401], [7.08955915547785, 46.60318158517672], [7.089286081288662, 46.60328938508252], [7.089253938652073, 46.60331497759227], [7.08905796870346, 46.60340328688365], [7.0889434904128, 46.603427681244575], [7.088734067655251, 46.603680127920576], [7.088724907253372, 46.6037441667933], [7.0886873358872, 46.60379769190007], [7.088677451102099, 46.60382854347646], [7.088669076834316, 46.603835813127034], [7.088626114334199, 46.603849246052114], [7.088528448634533, 46.60383098948691], [7.08851778291377, 46.60382532527545], [7.088495209415501, 46.60376009114842], [7.088390888432214, 46.60371356752925], [7.088304173787367, 46.60371734786208], [7.088227459500273, 46.60378093508188], [7.088068210305816, 46.60366341211846], [7.087670429000874, 46.60339717995255], [7.087243489901796, 46.60323978516658], [7.08694440593188, 46.60297251580132], [7.086810932828221, 46.60254768658091], [7.086542972307949, 46.60235183849189], [7.086221416145327, 46.60224514148871], [7.085279700649834, 46.60195472095613], [7.084753948625199, 46.601806102082534], [7.08403344418437, 46.60169572444417], [7.083510108666907, 46.60200918667085], [7.082917533337891, 46.60210846830313], [7.082758383532206, 46.60214812586704], [7.082168038311707, 46.60200259459334], [7.0817768926939335, 46.60192500993181], [7.081683715878786, 46.60187224504582], [7.08159839513083, 46.601778259727226], [7.081537099139422, 46.601672916542284], [7.081481444355679, 46.60137605520818], [7.081438720832016, 46.6012864767897], [7.081390223410957, 46.60122329121268], [7.081144620262962, 46.60094864496927], [7.08100241789834, 46.600527326544466], [7.0811611464975455, 46.60012169111925], [7.081027226034735, 46.599459558290356], [7.080965651051359, 46.5991037657471], [7.080497494655447, 46.59904914351614], [7.08019330869173, 46.59895101992769], [7.079494140376186, 46.598250238753536], [7.080103452844908, 46.59691438592586], [7.080171140584802, 46.59681089784378], [7.080265863161773, 46.596704211840304], [7.080381973879304, 46.59660155149055], [7.0804953852087085, 46.59652209123846], [7.08064619670483, 46.59643881753975], [7.08080325210957, 46.59637029822744], [7.080977414804924, 46.59630979392582], [7.081159881415371, 46.5962663263624], [7.0813234305848765, 46.59623974652659], [7.0815292986622564, 46.59622137795549], [7.080848221750483, 46.59548571764574], [7.080664277622438, 46.59531580323918], [7.080557477913836, 46.595225482648786], [7.080334705209235, 46.59505472546679], [7.079891474247466, 46.594799413405916], [7.079604051970603, 46.59467063989652], [7.079319046846028, 46.59542449962591], [7.078426911949597, 46.595262060448555], [7.078308437963596, 46.59559518036612], [7.078230843662543, 46.59573178475601], [7.077828429117474, 46.59637834570665], [7.077749435887295, 46.59654229229229], [7.077630357038774, 46.59666848232568], [7.077469898651639, 46.596879918254004], [7.076240361841441, 46.59821193339444], [7.075928380234893, 46.5986206978226], [7.075932232111212, 46.59819178831181], [7.075953082264626, 46.59802952829717], [7.074682186720191, 46.59814227597384], [7.07389134810106, 46.596050593472], [7.072791136378552, 46.59535765958619], [7.071029439397191, 46.594412332174926], [7.070886765844951, 46.59434379916175], [7.070388926515079, 46.59407046154576], [7.06902514167498, 46.593340895609096], [7.068330679550751, 46.59319899167201], [7.068318875917803, 46.59323615053892], [7.068090004982595, 46.59418906882973], [7.067787575009272, 46.59418824260061], [7.067784589823266, 46.5942427642353], [7.066662614488536, 46.594239361155815], [7.066013578729201, 46.59424185512964], [7.065670669272405, 46.59426548448891], [7.065500987810021, 46.59428220723604], [7.0651962704688485, 46.59432139728019], [7.064821991049307, 46.59437484039368], [7.0648707864292835, 46.59439138267783], [7.0653634344251035, 46.594583532723576], [7.065704680640029, 46.594721406835184], [7.066031265312014, 46.5948756219553], [7.06634086314618, 46.595040881062104], [7.066637769612682, 46.59521877257923], [7.066610556000221, 46.59523838384409], [7.066810029688621, 46.59537345989484], [7.065377908757383, 46.59617214336394], [7.0655068635891976, 46.59619173706498], [7.065158405376649, 46.5972933701108], [7.064497757675055, 46.597707793675994], [7.063884335687464, 46.598164450622704], [7.062992774402319, 46.59886379521103], [7.062369847691525, 46.59916739325355], [7.061347448480939, 46.59975888682177], [7.0609757336767425, 46.59930059843569], [7.060716709387985, 46.59908733927145], [7.06004946332348, 46.59876802641635], [7.059099489822812, 46.597897454339474], [7.059006802308582, 46.59779046479486], [7.0590027510635185, 46.59795434325662], [7.059010008217618, 46.598545391994264], [7.0590339171324405, 46.59883078764983], [7.059080532761308, 46.59912754871235], [7.059161346435983, 46.59948671009276], [7.059240145825639, 46.599859655210835], [7.059313636543534, 46.60015254792569], [7.059281274558819, 46.60017232923457], [7.059194525901104, 46.599868075569496], [7.059027585821909, 46.59937778403966], [7.058932038675408, 46.59918171866923], [7.058804415728958, 46.598994613434435], [7.058652587176928, 46.598818266746676], [7.058317697629205, 46.59850703701797], [7.058038226033333, 46.59828800901656], [7.057873186766867, 46.598144226285186], [7.057700282289036, 46.59798149897656], [7.057616338937794, 46.597880348680874], [7.0574768439721565, 46.59807769470118], [7.057489216164946, 46.59816625369071], [7.057488812701485, 46.59822700904381], [7.057478480299518, 46.59828741626066], [7.057446834860571, 46.59837572849033], [7.057080006486515, 46.599047452468284], [7.057028994631622, 46.59911888646209], [7.056967994680739, 46.59918537519329], [7.0568976478420575, 46.599246668885606], [7.056777563833241, 46.599331993533156], [7.055717865589087, 46.599997376395244], [7.055582946589425, 46.60007246665472], [7.055406163866011, 46.60014880972828], [7.0551916835632715, 46.600227804791345], [7.055127807424108, 46.60024129837377], [7.055063753980529, 46.60024668618352], [7.0549784739869255, 46.6002473604092], [7.054907466227788, 46.600243315145036], [7.054777489781069, 46.60040302565132], [7.0545622170840385, 46.60064608878771], [7.0544845734951185, 46.60074536304416], [7.0543196006315325, 46.60110879617195], [7.0541461803536905, 46.601631576745945], [7.054106204448874, 46.601690084059825], [7.0540298059773745, 46.60183219958962], [7.054107454269709, 46.60181676524832], [7.054179541756972, 46.601834398115614], [7.055908545205793, 46.602748598563544], [7.054697721465159, 46.60376579559383], [7.052944314021399, 46.60283858506892], [7.053070445031007, 46.602803894610446], [7.0531466756230365, 46.60273508489466], [7.05309015409581, 46.602637676702656], [7.053010312643085, 46.60254533486909], [7.05204400344088, 46.601884581647035], [7.051540867086531, 46.601558222629116], [7.051046395466606, 46.60122921886727], [7.050939687791293, 46.60120211026424], [7.050646407352419, 46.601201179934094], [7.050494496839226, 46.60118225534632], [7.050049645055997, 46.60103211570754], [7.0499184120031915, 46.60093485498563], [7.0496214918888285, 46.600646363283545], [7.048895029005194, 46.59992433496217], [7.048695604301087, 46.59980256823941], [7.048343690681786, 46.599504654627296], [7.0483242446065155, 46.59951011108099], [7.048300208360176, 46.59950965063144], [7.048272820446596, 46.59950164926172], [7.048242928024992, 46.59947005267591], [7.048209669063056, 46.599418527752846], [7.048168833875752, 46.59939322667785], [7.047940741526863, 46.59940454992849], [7.04783453038833, 46.59933304634853], [7.047768671756524, 46.59931026752441], [7.047744601614737, 46.5992712872878], [7.047752370027243, 46.599200671313554], [7.047716440088777, 46.599172067490535], [7.04766734206171, 46.59917040484151], [7.047593819321094, 46.59912114334899], [7.047539838877913, 46.59907474670668], [7.047445094818813, 46.59904540920134], [7.047384246620518, 46.59901384962903], [7.0473354044707595, 46.59895541644316], [7.047264150525914, 46.59889931677449], [7.047072163419401, 46.59880930970024], [7.046946292174122, 46.59881439881311], [7.046843705976714, 46.59871497569018], [7.046761548135895, 46.59871734579734], [7.0466534434616594, 46.59869130797757], [7.046577716767699, 46.59861690415549], [7.046592206601675, 46.59849619672266], [7.04656162655074, 46.5984534785723], [7.046548236965997, 46.598413977480014], [7.046304745847344, 46.59824999100191], [7.046161168775498, 46.598197373799366], [7.0460555047328635, 46.59814638973354], [7.046018490819765, 46.59799808562171], [7.045949753893297, 46.5979604706374], [7.045663105279234, 46.59796170083116], [7.045529557090078, 46.59793171486061], [7.0452064938620005, 46.59797820088332], [7.045032216301208, 46.59798742014957], [7.044883071064148, 46.59798452837544], [7.044815339674567, 46.597988044610624], [7.044732022413284, 46.59797598017417], [7.0444314331756805, 46.598015057738735], [7.044290068285327, 46.59801539443687], [7.044167975368371, 46.59806613750667], [7.043991148884117, 46.598099013797956], [7.043827784430212, 46.59822537485962], [7.0436806012698145, 46.59826273471304], [7.043625732639919, 46.598306073929095], [7.043526312693728, 46.598425541420106], [7.043792492619482, 46.59875526127319], [7.043856348739736, 46.59907261713202], [7.04380274935046, 46.59937913814617], [7.043465139249076, 46.59988111793101], [7.043223399689409, 46.6001494623664], [7.0427242684284925, 46.60063421770126], [7.042295733214808, 46.60091514207714], [7.041901676321741, 46.60123304894894], [7.04163249499254, 46.601599823530165], [7.042194677231277, 46.60191082495217], [7.041773499860484, 46.602199184336975], [7.041303155033863, 46.60240929629349], [7.041312871590305, 46.60307408116281], [7.041158037541731, 46.60322833644697], [7.039848720337127, 46.60803354655678], [7.040277158879936, 46.608186727147334], [7.040349812710762, 46.60823956188406], [7.041043732039378, 46.608581121436345], [7.04198952718738, 46.609015709193116], [7.042604019240444, 46.60913779361021], [7.043171013354969, 46.60993417698077], [7.043350198495604, 46.610197321334525], [7.043558241345203, 46.611016767212284], [7.043611945934062, 46.611269372100566], [7.0436074848461745, 46.611313426034556], [7.043319763966614, 46.611342496169065], [7.043187829811353, 46.611339023112194], [7.043164066101776, 46.61132560874126], [7.0431405895681145, 46.611292629820724], [7.043087836476279, 46.61127883554624], [7.0430179370646675, 46.61128376443835], [7.042974646085629, 46.61127733457214], [7.042897548677558, 46.611222552069286], [7.042817190684912, 46.61121184590324], [7.0427600991943065, 46.61116849469975], [7.042674810382703, 46.611160883706624], [7.042493899684971, 46.61105437365093], [7.042375777439643, 46.61104728658243], [7.042281335114515, 46.61101170278044], [7.042185217272807, 46.611006950302354], [7.042070229521571, 46.61098191851408], [7.041947899943986, 46.61096654023499], [7.041819017627192, 46.61096711530437], [7.04157754327631, 46.610908096003804], [7.041451143316271, 46.6109083823628], [7.041395061624288, 46.61088229664129], [7.041287147844248, 46.610875199165015], [7.041118891325935, 46.610855179342465], [7.041036636779196, 46.61084864827752], [7.040971719530542, 46.61086305681826], [7.040703397257514, 46.61084444904113], [7.040536517302234, 46.61083604667623], [7.040458991179792, 46.61082204735945], [7.040438813659794, 46.610825134024125], [7.0398742098486435, 46.61018796852814], [7.039268515001955, 46.61007571408269], [7.035591874654858, 46.608020882553525], [7.0338386269491355, 46.60640403251601], [7.033925183097241, 46.60637032854174], [7.034023492216986, 46.606349773262735], [7.0340567586557095, 46.60630165706531], [7.034051946430649, 46.60626111450331], [7.032995683088193, 46.605340875083684], [7.033098568358349, 46.60523059624554], [7.033388596221339, 46.604859814695914], [7.033489907552944, 46.604692982702716], [7.033477029175782, 46.604678552644835], [7.033467741991701, 46.60452321829585], [7.033495088252231, 46.60445692786928], [7.033533434916199, 46.60441527087794], [7.033597788664127, 46.604372609209214], [7.033664227915148, 46.604305990538336], [7.033709539105758, 46.60428411283953], [7.033779079128227, 46.604244267198254], [7.0338362851166005, 46.604181816540496], [7.033837988891079, 46.604160026132405], [7.033862610350296, 46.604162776690885], [7.033887078530018, 46.60414769726508], [7.034004477706841, 46.604097695212594], [7.0342217632732185, 46.60409811888036], [7.034572609160136, 46.603995846541615], [7.035408865438921, 46.60350655299624], [7.036004997910883, 46.603266596801646], [7.036276619220715, 46.60299534213782], [7.036594127725525, 46.60263998658143], [7.036867039851273, 46.60228408650363], [7.037106891871577, 46.60202422383197], [7.03724407362721, 46.60181244798346], [7.0372279325111675, 46.60176468715587], [7.037052201564578, 46.60166406081651], [7.037474859015016, 46.600695624930474], [7.038077476028149, 46.599856639526784], [7.038132181028069, 46.59941444252026], [7.038269454061494, 46.59926614694781], [7.038318962001562, 46.59910007254722], [7.038486761330442, 46.59890935339244], [7.038670510960744, 46.5987638844582], [7.03928792949227, 46.59835259021051], [7.039545957551523, 46.59813320278818], [7.039791624532812, 46.59782387760074], [7.0401147905499535, 46.59697665818376], [7.040123619681754, 46.596889188426225], [7.040097164069982, 46.596792509305956], [7.04000281028567, 46.59664089805639], [7.039916850061013, 46.59637433344657], [7.04004288100107, 46.59561979698349], [7.040517349893466, 46.594769699404914], [7.040568849146675, 46.594532178710864], [7.040644102554209, 46.59440366084683], [7.041000382377534, 46.59401272637579], [7.040941376494485, 46.594003362175506], [7.041082557513373, 46.59381951766525], [7.0419062927552165, 46.59307792701175], [7.043670508684561, 46.59199370433701], [7.04439227063156, 46.59160318982108], [7.044700520632202, 46.59115190354294], [7.04476831990716, 46.59120221762547], [7.044804540978522, 46.59125968137848], [7.04542101794773, 46.59075937954247], [7.045633323801452, 46.590660451986366], [7.046179639312676, 46.5903745533337], [7.046425195714158, 46.59016364435966], [7.046587729204577, 46.58999490784739], [7.046930953565482, 46.58959687598614], [7.047149607740404, 46.58939542655021], [7.047362496013753, 46.58922046647636], [7.046699630449841, 46.58891861505128], [7.046259874439779, 46.588693229512884], [7.046077883972919, 46.58813486656217], [7.045972385843546, 46.58754773114683], [7.046007940789626, 46.58747433231136], [7.046350666670384, 46.58733125303492], [7.046533696792009, 46.587157999682354], [7.046793421946758, 46.58662712555029], [7.046423547470818, 46.5865300442227], [7.046371970147847, 46.58644933693277], [7.046255370398402, 46.586356944491], [7.04619173264878, 46.58633962365439], [7.046027323783186, 46.58623511019346], [7.045882009429878, 46.586167572673595], [7.045454756808901, 46.586007787280074], [7.0453423947468625, 46.58589105710839], [7.045219353801908, 46.58587535611063], [7.045046613967753, 46.5859366747592], [7.044371514054958, 46.585960977680216], [7.04424549880778, 46.58592206584424], [7.044149919453378, 46.58588189182625], [7.044051231088746, 46.585860103389365], [7.043595081669961, 46.585831081153046], [7.043496637939693, 46.58578665114532], [7.043460064746211, 46.5857511888085], [7.043392043017564, 46.58572163507428], [7.043308646979981, 46.585706933657015], [7.0431993114324, 46.585576745287135], [7.043082416954493, 46.58549347884078], [7.042932866266664, 46.58550785444382], [7.04289341609949, 46.58548225016734], [7.042843276443116, 46.585378939994506], [7.0428479268716275, 46.58529643006146], [7.04279880799666, 46.5852372025878], [7.042607024406038, 46.58516273406509], [7.042460272454948, 46.58512473613367], [7.042380113845863, 46.585070914264115], [7.042305086320581, 46.58489774710418], [7.042282936985783, 46.58481902110639], [7.042137352436537, 46.584684657617714], [7.041981585257432, 46.58466116617331], [7.04185006304314, 46.584504308845375], [7.041539675655572, 46.58423965050839], [7.04128608301244, 46.5841133816203], [7.041174012570141, 46.5840384780196], [7.041065610289887, 46.584007612182674], [7.040884791459453, 46.583915582798056], [7.040763945472904, 46.583910877577644], [7.040450842449255, 46.58372533201878], [7.0403223368513155, 46.583683726091046], [7.0401939027732405, 46.58356006160954], [7.040163869359861, 46.58349467492844], [7.040101683964003, 46.58346339454845], [7.040054217561262, 46.58339831516823], [7.040295870865122, 46.58320084593183], [7.040724197659095, 46.5825595013997], [7.041190764966708, 46.58202443624663], [7.040511755468804, 46.58158795262478], [7.039464225617974, 46.58121991390963], [7.039187154225276, 46.5811977276225], [7.038402699002124, 46.58114181880523], [7.038061251849586, 46.581023787459316], [7.037831448956382, 46.580875186230095], [7.036402847297137, 46.580314435369495], [7.035506789452745, 46.579912226085106], [7.035068895170007, 46.57758736954903], [7.035123704980214, 46.57735466558508], [7.035394913032168, 46.577208844540706], [7.036147405148453, 46.576790456160154], [7.036445719413547, 46.57662004889094], [7.037440766421615, 46.576308073635325], [7.037741065448387, 46.57622079063477], [7.039419483724534, 46.576363092524105], [7.038561408669386, 46.57573691275192], [7.034048614974648, 46.57364158151303], [7.033648071811913, 46.57360819209748], [7.032951233229489, 46.57362524172658], [7.032232998850109, 46.57367721269886], [7.032258379882167, 46.57338845080589], [7.031970402669072, 46.57316603436909], [7.03168819907568, 46.57337185278951], [7.031416215628353, 46.57358001005194], [7.03122967661618, 46.57378933719903], [7.031049170080876, 46.573914755023445], [7.0308181978586335, 46.5738703496086], [7.030526081093157, 46.57359556934363], [7.030252566107697, 46.57339354996464], [7.0300941832606645, 46.573301845231036], [7.029949582298498, 46.57313512835684], [7.030117771283761, 46.57291884688894], [7.030320312367656, 46.57278944330149], [7.030510438129884, 46.57255780356316], [7.030505334601442, 46.57243406712422], [7.030474962140786, 46.572322707996506], [7.030362484522936, 46.57225853283352], [7.029988266909703, 46.57213857768602], [7.028493145470226, 46.57148062707016], [7.026328016241124, 46.57068881862801], [7.024924903260453, 46.5695239390901], [7.024511058383961, 46.56973598669154], [7.024487574026555, 46.56983869493814], [7.024092365688286, 46.57030688040506], [7.023865543620758, 46.5703497886988], [7.0226092559231414, 46.57029082997456], [7.022350309758039, 46.56997309574588], [7.021786802685737, 46.57027091596293], [7.021453590848428, 46.570508103696085], [7.020790404287186, 46.57028545530736], [7.019951403799499, 46.57034225439704], [7.018966866002681, 46.571109234552516], [7.01914488152781, 46.57214446124891], [7.018696286921086, 46.57231587980559], [7.018849345591043, 46.572581372648095], [7.018818864734302, 46.57280224036251], [7.0191498101034835, 46.57378916900105], [7.019457731442272, 46.57422030221972], [7.019863239559088, 46.57476990836577], [7.020389245025996, 46.57506974119803], [7.020841342442234, 46.57527199296575], [7.0215137562473195, 46.57552877486037], [7.022025117533171, 46.57591791002499], [7.022995840767484, 46.576509702110236], [7.024084658097849, 46.5768977213171], [7.025348145232403, 46.57725142638102], [7.025582350813886, 46.57746942627984], [7.026190620646271, 46.57840133454965], [7.026646537511288, 46.57926459859172], [7.026842744935861, 46.57991776789402], [7.027199620721094, 46.580439336199376], [7.02696425356681, 46.58058128079227], [7.026719818455476, 46.58114664436682], [7.026562533413502, 46.58158168875285], [7.026097769316155, 46.5823245986489], [7.025734798547761, 46.58297871188427], [7.026264892960661, 46.58442192663783], [7.02683100369576, 46.58573323113191], [7.02547917645087, 46.590004121851265], [7.025319974446562, 46.5900512995007], [7.025227365070056, 46.59064520139563], [7.024475599836806, 46.592633574427964], [7.024230739385458, 46.593161945818686], [7.024140848103918, 46.59341402564161], [7.024071375952878, 46.59388167728014], [7.023975415956187, 46.593860555742296], [7.023921541560229, 46.59386475785736], [7.023833440546996, 46.594527142095316], [7.023128129214278, 46.600455265480036], [7.022712523726966, 46.60096818116543], [7.022089977231201, 46.601778838087306], [7.0218586492256545, 46.60179132954388], [7.02127641588219, 46.60177587682189], [7.0206101431365155, 46.60156537285813], [7.020328025708756, 46.601185156481876], [7.020040155039552, 46.60078667507875], [7.019735004202838, 46.60062735142007], [7.019402864150033, 46.60053028505273], [7.019222283342304, 46.60051593536395], [7.0186238739989015, 46.60049465161574], [7.018290843626815, 46.6003665440706], [7.018065220657534, 46.60031252564125], [7.016984471254657, 46.59962907222487], [7.016618619255236, 46.59950695457568], [7.016358527175611, 46.599500472384264], [7.016095789474913, 46.59957516624149], [7.015790228674684, 46.59975171135894], [7.015356230472342, 46.59970061758102], [7.0150336182219934, 46.59958360372916], [7.014567984956035, 46.59880926166573], [7.014295735178036, 46.59854219647895], [7.014030189458801, 46.5980207941462], [7.0139027567485135, 46.59787763675723], [7.013834885373975, 46.597691594822365], [7.013781790032098, 46.59713924140889], [7.0138456414400165, 46.59650195634226], [7.013914393576075, 46.59609379061653], [7.013674375598419, 46.59565689832052], [7.013418871813964, 46.595219992945474], [7.013471937925634, 46.59501736595892], [7.013747616632126, 46.59478191101356], [7.014264020329635, 46.59457624094499], [7.0146800723116325, 46.594307016893], [7.0147659234807485, 46.59417449851784], [7.014800368295808, 46.59393618744578], [7.014733284869513, 46.593643523196526], [7.014606532877621, 46.59353767414226], [7.014330721229973, 46.593414923207355], [7.014093942869746, 46.59327702441077], [7.01392840567838, 46.59308727056906], [7.013863445044903, 46.592988020790465], [7.013841353707327, 46.59287689530147], [7.013879006299994, 46.59273372594466], [7.01404565166382, 46.59257706899353], [7.014286612226091, 46.59244346688165], [7.014502906765556, 46.592369845267335], [7.014976575545239, 46.59234680480218], [7.015421478804822, 46.59235596753578], [7.015577548380646, 46.59238566881292], [7.0158591713295895, 46.592374457360116], [7.016073026676587, 46.592338695496494], [7.016314982894631, 46.592163829662695], [7.016268059902054, 46.59205202764423], [7.016132947050071, 46.591940832830964], [7.015673363484893, 46.59180570585657], [7.015530141777538, 46.591673807877385], [7.01546098354631, 46.5915605913061], [7.015421131377571, 46.59130130384344], [7.015467622159261, 46.59113697300102], [7.015497901418035, 46.59094830247331], [7.015491799880763, 46.590842868312286], [7.015373306751516, 46.59067796745598], [7.014946164188388, 46.590517617576445], [7.0145769173834225, 46.590092208381996], [7.0141604916820945, 46.58971344460353], [7.013809444328158, 46.589382663683736], [7.013446199142578, 46.58878072393341], [7.013131554757192, 46.5885242289351], [7.01292443861213, 46.588294700291144], [7.012847901331331, 46.588119123076154], [7.01286100622019, 46.58796815265253], [7.0130453451507035, 46.58727594251867], [7.013088490008559, 46.587054945313646], [7.01309645731382, 46.58682903044437], [7.012993629880673, 46.58661052619726], [7.012710622844528, 46.586369503946045], [7.012374148631017, 46.586311819595444], [7.011967661365229, 46.58630032480335], [7.01191314341981, 46.58627950174182], [7.011847366650395, 46.58620243996914], [7.011824525610956, 46.586074804035526], [7.0118663897194695, 46.58566663834381], [7.011844790673319, 46.58539362775962], [7.011871544741725, 46.585095970917244], [7.011848580412663, 46.58493783045179], [7.011714388908666, 46.5847367219049], [7.011475806421323, 46.58464441841631], [7.011381560943415, 46.58452152408072], [7.0113729558205, 46.58427868013371], [7.011340102022803, 46.58409436963841], [7.011342902697315, 46.58397149080758], [7.011328897329133, 46.583853702919725], [7.011137651326927, 46.58390326768656], [7.0109218152450365, 46.583990270734354], [7.010755573098503, 46.58406540570313], [7.010391452152778, 46.584100140804956], [7.010066159940828, 46.58414793972378], [7.009598327964168, 46.58417753084962], [7.009385694783944, 46.58416979994507], [7.009062834682844, 46.584219997594026], [7.008897852681391, 46.584210260360756], [7.008733393382562, 46.58418407188375], [7.0085185289117, 46.58419436716626], [7.008118901382702, 46.584097056387115], [7.008015393251931, 46.583996388537656], [7.007855000242706, 46.58388591523093], [7.007504634533931, 46.583805845137945], [7.007155062383729, 46.58374087177324], [7.006891164427827, 46.583655533359845], [7.00650942342345, 46.583459890367244], [7.005951701742118, 46.58331547150787], [7.005637223449934, 46.58319779562328], [7.005496864969466, 46.58309867629593], [7.005342784147054, 46.58292614419106], [7.005147993330132, 46.58272177369139], [7.004964542118624, 46.582556280580455], [7.004774253394218, 46.5821299217274], [7.00480953641955, 46.581989840904285], [7.005138450200597, 46.58184275941652], [7.005307150520532, 46.58182386454452], [7.005526793705103, 46.58172919638298], [7.00559482358118, 46.581614814875934], [7.005501372543798, 46.58151228488366], [7.005492776339487, 46.581414594380874], [7.005522130133421, 46.58128797513295], [7.005603049806111, 46.58104840466503], [7.005621294083973, 46.58094534757682], [7.005606055467151, 46.58072278090265], [7.005540223815731, 46.58060090776723], [7.00544368561537, 46.580501271679374], [7.005377682066692, 46.58028718285332], [7.005387110544472, 46.58014798334403], [7.005435502733143, 46.58008252654211], [7.0055097407920055, 46.58003149854498], [7.005559994706533, 46.579930749723545], [7.0058054570231265, 46.57969347132461], [7.005835863348453, 46.57963220073125], [7.005811319741067, 46.579183977403524], [7.005824143727718, 46.579049054854934], [7.005812865555625, 46.578892171938286], [7.005702811656034, 46.57876036984568], [7.005365953316366, 46.57872808497516], [7.0050856951352225, 46.57864136641885], [7.004785616449123, 46.57850172162263], [7.004445536528249, 46.57827840743491], [7.004156415041469, 46.57824949494984], [7.003736917660863, 46.57829143593631], [7.003546708390434, 46.57822865430093], [7.003438109883164, 46.578025681963645], [7.003452319608107, 46.57789109777846], [7.003549810313359, 46.57778913670275], [7.003625889354188, 46.57762286371006], [7.003653876235843, 46.57752366743741], [7.00363426607028, 46.577174567857234], [7.003482772546904, 46.57694289646629], [7.0035083570213175, 46.57686819522159], [7.003532989954662, 46.5766446025202], [7.003619874802388, 46.57649703730901], [7.003565372898383, 46.57632055743362], [7.003394687806166, 46.57608461114869], [7.003184700650328, 46.57581131657208], [7.003132967102789, 46.57564768403306], [7.003143286547739, 46.57536803817665], [7.003109130263907, 46.57515369243111], [7.00305827110882, 46.5749529831715], [7.002995558336262, 46.57479377927057], [7.002945955139241, 46.57458784805838], [7.0031458175602745, 46.57419490047338], [7.003117204271327, 46.57411651025927], [7.002117078219654, 46.57501972737769], [7.001585316515671, 46.575655476487654], [7.000681221798927, 46.57601757680808], [7.000062850475427, 46.576293965303705], [6.999080652872578, 46.576648734350634], [6.9979088351274585, 46.57700878443078], [6.9972589803993115, 46.57784879861957], [6.996756952706355, 46.578589979464404], [6.995920517009215, 46.57983982146069], [6.995703557248721, 46.58036612393617], [6.995317864452318, 46.58107177047021], [6.994729626033487, 46.58162693598911], [6.994326246865483, 46.58202043036212], [6.993517376374729, 46.582791354936575], [6.9933883424273136, 46.5832345140371], [6.993648580542063, 46.58365338833629], [6.993933708877409, 46.58380401571337], [6.994925511550438, 46.58495259145775], [6.995833048717917, 46.585799484870634], [6.99629565856556, 46.58610868155453], [6.996574023118217, 46.58615079460242], [6.996865481972192, 46.58733133174142], [6.997123623315528, 46.58842780600528], [6.996669840551869, 46.58867380010937], [6.996648010941057, 46.58929629813106], [6.996768296132562, 46.590141263661124], [6.9970157874784835, 46.59084730912772], [6.997309685181216, 46.591773522547044], [6.997335299603353, 46.59175766371865], [6.9973950236601645, 46.591839108635554], [6.997434501670296, 46.59202032712747], [6.997551710633583, 46.592118925378536], [6.997543813775249, 46.59225159000015], [6.997652480172418, 46.59241353859695], [6.997822015657812, 46.592533119864264], [6.997954840974369, 46.59265153284741], [6.99792645282728, 46.59280233388926], [6.997946982284439, 46.592840285408805], [6.998141970540501, 46.59301679975379], [6.998309456112312, 46.59328542997056], [6.998425714288606, 46.59334116803797], [6.99847652984925, 46.59339052606483], [6.998664136317295, 46.59351416980057], [6.99894811773821, 46.59363411135765], [6.99905939367153, 46.59372011803011], [6.9991250653119, 46.59383613752229], [6.999191544489818, 46.59385471900209], [6.999284100996066, 46.59398166440627], [6.999356379988536, 46.594026787480175], [6.99943650915576, 46.59403898076159], [6.999566872948326, 46.59412564565776], [6.999531089017896, 46.594222030785474], [6.999581174453847, 46.59425714573495], [6.999594501934157, 46.59435602368742], [6.999839836175946, 46.59450012015517], [6.999880568272432, 46.59459582970147], [7.000064374650841, 46.59481539575783], [7.000133604634327, 46.59485536111993], [7.000163251225031, 46.59491984877184], [7.000290167683174, 46.594994337240465], [7.000327198264149, 46.595091237875344], [7.0003018796708405, 46.5951765540229], [7.00041641416746, 46.59523800472416], [7.000464393283583, 46.595347811110535], [7.000554087269011, 46.59535875407936], [7.000554183954268, 46.59539504307971], [7.0005333376402135, 46.59546639718282], [7.000584147671114, 46.59554586315203], [7.000642346372015, 46.59594472206652], [7.0008501407383905, 46.59620353727682], [7.000883460621808, 46.5962369047252], [7.000791335158139, 46.59634519018993], [7.000945252632186, 46.59646997779011], [7.000938431867112, 46.59655140728027], [7.00105861482796, 46.5965846507858], [7.001106254793304, 46.59661433097944], [7.001346478816315, 46.59697354543197], [7.001432869742588, 46.59722477621498], [7.001581541433436, 46.59742407212603], [7.001672371401947, 46.597467591851654], [7.001704516824184, 46.59752526081178], [7.001607177323158, 46.597753447945486], [7.0017711519115124, 46.59788924820383], [7.0018476715212286, 46.59789027126087], [7.001948528682759, 46.59787375626983], [7.001966465917058, 46.597922986741956], [7.002273480656629, 46.59809199052412], [7.002362423969457, 46.59823020027939], [7.002400057137057, 46.59844523299041], [7.002554177769666, 46.59853966798139], [7.002602081942234, 46.598859719917506], [7.002734991006449, 46.598967764528844], [7.002677901948859, 46.59907168812798], [7.002761524425781, 46.59914677225646], [7.002923768222143, 46.59956217639473], [7.002931338591806, 46.599633127399514], [7.003147052337447, 46.59970312268358], [7.003168666134088, 46.599740096835355], [7.003129446529179, 46.59992607571089], [7.003282484134661, 46.600093928644064], [7.003336590206683, 46.60013637992616], [7.003220989354078, 46.60020842305007], [7.003221545557163, 46.600281748814375], [7.003201233179054, 46.60038575963961], [7.003218911948394, 46.60045106402273], [7.00317099128443, 46.60053149954434], [7.003231969917279, 46.600618262604755], [7.003225334393008, 46.60070298546632], [7.003333192043081, 46.60075917210688], [7.003442980789036, 46.60084294697554], [7.003433121243634, 46.600924499764396], [7.0035664994834645, 46.60119518698489], [7.003750127306773, 46.601329908226255], [7.003925777090196, 46.601550947681], [7.004253298822235, 46.60179897940535], [7.004415504147912, 46.60186833566885], [7.004505202293843, 46.60188021114291], [7.004587796779999, 46.60192497461685], [7.004754475482548, 46.601947831122686], [7.004803855177706, 46.602044335940306], [7.0049702685466135, 46.60214244018581], [7.004960107749489, 46.60219355961114], [7.00508272720373, 46.602284353353674], [7.005237437122525, 46.602484368883786], [7.005345785371249, 46.6025663286129], [7.005398919732564, 46.60268953759746], [7.005499551370164, 46.602796304481934], [7.005681988836411, 46.60291309827092], [7.005839233221445, 46.60340106513735], [7.0059421373225526, 46.6034607750053], [7.006013055342466, 46.60359642082113], [7.006037667426275, 46.603619651486774], [7.008211586412096, 46.60395140321515], [7.008728235331488, 46.604044541530754], [7.009015671090007, 46.60411262067421], [7.010125838369153, 46.604101946695394], [7.010227904214804, 46.60404782735468], [7.010609145903506, 46.60396969034379], [7.011611414779705, 46.603917251897926], [7.012646406392658, 46.6038080733885], [7.012754898949047, 46.60385860415053], [7.012799191547917, 46.60397331217766], [7.012799508902134, 46.60407364279056], [7.012911448344076, 46.60434551513548], [7.012877593686297, 46.60446420286906], [7.012960792458384, 46.60458587541829], [7.012927501885576, 46.604857905476955], [7.012975095623314, 46.604924948597244], [7.012959564637711, 46.605023995775774], [7.013006376541023, 46.60534878900488], [7.013057901103732, 46.60542227908709], [7.0130848637482135, 46.60565908258773], [7.013125149536688, 46.60584343740986], [7.012905162508221, 46.60597425492865], [7.012837893144268, 46.60599536712044], [7.012752053935329, 46.606073801757645], [7.015408283849625, 46.606731617837134], [7.014849212856784, 46.607721011872755], [7.014623456258874, 46.60768716373935], [7.014368753914795, 46.60766261646038], [7.014284817300073, 46.60797004222518], [7.0143112626486195, 46.60796835993286], [7.014530477811004, 46.608022496570634], [7.014804458690376, 46.60825488875283], [7.014936080882413, 46.60832347743429], [7.015153212408093, 46.60838556624425], [7.015320278999184, 46.60842695783522], [7.015449075742155, 46.60846817042899], [7.015570911228793, 46.60851491637007], [7.015724605708557, 46.60855048228762], [7.015837159167758, 46.60856915380638], [7.016088373927926, 46.60863960781817], [7.016258253917626, 46.608675296202996], [7.016338042697644, 46.608695878318976], [7.016410105388711, 46.608714632514356], [7.016480520625861, 46.608742079344005], [7.0165823642173875, 46.60877498648199], [7.016757440159736, 46.60880899320665], [7.016916226155883, 46.60886301759283], [7.016952581342899, 46.60888775582077], [7.016968756493635, 46.60897256418787], [7.017004375989278, 46.60901794474474], [7.017102852290713, 46.609089295389836], [7.017176846290232, 46.609180012668595], [7.01745395056338, 46.60933896033461], [7.01749759557437, 46.60938972296077], [7.017555705719219, 46.60942351039906], [7.017633133174474, 46.60945415801363], [7.0178025347331765, 46.60953988527042], [7.018121319168703, 46.609623880889764], [7.018353980035003, 46.609640745806146], [7.0184796131342235, 46.609684911866346], [7.018556297892534, 46.609683675421174], [7.018773557266971, 46.60961493357596], [7.0188592735633435, 46.609608827706026], [7.018972723764061, 46.60965356882561], [7.019106087215315, 46.609652163755115], [7.019176809676881, 46.60966226636881], [7.019294600075, 46.60968776348036], [7.019425193069923, 46.60970187426797], [7.019492309825512, 46.60972748994041], [7.01954017445782, 46.60974116015281], [7.019595375615691, 46.609741327933726], [7.019683406057846, 46.60972636024934], [7.019746622750517, 46.60973314237415], [7.019810647427741, 46.60976026677134], [7.019898987946447, 46.60976922850358], [7.019996405217211, 46.60973892142874], [7.020118180726406, 46.609792579897224], [7.020320448140033, 46.60980020714602], [7.020419118660329, 46.60984558507918], [7.020509022212408, 46.60986343088207], [7.02059469838065, 46.60986925176663], [7.020845743357351, 46.609919391349614], [7.020943730178068, 46.6099250594125], [7.021034168280543, 46.61000031717244], [7.021138894515359, 46.61004764183736], [7.02127474434385, 46.61007082844995], [7.021408971040548, 46.6101840108074], [7.021465476719304, 46.610207948952976], [7.021589954738894, 46.610226442696565], [7.021726769936381, 46.61027510810397], [7.021844589483115, 46.610339374099595], [7.021931583060375, 46.61034882416333], [7.022011068920099, 46.61033994023979], [7.022081289047136, 46.610361175809494], [7.022179375946564, 46.610418226593296], [7.022296929937233, 46.610457824929746], [7.022423266279671, 46.610479194148745], [7.022588419175584, 46.61051469375011], [7.022812404278016, 46.61056884088897], [7.022920399796932, 46.610573437542335], [7.023302223496201, 46.61062824235748], [7.023509924531681, 46.61063421074891], [7.023615214486769, 46.610629099382066], [7.023731557932542, 46.61065995689616], [7.023812441511472, 46.61064927780029], [7.023966061937858, 46.610685767767144], [7.024092169238282, 46.61069294819491], [7.024168139322887, 46.61070672809091], [7.024294709301955, 46.61079298197084], [7.024334165413483, 46.61080718610425], [7.024538580769562, 46.61079915220104], [7.02461047431302, 46.61084746947094], [7.024676719418122, 46.610864694801805], [7.02475093143012, 46.6108626804707], [7.024827856445537, 46.61077081816157], [7.024886404401521, 46.61076025472529], [7.02494300468897, 46.610790866421716], [7.024953571248848, 46.610861493967285], [7.024984992383269, 46.61090387014945], [7.025120492243084, 46.61095105137626], [7.025157899757028, 46.61098732323271], [7.0252142870383105, 46.61098618828445], [7.025248846729991, 46.61094614839461], [7.025284822441753, 46.610891675650514], [7.0253392425034855, 46.610869591547036], [7.025383109693629, 46.61087035387342], [7.025415342241837, 46.610880150592685], [7.025452835650065, 46.6109290795963], [7.02558589125026, 46.61094437973562], [7.025658421611851, 46.61092163265895], [7.025730486607562, 46.61088635287165], [7.02584869882026, 46.610777395390606], [7.025873734963398, 46.61073314673032], [7.02592637014294, 46.61071567060175], [7.025954361958521, 46.610726954018865], [7.026001617538011, 46.610791525806775], [7.02603756160572, 46.61085192747227], [7.026088722563458, 46.61087528627245], [7.026120939476984, 46.61087690563727], [7.026169983239108, 46.610852831491904], [7.026202887822928, 46.610783333487014], [7.026200912764638, 46.61072584394306], [7.026233549143287, 46.61067944586334], [7.026284076516471, 46.61068152750551], [7.026347254800723, 46.610700414048765], [7.0264707245551214, 46.6107674753411], [7.026564553844805, 46.61074352766422], [7.026674354973152, 46.610665654809004], [7.026693470646841, 46.61066325034009], [7.026778582167486, 46.61067488473046], [7.026872303033005, 46.61066509563749], [7.026877110155641, 46.610645862473405], [7.02682721680526, 46.61064793037244], [7.026714336857416, 46.61042159515651], [7.027459625282978, 46.610248747026546], [7.028391780688181, 46.60986500937722], [7.028857937000524, 46.60964754072032], [7.0290518205092125, 46.60954235250565], [7.0294249843038585, 46.60927620311534], [7.029856881372705, 46.60944061648564], [7.029970843286669, 46.609489594379], [7.030047553511897, 46.609527967169846], [7.030799939464583, 46.60998219251924], [7.030813466798053, 46.60999891008984], [7.030817585781699, 46.610013488864304], [7.030815683788192, 46.61002851378503], [7.030805050687286, 46.61004332743202], [7.0308853026434095, 46.6099898666565], [7.030894365551573, 46.60999453198342], [7.031672238812252, 46.61049460415747], [7.032005715337588, 46.61066430615064], [7.032500413589138, 46.61034958267514], [7.033473517117516, 46.611048389286864], [7.032915765598354, 46.61141381592372], [7.033023406516986, 46.61179198273426], [7.033164674342086, 46.612168623556435], [7.033355850640617, 46.61249651508865], [7.033344017842257, 46.612773350638015], [7.033301133009842, 46.612848302336644], [7.033351656297788, 46.61286166154359], [7.033711776406829, 46.61258925475298], [7.033863007821158, 46.6124639353048], [7.034029308035101, 46.61265608978197], [7.0340037320586735, 46.61293121153019], [7.033753530343609, 46.61293230877202], [7.033724081740688, 46.61312497147097], [7.033927416974697, 46.61314867068755], [7.03395880417648, 46.61339487688119], [7.033963684880629, 46.613468109991686], [7.034046514707323, 46.61369578845688], [7.034151580549469, 46.61405170760098], [7.034384515627466, 46.614024740680534], [7.034407233005101, 46.61414965405061], [7.034940785364962, 46.614078948526924], [7.035575099024138, 46.61397908380411], [7.036352528503576, 46.613866454200306], [7.036560480364323, 46.616423451944954], [7.035294256812421, 46.61594560824669], [7.034849495167483, 46.615976672617826], [7.0345580171565585, 46.61607816877299], [7.03422880819257, 46.616874012676874], [7.034411327364073, 46.61700311037482], [7.037513077750973, 46.61777497445988], [7.035969719299244, 46.62008580239717], [7.033466664302731, 46.619397589070374], [7.033037637831787, 46.619811125756016], [7.032327551677706, 46.621558125968306], [7.033235204911652, 46.62151443990731], [7.034485321497526, 46.621510549355435], [7.03492875541912, 46.62149902936675], [7.034716163120138, 46.62175141020331], [7.0345439383981425, 46.62191513010686], [7.034354860900314, 46.6220713683701], [7.034154529345414, 46.62221521515292], [7.033348788834669, 46.62274421048315], [7.03310112064118, 46.622895236022984], [7.0329544734864085, 46.62300407240075], [7.0327418578609135, 46.62322121438595], [7.032587161754146, 46.623476191864675], [7.0325495906567745, 46.623655610851216], [7.0325115384921295, 46.623709979366076], [7.032441237794042, 46.62374163557632], [7.0325606554531594, 46.62374145073531], [7.032661431805688, 46.62404408295899], [7.032694292161495, 46.62411040843706], [7.032734465975393, 46.6241747899837], [7.03286973349226, 46.62433788783429], [7.03290974823923, 46.62438009448067], [7.033003528237597, 46.624457378324244], [7.0330567094793395, 46.624491985658246], [7.033332622947251, 46.62463663142631], [7.033633614249351, 46.62475428913076], [7.0338150191041535, 46.62469812968066], [7.034006189875668, 46.624723621125895], [7.033747564630831, 46.62479913408404], [7.034958411109126, 46.62527184117756], [7.035136659265794, 46.625333789297194], [7.035399236407476, 46.62540192884243], [7.036421547963147, 46.625903041586476], [7.036776698141546, 46.62608592146292], [7.036246037546451, 46.62653894373967], [7.033947616929558, 46.62847734532069], [7.033709442463457, 46.62865080228086], [7.033854304866764, 46.628795294217134], [7.033959983310513, 46.62896906217299], [7.034018594129225, 46.629213359158854], [7.034091408959014, 46.6293416177876], [7.034179139680113, 46.62943117623845], [7.0344098297987445, 46.6295190935962], [7.034677137082731, 46.629592882698915], [7.034856383246064, 46.62966813017443], [7.0351556094378696, 46.62984608436822], [7.035222868405839, 46.629883196539865], [7.035050511093869, 46.630010844590444], [7.035003515419131, 46.63003690002531], [7.034943134513577, 46.63008566669033], [7.0348531675506, 46.63015307515353], [7.034808360485223, 46.630183267195015], [7.034742720638167, 46.63024547276053], [7.034589102804071, 46.630377927475514], [7.0344820776937285, 46.63045967704078], [7.034434433122887, 46.63047464711147], [7.0343285268184745, 46.63058128268641], [7.0342835751524815, 46.630606292477395], [7.034246995576047, 46.6306049657247], [7.034217593859072, 46.630593778457055], [7.0341747686047675, 46.630596450640326], [7.034121494812065, 46.6306202433679], [7.034059996312271, 46.63062290314579], [7.033969719841547, 46.630571306462215], [7.0339368627857155, 46.630580301955945], [7.033861641730088, 46.6306192008061], [7.034130696820526, 46.63076002445869], [7.034663460771729, 46.63113515962683], [7.034945530641954, 46.63134164129082], [7.035198379889721, 46.63155304701261], [7.035457971707546, 46.63175718086529], [7.035437793398613, 46.63178022800134], [7.035373145271048, 46.63181444286332], [7.035296645425419, 46.631840942436995], [7.035244947393425, 46.6318878870494], [7.03520629980972, 46.63193068604009], [7.035157897317103, 46.63196476957043], [7.035089340761292, 46.63200817299963], [7.035064101116361, 46.63204616196219], [7.0350215298545296, 46.63206881464664], [7.034949232299294, 46.63208163742738], [7.034787295256528, 46.63210204879543], [7.034669349844819, 46.63212980364045], [7.034585366589302, 46.63214584105696], [7.034499401130086, 46.63218067240494], [7.03445648664154, 46.63216548809486], [7.034409684310027, 46.63216024794777], [7.034361083721833, 46.63215972416845], [7.034246104522031, 46.63216634076665], [7.034194363327081, 46.632175386140254], [7.034128004098227, 46.63219034340398], [7.034087066873992, 46.63218314509605], [7.034019101755762, 46.63214416788563], [7.0339819910125385, 46.63211780435378], [7.033951268034944, 46.632089430531], [7.033929575309903, 46.632056689977006], [7.0338581133890745, 46.63202429381685], [7.033800047749212, 46.632014758332815], [7.033722623374357, 46.63199557349879], [7.0336978377143105, 46.63197649526968], [7.033657658630895, 46.631970954594244], [7.03361390482945, 46.631971923069], [7.033524406612749, 46.6320058864598], [7.033438629972993, 46.632041581119005], [7.033295501750876, 46.63205441111845], [7.033298173125393, 46.63208815445871], [7.033276610938824, 46.63213012327518], [7.0332830657892424, 46.6321695655937], [7.033195817498934, 46.63225676421835], [7.033187434863234, 46.63228093277504], [7.0331144847797615, 46.63232137784552], [7.033095844419882, 46.63235161777777], [7.033070111831054, 46.63236987706685], [7.0330190733596485, 46.632389602245105], [7.032967704896175, 46.6323889780677], [7.0329066639704685, 46.632399950697106], [7.032821100244177, 46.632431525790174], [7.032707303304522, 46.632516829844384], [7.03267554049154, 46.63255719674252], [7.032678605667191, 46.63259235381028], [7.032574319913415, 46.6327168769788], [7.032514695415738, 46.63277032322463], [7.032447270495208, 46.63285551433728], [7.03239882222999, 46.632857221172294], [7.032349670278055, 46.632874326138435], [7.032320353792072, 46.63291234503456], [7.032233468405643, 46.632912951811136], [7.032178675385091, 46.63292825530872], [7.032002958175617, 46.63299360093955], [7.032002786606552, 46.63302846770461], [7.03197363941528, 46.63306996846298], [7.031903775529835, 46.633095761084235], [7.031832370020704, 46.63311297517548], [7.031840030004996, 46.63316909075182], [7.031798751693418, 46.63318105100199], [7.031751330661535, 46.63320234500557], [7.031702558009754, 46.63328674765287], [7.031688134757379, 46.633325602232894], [7.031706930313245, 46.633390843292126], [7.031644523311738, 46.63345628816269], [7.031611231980834, 46.633505213288004], [7.03156322443343, 46.63354185154965], [7.031518051468808, 46.633592218457316], [7.031455549155991, 46.633646013422165], [7.031445079385502, 46.633697395259645], [7.0314672837417165, 46.633722806691864], [7.031467955982915, 46.633753088473746], [7.031425965308932, 46.63377803590316], [7.031417164270646, 46.63381767522849], [7.031343992582611, 46.63385069686416], [7.031279592651, 46.63385487391389], [7.0312416685059125, 46.63392056814867], [7.031208013916358, 46.633953551605416], [7.031213198712401, 46.63398978680578], [7.031284748714772, 46.63401067961575], [7.031327749547447, 46.63404910155229], [7.0313334264170475, 46.63411008554622], [7.031303387291882, 46.63416058750422], [7.031322348032102, 46.634209133237604], [7.0312870321865395, 46.63424763399121], [7.031248724086199, 46.63427771303528], [7.031240710453249, 46.63432027886166], [7.031209551390457, 46.634323702471505], [7.031181507556409, 46.63434344630923], [7.031197821742043, 46.63437584428511], [7.031180573686111, 46.634418610942056], [7.03115737287962, 46.63444551471084], [7.03115357184957, 46.634502614623514], [7.031166545339405, 46.63452950423394], [7.031214573620982, 46.63455076268618], [7.031226228429755, 46.63457243001729]]]]}}]}