{"type": "FeatureCollection", "features": [{"type": "Feature", "properties": {"bfs_nummer": 2131}, "geometry": {"type": "MultiPolygon", "coordinates": [[[[7.0988652800779874, 46.635870892708944], [7.092200146933986, 46.63615680455417], [7.091153437515433, 46.63592732497205], [7.091110590992245, 46.63600798357674], [7.089637184656501, 46.63570293779388], [7.085291128984935, 46.634289369700255], [7.08437499702047, 46.63407349866118], [7.0841179029386465, 46.63389096835701], [7.083983789421555, 46.63380725096114], [7.083643173194979, 46.634129487579045], [7.083301405286318, 46.63451896356299], [7.083038949572878, 46.6348776707355], [7.082788387934774, 46.63508800421344], [7.082245197182507, 46.63522987045361], [7.081418910657422, 46.63523050384474], [7.08099331134678, 46.63542607825055], [7.080776744611438, 46.635530555421894], [7.080575814175888, 46.635659728493636], [7.080034615145358, 46.6356810753455], [7.078962565410123, 46.635734689347466], [7.078932395691878, 46.63571154697918], [7.078546588598513, 46.63534076631419], [7.077907471940785, 46.63560211187511], [7.077478583722093, 46.63695770187772], [7.076568517229326, 46.63694475562405], [7.076514861344857, 46.636934005706486], [7.0763859423353415, 46.636965861738204], [7.0761604953556505, 46.63694957084933], [7.075630078026376, 46.63713239420635], [7.075283983248836, 46.63732134701752], [7.076216299882163, 46.63857388882909], [7.07488130529834, 46.63879306403294], [7.074853426884982, 46.63926603680944], [7.072400841255761, 46.64027018686115], [7.07269739811528, 46.64058134815295], [7.073072401529907, 46.64102909855949], [7.070746406645004, 46.64256114166075], [7.070415578260854, 46.64283824952149], [7.070142171796448, 46.643049380436175], [7.0700450583891294, 46.64312980005621], [7.069045081836718, 46.64400139110765], [7.06841064236559, 46.64438328383159], [7.068377571620707, 46.64434697750418], [7.06818871880138, 46.64445831303538], [7.067990429677305, 46.64475248867064], [7.06835471121061, 46.645612687017525], [7.068152700791556, 46.64569748836313], [7.0667085963524325, 46.6462705122064], [7.067208453253508, 46.646932076323196], [7.063946132831706, 46.64812886950438], [7.0645799363872, 46.64858285434181], [7.065526053855683, 46.649397137714836], [7.065831956335781, 46.649673165390354], [7.066097698107051, 46.64991073934218], [7.06725146004145, 46.65110982031911], [7.067410248442675, 46.6513005968249], [7.069896466795019, 46.650427800125186], [7.070118056533064, 46.65074083838695], [7.070147696902398, 46.650815292369614], [7.070130647581742, 46.65088619452449], [7.070068382101328, 46.650990161758884], [7.069994148529789, 46.651040970939185], [7.0699524195649595, 46.651064583908635], [7.069925784189123, 46.65109692664392], [7.069917783776272, 46.65113400761072], [7.069945660142962, 46.65121042594125], [7.0699326331142425, 46.651249010843706], [7.070159039110778, 46.65103244752414], [7.070288869469294, 46.65113827038373], [7.070408322468962, 46.65114747338943], [7.070480147308474, 46.65116997940591], [7.070664681401458, 46.651098954415666], [7.070915980100089, 46.65145277432261], [7.071198713136324, 46.651885038289386], [7.0714728176641435, 46.65232851826906], [7.07198178197274, 46.653183100244824], [7.072223741516431, 46.65354515400899], [7.072599179430077, 46.65412812020385], [7.0746207165712, 46.65345751713994], [7.075458917073123, 46.65315728880859], [7.075467927695099, 46.65313842689415], [7.075543964783374, 46.653077481842864], [7.07568688724743, 46.65288098873392], [7.0757665932716876, 46.65280472664353], [7.075811755588476, 46.652728938918024], [7.075836016648365, 46.652635606013696], [7.07589955873006, 46.65250171125477], [7.075976990897603, 46.65251079224389], [7.0760991714336114, 46.65256756684549], [7.076140536737682, 46.65263849438223], [7.076158863996684, 46.65272985839601], [7.076162905075779, 46.652835938593476], [7.076156818051986, 46.65306481240135], [7.076180970402191, 46.65318938876032], [7.076244371356168, 46.65337925468592], [7.076746537593402, 46.653207376202], [7.077174978524959, 46.6531120851774], [7.077252038732772, 46.65308528984254], [7.0773664407734325, 46.65322897208792], [7.077527335532386, 46.65336905988324], [7.07778681798169, 46.653574373065446], [7.078008122352869, 46.65377881773242], [7.078085669803341, 46.653886102649146], [7.078600138839445, 46.65465033802131], [7.078721637083781, 46.65502726151254], [7.078793149229977, 46.65516235035495], [7.079144669146397, 46.65567696028538], [7.079202567503986, 46.655792872142406], [7.079211934224951, 46.65597882271803], [7.079257273319247, 46.65623636659561], [7.079289218958648, 46.656365131981865], [7.079333928081903, 46.656409846940804], [7.079375819363292, 46.6565204995171], [7.0794003267753185, 46.656708738253116], [7.079368503487082, 46.65700407152516], [7.079375917506578, 46.65720479609585], [7.079503247022646, 46.657737478130365], [7.079641030114706, 46.658009707219435], [7.079838727449315, 46.658288287228494], [7.079951535898804, 46.658509098820005], [7.080040597749305, 46.65861542934517], [7.0801496998224955, 46.658712251736986], [7.080376552593995, 46.65884135296835], [7.080461010456037, 46.65896439176065], [7.080501303454994, 46.6591293905038], [7.080554678668966, 46.65926044506425], [7.08070384271942, 46.659488711332095], [7.080729640827142, 46.659517110846664], [7.080961245310372, 46.6595728308944], [7.081330056709214, 46.65973773968517], [7.081684822953723, 46.659875364312704], [7.082542168633432, 46.66014103503823], [7.082628267527629, 46.66018686789171], [7.083154818853662, 46.66033136799807], [7.083824153095006, 46.66034707247824], [7.084147274615775, 46.660361233580204], [7.084695236645472, 46.660292579901025], [7.085157336619129, 46.660358338187194], [7.085570052263273, 46.66044366833553], [7.086339084834833, 46.66061194369821], [7.088563987148691, 46.66072927881355], [7.088591919577578, 46.66007633643044], [7.089066338245053, 46.65967198839277], [7.088868293304156, 46.65939658093027], [7.089637156361836, 46.659086374890634], [7.090465024517837, 46.65899238187118], [7.091899622827618, 46.658930278121346], [7.093678357625024, 46.658095415373666], [7.095087033037917, 46.658556013578526], [7.095076430631184, 46.65848540200495], [7.095029420051541, 46.657984303646195], [7.0950257656804885, 46.65753748098129], [7.095058220886088, 46.65705811351906], [7.0951231492242695, 46.656608169938536], [7.0952360700051225, 46.6561303951245], [7.095312365013929, 46.655905285939], [7.095599812735626, 46.655363314923356], [7.095624596594531, 46.655289355966275], [7.096110067766687, 46.65313696767892], [7.0963990850086525, 46.6513847753518], [7.0946667809070965, 46.64603195621339], [7.096100425998894, 46.64069810480867], [7.097524346435211, 46.638522925777075], [7.0988652800779874, 46.635870892708944]]], [[[7.031226228429755, 46.63457243001729], [7.031214573620982, 46.63455076268618], [7.031166545339405, 46.63452950423394], [7.03115357184957, 46.634502614623514], [7.03115737287962, 46.63444551471084], [7.031180573686111, 46.634418610942056], [7.031197821742043, 46.63437584428511], [7.031181507556409, 46.63434344630923], [7.031209551390457, 46.634323702471505], [7.031240710453249, 46.63432027886166], [7.031248724086199, 46.63427771303528], [7.0312870321865395, 46.63424763399121], [7.031322348032102, 46.634209133237604], [7.031303387291882, 46.63416058750422], [7.0313334264170475, 46.63411008554622], [7.031327749547447, 46.63404910155229], [7.031284748714772, 46.63401067961575], [7.031213198712401, 46.63398978680578], [7.031208013916358, 46.633953551605416], [7.0312416685059125, 46.63392056814867], [7.031279592651, 46.63385487391389], [7.031343992582611, 46.63385069686416], [7.031417164270646, 46.63381767522849], [7.031425965308932, 46.63377803590316], [7.031467955982915, 46.633753088473746], [7.0314672837417165, 46.633722806691864], [7.031445079385502, 46.633697395259645], [7.031455549155991, 46.633646013422165], [7.031518051468808, 46.633592218457316], [7.03156322443343, 46.63354185154965], [7.031611231980834, 46.633505213288004], [7.031644523311738, 46.63345628816269], [7.031706930313245, 46.633390843292126], [7.031688134757379, 46.633325602232894], [7.031702558009754, 46.63328674765287], [7.031751330661535, 46.63320234500557], [7.031798751693418, 46.63318105100199], [7.031840030004996, 46.63316909075182], [7.031832370020704, 46.63311297517548], [7.031903775529835, 46.633095761084235], [7.03197363941528, 46.63306996846298], [7.032002786606552, 46.63302846770461], [7.032002958175617, 46.63299360093955], [7.032178675385091, 46.63292825530872], [7.032233468405643, 46.632912951811136], [7.032320353792072, 46.63291234503456], [7.032349670278055, 46.632874326138435], [7.03239882222999, 46.632857221172294], [7.032447270495208, 46.63285551433728], [7.032514695415738, 46.63277032322463], [7.032574319913415, 46.6327168769788], [7.032678605667191, 46.63259235381028], [7.03267554049154, 46.63255719674252], [7.032707303304522, 46.632516829844384], [7.032821100244177, 46.632431525790174], [7.0329066639704685, 46.632399950697106], [7.032967704896175, 46.6323889780677], [7.0330190733596485, 46.632389602245105], [7.033070111831054, 46.63236987706685], [7.033095844419882, 46.63235161777777], [7.0331144847797615, 46.63232137784552], [7.033187434863234, 46.63228093277504], [7.033195817498934, 46.63225676421835], [7.0332830657892424, 46.6321695655937], [7.033276610938824, 46.63213012327518], [7.033298173125393, 46.63208815445871], [7.033295501750876, 46.63205441111845], [7.033438629972993, 46.632041581119005], [7.033524406612749, 46.6320058864598], [7.03361390482945, 46.631971923069], [7.033657658630895, 46.631970954594244], [7.0336978377143105, 46.63197649526968], [7.033722623374357, 46.63199557349879], [7.033800047749212, 46.632014758332815], [7.0338581133890745, 46.63202429381685], [7.033929575309903, 46.632056689977006], [7.033951268034944, 46.632089430531], [7.0339819910125385, 46.63211780435378], [7.034019101755762, 46.63214416788563], [7.034087066873992, 46.63218314509605], [7.034128004098227, 46.63219034340398], [7.034194363327081, 46.632175386140254], [7.034246104522031, 46.63216634076665], [7.034361083721833, 46.63215972416845], [7.034409684310027, 46.63216024794777], [7.03445648664154, 46.63216548809486], [7.034499401130086, 46.63218067240494], [7.034585366589302, 46.63214584105696], [7.034669349844819, 46.63212980364045], [7.034787295256528, 46.63210204879543], [7.034949232299294, 46.63208163742738], [7.0350215298545296, 46.63206881464664], [7.035064101116361, 46.63204616196219], [7.035089340761292, 46.63200817299963], [7.035157897317103, 46.63196476957043], [7.03520629980972, 46.63193068604009], [7.035244947393425, 46.6318878870494], [7.035296645425419, 46.631840942436995], [7.035373145271048, 46.63181444286332], [7.035437793398613, 46.63178022800134], [7.035457971707546, 46.63175718086529], [7.035198379889721, 46.63155304701261], [7.034945530641954, 46.63134164129082], [7.034663460771729, 46.63113515962683], [7.034130696820526, 46.63076002445869], [7.033861641730088, 46.6306192008061], [7.0339368627857155, 46.630580301955945], [7.033969719841547, 46.630571306462215], [7.034059996312271, 46.63062290314579], [7.034121494812065, 46.6306202433679], [7.0341747686047675, 46.630596450640326], [7.034217593859072, 46.630593778457055], [7.034246995576047, 46.6306049657247], [7.0342835751524815, 46.630606292477395], [7.0343285268184745, 46.63058128268641], [7.034434433122887, 46.63047464711147], [7.0344820776937285, 46.63045967704078], [7.034589102804071, 46.630377927475514], [7.034742720638167, 46.63024547276053], [7.034808360485223, 46.630183267195015], [7.0348531675506, 46.63015307515353], [7.034943134513577, 46.63008566669033], [7.035003515419131, 46.63003690002531], [7.035050511093869, 46.630010844590444], [7.035222868405839, 46.629883196539865], [7.0351556094378696, 46.62984608436822], [7.034856383246064, 46.62966813017443], [7.034677137082731, 46.629592882698915], [7.0344098297987445, 46.6295190935962], [7.034179139680113, 46.62943117623845], [7.034091408959014, 46.6293416177876], [7.034018594129225, 46.629213359158854], [7.033959983310513, 46.62896906217299], [7.033854304866764, 46.628795294217134], [7.033709442463457, 46.62865080228086], [7.033668502184391, 46.62862698869994], [7.033617994882605, 46.628604328356005], [7.033563626047957, 46.62858641298403], [7.033512801176334, 46.62857474419289], [7.033406983191343, 46.62856394060993], [7.0332644450684105, 46.62856896420037], [7.033184919488881, 46.6285798078947], [7.03310045666784, 46.62859950360761], [7.032618042894321, 46.628754286137344], [7.032528967351662, 46.62876742511701], [7.032443956498513, 46.62876621250789], [7.032336134813718, 46.62873711260278], [7.032245957791281, 46.628695445794975], [7.0321721947692994, 46.62864684813622], [7.032025789454735, 46.62851192885608], [7.031886898196562, 46.62842650343458], [7.0316049899396535, 46.62829032446653], [7.031448860013905, 46.628260672700364], [7.030957462694091, 46.628254681591486], [7.030897151852704, 46.6282629120172], [7.030808064082334, 46.62824320640822], [7.030692093733049, 46.62828347765857], [7.030623175533422, 46.628319590536215], [7.030489728751438, 46.628348401014435], [7.030201597031293, 46.62849121522808], [7.029986782056846, 46.628687618745445], [7.029946042614074, 46.62879940544086], [7.029899761798353, 46.62881537715427], [7.029670345341335, 46.628760595424204], [7.029265554057403, 46.62869997269738], [7.02916601374411, 46.628696546366214], [7.029080565620299, 46.62876836558529], [7.028519864368035, 46.62906801231377], [7.028018224507618, 46.629380617223646], [7.02741529739, 46.62940771681806], [7.027153198133047, 46.62947069038987], [7.0267789753011, 46.62950026021466], [7.025889632685525, 46.62949978498763], [7.02536142477881, 46.62952477970227], [7.025082292271907, 46.629727714276214], [7.025115932155574, 46.62974616098554], [7.025020599863299, 46.62983225322602], [7.024794072145048, 46.630190464359885], [7.024657647631833, 46.630231932218415], [7.02452419705606, 46.630416604395975], [7.024576075903558, 46.630571582975534], [7.024521048934952, 46.6307244713604], [7.024395900382361, 46.63082097996408], [7.024259720595551, 46.63087452034318], [7.0242137296795715, 46.630969536056924], [7.024155720929791, 46.63102767934166], [7.024145333617398, 46.63133756161425], [7.0241875081283025, 46.63148764717276], [7.024269378873034, 46.63162948418661], [7.024231719213221, 46.631850137236135], [7.024198529347161, 46.63201251442317], [7.024087896552468, 46.63220093024327], [7.023896347918117, 46.632388006871416], [7.0238313168645075, 46.632599914934396], [7.023829908116261, 46.632799947059596], [7.023593588944778, 46.6329516055471], [7.023128849737186, 46.63294469867884], [7.022845139558364, 46.632933595058674], [7.022470323988076, 46.6331094752297], [7.022814596380645, 46.63337358943896], [7.023032757664483, 46.63354827335949], [7.023573444702129, 46.63387179198736], [7.023982962100155, 46.63412518414913], [7.024096199584002, 46.63423027090418], [7.024709537901068, 46.63447519210148], [7.025205522729513, 46.634683791431506], [7.025484977970822, 46.63479643587869], [7.025784508161844, 46.634942967237315], [7.025913864874728, 46.63502096203229], [7.0260953065331995, 46.63511536296129], [7.0261740380480875, 46.63500152960206], [7.026385868866116, 46.63484345210717], [7.026480840669382, 46.63478314780369], [7.026600077284946, 46.63473640695801], [7.026777260089002, 46.63452194505614], [7.026937087865117, 46.634519150881275], [7.027085522138899, 46.634479495943346], [7.027311975406746, 46.63431453480415], [7.027484715016788, 46.63420258801084], [7.0274864995064545, 46.63409360242122], [7.0276571579159715, 46.634052381127994], [7.027889447670395, 46.634000210255415], [7.028390871122872, 46.63407522946246], [7.028925723880006, 46.634160954091996], [7.0292654808250825, 46.634357529348684], [7.0294595408987774, 46.634596677123206], [7.029794127400845, 46.63463196724233], [7.030296240498787, 46.634780707839646], [7.031226228429755, 46.63457243001729]]]]}}]}