{"type": "FeatureCollection", "features": [{"type": "Feature", "properties": {"bfs_nummer": 2173}, "geometry": {"type": "MultiPolygon", "coordinates": [[[[7.006583615081947, 46.73278021804539], [7.0065764794154966, 46.73288033087365], [7.006583604555528, 46.732908667067875], [7.006548492863427, 46.733177043953646], [7.006509727081955, 46.733397074519225], [7.006952954029228, 46.733440442116134], [7.007464123269525, 46.73352139780897], [7.007632352257251, 46.73355687558728], [7.007879457507151, 46.73358620160052], [7.008190175183288, 46.733667717294935], [7.008173771702005, 46.73367715464878], [7.008672296366088, 46.73384116680774], [7.009197141188117, 46.733968358599235], [7.009381034312916, 46.733997154896066], [7.009857541723258, 46.73409937838189], [7.012114817231279, 46.73460733492307], [7.012420757422004, 46.73473025465262], [7.0110387874824776, 46.736772940733445], [7.0113580645818585, 46.73684711172752], [7.012802071173504, 46.73816877076947], [7.012633703905208, 46.73878795524648], [7.0123844618382565, 46.73963593640543], [7.01227885967255, 46.74001169177042], [7.01208463347648, 46.74064295847776], [7.011846530935861, 46.74152448801829], [7.011788167527046, 46.741523243576964], [7.011792332416213, 46.741798155746935], [7.011755367521715, 46.74234874568013], [7.0116744903897725, 46.74235319195908], [7.010992909611355, 46.74231198789004], [7.010470900238501, 46.74225512501024], [7.010297838140671, 46.74224456065074], [7.010170095065376, 46.74280337957154], [7.009985097202848, 46.7434757496091], [7.009674782935934, 46.743841536840236], [7.009463555716004, 46.74390334948614], [7.009337287237166, 46.74415951722476], [7.009030705569882, 46.744874417012475], [7.008929487775677, 46.74514920060223], [7.008737931439092, 46.74563396852005], [7.008431997336203, 46.74631995846166], [7.008316162209096, 46.746679056047014], [7.008122145594406, 46.74712157926686], [7.0079082077043635, 46.747542887280055], [7.007726177220774, 46.7478475980684], [7.007528256506593, 46.748114817357006], [7.00726634577483, 46.748187030587445], [7.0069768078133094, 46.74844506739149], [7.006683233972007, 46.74866918389782], [7.00650804164269, 46.74878277130602], [7.006555845518191, 46.74881734286447], [7.005951922213366, 46.74931942932873], [7.005596987804447, 46.749541835302416], [7.0055491128682865, 46.749600574076325], [7.005277412806389, 46.74984051360936], [7.004969623034106, 46.74999673692388], [7.004278966126406, 46.75072280029383], [7.003904000964047, 46.75107997659838], [7.003650519698029, 46.75136964510722], [7.003461968186834, 46.7515067989636], [7.003049132229029, 46.75166164309384], [7.002771581124066, 46.75186017350991], [7.002743889715024, 46.7518841035729], [7.002846443231911, 46.752423681021696], [7.0032617659384675, 46.753050282472856], [7.004116827655824, 46.75381710199777], [7.004929088689292, 46.75425292257377], [7.005239308378301, 46.75438932545907], [7.006019673530292, 46.75467269461401], [7.005903764402438, 46.75478300727387], [7.00638953787419, 46.75477223230673], [7.007456261833814, 46.754734538606066], [7.008089952809224, 46.75467400433833], [7.009237863032549, 46.75431321969976], [7.009575884574964, 46.754096468658695], [7.010611139941551, 46.753419429212705], [7.011043603682321, 46.75369355738167], [7.01189461539601, 46.75417782453337], [7.011995216938747, 46.75424649593083], [7.014028365736686, 46.75469296487434], [7.015517251260875, 46.754633435654505], [7.015497788609203, 46.75390014523149], [7.015762257576154, 46.753143766294876], [7.01584374634509, 46.75287213302854], [7.015993870600393, 46.75265176005661], [7.016011526367201, 46.75266172969294], [7.016197799991735, 46.75246446567746], [7.016447480030288, 46.752190966176094], [7.016607245213175, 46.7520024013753], [7.017003817228716, 46.75155872773137], [7.017250054911156, 46.75167145407972], [7.017522854130037, 46.751758415987496], [7.0177455847573995, 46.75176794741239], [7.018031266353285, 46.75180268241721], [7.01876060829583, 46.751239266227195], [7.018958857223873, 46.75104669183515], [7.019097689010116, 46.750788509368], [7.019227794646124, 46.7504239842798], [7.019350229769681, 46.75046056136543], [7.019755052392999, 46.75001837318122], [7.019881511201194, 46.749886109142444], [7.0200275868941295, 46.74960087526595], [7.020115342055043, 46.74933282433599], [7.020510918310887, 46.74936920770197], [7.020514434051322, 46.74875725291333], [7.020675246506528, 46.748479575525714], [7.020809621065272, 46.74819019640303], [7.020970574592862, 46.747765909531935], [7.021099755835987, 46.747590412652265], [7.0211637547662935, 46.74759483035151], [7.021247149597201, 46.747400148561006], [7.021292590358215, 46.74728330993039], [7.021370134996036, 46.74705480080569], [7.021408975158565, 46.74695032466737], [7.021569160067098, 46.74664250755451], [7.021648491882796, 46.746397606129214], [7.021711954984126, 46.746146916531885], [7.021707823397093, 46.746065437684535], [7.021192613314293, 46.74594586866259], [7.020543887658353, 46.74578401318742], [7.020661306174069, 46.74561455417479], [7.02096966960695, 46.745302910427846], [7.0213640747277175, 46.74502107799791], [7.02170212509175, 46.74480874451766], [7.021786066348641, 46.744758829818565], [7.021726408660147, 46.744748509194245], [7.021471185646425, 46.74444230891504], [7.021673168107575, 46.74426669132976], [7.021872531821747, 46.74430384488731], [7.0219659518851465, 46.74409953795943], [7.022870286697063, 46.744221758424786], [7.023401587807693, 46.744286019703885], [7.024309351683555, 46.744366474238696], [7.025185897352019, 46.74441258879882], [7.025920869027199, 46.74437326493881], [7.026807318518158, 46.744245545379414], [7.027201171658004, 46.744198420933785], [7.027182670182367, 46.74413146295842], [7.027277844389708, 46.74411939319806], [7.0272810948451, 46.74413240354462], [7.0294982861394955, 46.74362817996383], [7.029990776582404, 46.74371484990883], [7.0303675379068835, 46.743770499566], [7.030739591800578, 46.7438292435414], [7.030985416971444, 46.743876424660904], [7.031786845363051, 46.74401279617744], [7.032608976042688, 46.74413924186513], [7.034120017799628, 46.744089949219116], [7.034371457660377, 46.744181077339356], [7.034926822971874, 46.74353260768721], [7.035231547529197, 46.74323466715896], [7.035452906524602, 46.74299177102929], [7.035498267816136, 46.74300833972793], [7.035933940305599, 46.74307110653948], [7.036031327954314, 46.74326101496011], [7.036153071655991, 46.74335612419622], [7.036292373235676, 46.74347794024654], [7.036320962935869, 46.74348702793919], [7.036469886655813, 46.743428156745225], [7.037363610114484, 46.74329520016173], [7.038829257269285, 46.74382303032877], [7.039010180674403, 46.74397453053025], [7.039153859037729, 46.744080723828574], [7.040000186334756, 46.74469296882036], [7.040209733280684, 46.744841139636414], [7.040258824934468, 46.744852690861904], [7.0409433690403675, 46.745050557486984], [7.04123613884827, 46.74513261183333], [7.041562353025691, 46.744960154248545], [7.042157796992585, 46.74470755476683], [7.042624044612829, 46.74447379108165], [7.043006716138403, 46.74427639211251], [7.043596446255188, 46.74396261551611], [7.044253102020015, 46.74429306021641], [7.04465065748772, 46.74447433943522], [7.044838251417896, 46.744523384879294], [7.045037265621279, 46.74459801689352], [7.045348047107393, 46.74472280719445], [7.045520355472966, 46.744797246889554], [7.045773164099168, 46.74493689410707], [7.04606160376784, 46.74508241180561], [7.0463414891867355, 46.74518455889524], [7.046701250170767, 46.74528535230889], [7.047396764870966, 46.7455226554964], [7.047794709057955, 46.745681957887655], [7.048057124817444, 46.74581915045211], [7.048253091902071, 46.745911001877325], [7.04875218320783, 46.74615905617333], [7.048893474697182, 46.7462567550175], [7.049357765677502, 46.74662360841975], [7.0501183122070215, 46.746924005574805], [7.0503963316750555, 46.74705135999859], [7.05098393381622, 46.7473268009927], [7.051299470017186, 46.74741331523029], [7.051831439650342, 46.74764277503691], [7.052366031652302, 46.747904930862056], [7.052838446473156, 46.74793098325374], [7.053551531701128, 46.74799114094168], [7.05431366842928, 46.748115228758536], [7.0548765756963405, 46.74818399893756], [7.055190054861962, 46.74814754319659], [7.055620672110889, 46.74810383361866], [7.05595126161027, 46.74808282338064], [7.056344443379342, 46.74806182240796], [7.056286792967672, 46.7480144201056], [7.0561049780998655, 46.74790410835236], [7.056003370977794, 46.747827106682315], [7.055801225063369, 46.74772540732074], [7.055654503800062, 46.74764541057101], [7.055481016091793, 46.747602835403576], [7.055424168847818, 46.74754754592131], [7.055377784703442, 46.74742342210269], [7.055309349398968, 46.74735992589448], [7.05532658456799, 46.747200232102934], [7.055312601072974, 46.74704338373635], [7.05547994135596, 46.746842879078514], [7.05569223680268, 46.74665827663916], [7.055941290577439, 46.74639277457143], [7.056220868739374, 46.74624734810786], [7.056485925526267, 46.74615078994299], [7.056612162072227, 46.74610024513542], [7.056680334674064, 46.74609203622604], [7.0568230539593015, 46.74603123765265], [7.056840341477823, 46.745999838242994], [7.056968236855469, 46.74590540038274], [7.057076046946592, 46.745794010394015], [7.057103177797965, 46.745756697908256], [7.057159895893835, 46.74555534292298], [7.05719257958141, 46.745410426348336], [7.057199841722046, 46.74516705824149], [7.057222678137328, 46.74501748493083], [7.057212639147993, 46.744931076063146], [7.057162496616405, 46.744845801106415], [7.057067092660557, 46.74472878199547], [7.0570165347381515, 46.744639403589304], [7.056914018098845, 46.74455848659113], [7.056792534751052, 46.74449124202432], [7.05656347095146, 46.74433950975674], [7.056151389073752, 46.74414005224196], [7.055873277660683, 46.74395782068621], [7.055670316628019, 46.74384213861594], [7.055457860011953, 46.74369471493141], [7.055312160545751, 46.74364557623202], [7.055066962610567, 46.74348202949319], [7.054938409492718, 46.74334991907478], [7.05479308437654, 46.74324487360729], [7.054696088145388, 46.74312655171276], [7.054566011593791, 46.74298265172299], [7.054324908624358, 46.742527040602994], [7.054259854543672, 46.74228082853959], [7.054247666619836, 46.742197398658384], [7.05425540918972, 46.742044203588456], [7.054240648484209, 46.741764239197806], [7.054241302657268, 46.741533640487624], [7.0542773899537385, 46.741367308737104], [7.0544265354308395, 46.74101196657468], [7.0545050356311965, 46.74085773313863], [7.054622720973307, 46.74059046785785], [7.054627846405231, 46.74054337544603], [7.054701633488991, 46.74045345310556], [7.05472359322798, 46.74017445823898], [7.0546956109197785, 46.7400031694647], [7.054594166808556, 46.73982877214556], [7.054440355442947, 46.73964743323186], [7.054252564078736, 46.739477079766466], [7.054064341541863, 46.739328763689315], [7.053814812369688, 46.73914839564026], [7.053673409612819, 46.73905479525348], [7.0533692269224115, 46.73882721253479], [7.053156658204853, 46.738671679014395], [7.052942877755694, 46.73851924439137], [7.052863905334411, 46.73839446917415], [7.052754512657538, 46.73824954862123], [7.052638494096629, 46.73805804449819], [7.052598505792686, 46.73795997417753], [7.052592283647724, 46.737858906024655], [7.052562528127337, 46.73778443878232], [7.052552786454923, 46.737683358634484], [7.052587045717111, 46.737493182954815], [7.052602277811292, 46.737336163270875], [7.0525838098844575, 46.73721673857536], [7.052656081892764, 46.736995045486246], [7.052792359992959, 46.7368007811067], [7.05288417378572, 46.736721940543454], [7.052996503854613, 46.736648467909625], [7.053129008995983, 46.73653486234952], [7.053174770918735, 46.73646815347766], [7.05315026941584, 46.73625394921971], [7.053016865788523, 46.736133523339404], [7.052815451915719, 46.736055163766885], [7.0525007803172794, 46.73595008944878], [7.052274853568413, 46.73588745090252], [7.052148570925776, 46.735836125069284], [7.051977799362208, 46.73579448002278], [7.0517022206653435, 46.735733686584545], [7.051438286674799, 46.735643885439515], [7.051055386656808, 46.735553570467886], [7.0509856569742375, 46.73551089182931], [7.050795597899547, 46.735373664512956], [7.0506864941367, 46.73529005656419], [7.05057762640933, 46.735226365483584], [7.050398797510186, 46.735038062979314], [7.050325139367262, 46.734979709258724], [7.050133492992638, 46.73478378834533], [7.050137318941426, 46.734770344056436], [7.0500088371222365, 46.734593097540284], [7.049944893183758, 46.73449419774759], [7.0497664056438785, 46.73425209293204], [7.049582871390859, 46.73398441420239], [7.049560973814206, 46.73387536711993], [7.049477331984774, 46.73375785088864], [7.049122357108338, 46.73357155229158], [7.048839091668938, 46.73357868698682], [7.048677963721667, 46.73361758927243], [7.048482497241862, 46.73367919529968], [7.04829731100814, 46.733746593426424], [7.048124821714717, 46.7338779483215], [7.047954413133543, 46.73399471931853], [7.047687733156927, 46.73418567847986], [7.047376456981797, 46.734354057673364], [7.04719166174852, 46.73441576117878], [7.046997691336382, 46.73449407457983], [7.046805630060311, 46.734534747803636], [7.046473646547529, 46.7345745516251], [7.046197880584163, 46.73459310303051], [7.045921081987248, 46.734604327801854], [7.045711146108264, 46.73458073640868], [7.045301274650958, 46.73455800040654], [7.0450603589536565, 46.734535964586556], [7.044796693483183, 46.73454399366299], [7.044525080559955, 46.734602783543494], [7.044375987161793, 46.73468041135676], [7.044166029299879, 46.73481145052168], [7.044112891784863, 46.7348228435382], [7.043861096639455, 46.734949590058605], [7.043787786640708, 46.734990913117684], [7.043741858847361, 46.735003968209064], [7.043711784874058, 46.73502106332676], [7.04364396232379, 46.73496187093214], [7.043585046926165, 46.73491554611245], [7.043505785020107, 46.734819594155255], [7.043463869685248, 46.73478515748289], [7.043462621639468, 46.7347555847327], [7.0434996112284285, 46.734678702224464], [7.043499767688044, 46.73460586671652], [7.043189802668956, 46.73451737136455], [7.04308687788323, 46.73449737630117], [7.042992220972516, 46.73439393106144], [7.042927232440187, 46.73430720374899], [7.042828683513421, 46.73426691171231], [7.04259408752608, 46.73426112068153], [7.042429885718395, 46.73424042588436], [7.042319199253441, 46.73419256174341], [7.042289038943997, 46.734168114664634], [7.042299036253485, 46.73409689566772], [7.04238980590991, 46.7339996550366], [7.042377616978749, 46.733940412787724], [7.042373815308107, 46.73393432754167], [7.042289057902287, 46.73387797190826], [7.042151612664687, 46.73383777756272], [7.0420524775893885, 46.73384345009354], [7.041950027660031, 46.73381606122323], [7.041694307838937, 46.73371405008377], [7.041654424947663, 46.73371294841], [7.041496477182567, 46.73375982179684], [7.041422201679058, 46.73372813196151], [7.041387801354723, 46.733597648162565], [7.041432607005283, 46.73356107573072], [7.041554888465085, 46.733452314640864], [7.0415775039921185, 46.73341759862529], [7.041583740939548, 46.73340215698848], [7.041347690012901, 46.73331225886875], [7.04115497973347, 46.73326548344231], [7.041001809822098, 46.733312138945344], [7.041034211430097, 46.73341021389333], [7.040993501037689, 46.73343966705625], [7.040889566622248, 46.733438044369244], [7.040792557979725, 46.73339510214062], [7.040771712041937, 46.73337446535875], [7.040714762221368, 46.73330530620371], [7.040620414744878, 46.733263470600534], [7.040539162748894, 46.73317758455116], [7.04053845314499, 46.733017173149875], [7.040598090526953, 46.73296355237842], [7.040690338027536, 46.73295140727213], [7.0408621770682975, 46.732998479467845], [7.0409039630047525, 46.73298278443918], [7.040904612018409, 46.73289325377509], [7.040826490948142, 46.732805057952696], [7.040784804945351, 46.73277543370855], [7.040738778990329, 46.732748861761586], [7.040478178293317, 46.73268684310969], [7.040375577370698, 46.732618414519735], [7.04015104534251, 46.73256024561685], [7.0400759429589925, 46.73256454319463], [7.04001839520902, 46.7325551030997], [7.039940665468188, 46.732559094628265], [7.039849304028911, 46.732571790968315], [7.039747390961533, 46.73255892986301], [7.039668378753025, 46.73250653253799], [7.039610623636922, 46.732443945686526], [7.039566781371754, 46.732359458394136], [7.039525501294176, 46.7323123028142], [7.039509657874302, 46.732301713386505], [7.03953050809149, 46.73226523755188], [7.039593267137988, 46.7322158651948], [7.039704456151545, 46.73217218593174], [7.039750446682129, 46.73212226897254], [7.039750442922389, 46.732024001431355], [7.039768531162349, 46.73198768675624], [7.039785795456451, 46.73196721040811], [7.039825047642005, 46.73193851729902], [7.0399362809070105, 46.73192052018982], [7.03994944814574, 46.731900317313844], [7.0399719224082205, 46.73184060259271], [7.039852872653147, 46.73175709324468], [7.039765619122266, 46.731747054141046], [7.039675252840945, 46.73180390407825], [7.039515815883911, 46.731891537392016], [7.039356570818645, 46.73190391424872], [7.039272140981649, 46.73193995998284], [7.039172353077646, 46.73193707289921], [7.039083032528798, 46.73188473785744], [7.039022311462792, 46.73175315336209], [7.038984263227798, 46.73157754311246], [7.038938387273385, 46.73145006765201], [7.038855926751031, 46.73125469105435], [7.038837875539589, 46.731143424430144], [7.038837711128467, 46.73112506389999], [7.038878053503539, 46.73106408981369], [7.038921290693657, 46.73100966564551], [7.038958316488957, 46.730956604958266], [7.039036663939178, 46.730877989130605], [7.039050073982959, 46.730848009032144], [7.039028452307418, 46.73077529386408], [7.038968226554724, 46.730712797006824], [7.038921374551716, 46.730685069978605], [7.038838705004953, 46.730664044689604], [7.03880671905877, 46.730674475093195], [7.038766786667441, 46.73070497365142], [7.0387525923985255, 46.730782357736175], [7.0387242207276595, 46.73080110370561], [7.038595439198048, 46.73075663561567], [7.038440180936912, 46.73062395355772], [7.038374420547849, 46.73061792011157], [7.0382411706707755, 46.73068874113358], [7.038171201881993, 46.73068740642184], [7.038116158806658, 46.730638834403365], [7.038097550738892, 46.73056567989199], [7.038107301496417, 46.7305475431862], [7.038215030805406, 46.73040421845351], [7.038236620445516, 46.73028952897106], [7.03820837164991, 46.730225012265215], [7.038215167181616, 46.73013111344041], [7.038233184633063, 46.7301131497415], [7.038236748545953, 46.730068481289784], [7.038106254477819, 46.73002061523573], [7.038039078128883, 46.7299852330107], [7.037960881972389, 46.72989074698215], [7.0379387999357315, 46.729930996371415], [7.037817310451378, 46.72988632047374], [7.037704434295879, 46.730065519541476], [7.037377023108843, 46.729938913334074], [7.037271115157724, 46.72988712115316], [7.037005470054535, 46.72967439238262], [7.036849566205657, 46.729830518321904], [7.03666306466968, 46.72996170782542], [7.036460427983414, 46.730061877133004], [7.035821603767304, 46.73032686684433], [7.034579014504266, 46.73065606143791], [7.0344300440975625, 46.73067160737964], [7.034163491167593, 46.730766651708855], [7.033936167949463, 46.730761408418644], [7.032439928221377, 46.730088649596134], [7.03239946256335, 46.73095315947929], [7.03123242750794, 46.73077634070354], [7.0311532926334035, 46.73124517880387], [7.031102108256697, 46.731299301435115], [7.030955868545667, 46.73122519366412], [7.0307925697914975, 46.73116138748545], [7.030670747855133, 46.73113668061535], [7.030574914652884, 46.73110078639614], [7.030494502163816, 46.73109644095648], [7.030321412214689, 46.731067924552804], [7.030232237613793, 46.73105626103563], [7.030078270990067, 46.73106097061325], [7.029915266320615, 46.731075731559294], [7.029592346710604, 46.73106535946917], [7.029442538574317, 46.73106513556778], [7.029377732101158, 46.73108165221721], [7.029221809083899, 46.7310924256051], [7.029121599232504, 46.7311074203739], [7.0289986650233125, 46.73112065105354], [7.02893933602357, 46.73113253645816], [7.028845031773073, 46.73114681460796], [7.028815891927522, 46.7310770299081], [7.028807143095931, 46.73104738496348], [7.028807809274583, 46.73102176797309], [7.028822825970096, 46.731001456099214], [7.028849813049389, 46.73095542406281], [7.0289048605233235, 46.73090105532887], [7.028916605894052, 46.73088082161829], [7.028911456301368, 46.730866428115725], [7.0288288129328835, 46.73081324545341], [7.0287813669240355, 46.730812633764714], [7.02868566116313, 46.73078600384149], [7.028577009143759, 46.73079641597128], [7.02850806946751, 46.73081110916243], [7.028484859141604, 46.73080447671171], [7.028481582258053, 46.730795001569895], [7.028435087795871, 46.730763970103624], [7.0284225153488125, 46.73075196964497], [7.028490087210732, 46.730654161552586], [7.028518787972595, 46.73058242642082], [7.028524038070747, 46.73055788747478], [7.028496437754626, 46.7304647286937], [7.028502552325842, 46.73042975796165], [7.028432994367739, 46.7303403160582], [7.028424282887586, 46.7303143954036], [7.028404051310703, 46.73029803144564], [7.028321357596834, 46.73024477635274], [7.028320627306649, 46.730196458529285], [7.02832716715621, 46.730155489352846], [7.0283330128239845, 46.73008030728403], [7.0282873361464295, 46.730000495868396], [7.028282639782355, 46.729949015137706], [7.02814800516012, 46.729894618944336], [7.027928162277273, 46.72983032570962], [7.027815192622015, 46.72981019954003], [7.0276678097591, 46.72980121136652], [7.027500220733019, 46.72978116644052], [7.0274052357892245, 46.72975982748878], [7.027377907485872, 46.729761437858734], [7.027316856431795, 46.72973862927371], [7.027303475375014, 46.72972979226279], [7.027298559313992, 46.729715723356435], [7.026639987361047, 46.72970645186815], [7.0266864319651035, 46.72992307143809], [7.026701805507733, 46.7301414674633], [7.026648992257624, 46.7303241201811], [7.026586498053341, 46.73045889030328], [7.026498932624384, 46.73059598037341], [7.026220745213396, 46.73100194056083], [7.02613798961551, 46.73096029685877], [7.025860466090137, 46.73087688163068], [7.0258482947459155, 46.73089280458036], [7.025761184050916, 46.730854437111965], [7.025677579804062, 46.73081264608105], [7.025547796316985, 46.73073138569562], [7.025491159668875, 46.730619248138986], [7.025441985451396, 46.73060350723516], [7.025357296530411, 46.73059399717576], [7.025289029962111, 46.73056527816762], [7.025248369373249, 46.730485276742854], [7.02522704123364, 46.73045169969085], [7.025221961150297, 46.73042670055565], [7.025258017924092, 46.73035844725781], [7.025250970089538, 46.730322232496334], [7.025161034137553, 46.730289080825415], [7.025116884123307, 46.73026992174796], [7.02503783290253, 46.73024868365571], [7.025000903491057, 46.7302245492112], [7.02495172635631, 46.73014802503673], [7.02484585390721, 46.73008629924038], [7.024817388634928, 46.73003161056668], [7.024770577378051, 46.729987703793455], [7.024723441966328, 46.72996892946507], [7.024667685769634, 46.729951787902195], [7.024623561495948, 46.729898751390046], [7.0245764660782175, 46.72987819600643], [7.024536334268652, 46.729831668755075], [7.02454227854072, 46.72980384908636], [7.024555292724589, 46.729790619008995], [7.024561135680019, 46.72975556653234], [7.024547397445799, 46.729718409781306], [7.0244961353323365, 46.72963755986344], [7.023768821691093, 46.729741302681425], [7.023292294613682, 46.729819544550395], [7.023134177934479, 46.72970648678993], [7.022823659340651, 46.72939963764397], [7.022219433816579, 46.72943774612397], [7.022094583395935, 46.73007369923989], [7.022032591000374, 46.730238532075994], [7.021847857414295, 46.73060264405933], [7.021563435526758, 46.730465175093705], [7.02128795966348, 46.73029447246091], [7.020686619308285, 46.72989081957595], [7.020497621709595, 46.72968333488707], [7.020305100854438, 46.72952030209291], [7.020096457752026, 46.72938829827004], [7.019205777198497, 46.728913406697984], [7.019084660166916, 46.72885500162923], [7.018769908273927, 46.72872702996465], [7.018474833927209, 46.72862241044005], [7.018307580883609, 46.728525099067625], [7.017908685258613, 46.72838420200407], [7.01735998163934, 46.72829943902448], [7.016843069086007, 46.72829807229002], [7.016482575255801, 46.72828705531409], [7.016188178025225, 46.728272001560384], [7.015656445562475, 46.7283020867197], [7.015415411563025, 46.72831175099198], [7.015042915248976, 46.7282866523091], [7.014818550628149, 46.72827770279964], [7.014488548802165, 46.72826874584275], [7.01421649885276, 46.72824175212698], [7.013853020732723, 46.72824931917706], [7.013472306444644, 46.72828756755457], [7.01327272398232, 46.72828961014755], [7.01314665480765, 46.72829757646738], [7.012532567775461, 46.72794788635227], [7.012114350418558, 46.727979087463055], [7.012029738811158, 46.72799524077261], [7.010422033523173, 46.72839757290961], [7.010340197169749, 46.72841995176139], [7.010429139207804, 46.72865526871138], [7.0084428869385516, 46.72830933401108], [7.0074828052878315, 46.728123599910916], [7.006920024656646, 46.72798582098999], [7.006612978033673, 46.727936933662306], [7.006544768598675, 46.728033044401194], [7.0067609507629935, 46.7281630779055], [7.007036595449506, 46.72832364279527], [7.007205239401303, 46.728460232718504], [7.007340909304687, 46.72856682309528], [7.0073550291866855, 46.72862992674874], [7.007362181369366, 46.72865160626063], [7.007313934644334, 46.728708689235475], [7.007243731710428, 46.72873368268526], [7.007066342552962, 46.728788539684096], [7.006839680561657, 46.72884565625416], [7.006593909544119, 46.72888754215165], [7.0065193561240715, 46.728895444983166], [7.006273055141379, 46.72893973910984], [7.006164816586451, 46.7289539455155], [7.00594500351696, 46.728995353018604], [7.005874906160497, 46.72901198018788], [7.005691013478962, 46.72904399749037], [7.005643155885162, 46.729050849894826], [7.0055233544328654, 46.72911352484774], [7.005461506858131, 46.72915673807656], [7.005343313169843, 46.72925851390508], [7.00523313280082, 46.72937723184577], [7.005193551313874, 46.729402520589296], [7.005159161368855, 46.729557950366555], [7.005123828535123, 46.72964853626288], [7.005127444110483, 46.729673908607204], [7.0051679316093995, 46.7297391550107], [7.0052522247322475, 46.72986539634364], [7.005326984681882, 46.729989577329654], [7.005357175709272, 46.730030586251004], [7.005397344664414, 46.73006722533827], [7.005501525634048, 46.73018354815603], [7.005540470379909, 46.73022277324638], [7.005691253150226, 46.73035194804911], [7.005807953277544, 46.73042462665715], [7.005860318156237, 46.73046747394516], [7.006005910077419, 46.73057694626067], [7.006135018887029, 46.73067986091216], [7.006306448793281, 46.730752063372684], [7.006374296790667, 46.73077467523659], [7.006621203984508, 46.730789511222945], [7.006812968768915, 46.73079936076939], [7.006925002413135, 46.730796862376316], [7.00698666331539, 46.730804715617936], [7.007015080516655, 46.730794721382], [7.007136812989928, 46.73074597720243], [7.007183183953344, 46.73073052764815], [7.00734237629631, 46.73066815307998], [7.007522203555843, 46.73053182282542], [7.007596813722408, 46.73047791607466], [7.007765136305981, 46.73042862813111], [7.007901340818475, 46.730420202271006], [7.008045197349542, 46.7304086567011], [7.008195477844336, 46.73043138145705], [7.008267557410071, 46.730448394925155], [7.008319460603397, 46.73046252540182], [7.008336562485712, 46.73052594614374], [7.008331255750486, 46.730608757500626], [7.008336566617634, 46.73067914990646], [7.0083467624329, 46.73070475386007], [7.008290100293931, 46.73083574021738], [7.008295851776544, 46.73090666517084], [7.008334789376897, 46.73096182044917], [7.008649997276452, 46.73117044134588], [7.008827718695536, 46.73128107491741], [7.008981736256682, 46.73138497996122], [7.009100401640549, 46.73143520062698], [7.009175351463032, 46.731484545464085], [7.009091717964279, 46.731534721984765], [7.00894655569611, 46.7316356801096], [7.008867538276363, 46.73168770899512], [7.008741302327157, 46.731784222493715], [7.008616189655801, 46.73187436219501], [7.008480094140835, 46.73198323408312], [7.008327759726927, 46.732053156470606], [7.00827802204138, 46.73207395505252], [7.0081098242668025, 46.73213976015255], [7.0079790931291415, 46.73217974555291], [7.007910819100736, 46.73222310671652], [7.007748794553801, 46.732313537573845], [7.007714552923382, 46.73234499141624], [7.007569992355053, 46.732466594989255], [7.007545919288174, 46.73249274387703], [7.007428519782646, 46.73254889025196], [7.007372180489287, 46.73256566041167], [7.007241461959755, 46.73261692547607], [7.007007417249534, 46.73269699817916], [7.006819786727216, 46.73274986394873], [7.0065843522377875, 46.73276988491585], [7.006583615081947, 46.73278021804539]]]]}}]}