{"type": "FeatureCollection", "features": [{"type": "Feature", "properties": {"bfs_nummer": 2233}, "geometry": {"type": "MultiPolygon", "coordinates": [[[[7.098115103658218, 46.752802155595674], [7.097563663973424, 46.75175572865771], [7.097083167398103, 46.75103334096205], [7.096551757213446, 46.75017334236532], [7.090822402347683, 46.74937409842483], [7.09069501768787, 46.74941377509331], [7.090577049404773, 46.749482688862074], [7.090493358877028, 46.749605707547005], [7.090420225944377, 46.749702995387736], [7.090307431311931, 46.749617633411766], [7.0905021265574355, 46.74943005189797], [7.090725911195532, 46.74927105694396], [7.091155789630573, 46.748790193646315], [7.0912409328027195, 46.748703233381654], [7.091055205305384, 46.74769322501793], [7.09002961983098, 46.74696427404107], [7.089925215669001, 46.74668597465], [7.089806952829555, 46.746716331690685], [7.089983604587085, 46.74722700012775], [7.089930432320177, 46.74723732590739], [7.089948745063753, 46.74730317529817], [7.0872828844402544, 46.74724237812625], [7.087200465812295, 46.74700012595065], [7.086544300799775, 46.74708740667338], [7.086342858387358, 46.74617913374856], [7.086369298033453, 46.74584880027179], [7.0862958935395195, 46.7454798895007], [7.086274249877354, 46.745124499591235], [7.086238698429826, 46.7449423468811], [7.086205967802283, 46.744866862675906], [7.0804639289139875, 46.74652222494751], [7.080610975550599, 46.74620274362717], [7.0805139028325, 46.74618483388916], [7.08070751041847, 46.74579048538557], [7.080794831417928, 46.7456573204032], [7.0799298218541304, 46.74571418309987], [7.079663416060793, 46.74572746600004], [7.078726347725291, 46.74575360630471], [7.0777280282076465, 46.74569113695144], [7.077252333479615, 46.74559556091486], [7.076450896915174, 46.74539160187472], [7.076418892034917, 46.74558910465529], [7.075586758247599, 46.745214656986604], [7.075348813205203, 46.74538515420157], [7.075042904802642, 46.74561639619157], [7.075001798471701, 46.7457521872161], [7.073991042622104, 46.745480651581566], [7.0728525741566415, 46.74534024691515], [7.072238438265427, 46.74530059741956], [7.072135745119892, 46.74527467432116], [7.071831122784216, 46.74495691464748], [7.071457167541419, 46.7446344778213], [7.071368746509277, 46.74453095067331], [7.071153383480036, 46.744208628857436], [7.070974668156265, 46.74403287211364], [7.070647164276564, 46.743743064878494], [7.070274838292716, 46.74344855956377], [7.069994152814966, 46.74331657596667], [7.069743659574039, 46.74319189525505], [7.069708614190608, 46.74357171779516], [7.069564311151915, 46.74397117393117], [7.069222451388381, 46.74430732532775], [7.068916977311322, 46.744577152609736], [7.0675367335775645, 46.74512753889912], [7.065683099811224, 46.745916709707835], [7.0652756115565785, 46.746341879032435], [7.06492229223452, 46.746614948381676], [7.064607824251302, 46.746850218961455], [7.064314823189807, 46.74709376311662], [7.063941659293772, 46.74736988509962], [7.063635936193986, 46.74755280050638], [7.063395241901954, 46.74767903278264], [7.062491753131141, 46.74799646101032], [7.061295034496464, 46.74872705506256], [7.060888051052667, 46.74904060116965], [7.060625259409689, 46.7492327987056], [7.0602602841874855, 46.749552895920175], [7.0598673817332935, 46.749866674079136], [7.059395266278812, 46.75029398740742], [7.058974469144368, 46.75110513692718], [7.058809449001722, 46.75164532894858], [7.058608621875703, 46.75215941766529], [7.058699393209669, 46.75216575681392], [7.05895388868034, 46.75217266925545], [7.05913285037123, 46.752170909398814], [7.059280643035936, 46.75214788785794], [7.059478671493126, 46.752150131112664], [7.059741805988427, 46.75214575423613], [7.059789828011966, 46.75215647488493], [7.060186753336098, 46.752227241267086], [7.060214519505982, 46.75222625415003], [7.0603879946516575, 46.752288144515774], [7.060507472180579, 46.75241109680569], [7.0605033481619675, 46.752431754852466], [7.060522435456138, 46.752447758363424], [7.060525086011196, 46.75258633439611], [7.060545673841741, 46.752610438867265], [7.060544467707849, 46.752679574535], [7.060553413984444, 46.75286275330841], [7.060527339182199, 46.75293955151996], [7.060519990432131, 46.753113491729586], [7.060502338243538, 46.753129732982345], [7.060461673585479, 46.753338114368205], [7.060285900248412, 46.75385324391453], [7.060265738818891, 46.75394514721092], [7.060235942978988, 46.7541748300666], [7.060270740543617, 46.75450452415208], [7.060338057627291, 46.754706697630446], [7.060331519515577, 46.75478393854002], [7.060341331506212, 46.75489798949751], [7.060343149975096, 46.75500968403393], [7.060346597475743, 46.755023818483], [7.060433062567843, 46.75544569044296], [7.060540785563787, 46.75564049586767], [7.060568470591691, 46.755705256731055], [7.060625109685145, 46.755792080848146], [7.060711175598658, 46.755880307087025], [7.060733630074392, 46.75590904140641], [7.0607562631656, 46.755947743338425], [7.060816212555635, 46.75601432942103], [7.060941917320008, 46.756137157882584], [7.061089988520139, 46.756275298830786], [7.061200345073551, 46.75642741951114], [7.061341860955975, 46.75663444412943], [7.061476909695693, 46.75678211265525], [7.061515240829931, 46.756803523093424], [7.061611240250884, 46.756965095079316], [7.06167026980211, 46.75708849340736], [7.061769637017302, 46.75724964461478], [7.061858357628724, 46.75752737844588], [7.0618558425143965, 46.75756313629616], [7.0617943020201945, 46.757691316702555], [7.061829410754644, 46.75785507956728], [7.061886930903275, 46.758042772861444], [7.0618990114420255, 46.758057826397064], [7.062053212252449, 46.75828432241832], [7.062210221558685, 46.75846136113126], [7.062465883936565, 46.75860508249974], [7.0626488557626335, 46.75869548049973], [7.062929194570074, 46.75882600495652], [7.06318973610808, 46.75902316517926], [7.0633649873343005, 46.75912112881204], [7.063528374743346, 46.759227364945076], [7.063797213612047, 46.759374662044145], [7.063866495869986, 46.75940478231993], [7.063921451303862, 46.75943589887178], [7.064075551481596, 46.75957344403833], [7.064212682856239, 46.75968734689967], [7.0643378221793345, 46.75981664645401], [7.064488633906673, 46.760142942281476], [7.064568908952715, 46.76034100873963], [7.064643937827601, 46.760499252727705], [7.064754271435145, 46.76071003857058], [7.064812175638796, 46.76088770152439], [7.064852404922785, 46.761047090340654], [7.064885444850954, 46.7611975320116], [7.064873631182245, 46.76132457296128], [7.064940902748399, 46.76147111505353], [7.065042098280525, 46.76166557969848], [7.065261893659508, 46.76189170173194], [7.065325979882434, 46.761937375335016], [7.065622197220091, 46.76209952842445], [7.065856078759708, 46.76213929037216], [7.066065339233258, 46.76218830858644], [7.066304158853303, 46.76224662556807], [7.066655154236894, 46.76230610931042], [7.066920324636037, 46.76236268501984], [7.067125768965414, 46.762390243541134], [7.067360621416637, 46.762447070014176], [7.067775353199342, 46.76254108513894], [7.068122118536517, 46.76264882057683], [7.068333798562172, 46.762679734481615], [7.06882010565519, 46.76277845846744], [7.069066662274447, 46.7628165548219], [7.069274517639856, 46.762827025766185], [7.069714858006196, 46.76284130867868], [7.069990818837623, 46.762848535776385], [7.070042137104715, 46.762842225233896], [7.070277316994089, 46.76284055791272], [7.07039196507359, 46.762842080349046], [7.070879955030095, 46.76286015616027], [7.071010417888491, 46.76289207099783], [7.071113910476393, 46.76290163467596], [7.071223447278448, 46.762909805459834], [7.071300883320117, 46.762920355297], [7.071437359837659, 46.762928585900696], [7.071638819449915, 46.76293838420706], [7.07185331862412, 46.762944131208194], [7.072190211522159, 46.76295969932645], [7.072413758866275, 46.76297467685685], [7.072470466003063, 46.76298434958352], [7.072566716012403, 46.76298489310997], [7.07321250024619, 46.76309335860239], [7.073416600210643, 46.76314816680557], [7.073752894075156, 46.763211719451114], [7.073842526701017, 46.76324416578436], [7.074090050107497, 46.76335862630051], [7.0742354499672615, 46.763473892752614], [7.074294733318729, 46.76358640052418], [7.074333547505901, 46.763640353887865], [7.074353071672379, 46.7637340687105], [7.074461805538838, 46.76383785612344], [7.074694213228231, 46.76407216821806], [7.07492555380769, 46.764226542222374], [7.0750591585165585, 46.76433086732024], [7.075218055374988, 46.7644293450252], [7.075443807898799, 46.76455873758692], [7.075570384438008, 46.76464566032219], [7.07565652340068, 46.76473458589163], [7.075784663782454, 46.76484592717757], [7.076002084131883, 46.76498836253794], [7.076198889592641, 46.76510330449535], [7.076320946520005, 46.76518331244257], [7.076479329998122, 46.76527127098648], [7.07665954573113, 46.76535204834205], [7.076934737702097, 46.76544635065057], [7.077075430170008, 46.7654750076538], [7.077200669496694, 46.76546561836812], [7.077375369217706, 46.765426628818496], [7.077616367075802, 46.76544914474895], [7.0776803149533585, 46.76543574637443], [7.077798585352407, 46.765440646188175], [7.07820057389704, 46.76547331440973], [7.078453862800577, 46.76556447627881], [7.0785866448559, 46.765654374817366], [7.078649592971619, 46.76569446007417], [7.078691042875179, 46.765748636202346], [7.07867337330834, 46.76592791484111], [7.078559061885764, 46.76599821290909], [7.0782862669500055, 46.7661546719208], [7.078101361257626, 46.76626678203054], [7.077954043335052, 46.76636860322026], [7.077843456098701, 46.76652542221271], [7.077677772572559, 46.766617100829095], [7.077643794795748, 46.76672125099085], [7.077579769310079, 46.766765449700095], [7.07752381186765, 46.76684803085923], [7.077415779004003, 46.76694976004209], [7.077312037622556, 46.76707516094401], [7.077262478673529, 46.76719119857857], [7.077248920082304, 46.76724897865493], [7.077239568207821, 46.767494904160195], [7.0773844103771015, 46.76761789186911], [7.077540515293256, 46.76766440831859], [7.077612041267906, 46.767694554322354], [7.077686272674475, 46.76767666383613], [7.078144429869054, 46.76760165415959], [7.078376487197144, 46.76755913860835], [7.07858774891986, 46.76750382809906], [7.078811749649911, 46.76744048854935], [7.079016123658339, 46.767377455303496], [7.079229324137814, 46.76729044055386], [7.07931758058853, 46.767216956071344], [7.07962562767445, 46.76709459983365], [7.0797875046442424, 46.76702178795406], [7.079914167841943, 46.766983911378674], [7.080294194702654, 46.76679778606088], [7.08084651252657, 46.76658818338787], [7.081095730766765, 46.76642099344508], [7.08160607373111, 46.76621495230214], [7.081788030737975, 46.76618300423711], [7.08204595027181, 46.76640039759383], [7.082302632225036, 46.766670482155455], [7.082350757371303, 46.766763034686335], [7.082733171661265, 46.76715375479312], [7.082996739457098, 46.767357697344636], [7.083103833464515, 46.767461660195984], [7.083290075253949, 46.76758204402506], [7.083461896731856, 46.767751075261685], [7.083809892292943, 46.76803714747061], [7.084421122760626, 46.768256221160485], [7.084774184635228, 46.76834877673029], [7.085370564339222, 46.76841040471985], [7.085745422057261, 46.76851561875454], [7.0860897890824415, 46.76857316887176], [7.0867224271950775, 46.768736218481656], [7.0869474288712775, 46.76892926486526], [7.087037324657214, 46.768974169341625], [7.087237830230281, 46.76910967622662], [7.087342800116909, 46.76931001526395], [7.087349672308227, 46.76942830931426], [7.087451926883147, 46.76960558444324], [7.08749547820878, 46.769830813298825], [7.0875594010679, 46.769995961048686], [7.087884506297823, 46.770488909545534], [7.088159169763274, 46.77092209748944], [7.088387328844851, 46.77120336060043], [7.088684670697325, 46.77138012835589], [7.088958905519056, 46.7713719578023], [7.089462123274605, 46.771483166981696], [7.089617598343208, 46.77155739803197], [7.090147381329388, 46.77186275455269], [7.090483460602006, 46.772049594163754], [7.090656837382122, 46.772224718058396], [7.0907560632553555, 46.772663947746324], [7.090884559173915, 46.77293034633299], [7.091064287583033, 46.773180727240394], [7.091077979544404, 46.77341798929301], [7.091156592761597, 46.773579410662045], [7.0911921035148575, 46.77370248750894], [7.091288471225778, 46.77391458957578], [7.091311139296855, 46.773956496828], [7.091517051929646, 46.774323529597794], [7.091609237201557, 46.77451459619266], [7.0917825905073535, 46.77479248274309], [7.091917727622616, 46.7749808913723], [7.09202089870974, 46.77506472880626], [7.092109406027298, 46.775176911273206], [7.092260748643191, 46.77538049923763], [7.092366388022889, 46.77556099144594], [7.092426982830777, 46.775727835309574], [7.092505193744811, 46.77617838753322], [7.092556560302182, 46.7763795209976], [7.092589885143666, 46.77653781702952], [7.092654336552087, 46.77666115226376], [7.092763513140304, 46.77681753786145], [7.092845391849204, 46.77688004442847], [7.092945144719342, 46.77697902801329], [7.093031494777434, 46.77716272632884], [7.093060454231115, 46.77728141083525], [7.093146628210602, 46.77753129730745], [7.09320160483525, 46.77765827361257], [7.09339867448814, 46.77790185772937], [7.093553849253502, 46.778020439116425], [7.093837567293021, 46.778318815802784], [7.094009712952099, 46.77848045541636], [7.094245691323864, 46.77866086360764], [7.094390435606184, 46.7787587676112], [7.09449857538602, 46.77881274374043], [7.094768479052195, 46.778979625246215], [7.094868953791405, 46.77905495113418], [7.095057181253704, 46.779155720251154], [7.0952934645034675, 46.779240280240344], [7.095523676977484, 46.77930572401739], [7.095679755617281, 46.77935998745655], [7.095820851736693, 46.779392130611946], [7.095961192803056, 46.779413341773804], [7.0960702910833255, 46.77944887850383], [7.096191990020677, 46.77947973045134], [7.0964747678348985, 46.77956331239552], [7.096593850367964, 46.779608242959405], [7.096830619020857, 46.77968099910089], [7.096938228554751, 46.779728431586115], [7.097051088393509, 46.77978627850347], [7.097310607141878, 46.77994500876961], [7.097397741147615, 46.780016649251756], [7.097496753524271, 46.78006126682871], [7.097611434451565, 46.7800902971221], [7.097703158472669, 46.780134128070756], [7.098045448578315, 46.780239671461075], [7.0984323237910205, 46.780331269139175], [7.099029239314893, 46.780408164119955], [7.099865127200153, 46.78071859772855], [7.1002801805115725, 46.78093205381364], [7.1002933792184475, 46.78122735183401], [7.100573108193858, 46.78184771114022], [7.100553863799868, 46.782308663110776], [7.100654033055245, 46.782549247926134], [7.100672369150715, 46.78269445345384], [7.100759688518097, 46.78286292815062], [7.100941123020362, 46.78308779590178], [7.101166127415066, 46.78321259188969], [7.101700501558553, 46.783188438990166], [7.102574232807194, 46.7833202152542], [7.104914149925757, 46.78351313568737], [7.105749273492792, 46.78362416579135], [7.106223476554773, 46.78378825298851], [7.1070445940216, 46.784173009991505], [7.1073304269771365, 46.78454493236543], [7.107369320815227, 46.78460439773106], [7.107763758826451, 46.7851382661042], [7.107920870671771, 46.785461156503324], [7.107903909153846, 46.78560826417804], [7.107695450868707, 46.78616046610802], [7.10768199315394, 46.786695135905674], [7.107762264124567, 46.78693241801176], [7.107847549151899, 46.78704042268534], [7.108003579923329, 46.787254860334954], [7.108509478519442, 46.78747811217474], [7.108996970970665, 46.78740642778763], [7.109718932377822, 46.787369898838726], [7.110344718220887, 46.787210515669166], [7.110712026873311, 46.786919221674246], [7.110934504959315, 46.78677544012214], [7.111498850994635, 46.7865164198374], [7.1120660346390245, 46.78630672708467], [7.112667158872336, 46.78617034283671], [7.112876663405682, 46.78602444245353], [7.113066821796376, 46.785531098603464], [7.112662420978717, 46.784855981957804], [7.112621893237026, 46.784436946590155], [7.112726926547979, 46.78409923346954], [7.112991734199968, 46.78378985450349], [7.113399495825542, 46.783600208478], [7.113936997952852, 46.78350238825731], [7.11541861598465, 46.783298504503875], [7.115806082892908, 46.783369894933585], [7.116202003899095, 46.783527430702314], [7.116364526786454, 46.783866246729914], [7.116174663630709, 46.78423132992167], [7.11626251241352, 46.78430920073379], [7.116445169021145, 46.78433541806138], [7.116515384241409, 46.78430538303963], [7.116539748161444, 46.78427815072906], [7.1173202807028275, 46.78359991258429], [7.117743800462809, 46.783430823267395], [7.117966301369829, 46.78352106334888], [7.119186534238218, 46.78423742212888], [7.119844502001672, 46.784524873350826], [7.120391374686244, 46.78470821144878], [7.12100826203986, 46.78480275915308], [7.122955001813087, 46.784626242572614], [7.123503063656867, 46.78466917675202], [7.124225993625574, 46.78478348485279], [7.125258447320433, 46.784953180589284], [7.126129684393149, 46.78490037131292], [7.126351352870931, 46.78489400838526], [7.127933743782169, 46.784751488929764], [7.128645412316182, 46.78478578655675], [7.129087230046069, 46.784947693311864], [7.12927939200023, 46.785073450753494], [7.129563358329202, 46.78542632293376], [7.129769921910306, 46.78604948683089], [7.132153944007517, 46.784582475832934], [7.132441076087662, 46.7842292684809], [7.132983430380645, 46.78357541598989], [7.132519581396922, 46.78316396687631], [7.129376094498846, 46.782130900845544], [7.126867128951519, 46.78099872972237], [7.1267357463979, 46.77999384563837], [7.126719160650327, 46.77964810427551], [7.126379384360605, 46.779306243782365], [7.124649899273042, 46.77836326522363], [7.123361430110633, 46.777472766383276], [7.12280661283912, 46.77696568189082], [7.122103320996631, 46.77550834912823], [7.121951510025231, 46.77520738769568], [7.121301857341649, 46.77458040073774], [7.121460104677464, 46.77416974862977], [7.123689293846257, 46.772269789742055], [7.126980022108325, 46.77104195530927], [7.127534777805445, 46.77051623949862], [7.1273375375845225, 46.770131107167096], [7.126965495890477, 46.76981585816622], [7.1263212568271115, 46.76963467647413], [7.125333244452757, 46.76968633784662], [7.124652023376748, 46.76976787474188], [7.12300372700837, 46.77012637153192], [7.122780905519462, 46.77010975009408], [7.122426702898233, 46.77015575856379], [7.121613145116348, 46.77042876531845], [7.121208237299843, 46.770489615227795], [7.120827705953812, 46.77050184832035], [7.120221989306364, 46.77039690442881], [7.119818972874949, 46.770251371230756], [7.119351109099424, 46.77001628457073], [7.118999812412083, 46.76954278313933], [7.1189533680857755, 46.76912166392299], [7.119307634340141, 46.76809761400552], [7.119321642549234, 46.768051335538466], [7.119364261534697, 46.767814693906004], [7.120146388953218, 46.76613902956354], [7.120392511012369, 46.765569728348495], [7.120485523272844, 46.765078906380296], [7.120457776849396, 46.764118712948196], [7.120260329083934, 46.76359332747789], [7.120153235538121, 46.76341009548513], [7.120091392168065, 46.76280150308953], [7.119997489217695, 46.7625752192762], [7.119822269518109, 46.76235354715532], [7.119607665482588, 46.76219756627306], [7.119201120012782, 46.76203312119129], [7.118884695102426, 46.76196445114307], [7.118356811748694, 46.76195314293726], [7.117872136517333, 46.762003654317155], [7.117672284204158, 46.76206150738657], [7.116980809629238, 46.762299931925654], [7.116669191175681, 46.76254559910497], [7.116312593224902, 46.763000418159656], [7.115529571857289, 46.76380914095812], [7.114936513165017, 46.76434846192085], [7.114913396677679, 46.76436555954991], [7.114373172946609, 46.76465994611357], [7.113764329318708, 46.76482088355642], [7.112467334171896, 46.76480520884083], [7.111555109795291, 46.764461867443835], [7.111140139507178, 46.76402713563356], [7.110593693029105, 46.76304174167864], [7.110454965834052, 46.76242380940966], [7.110856070298801, 46.761680399189814], [7.111138364888245, 46.76110798298412], [7.1115708252617935, 46.76068296640338], [7.112018555020129, 46.760343989034375], [7.112450686690762, 46.760238290477474], [7.115584332550764, 46.759849200333115], [7.116260079775731, 46.7596294950977], [7.116820694706542, 46.75906970035383], [7.116917741079883, 46.7586716632258], [7.116876172445618, 46.75839362087602], [7.116210338547929, 46.75767774499128], [7.115746182583786, 46.75736046140347], [7.114449288698057, 46.75698455675259], [7.113665474817222, 46.75686509968123], [7.1121411281787905, 46.756514290238634], [7.111206705934979, 46.756488495177415], [7.110241593751768, 46.75605108595344], [7.1093312466386385, 46.755500528830964], [7.1084431182540015, 46.755437369713746], [7.10747990231037, 46.755518713635475], [7.105762316259119, 46.756103985894924], [7.10441312563634, 46.75668373937014], [7.1041296057864525, 46.757005790828856], [7.103692737276669, 46.75735426887617], [7.102278203726207, 46.75838160154904], [7.1009668923615825, 46.758479987049476], [7.099836309126025, 46.758178379697554], [7.098176249764406, 46.75772286542828], [7.09749951875025, 46.75734734459366], [7.096860694229387, 46.75696493523358], [7.09588010330056, 46.755971030594644], [7.0957216267707555, 46.75524888803535], [7.095991272697405, 46.75311879806938], [7.096747344127594, 46.75285680251686], [7.097233085131152, 46.75280801236234], [7.098115103658218, 46.752802155595674]]]]}}]}