{"type": "FeatureCollection", "features": [{"type": "Feature", "properties": {"bfs_nummer": 2258}, "geometry": {"type": "MultiPolygon", "coordinates": [[[[7.222842295593449, 46.993850940236776], [7.222400442970479, 46.99414824774246], [7.221562047205102, 46.99475744470246], [7.2210299660540045, 46.994393208175104], [7.22099294330657, 46.994409688602204], [7.221027055981446, 46.99443306002579], [7.22080731991227, 46.99452994113637], [7.220698710642132, 46.99461131042983], [7.220566605974544, 46.994767087116], [7.220135517544438, 46.99503095145367], [7.219865962837146, 46.99487120289939], [7.21948655904182, 46.994604659552806], [7.218979538311556, 46.99492731002581], [7.218336245489514, 46.99454507135239], [7.216433836261446, 46.99332486127562], [7.215825298155267, 46.99294317073165], [7.21562984669016, 46.992777098235976], [7.21510390292014, 46.99223266324073], [7.213176908902968, 46.990364439049365], [7.213141590532323, 46.99038208969531], [7.2131564312059195, 46.99045084198522], [7.213084185803944, 46.99049972278439], [7.211040155897049, 46.991344723799564], [7.2097964775704115, 46.98932780058493], [7.20649891700757, 46.99027478502425], [7.206338884672145, 46.99031610680874], [7.206263070517629, 46.99030758692185], [7.206528017140756, 46.990871941803434], [7.206606535555361, 46.99110552550762], [7.206440518705745, 46.99113190345357], [7.206367743322288, 46.9911196118138], [7.200784233759155, 46.99280302660671], [7.2007381113739255, 46.992857261165774], [7.200692283007481, 46.99275687872695], [7.200547536668951, 46.99278743026581], [7.200418122524186, 46.99288789667815], [7.200376671920104, 46.99289672430701], [7.199987300490427, 46.99203445465103], [7.199457077981128, 46.99083537992733], [7.198213268729636, 46.99126381389555], [7.1980744140962996, 46.99118346450347], [7.192645595178095, 46.994186401329124], [7.187660379727741, 46.996954473809716], [7.187334887416566, 46.997170100012845], [7.19391385138403, 46.999542414621004], [7.19429186053276, 46.999662589791626], [7.194511982198444, 46.999743936005515], [7.194735004539437, 46.99982077241113], [7.194970370440463, 46.99987812427992], [7.195210887396264, 46.99992471051168], [7.196674109395488, 47.00013857726724], [7.196438714916117, 47.00087577773657], [7.196483975151165, 47.00098525465743], [7.196589777987113, 47.001081547003466], [7.196308520102811, 47.00213097930162], [7.197229838868447, 47.001842109725786], [7.198911851325487, 47.00136395610925], [7.199381279273584, 47.00121121422402], [7.199417207610443, 47.00126256175784], [7.199477496102952, 47.0012766305222], [7.1998525962147175, 47.00166483595602], [7.200098912857036, 47.001920021000636], [7.200675588364298, 47.00165962830248], [7.202410101506899, 47.003463012012716], [7.2025363438170436, 47.00360908413653], [7.20509185764277, 47.00626543811677], [7.210245258975725, 47.00394752381049], [7.212990974288544, 47.006806030210406], [7.213329305379948, 47.00665351203087], [7.213376774491944, 47.006591539406855], [7.215562951806592, 47.0052598536765], [7.215717140958684, 47.00520978253702], [7.216071574989601, 47.00538543826285], [7.216667439011727, 47.005718698619795], [7.216935334217725, 47.005899400488914], [7.217196246713535, 47.00608377621783], [7.217442260315447, 47.006278197099526], [7.2175577242651485, 47.00621237893531], [7.217786902741261, 47.006411272968194], [7.2180139481291175, 47.00629297667584], [7.217713477949422, 47.00607037789973], [7.217749648075826, 47.0060333160184], [7.218106477697506, 47.00559698859836], [7.218388567421257, 47.00513339546305], [7.218723891217408, 47.004871601807224], [7.219274777171874, 47.0044124741563], [7.2196224689599715, 47.004063341463336], [7.219803233223075, 47.003754779035326], [7.220111885953044, 47.00337471635988], [7.220728042888235, 47.00263486918868], [7.221531843272749, 47.00211063666962], [7.221434082543745, 47.00107954707217], [7.221718571537652, 47.00063040400623], [7.221927356122988, 47.00031870592778], [7.22200772591423, 47.000261640342714], [7.2224769127234145, 46.999873390674956], [7.223235066063545, 46.999271844346396], [7.222938919026893, 46.9990477378821], [7.2230937908586865, 46.99845760005596], [7.2231206727260115, 46.998133160830214], [7.223212564231413, 46.99813585299636], [7.225749835374388, 46.99915377036183], [7.225841342151798, 46.999154480685355], [7.225866966149319, 46.99912511439108], [7.226136348990513, 46.9988620590581], [7.226205975572675, 46.99877394644884], [7.226248411805419, 46.99868263490172], [7.2262484088087175, 46.99858089996155], [7.226111330963627, 46.9977348144934], [7.2261229929459, 46.99757949924326], [7.226211612290442, 46.99737663503949], [7.226345747823121, 46.99713068786473], [7.2263931326429764, 46.99705423643003], [7.22642395546324, 46.9969735175474], [7.226330692439308, 46.996886352103814], [7.225890465470271, 46.996562957964265], [7.225523411769533, 46.99632759016109], [7.224854428607898, 46.995913453319254], [7.224616485981358, 46.99574425862429], [7.223875033098493, 46.994814657676095], [7.22355534550397, 46.994379221698935], [7.222842295593449, 46.993850940236776]]]]}}]}