{"type": "FeatureCollection", "features": [{"type": "Feature", "properties": {"bfs_nummer": 2300}, "geometry": {"type": "MultiPolygon", "coordinates": [[[[7.239007730287374, 46.736945639538796], [7.238529926791795, 46.737729333138624], [7.238599848931459, 46.737961091177496], [7.239817803055312, 46.7390512877722], [7.240202275002453, 46.73940633135045], [7.240295123383255, 46.73943830259899], [7.240591655589078, 46.73955999038582], [7.2409907557647735, 46.73969339732338], [7.241700830586038, 46.73989441575061], [7.243873516693126, 46.74026362217517], [7.244359237653526, 46.74038289947889], [7.244632343800988, 46.74041558909421], [7.245375481741845, 46.74051812165665], [7.245373909974028, 46.74068584972594], [7.245280408979716, 46.740823052638284], [7.2452331003773995, 46.740929999469664], [7.245402784908949, 46.74113740069203], [7.24540601722097, 46.741577106303744], [7.245576615348028, 46.74179710389689], [7.245756427012071, 46.74200618762877], [7.245918012555792, 46.74216770728757], [7.2458533743872655, 46.742414577751845], [7.245968785933615, 46.742761272255414], [7.245857530173012, 46.74295172470518], [7.245586713245592, 46.74315563289345], [7.245607341218872, 46.74333600932126], [7.245671677627656, 46.74352662504775], [7.245776847183982, 46.743588315071825], [7.246399936771221, 46.74377979586368], [7.246692595232648, 46.7438900271747], [7.247069562738823, 46.74415129867249], [7.246712201132442, 46.744319833258196], [7.246499081080799, 46.744477880320744], [7.246605911547807, 46.744577182458514], [7.2467395675599375, 46.744713384742184], [7.24697861104958, 46.74491717550235], [7.247170263234154, 46.74512355803102], [7.247524260930392, 46.74533792465221], [7.247757288100792, 46.74531492130574], [7.2479576424936845, 46.74527988914401], [7.248034527063258, 46.74560994443702], [7.248061375643834, 46.745843052869944], [7.247978475911168, 46.74613358407522], [7.247970734738213, 46.74624968434201], [7.2480786739441045, 46.74650986959948], [7.2479335080079945, 46.74655005941034], [7.24753425146933, 46.74675299589284], [7.247077432625408, 46.746887837307135], [7.2467464516461, 46.74701181846145], [7.24647083352902, 46.747104273969974], [7.246710737081132, 46.747450888505924], [7.24659800870725, 46.74767013151796], [7.246372598978894, 46.74797809397063], [7.246511269800922, 46.74837837374518], [7.24674939504736, 46.74887962503505], [7.247208815536066, 46.749336526014915], [7.2473634828350635, 46.749452504691575], [7.247675378493271, 46.74964207927445], [7.247989496132636, 46.749450619977466], [7.248048239485876, 46.74942246444748], [7.248443052928731, 46.74932927906534], [7.248632128462065, 46.74946369102696], [7.249270375469652, 46.749739893324914], [7.2496487843342505, 46.74977828756243], [7.249918928759891, 46.74988956076512], [7.250754816407389, 46.75040042898128], [7.250929447313287, 46.75056985809877], [7.251154268493875, 46.75087409415732], [7.251181774685385, 46.75091624730434], [7.251436771081206, 46.750836905474834], [7.251438788404236, 46.75083636907351], [7.251586061877285, 46.75073839055134], [7.2516933027908586, 46.750628561805435], [7.251763307647645, 46.7504893644481], [7.251893413384847, 46.75007451921418], [7.252086012342903, 46.7496847119977], [7.2522137009662755, 46.74948200231064], [7.252383424901544, 46.74925265396972], [7.25281745109827, 46.748758840347634], [7.253037935056246, 46.74846490597401], [7.253296281800837, 46.74814673645224], [7.2533907757080645, 46.747989191680276], [7.253466999845903, 46.74780903861052], [7.25363458426435, 46.747464894823246], [7.253778855485196, 46.7472091467084], [7.253882017426828, 46.74693543050986], [7.253836007184422, 46.74663139073023], [7.253947576871103, 46.74660224716838], [7.253949646262941, 46.74660173779425], [7.254151676437508, 46.74636110517621], [7.25418658155729, 46.74624586742204], [7.254182912267333, 46.7460344416256], [7.254210437422503, 46.745869510064665], [7.254994364579255, 46.74541841941726], [7.254515216265777, 46.745030739311], [7.254228998330744, 46.74483365208492], [7.254736382288168, 46.744794076915674], [7.254836623892118, 46.7447395289369], [7.254907733270621, 46.744643869632306], [7.25511889496204, 46.74427440826238], [7.255161415227098, 46.744143044414315], [7.255199601256779, 46.743912948031195], [7.255166883547692, 46.74379541429023], [7.255202535653696, 46.743785783908386], [7.255204657336356, 46.74378525661511], [7.255159506659517, 46.743668215475324], [7.255232771634327, 46.7434849432813], [7.255341701088154, 46.743253692832354], [7.255261427795301, 46.74315617810719], [7.255192862036644, 46.743105800495044], [7.254750199902772, 46.74286354635428], [7.254581649096178, 46.742756100990626], [7.255452165769124, 46.74110855532435], [7.255865857309481, 46.740909765447405], [7.25713474381132, 46.74054559499115], [7.257136904598354, 46.740545058680965], [7.257609649517159, 46.74035428202234], [7.25933920159784, 46.73980883358463], [7.259340490276731, 46.73979517143643], [7.259334352013721, 46.73979172547238], [7.259427853685183, 46.7397137743474], [7.259456093712123, 46.739657920986595], [7.2594589452112, 46.739650378312646], [7.259439263297045, 46.739619834542594], [7.259449625788869, 46.73955734138059], [7.25955721815556, 46.739452237201746], [7.259631981831433, 46.739409563562816], [7.259662360740715, 46.739379251848845], [7.2597107420053595, 46.73936126521463], [7.259801302935598, 46.73927008538726], [7.259877415073388, 46.73917216382028], [7.259966065982172, 46.739033646962184], [7.260021659941157, 46.73897134168507], [7.260172114338011, 46.73890558738104], [7.260224163206215, 46.73889013388561], [7.260226258427353, 46.73888961542311], [7.260380970783754, 46.73880239543938], [7.260515226489246, 46.738760084525715], [7.260539057391616, 46.738723357405085], [7.260607476723636, 46.738707263826555], [7.260609584936763, 46.738706772375174], [7.260714805639809, 46.73861725245134], [7.260765561648228, 46.73860093319467], [7.260830319586577, 46.738599874126066], [7.26090203816075, 46.73853576784752], [7.260940140489211, 46.738460490219936], [7.260961564921722, 46.73845490152394], [7.260963646993676, 46.73845440104474], [7.260995797978378, 46.738342934335414], [7.261044066602195, 46.73832297690547], [7.261128789320233, 46.73820767004223], [7.261214314992162, 46.73815789579269], [7.2612991093112, 46.73808411230067], [7.261361203497604, 46.737970389405035], [7.2614177914808575, 46.737943041562275], [7.261441542989899, 46.73791024513989], [7.261427787100625, 46.73789968992121], [7.261427189424991, 46.737894462627196], [7.261437758267549, 46.737883540599704], [7.261457280790842, 46.73787929820107], [7.261459349649124, 46.73787882465944], [7.26154722656651, 46.737814320105805], [7.261585684211813, 46.737801399434815], [7.261643396322271, 46.737762458303834], [7.261688428459509, 46.737751806713455], [7.261690523556858, 46.73775131524369], [7.261736903848608, 46.737728449126045], [7.261869538235503, 46.737676679634134], [7.262182974646816, 46.737631074203634], [7.262228081158947, 46.737613468136686], [7.262613891193955, 46.73763382109822], [7.262642991155379, 46.73755371603398], [7.262727807959926, 46.737492165507234], [7.262862824439341, 46.73721214726893], [7.263213899777564, 46.737310759546126], [7.263581253571173, 46.73740515886657], [7.263651152203555, 46.737391980020234], [7.263653181655825, 46.73739154236199], [7.263826535749089, 46.73743069707052], [7.263879908942537, 46.73733737931819], [7.264118797531684, 46.73676649804249], [7.264076971433333, 46.73636774579879], [7.264068707691202, 46.73600889659893], [7.264002158436123, 46.735593404154635], [7.263870364429463, 46.735313605777606], [7.263466415216981, 46.73521188367952], [7.262901098580287, 46.73516888376037], [7.262876336831952, 46.73509544255397], [7.262676849100929, 46.73506061784295], [7.262631033936666, 46.735063605237315], [7.262221456058286, 46.73498399938732], [7.261811399742219, 46.73489513509092], [7.261809187128461, 46.73489559040265], [7.2617505609789434, 46.73490722008998], [7.26058949756017, 46.73485106190766], [7.259967625547734, 46.73480064505113], [7.259965360475343, 46.734801136235575], [7.259559198930117, 46.734886987092715], [7.259540314714937, 46.73485327879347], [7.259090661467181, 46.735048984477935], [7.259018359761741, 46.73467483903264], [7.25912506430903, 46.734089771641415], [7.259137264045961, 46.733783054201275], [7.259595310453687, 46.73196803401571], [7.259753133082539, 46.73169195118548], [7.261588940073275, 46.72974106761439], [7.262254475333142, 46.72941021797218], [7.2627398264952205, 46.72941304067284], [7.262791578548799, 46.72897089612776], [7.262822957842579, 46.72864935776397], [7.262679292686335, 46.72812324322448], [7.262723458641566, 46.72769238494653], [7.262425620106157, 46.72729678900216], [7.262422487981708, 46.726944604064634], [7.262049886559123, 46.726718365014705], [7.261834826121316, 46.726556066991364], [7.261333129107738, 46.72607708673967], [7.261206894395806, 46.725899292342845], [7.261175316231739, 46.725322635076324], [7.261127879360428, 46.724798674284486], [7.2611616786921385, 46.72442395833578], [7.261153175365712, 46.723835823191195], [7.261246956872492, 46.72348253883509], [7.261518643582059, 46.72306693345486], [7.261659601253276, 46.72231817514106], [7.261770002243059, 46.72200026748269], [7.262004017374229, 46.7217994759718], [7.262293809905065, 46.72158142823144], [7.262776697158985, 46.721233695569225], [7.263448618843209, 46.720959475036935], [7.264165152802291, 46.72055955291507], [7.264513101165829, 46.720275652424924], [7.264537776235886, 46.72019322921097], [7.264931689973363, 46.71978217597491], [7.265223332559733, 46.719551305227455], [7.265679224372459, 46.71930115548169], [7.265979922674343, 46.719221104467806], [7.266692053461006, 46.718876041360964], [7.266953958767708, 46.71845969675053], [7.2672745461895705, 46.71804402654544], [7.267515250101819, 46.71771128067454], [7.267699239070183, 46.717272041352665], [7.267774275165134, 46.71699311650521], [7.2677926988736115, 46.716830659957104], [7.267793674552835, 46.716598633334755], [7.267740395821174, 46.71637164357678], [7.267651912401517, 46.716106630450334], [7.2675512050212, 46.71550438565553], [7.267452139183885, 46.71530597589413], [7.267335830387576, 46.71485161891091], [7.267370525229171, 46.71455403999442], [7.267436665909405, 46.71456552814942], [7.267583060814514, 46.71421966891692], [7.268031819128499, 46.71400316056036], [7.26870402758348, 46.713985578616665], [7.269185885955359, 46.71356525344185], [7.269363732183383, 46.713248638069935], [7.269453562684274, 46.712947948270056], [7.269543586588283, 46.712506893474526], [7.2697504235062675, 46.712143687500195], [7.269826863929367, 46.71205672601796], [7.271468444456108, 46.708615870244046], [7.271323659922442, 46.708459387839866], [7.2706684574937235, 46.70757640722438], [7.2708662591971995, 46.70765114668376], [7.271174381148019, 46.7073899145265], [7.271432162767241, 46.70691644883035], [7.271655131731621, 46.706468455030574], [7.2721107779540155, 46.706238794647945], [7.272730145674049, 46.70613312241745], [7.272732108054651, 46.70613282843567], [7.272672438101505, 46.70589256115569], [7.272904022317866, 46.70582835506045], [7.272888027706409, 46.70572331841853], [7.272546706083418, 46.70542984207403], [7.270017505133501, 46.703366661080146], [7.2705355491329815, 46.7005876841732], [7.265493378707885, 46.69831478877756], [7.265723029466919, 46.697809006769916], [7.265863566313733, 46.69721981433527], [7.265864677285265, 46.69696392888128], [7.26592461244286, 46.69652417464773], [7.2658951439085975, 46.696052664967745], [7.265893127869417, 46.695273098848475], [7.265811902083154, 46.69460614395114], [7.265784245066312, 46.69421413921238], [7.26580664125911, 46.69395361652201], [7.265832571762699, 46.69321256770965], [7.265830827898476, 46.693104510783265], [7.265899943959912, 46.692199540808424], [7.265881805922042, 46.69179115277436], [7.264440059210963, 46.68736913050835], [7.262904534882718, 46.68588956463984], [7.26078846071969, 46.68350091244739], [7.259421612491789, 46.681891699673784], [7.258763124993222, 46.67989999535242], [7.259240452404136, 46.67829911913166], [7.259181954785402, 46.67823968293705], [7.258841579809793, 46.67792722244941], [7.258679386901593, 46.67765357171987], [7.2585387468619995, 46.677360605802], [7.258250140627861, 46.676891009905816], [7.258087621946542, 46.67646315507938], [7.257848822020071, 46.67614764098433], [7.257742538042821, 46.67590441956636], [7.2575523994816225, 46.67572061481695], [7.257505991206406, 46.67549569653394], [7.257361060019892, 46.67537407815656], [7.257305356117254, 46.675080579506094], [7.2570408227088254, 46.67475688154003], [7.256826811440908, 46.67451183080141], [7.256846851954308, 46.674479073728726], [7.256806243546699, 46.67444146086816], [7.256703391036469, 46.67432581915574], [7.2566774065618285, 46.67425353378028], [7.2566143252839534, 46.674191245824865], [7.256578781953421, 46.67415925425247], [7.25654515712872, 46.67414347579561], [7.256518381960803, 46.67411569948279], [7.256440365835056, 46.67407970850583], [7.256401976031262, 46.67403546030066], [7.2563367853289575, 46.67399037753665], [7.256278730572572, 46.67391822047303], [7.256230555451089, 46.67388083813155], [7.256086779745958, 46.673817493475525], [7.256010233332097, 46.67376456594563], [7.2559052296839495, 46.67368286026722], [7.255840517834308, 46.67364707033511], [7.255720055865773, 46.673522754630895], [7.255656604709189, 46.67349295776541], [7.255582080253273, 46.67344140069865], [7.255569393010114, 46.673406162439484], [7.255501425306976, 46.67334035773503], [7.255422223549345, 46.67330381530931], [7.255357438661634, 46.67325900237595], [7.255292962273203, 46.67322332007125], [7.255219405024554, 46.67315656155195], [7.255198532078004, 46.67312664432576], [7.255205511812861, 46.673095665843306], [7.255205702055596, 46.67303993864648], [7.255179717467872, 46.67290335247912], [7.2551524870843345, 46.67285615351739], [7.255124509096157, 46.67282124128347], [7.255122903636092, 46.67277469537562], [7.255101618787156, 46.67270473822237], [7.25506697884666, 46.672642225795414], [7.255063412260344, 46.67260747010069], [7.255050466973096, 46.67257146698543], [7.255050620482649, 46.67252648919277], [7.255024171704813, 46.6724342056529], [7.255004662614495, 46.67240689057912], [7.2549929843537075, 46.672321359844254], [7.2549710456882766, 46.67229751291457], [7.25494543992939, 46.67225311439772], [7.25488092566244, 46.67219079627178], [7.254868925575001, 46.6721573761533], [7.254869133331098, 46.67209661138191], [7.25488155970329, 46.67206270043082], [7.25492797078482, 46.671999824570165], [7.254934913542366, 46.671968216443155], [7.254908001665158, 46.67191220253444], [7.25488062268779, 46.67187430480012], [7.254803112990044, 46.671817632843585], [7.254730526394613, 46.67174676472621], [7.254713619668529, 46.67170756157335], [7.254713774342204, 46.67166236809256], [7.254700104603422, 46.671624330677325], [7.254659238269961, 46.67156772714386], [7.254614796660507, 46.67153249134353], [7.254589280897077, 46.67151922646998], [7.254404559467174, 46.67147444263934], [7.254194593628295, 46.6714288890472], [7.254091628771524, 46.67142164169654], [7.254096976247937, 46.671455159051966], [7.254071110434853, 46.67151716809891], [7.253940007854814, 46.67171211363049], [7.253742870187298, 46.67206660397565], [7.253428937968847, 46.67214450599389], [7.252930448101615, 46.67210347231151], [7.252928355987586, 46.67210381971967], [7.252795376869164, 46.67212555112], [7.251770899464716, 46.672363950832015], [7.25057850857266, 46.67273786241812], [7.2490030190274295, 46.673590374733614], [7.248749147681487, 46.67378236246959], [7.247691657720111, 46.674619043504975], [7.247153286491665, 46.67502892287617], [7.246973515421268, 46.67571127663774], [7.246990879654851, 46.67575282017241], [7.247051052676025, 46.67596422536671], [7.247099783242169, 46.67620712313496], [7.246948406529934, 46.67641446545031], [7.2467610988787445, 46.67647628097122], [7.246402703483366, 46.67692737321425], [7.246299465394184, 46.67729277508359], [7.246176765609085, 46.67765457327241], [7.246221944532481, 46.67787404124579], [7.2460769008245665, 46.67804800198419], [7.246163659208312, 46.67841549816986], [7.2460914321433325, 46.67871152534373], [7.246104720222803, 46.679018636212476], [7.246267993812303, 46.6793054916891], [7.246037681351722, 46.67972956194787], [7.246022609914399, 46.67973730852627], [7.246134188385742, 46.679799531026426], [7.246217752190873, 46.679921679021476], [7.246331234643139, 46.68022607281252], [7.246345258403176, 46.68033933203035], [7.2463040168434585, 46.68045015880787], [7.246325134480332, 46.68048772383456], [7.246442508735681, 46.680559887073805], [7.246540293730162, 46.680627518805004], [7.246520285813137, 46.680739928606776], [7.246425413277349, 46.68084069736341], [7.2463365033278615, 46.681082803814746], [7.2464657915920565, 46.6813650316609], [7.246426975082906, 46.68146640807996], [7.246264313446707, 46.6816920715046], [7.246215821093125, 46.68182337711301], [7.246197200057904, 46.681931408229055], [7.2462132968288415, 46.68202793027529], [7.2462015558707895, 46.68215618464175], [7.246148950473402, 46.68224604988546], [7.246013073106196, 46.68237177341213], [7.245903011863368, 46.68245332808068], [7.24583875382181, 46.682537659792466], [7.245840823877323, 46.682572700852056], [7.246035506508172, 46.68280761607076], [7.2460698017378675, 46.68288845368154], [7.246099194296752, 46.6830716608676], [7.246417685767942, 46.68332547835142], [7.246647962699382, 46.6834298022494], [7.246795105148924, 46.68359737663922], [7.247098896458898, 46.6837783847465], [7.247312453814926, 46.68403812157296], [7.247348010989351, 46.68421307188039], [7.247343648577334, 46.684318491886195], [7.2475165801842305, 46.68446540998977], [7.247674736292792, 46.684555235617374], [7.247740625283021, 46.68461859378657], [7.2478200304438065, 46.684803234267356], [7.24792344712319, 46.68498817585734], [7.247962130771786, 46.68514116447652], [7.247975901075734, 46.68534919978932], [7.24801380814122, 46.68552221105259], [7.248087229766349, 46.685702819892335], [7.248194903024866, 46.68585669792405], [7.248253485460646, 46.68592426257258], [7.248299092223801, 46.68596481891143], [7.248542340524859, 46.686061137105746], [7.248860733805942, 46.68613659382903], [7.249043213222489, 46.68624042835773], [7.2491083936138585, 46.6862945102632], [7.249186204161308, 46.68647005276123], [7.249185553513223, 46.686654459956074], [7.249341694041327, 46.68686611455555], [7.250052963238008, 46.68719562597973], [7.25022678348924, 46.68745160291253], [7.250496016125704, 46.687760397823546], [7.250749513448477, 46.68800187973614], [7.250873366999319, 46.6880965373829], [7.251146806397724, 46.688411832781135], [7.251399140064282, 46.68878621984317], [7.251512070695827, 46.68911261914724], [7.251587161463389, 46.68959546835964], [7.251461156694002, 46.689786360952105], [7.251114378386906, 46.689895586148545], [7.250794940737902, 46.689976474225865], [7.250604475055147, 46.69023702761872], [7.250276824085951, 46.69047486445234], [7.250249999571848, 46.690668222706314], [7.250273884818937, 46.69131594779514], [7.250240110480708, 46.69163073418138], [7.250147904995796, 46.69182848190193], [7.24995769895295, 46.69201257351768], [7.2499550700579025, 46.69201291998309], [7.249356128574936, 46.69207909042095], [7.249042003198794, 46.692172972969495], [7.24874083000981, 46.6923118992731], [7.248707844897393, 46.69239730129556], [7.248712198197854, 46.69301799860989], [7.248469736994123, 46.69318850590144], [7.248467107861685, 46.69318889729393], [7.247998797854113, 46.69326864704984], [7.247880847252174, 46.69335395085763], [7.247861077227985, 46.69339889488616], [7.247860501008504, 46.69356081205584], [7.247847203768599, 46.69362375817837], [7.247630579320507, 46.693879763714605], [7.247289017617415, 46.69434245578871], [7.2472358994002, 46.69458074699159], [7.247313635522924, 46.69477877908834], [7.247352568007432, 46.69485980434072], [7.247749872971466, 46.695269769498445], [7.247755463025654, 46.69553964385354], [7.247467149062382, 46.69573256102237], [7.2471141084810755, 46.69574096059836], [7.246826241437637, 46.6958079401493], [7.246629682118488, 46.69593354450919], [7.246720231406935, 46.696208060155605], [7.246575628382832, 46.69642820487387], [7.246366233720198, 46.69648632967114], [7.2459476981071465, 46.69653515715911], [7.245672744201391, 46.696638074788716], [7.245678614918742, 46.69682698996345], [7.245698048591182, 46.696876498693996], [7.245639133672914, 46.69689888683095], [7.245636530418685, 46.69689928714639], [7.24543635717431, 46.696930025399936], [7.2451932815963955, 46.697266941863724], [7.2451271316897365, 46.69748272082653], [7.24513334457378, 46.69757268651077], [7.245322125320683, 46.6977978955953], [7.245458985601925, 46.69791507034491], [7.245550102024406, 46.69802766924413], [7.245582377191979, 46.698149163051035], [7.24530064994692, 46.69831509958518], [7.2450325731791425, 46.698328135000814], [7.244320062728193, 46.698308933300616], [7.244241403655169, 46.69836726902904], [7.244017485638738, 46.698825654965795], [7.243984064905332, 46.69902799629652], [7.2439696620816925, 46.69940128450596], [7.243621022465301, 46.69999438783306], [7.243110264198933, 46.70022289323114], [7.243102759430481, 46.70048824685317], [7.243317054159871, 46.7008889160103], [7.242589937055862, 46.70128346249693], [7.242425690458702, 46.70150357674177], [7.242065378535748, 46.7017053515787], [7.241908177525942, 46.701786038342526], [7.241946892729084, 46.70192553584442], [7.241945751797983, 46.702240376068765], [7.241958101785086, 46.70243829807667], [7.242125365236842, 46.70307405793663], [7.242044628496381, 46.70381475956778], [7.2410544309511256, 46.704622629433764], [7.240816540905901, 46.70530587079833], [7.240239607116324, 46.70573215726436], [7.239898523064655, 46.70602841086033], [7.239740035225855, 46.706455418113826], [7.239612947878758, 46.707233303699795], [7.23960970733364, 46.70811035718001], [7.23935837002079, 46.708888026002235], [7.2390500208908, 46.709166343408704], [7.238223770880134, 46.70980808160141], [7.237685534719587, 46.7100272130092], [7.237011925586468, 46.70983290183573], [7.236546843368, 46.709617037672565], [7.236089356025321, 46.70955190433397], [7.235779185865644, 46.70944173118116], [7.235424589981481, 46.709394680145714], [7.232654183253863, 46.708194221121374], [7.232488426413273, 46.707933536362155], [7.232111693537931, 46.70768190424862], [7.231746641649984, 46.707386069617755], [7.231296006181099, 46.707036312210995], [7.231013716390631, 46.706905082252966], [7.229940310895394, 46.706761848091645], [7.229458457751644, 46.7066692620145], [7.229308323548352, 46.70660255347244], [7.229059354723539, 46.70631537187873], [7.22883423370942, 46.7061937238067], [7.228559765436252, 46.70615844022112], [7.228166437581609, 46.70620196188839], [7.2278554957348575, 46.70629731265919], [7.227598505570964, 46.70617664556413], [7.227443749617469, 46.70604248648961], [7.226982310004294, 46.70574329194635], [7.226646394040435, 46.70553709143115], [7.226446860105982, 46.70535222964052], [7.226364722076161, 46.70524453484144], [7.226311632602818, 46.70502623156946], [7.226176265031322, 46.70473606226319], [7.225846754845874, 46.70456889383144], [7.225596218636046, 46.70446931968993], [7.225460379002486, 46.704352014973004], [7.225459114990632, 46.70399889615116], [7.225381822462245, 46.70391336546176], [7.2245558506698035, 46.703628225033455], [7.2239511407733, 46.70360915512836], [7.22394830116865, 46.70360968948837], [7.223603180760448, 46.70368360888725], [7.223212952823291, 46.70359650312943], [7.22286680307732, 46.703308079315384], [7.222575510148571, 46.70298706013322], [7.222386115220075, 46.702917101273634], [7.222383223444508, 46.70291760851153], [7.221794047206703, 46.70301404075964], [7.221443329319201, 46.70283623946538], [7.221220719171741, 46.70244455371568], [7.2210425409929915, 46.70204361517024], [7.220813099660157, 46.70178384372226], [7.220636098763729, 46.7014936056768], [7.220661085631457, 46.70137769258994], [7.220534462455836, 46.701165569100695], [7.22044463756535, 46.700946121800236], [7.219976420659952, 46.70073226999243], [7.219519587924572, 46.70053319989541], [7.219217993825267, 46.70033863798212], [7.218901421170342, 46.70021681118537], [7.218686504404319, 46.700012934455], [7.218450688238755, 46.69972469272947], [7.2184764613577626, 46.699417969038564], [7.2184008313713095, 46.69912582796261], [7.2184927467039115, 46.69863159507587], [7.218598196911817, 46.698018260999184], [7.218518088922155, 46.6976227799214], [7.218323245191286, 46.69730928604444], [7.218043153201076, 46.69706416315902], [7.217567056948017, 46.696386450275845], [7.21709002902766, 46.695943831257885], [7.216708670256669, 46.695631103727344], [7.216178105741523, 46.69594307415863], [7.215676649817482, 46.696337164899816], [7.215197022295523, 46.69654230086919], [7.214687325757809, 46.696717951318774], [7.214248666793464, 46.6967725969254], [7.213916350946714, 46.6967057777352], [7.213522255996957, 46.69674939129078], [7.21331566446837, 46.696919087010805], [7.212685324914473, 46.69701314271574], [7.212557109626906, 46.697002821639465], [7.212406719677513, 46.696983397991865], [7.212279256408757, 46.69695288317937], [7.212212926672874, 46.69691662512083], [7.212144321206063, 46.69689917203718], [7.212063217157545, 46.696897112185134], [7.2119624194395495, 46.6969300324601], [7.211891384912284, 46.696933641990576], [7.211709238842652, 46.69690470856652], [7.21147235313457, 46.696921668519344], [7.21124489160418, 46.69699166648331], [7.211163935076244, 46.697001111886536], [7.211053720663079, 46.69699451328917], [7.2107672523364394, 46.69700942951774], [7.2105696853436, 46.697034472736355], [7.210212372876099, 46.69709724558512], [7.210144048503609, 46.69712136000053], [7.21006112350777, 46.69717237794862], [7.20995290148071, 46.69730896449177], [7.209886972228128, 46.697430739475394], [7.209875235409016, 46.69749124692398], [7.209845174289999, 46.697553381517864], [7.209799528968715, 46.69757854911954], [7.209725811966219, 46.697591614985576], [7.209515363372267, 46.69760759881069], [7.209318994117247, 46.69764539767997], [7.209237346474157, 46.69767859748643], [7.20917932879192, 46.697723017610606], [7.209099677111775, 46.69782149301748], [7.209081333321697, 46.69788890454987], [7.20904207667361, 46.69791502019826], [7.20890326062963, 46.69793128254079], [7.208583715419093, 46.697898710983075], [7.2084871144348455, 46.69785754086008], [7.208380249764435, 46.69778898537517], [7.208324296297984, 46.69777252723319], [7.208015232401613, 46.69770778036367], [7.207777553491412, 46.69770132462793], [7.207681422368747, 46.697715387739315], [7.207583227589993, 46.69774706806694], [7.207318594652939, 46.697927573506384], [7.207160527463121, 46.69802083216415], [7.20709877271559, 46.69813399624908], [7.207123886125695, 46.698253094897396], [7.207121184548372, 46.69830965349066], [7.207034207727264, 46.69844727010687], [7.207005555928151, 46.698533461122096], [7.206884617135759, 46.698645263141586], [7.206708676652734, 46.69872583732423], [7.2064494349540755, 46.69875531710598], [7.206291837684537, 46.698754122516114], [7.206116278898252, 46.69877341009441], [7.205964128163394, 46.698815882170635], [7.205841710110129, 46.69882785657295], [7.205743814620262, 46.69885922153481], [7.205546662024769, 46.69898552843918], [7.205424825459626, 46.69905315867855], [7.2053775931259585, 46.699090753111705], [7.205273230004046, 46.69922635391983], [7.205116591585514, 46.6993984865294], [7.205020386112807, 46.69941657609143], [7.2049363756479075, 46.699417572615374], [7.20480336128043, 46.699412450564374], [7.204661385865405, 46.69939941177832], [7.204540585537615, 46.69939684244757], [7.2044369709189615, 46.69940501286413], [7.204219169420032, 46.69941108545693], [7.204173457423059, 46.69940264347329], [7.204006477329785, 46.699313126643304], [7.203908334947173, 46.69929580571088], [7.203809576281401, 46.6993028343025], [7.2037485844454325, 46.69931728111176], [7.203520485670288, 46.699390896872835], [7.203416600054931, 46.69941615743196], [7.203282030178398, 46.699434832408464], [7.203192772181514, 46.699460770730624], [7.203128433809431, 46.69946903941257], [7.203023775262747, 46.699500495706765], [7.202885811360628, 46.69950892636951], [7.202738815346786, 46.69952873593301], [7.202669974311563, 46.6995589442106], [7.202577326660815, 46.69958254525036], [7.2023935567578246, 46.69959489193224], [7.202316000396804, 46.699611840324984], [7.202170515081149, 46.699665511034574], [7.202129459892956, 46.69967441219366], [7.202078582315793, 46.69964838125685], [7.2020170693472565, 46.69963251107533], [7.201929638268692, 46.69961454515114], [7.20183640345931, 46.69960514882087], [7.2017822075417195, 46.69958745871859], [7.201647206181462, 46.69953187324863], [7.201582864453152, 46.69948748121424], [7.201501210756654, 46.699452264910356], [7.201418148304533, 46.69942510498714], [7.201337673253037, 46.69940716178961], [7.20124229415882, 46.699403769379785], [7.201073329990794, 46.699426894578984], [7.2010212471289075, 46.69942224285089], [7.200606530461152, 46.699332553235855], [7.200481157596695, 46.699311511071855], [7.200374396959332, 46.699280126953695], [7.200268913048786, 46.69926162719066], [7.2001868170777135, 46.69926145515627], [7.199977097463318, 46.69930255655618], [7.199858374623334, 46.69931505377823], [7.199671574939069, 46.699356067527816], [7.199552656117571, 46.69936555050964], [7.199298956595782, 46.69939969454326], [7.19919944358741, 46.69940853437252], [7.199079370668349, 46.69940998155111], [7.198960585392818, 46.69939245996623], [7.198842036585671, 46.69936588003898], [7.198686638105347, 46.699355018279014], [7.198494997289335, 46.69933514724984], [7.198323736036405, 46.69932792171989], [7.198177549437864, 46.69930382842638], [7.198038357849794, 46.69930018744716], [7.197798897662588, 46.6993019566874], [7.1975484338995726, 46.69933155161075], [7.197384913472107, 46.699315561821415], [7.197279019512094, 46.69929242522507], [7.197181549494535, 46.69924523463498], [7.197037879713502, 46.6992169442106], [7.197034203554398, 46.69922616595604], [7.196893830231867, 46.69927030600745], [7.196293820810928, 46.69947738313077], [7.195875464405829, 46.699506238978046], [7.19492378135625, 46.69994206172996], [7.194547029073375, 46.700099764920715], [7.193776318534882, 46.70068082531335], [7.193189881159814, 46.700927983666176], [7.192995358144093, 46.70102594834274], [7.192912622552781, 46.70111639022367], [7.193121657933849, 46.70125914115523], [7.19327436114301, 46.70147725990531], [7.193716183739765, 46.70163100250515], [7.1940667063216575, 46.70194195929687], [7.19420113294698, 46.702301618662325], [7.194555876796266, 46.70267496626519], [7.195019288182202, 46.70296132651983], [7.195467103323943, 46.7032884548014], [7.1961206625095056, 46.70372792434803], [7.196518190596059, 46.70390951225491], [7.196613000838245, 46.70413678859598], [7.196688077757753, 46.704262931031565], [7.196803399649354, 46.70443348026482], [7.196692388930352, 46.70469889618128], [7.196692852488665, 46.704851243768616], [7.19751436322394, 46.70529755939769], [7.1976569194490985, 46.70535043186426], [7.198020445775589, 46.70555085802119], [7.198053322495471, 46.705570681768904], [7.198181569065734, 46.70568014032541], [7.200240578112434, 46.706434842226884], [7.205955523823045, 46.708909030804485], [7.207070391994177, 46.70872121665325], [7.206990059902767, 46.70910621417459], [7.206939113927736, 46.709257099814884], [7.206810273993979, 46.70956364621604], [7.2066468906436425, 46.7097924452546], [7.206396082372553, 46.71011524873457], [7.206249657862938, 46.71029565083789], [7.206018913474781, 46.710600713918524], [7.2062368199212035, 46.71077738270494], [7.206355848092835, 46.71086311974455], [7.206448767240609, 46.711146838680264], [7.206447103990061, 46.711316724037424], [7.206724426263448, 46.711342435322635], [7.207043628810836, 46.711457626547286], [7.207544454146334, 46.71169813358429], [7.207586090182443, 46.71195977648511], [7.20783677943265, 46.71222497065118], [7.207999289198028, 46.71246182836817], [7.208223234700367, 46.71286465055259], [7.208337655076829, 46.71309043617832], [7.2083520001575, 46.71326773975741], [7.208230685838725, 46.71360295264038], [7.2084191753990545, 46.713675110377814], [7.208751747568972, 46.71358877013332], [7.209149809258757, 46.7135799026248], [7.209352999681994, 46.713550933359706], [7.2099683959563015, 46.713361452234274], [7.210387051378852, 46.71330154029211], [7.210779981397036, 46.71338318162186], [7.210862476080593, 46.71352560124162], [7.211464882919354, 46.71377131529347], [7.211970713665002, 46.714016446755494], [7.212133072215414, 46.71419561965803], [7.212188806123561, 46.7143180784255], [7.212248451520188, 46.714505401928804], [7.212626216206646, 46.71478721913341], [7.213247182986948, 46.715053488518045], [7.213977298764877, 46.71518831259962], [7.21428018807118, 46.71532301645905], [7.2145966155220025, 46.71550771544969], [7.214933123153452, 46.71585201520369], [7.215087677375267, 46.71606849964411], [7.215457023710672, 46.71643098064722], [7.215622164121616, 46.716656615924634], [7.215646779698541, 46.716999933916334], [7.216444808076768, 46.71725195249499], [7.217209647271965, 46.71730758233734], [7.218588200509917, 46.71747924429344], [7.2190210027853, 46.717560016197304], [7.219658257069319, 46.7178184015606], [7.219938178881031, 46.71781231921083], [7.220221884610949, 46.71806933746317], [7.221327604914424, 46.71808548432149], [7.222356205910064, 46.718345590723516], [7.223682392536136, 46.718539604457916], [7.224205896107176, 46.718602635390646], [7.224524153061583, 46.718633883293954], [7.225518310383905, 46.71866159836766], [7.226077674930087, 46.718749534405994], [7.22704696883741, 46.718777711028096], [7.228578094097104, 46.71883987906079], [7.2295717638679, 46.719017430021616], [7.2299430139146965, 46.71899438284924], [7.229905436481065, 46.720379408764224], [7.229905581242017, 46.72078598631452], [7.230496772750068, 46.72261293273589], [7.231698144497585, 46.72349590911999], [7.232065830702282, 46.723777858686724], [7.233230911444191, 46.72412894121017], [7.2342646599297815, 46.72518369445148], [7.234302031439323, 46.72520454078575], [7.234352215765984, 46.72524439999145], [7.234379873004185, 46.72531208642813], [7.2344185593250945, 46.725369061181325], [7.234619317418605, 46.72547857223538], [7.234693165762569, 46.725566626166476], [7.234836355146835, 46.72568292414606], [7.2349735351756355, 46.72575591593302], [7.235078246002605, 46.725777827810845], [7.235181702346668, 46.7258544740986], [7.235304526580084, 46.725908540617], [7.235380079719396, 46.7260097576153], [7.235680034679921, 46.726227218469326], [7.235846249130469, 46.726371811427256], [7.236114194372053, 46.72641010592801], [7.236239861515262, 46.726449774822385], [7.236373272732973, 46.72645486094206], [7.2366026962012375, 46.72647524797344], [7.236788815006272, 46.726472718142304], [7.236894204069277, 46.726544410413204], [7.237031064120499, 46.72656125896986], [7.237156348218854, 46.72653950519161], [7.237216112767196, 46.7265894729862], [7.23741149946296, 46.726644736858816], [7.237523727974708, 46.72671382295478], [7.237601435887419, 46.72681750743659], [7.237659084955491, 46.72695738058156], [7.237675181032543, 46.72707452991396], [7.237746973020632, 46.72715129837192], [7.237746553183058, 46.72722842452116], [7.237835821389469, 46.72727054627328], [7.237876327696886, 46.72732498658617], [7.237965752756802, 46.72736019989692], [7.238054623231061, 46.72743530706759], [7.238057021949057, 46.72747597060594], [7.23812777515234, 46.72754743857047], [7.238214298410268, 46.72764872745816], [7.238228634110832, 46.72775073421898], [7.238155155740787, 46.72787967095175], [7.238070586525193, 46.72795541613486], [7.238055551182215, 46.728058018764315], [7.238019923402601, 46.728112063413604], [7.238038416887461, 46.728256572075296], [7.238035198566526, 46.72831256303307], [7.238011654208236, 46.72841677939481], [7.23798449922323, 46.72848582514481], [7.23796457558238, 46.728583687514174], [7.237973486003733, 46.72870903652928], [7.237998357859533, 46.72887596365402], [7.238134329618183, 46.72900268921019], [7.238257902799373, 46.72900603726774], [7.238350615282522, 46.72903752288404], [7.238392939887691, 46.729074910511265], [7.238413699219766, 46.72917352833443], [7.238480406291168, 46.72927473673586], [7.238496342498015, 46.729410811880804], [7.2385950216879, 46.72952288932123], [7.238604281054799, 46.72955169104743], [7.238641537141264, 46.72958027225085], [7.238730970511544, 46.72961092447784], [7.238804243922017, 46.7296846453611], [7.238927712259981, 46.72972020584594], [7.239073252931445, 46.7297902575774], [7.2392609053891475, 46.729888602073345], [7.239338720044704, 46.72997978186484], [7.239465414337381, 46.730080510741004], [7.239741619259027, 46.730183246139454], [7.239863237385865, 46.730294958154886], [7.239933406476037, 46.730388040163135], [7.239863516871953, 46.7305054976016], [7.239868865989157, 46.730622448150285], [7.239831545099579, 46.73079453818949], [7.239874463388638, 46.73089130566133], [7.239906366607291, 46.73099855131325], [7.2400767304586955, 46.73114970363001], [7.240072633478369, 46.731284538337086], [7.240164058255007, 46.73136131239021], [7.240193899720481, 46.73153105511198], [7.240350387953121, 46.73162483646208], [7.240408476496736, 46.731769585016785], [7.24050436135966, 46.731917907830216], [7.240427342949116, 46.73205249843755], [7.240418170928369, 46.73221207098546], [7.24051725867745, 46.73224792002677], [7.240612711976353, 46.73231852101374], [7.24051678245432, 46.73243349554897], [7.240598090054371, 46.73258300723542], [7.240616113288643, 46.73267650156285], [7.2404859605952385, 46.73282975503457], [7.240379776694593, 46.73302156891088], [7.240231126156541, 46.73304308699448], [7.240155333619469, 46.73312511015516], [7.240166564922471, 46.73327903314887], [7.240249769147058, 46.73337920818221], [7.2402203155334215, 46.73357114693965], [7.240309153201641, 46.73369064514575], [7.240345076627526, 46.73380469843424], [7.240411908807975, 46.73392776524851], [7.240370687710969, 46.734100064396266], [7.2404049621872835, 46.734253308122845], [7.240378516908452, 46.734371183594824], [7.240393705561116, 46.73449894587506], [7.2402306119759, 46.73472424908589], [7.240205659414368, 46.73482747343233], [7.2402816910076, 46.73490078438427], [7.24039688167032, 46.734959950866745], [7.2404278519273815, 46.734991381172634], [7.240482657443847, 46.73506255002001], [7.240472408962288, 46.73516633973262], [7.240413059666213, 46.73524134839629], [7.240393647849696, 46.73528269363652], [7.240412094596775, 46.735339640209105], [7.240543872964448, 46.73545282611207], [7.240593066474641, 46.73555228489316], [7.240645037570497, 46.73575707637664], [7.240614147491302, 46.73583845849528], [7.240507854172609, 46.73588128921267], [7.240432104031163, 46.7359933574478], [7.240431521272383, 46.73614044131254], [7.2402726659603305, 46.736198400268094], [7.240071828955524, 46.736290531673276], [7.240149169308652, 46.736385433953], [7.240087201471499, 46.7364497960332], [7.239471720538448, 46.73695812215648], [7.239007730287374, 46.736945639538796]]]]}}]}