{"type": "FeatureCollection", "features": [{"type": "Feature", "properties": {"bfs_nummer": 2401}, "geometry": {"type": "MultiPolygon", "coordinates": [[[[7.81948280187357, 47.32208002582862], [7.813128937351748, 47.319801412980624], [7.8132504303966686, 47.31964127690344], [7.806283002816206, 47.317189231584074], [7.8061768674217795, 47.31723831950485], [7.805723418200308, 47.31707758047581], [7.80572006158311, 47.3170510571496], [7.805636420078223, 47.3170244292518], [7.80563840171308, 47.31698556662114], [7.803208955750496, 47.31611007479034], [7.801071459855393, 47.31534560785479], [7.801364884560371, 47.31494497094552], [7.801687099981411, 47.31446483052794], [7.801905752282747, 47.3141773174281], [7.802127221772122, 47.31393295972913], [7.8021182528388735, 47.31387821131021], [7.80205342168573, 47.31383749012433], [7.801821692781101, 47.31373586089596], [7.801582069479896, 47.313642081216216], [7.800817390684828, 47.31335476646452], [7.800059611837739, 47.31308523425501], [7.799479838287849, 47.31293287965473], [7.799239024734579, 47.31280069230349], [7.799998197230009, 47.31206059988283], [7.8002111663984195, 47.311834360271135], [7.800420992451945, 47.31158950242655], [7.8004591452319945, 47.31155996192501], [7.800511535786612, 47.31154523572871], [7.800568174170801, 47.31154847626894], [7.799900047851436, 47.31143353879518], [7.799100704175738, 47.31127125485818], [7.798480509249418, 47.311161835194305], [7.797818161592957, 47.31103752240898], [7.7970968523288375, 47.31089621815229], [7.795875577090739, 47.31217144661238], [7.791073335007057, 47.310797525324794], [7.7910504151582956, 47.31075120148202], [7.79028298885306, 47.31155529235529], [7.790302336012761, 47.31160137534064], [7.79028134370115, 47.311626893628635], [7.7901345194934875, 47.311703424730474], [7.790079887220538, 47.3117618751636], [7.78935570991888, 47.3115042322655], [7.788128229337698, 47.312900489601354], [7.788032736181667, 47.312974470310415], [7.787894262161137, 47.313093301514876], [7.787261924234853, 47.31280269986026], [7.785874535857084, 47.314076252189665], [7.7854999541125895, 47.31390435841254], [7.7825251208316715, 47.316829525633786], [7.778950301758518, 47.32035502322324], [7.77832935163052, 47.32024923860121], [7.777145064959384, 47.32228599370266], [7.776928463351649, 47.32298212846031], [7.776332890460929, 47.32416637201051], [7.776079296925179, 47.32457569477957], [7.775788328916261, 47.325365949387766], [7.775412363758565, 47.32650773898269], [7.775524087735915, 47.3271254911519], [7.775528393284458, 47.32735081031078], [7.775524514266876, 47.32774060741052], [7.775561661532617, 47.32783504028783], [7.775686076011582, 47.3279977843766], [7.775830733326877, 47.32822995169786], [7.775455417479649, 47.32858784218841], [7.775425091255345, 47.32863332522241], [7.7753172979103695, 47.32875902315381], [7.775294822379882, 47.32890808404385], [7.77533582853469, 47.32904157880999], [7.7751585244916575, 47.32927384051885], [7.77499563131421, 47.329305409216396], [7.7748368669376315, 47.32953687790446], [7.774920415736272, 47.32964900317436], [7.774866122613301, 47.3297437025691], [7.774936234855419, 47.329816587829995], [7.774845450653485, 47.329952741065064], [7.775188059521312, 47.330119050225484], [7.775194623409114, 47.33012146860258], [7.776125614426541, 47.330483075894804], [7.776496905315008, 47.33053509536217], [7.776824630147668, 47.330488625988224], [7.777119450899016, 47.33041073451068], [7.777276552696736, 47.33033130232854], [7.777278303208529, 47.330336136258445], [7.777376528881373, 47.330606538812006], [7.777356221499161, 47.330677520068676], [7.777391349689508, 47.331023934030114], [7.778143044586429, 47.330965693399264], [7.778793595606891, 47.330961612168004], [7.779079747813448, 47.33115119188393], [7.77927774481699, 47.331306599840985], [7.779359376534259, 47.33142727333472], [7.779365940792482, 47.3314296915007], [7.779965921734221, 47.33165776711703], [7.780287526337064, 47.33160765174026], [7.780694132105718, 47.33166663244055], [7.781076939904862, 47.331680529664915], [7.781335529062642, 47.331673539401216], [7.78253362387056, 47.332042902975985], [7.7825347795036075, 47.332043619101725], [7.782759686736669, 47.33218051141599], [7.782903436945197, 47.33236398453411], [7.783174476704714, 47.3324736739851], [7.783298813690376, 47.33256802328576], [7.7833814317099215, 47.33275392619459], [7.783772337016776, 47.333200865131666], [7.784003001415123, 47.33358454572306], [7.784242299870664, 47.33367844293279], [7.784151879983704, 47.3339561583052], [7.7836197790928034, 47.334533970914144], [7.783626330376571, 47.33453634386338], [7.7856819471107315, 47.33528422621543], [7.788598190881031, 47.335503108026764], [7.787730170159237, 47.33822528350699], [7.789518947578941, 47.338487365846625], [7.790861934261629, 47.338678832020506], [7.793567418415737, 47.339054577647474], [7.793490329768756, 47.33953129093919], [7.793508289583735, 47.33959370186534], [7.79456386727032, 47.33979747339544], [7.795887379114845, 47.34006295496218], [7.79667183205994, 47.34019522029303], [7.797824554942975, 47.340453706187155], [7.79823091297669, 47.3405515166843], [7.798607332658005, 47.3407207805788], [7.802770396981384, 47.340164578229704], [7.803555267712245, 47.340033475430275], [7.8047595065279145, 47.33978545400691], [7.805292110294092, 47.33899461329054], [7.80648871433379, 47.33788693741626], [7.808165454835307, 47.33634721206042], [7.809022650411891, 47.33569277010821], [7.810070612996514, 47.334906901258556], [7.810940076993611, 47.33423508065216], [7.811746128211416, 47.33362114295523], [7.814940168983003, 47.33121138572548], [7.8149715460527736, 47.331225782800004], [7.815070527555412, 47.331039246885645], [7.814921437141682, 47.33100316976345], [7.815058984297775, 47.330612125957515], [7.815212701685813, 47.33031942058531], [7.814879513396372, 47.33018825924045], [7.814963384734206, 47.329982902034985], [7.814990701278826, 47.32995434558247], [7.814928706709814, 47.32987539566649], [7.814916600610885, 47.3295484842148], [7.814781122910117, 47.3288015707003], [7.816100458754675, 47.32601904536398], [7.816180961106792, 47.325986186394836], [7.8162292993729405, 47.325829020666895], [7.816504692763688, 47.32586832617957], [7.817620799743176, 47.324108648716106], [7.81784652989495, 47.32416705623837], [7.8193265111853965, 47.322738479684105], [7.81948280187357, 47.32208002582862]]]]}}]}