{"type": "FeatureCollection", "features": [{"type": "Feature", "properties": {"bfs_nummer": 25}, "geometry": {"type": "MultiPolygon", "coordinates": [[[[8.628274986768128, 47.64834134514211], [8.628381315860667, 47.648478572041], [8.628562235372085, 47.64876216535409], [8.628706498584817, 47.64905521846731], [8.628813043742229, 47.64935552079544], [8.628881076530389, 47.649660921878855], [8.628910092155072, 47.6499691243826], [8.628947572870306, 47.65119856623688], [8.62893103515761, 47.651593770908136], [8.628857510705492, 47.65198599787206], [8.628727686578777, 47.65237151628042], [8.62854280950153, 47.652746616460725], [8.628304649014932, 47.65310774521908], [8.628015456375302, 47.653451452291215], [8.627678019003628, 47.65377444372094], [8.627295529201255, 47.65407365537145], [8.622369208812213, 47.65756647762724], [8.62171342015395, 47.6580126444336], [8.62103101884568, 47.65844020810276], [8.6203231737068, 47.658848445704834], [8.619591054915675, 47.65923668830758], [8.618835925321845, 47.65960423903583], [8.618059063676801, 47.659950508880996], [8.61746191809686, 47.66020791968322], [8.616868869188194, 47.6604696031409], [8.616279956227702, 47.6607355407153], [8.615695284793254, 47.66100568663558], [8.615114880956728, 47.66128002261748], [8.614538837070953, 47.661558511867845], [8.612857132947273, 47.6623932765462], [8.612668449055663, 47.66248773605747], [8.612483987072126, 47.662585894223376], [8.612303851476804, 47.662687660061344], [8.612128227632159, 47.66279298676375], [8.611957245652617, 47.662901738117625], [8.611791090294487, 47.66301384031786], [8.610625101564688, 47.6638241849263], [8.610367874313276, 47.664018377998495], [8.610135326549402, 47.66422626274476], [8.609929025413276, 47.664446447434266], [8.60975037484602, 47.66467738886717], [8.609600632538816, 47.664917536680655], [8.609480786929623, 47.665165216910815], [8.608938172006019, 47.66646698602064], [8.608830434292267, 47.66675919121741], [8.608749238438822, 47.667055284257195], [8.608694853724353, 47.667354174175735], [8.608667508917001, 47.66765474341897], [8.608667273239536, 47.667955885005966], [8.608694175400611, 47.668256465380274], [8.608792244378453, 47.668983181662384], [8.609780645467255, 47.66892612997116], [8.610003655915358, 47.66891461043944], [8.610207642046332, 47.66957854766245], [8.610349173371343, 47.669857895918724], [8.610384390929491, 47.67007035543504], [8.61040706623803, 47.670123876789184], [8.610573988414073, 47.670301224752265], [8.610585543692917, 47.670378765181795], [8.610961036060134, 47.670305683773435], [8.611569691823513, 47.67020679922003], [8.611514269513673, 47.670517195505255], [8.611478994611671, 47.670860118614684], [8.61148986254579, 47.67097933667118], [8.61150202674428, 47.670977226101385], [8.611564274351863, 47.6710846734152], [8.61164770861325, 47.671183712912715], [8.611786774033789, 47.671325264315435], [8.611862951895182, 47.671422506141994], [8.611913846899332, 47.67152536391144], [8.611930231759823, 47.67163328327906], [8.611932066992141, 47.67181480628708], [8.611858671905557, 47.67241587435107], [8.611802733902433, 47.67269817785525], [8.611786489365517, 47.67281915378726], [8.61177166115004, 47.67304621250967], [8.611772431848587, 47.67322177406869], [8.613074264182158, 47.672770668368905], [8.61312601686386, 47.67277987698355], [8.613271516734557, 47.67283406264884], [8.613278259497102, 47.67283246543909], [8.613270771959826, 47.67281368005009], [8.613268464380424, 47.672794284627756], [8.613271417882297, 47.67277493495002], [8.613279540091355, 47.672756270533], [8.613289278163977, 47.67274261760875], [8.613303338766814, 47.67272872309389], [8.61332225907748, 47.672715391056386], [8.613344309052009, 47.67270447383536], [8.61455051420726, 47.67229104267698], [8.61461977911432, 47.67232670566912], [8.615042311706507, 47.67287673086887], [8.615055102119555, 47.67288961617013], [8.615079632959686, 47.672905881367555], [8.61509890270823, 47.67291430281492], [8.61512037576392, 47.67292059728353], [8.615143513143465, 47.672924482355256], [8.615167296471201, 47.67292567159661], [8.615191046349493, 47.6729241539019], [8.615213922158938, 47.67291925422266], [8.615234952949095, 47.67291102730655], [8.615261709489157, 47.672894386642426], [8.615281181436844, 47.67287352950843], [8.615289383992488, 47.67285791325423], [8.615293750065536, 47.672833242611276], [8.61529120004187, 47.672816754866645], [8.615251551676419, 47.6726881870299], [8.615239505062164, 47.672635629288344], [8.615234158942599, 47.672582571966835], [8.615234371404513, 47.67254715915411], [8.615237608266519, 47.67251181467864], [8.615243819020387, 47.672476664919], [8.615410936707532, 47.67173582802228], [8.615415884974837, 47.671694808675724], [8.615415928147812, 47.67166736661506], [8.616366989956262, 47.67176712024826], [8.616713270635731, 47.67180492054932], [8.616813115659102, 47.6710999034563], [8.616889046002065, 47.670587327741806], [8.619947289319484, 47.67075975309484], [8.619798107888583, 47.67149693548445], [8.61977399301443, 47.67157106022837], [8.619741322080275, 47.67164367997519], [8.619702999756974, 47.671710690736276], [8.619660476570624, 47.671772050752054], [8.619734956199213, 47.67175358356435], [8.621536440875742, 47.672167923646704], [8.62241697297369, 47.672367299184984], [8.62233777235048, 47.67177441635545], [8.622345076726091, 47.67126384070551], [8.622500961016986, 47.670597030236635], [8.622475483586225, 47.67044247037113], [8.622522779835075, 47.67031122861677], [8.62257423345084, 47.67018071797038], [8.622629832074423, 47.670050983496814], [8.622689523412713, 47.66992207067241], [8.622753309224468, 47.66979406039432], [8.622821137066275, 47.66966698920525], [8.623412907630222, 47.668789707182654], [8.623713379989267, 47.66839634949734], [8.62421627761191, 47.66774388342167], [8.624400671645999, 47.667447057684996], [8.624637578154, 47.6670157420544], [8.624910591068396, 47.666407758050475], [8.624985277257741, 47.666387630343316], [8.625083519087237, 47.66597680729455], [8.625107778906676, 47.66563780430222], [8.625540260600635, 47.665910187774564], [8.625800531122739, 47.66503957906628], [8.625962330359503, 47.66477571056079], [8.625838946355534, 47.66470806600467], [8.625897722005902, 47.664519319727965], [8.625970601052428, 47.664308726471425], [8.626056587289956, 47.664081747129046], [8.626159836664769, 47.66384557163494], [8.626239124252907, 47.66382894883945], [8.626369739569057, 47.66342969430289], [8.626526865409819, 47.6632753991724], [8.626821945592418, 47.662767445292864], [8.62696485688203, 47.66246684807967], [8.626992659987923, 47.66248481318913], [8.62750592849047, 47.66185495451624], [8.627528877318818, 47.66182983212833], [8.62755543135072, 47.661806363774886], [8.627585290285937, 47.66178481336646], [8.627618165314185, 47.66176536373778], [8.62765375452955, 47.661748206866804], [8.627691675957355, 47.66173352655227], [8.628842755614683, 47.66133816998387], [8.628971988145308, 47.66131189507348], [8.629135282888397, 47.661311957198905], [8.629156474818023, 47.66131416844765], [8.629176814128995, 47.66131872696418], [8.62920453950441, 47.66132966774441], [8.62922022913709, 47.66133941871808], [8.629233358947173, 47.661350787948486], [8.629243509023327, 47.661363455934755], [8.62925041898384, 47.6613770925511], [8.62929626562247, 47.66136852755378], [8.62922986333177, 47.66120050938029], [8.629228010406777, 47.661191515989024], [8.62923104177849, 47.66117355008532], [8.629239040641574, 47.66116098386233], [8.629251681962456, 47.66115001602805], [8.629274064088316, 47.66113942504817], [8.631448567438174, 47.66053890676222], [8.63170397728013, 47.66046565918129], [8.631940035684464, 47.66039332042794], [8.632181625154187, 47.660314178563674], [8.632420165639166, 47.66023092113136], [8.632915051745204, 47.66005232200868], [8.632996206665394, 47.66002437828595], [8.633078638878908, 47.659998175277096], [8.63316226954638, 47.65997375876647], [8.633247005906263, 47.659951147693086], [8.633332754991606, 47.65993035199994], [8.633480589373434, 47.659899140592415], [8.63360408692249, 47.659877389671365], [8.633666339709544, 47.659867907614185], [8.633791707322798, 47.659851749803195], [8.633765348273228, 47.65978154998985], [8.633695578219891, 47.659745183969584], [8.63368523064636, 47.65964407633669], [8.63378103690362, 47.659581640528515], [8.634714947731192, 47.65943798154667], [8.635599418111585, 47.659203378568066], [8.635795908940826, 47.659161552849866], [8.635997936767371, 47.65913264863319], [8.637192921297968, 47.65900439204291], [8.637672049900132, 47.65895024613171], [8.638692471839283, 47.658804689688104], [8.639261279998047, 47.6586949336941], [8.639536136777238, 47.65862414783641], [8.639515791762525, 47.65858995450651], [8.639543779544999, 47.65853429533983], [8.63824119479047, 47.656992316062635], [8.638281799150633, 47.656976462142225], [8.63836919681027, 47.6569893926629], [8.64009571296018, 47.65620316627576], [8.639982934540685, 47.65618988790845], [8.638927409354014, 47.655232650909596], [8.63911293489528, 47.655121810526744], [8.639100152769688, 47.65503176460295], [8.639342798578957, 47.654886792746126], [8.639137107356236, 47.65472962830391], [8.639099762907481, 47.65447257572841], [8.639084040472522, 47.65447312502309], [8.63906892967117, 47.654470115197604], [8.639056168203204, 47.65446386108017], [8.63904572987197, 47.654452618019604], [8.638934332730322, 47.654175634717255], [8.63871804767821, 47.65370323400041], [8.638575374651124, 47.65340758637559], [8.638387436661656, 47.653001657666415], [8.63851080147322, 47.65294013822825], [8.638080252325103, 47.65210429914346], [8.638072271313634, 47.652069258314064], [8.637527771612723, 47.65127018533498], [8.637394414672947, 47.65128765281459], [8.637379553142017, 47.651246764542975], [8.637372854016258, 47.65124719354177], [8.63738295895643, 47.651111875738835], [8.637440903706695, 47.65081759992675], [8.637450212387543, 47.65075656647543], [8.63746955345201, 47.65068946600757], [8.637474438118891, 47.65063882182019], [8.637440980584532, 47.650542575922024], [8.6374107845868, 47.650445163004655], [8.637356629814011, 47.650320123678966], [8.63737315381902, 47.65026206489799], [8.6373642849142, 47.6502336439981], [8.637320981983814, 47.65018232802024], [8.637318252264336, 47.65012871333096], [8.637301353361144, 47.65008423933279], [8.637305691332209, 47.65003708161462], [8.637338487854613, 47.65001287176704], [8.63730929847019, 47.649971726786255], [8.637311259117077, 47.64991891812411], [8.63738417025572, 47.64984624569218], [8.637380685723969, 47.64979457257724], [8.637396211876249, 47.64974537456178], [8.637461311185783, 47.649651007281285], [8.63744402543865, 47.64960708589238], [8.637486617707708, 47.64950338087845], [8.637621879556411, 47.64944381710494], [8.637640375470237, 47.64940647000878], [8.637585158526788, 47.64932920220038], [8.637588870710966, 47.649300885272226], [8.637607224330628, 47.64927961273165], [8.637564024588846, 47.64924813755267], [8.637536747571, 47.64921503179982], [8.637549815338247, 47.64918898386542], [8.637521182245138, 47.649162422095905], [8.63752613862325, 47.64912496301167], [8.637572841576818, 47.649107112469885], [8.637651989427647, 47.64904836187268], [8.637733206988592, 47.64894812542497], [8.637735009022226, 47.64892481117297], [8.63768084537024, 47.64887232126707], [8.637647774574242, 47.64881315542427], [8.637717397381875, 47.648737008957475], [8.637748012431329, 47.64872291324424], [8.63774556733818, 47.64868189685823], [8.637747305806304, 47.648615167040504], [8.637700035909676, 47.64855967368357], [8.637685406539415, 47.64852255173093], [8.637724255172254, 47.64849879198255], [8.637752554969058, 47.64844472179412], [8.637789612537205, 47.64834590373791], [8.637745322152458, 47.648308548589945], [8.63774466216229, 47.648273485972396], [8.637766623513452, 47.64825225710227], [8.637761698009811, 47.6482351645244], [8.637778681489424, 47.64818864076888], [8.63771463680397, 47.64812590928828], [8.637705467536165, 47.648105973320526], [8.637717572683911, 47.648078577085286], [8.637725176868559, 47.64804225998136], [8.63769437455035, 47.64801863483051], [8.637618838014408, 47.64800040062446], [8.637565834102215, 47.647969719186854], [8.637492216366939, 47.64789741748324], [8.63747153737075, 47.647823489698304], [8.637457575907874, 47.647741721330306], [8.637417397519767, 47.64766250811537], [8.637371434793913, 47.64759295188295], [8.63726242876996, 47.64750018412523], [8.637080203988736, 47.64731500745906], [8.637058251788261, 47.64730189527743], [8.636959909883213, 47.64720389037531], [8.636844972765413, 47.64709597386431], [8.636791859370891, 47.647064510682014], [8.63667675046051, 47.646983714091796], [8.636533699075947, 47.64690093905823], [8.636257051267128, 47.646722546673594], [8.636152373871932, 47.64665923413021], [8.635895543630715, 47.64659682588311], [8.635825449297629, 47.646592547775604], [8.635752981270612, 47.64660870248918], [8.635690702813028, 47.64660455059312], [8.635451795075694, 47.64663146025248], [8.635310690328538, 47.646623011690124], [8.635193820692603, 47.64660795428455], [8.635087397508437, 47.64660401415782], [8.635058692352546, 47.64662545591864], [8.635057158631426, 47.64666189022861], [8.635032374267382, 47.646697826640654], [8.635012685252487, 47.64671006410685], [8.634915658549833, 47.64673383781322], [8.634692212074349, 47.64671630707612], [8.63458686076561, 47.64680355908428], [8.634502268462983, 47.646831009038], [8.634378508484748, 47.646841530003876], [8.634342810742176, 47.64683917232066], [8.634283014144122, 47.64681995538414], [8.634260614849424, 47.64683655593257], [8.634183022896213, 47.64686280025399], [8.634119762253206, 47.64694378103079], [8.634018978668758, 47.64697216184596], [8.633963021922852, 47.64698393600985], [8.633901502480755, 47.64700933109062], [8.633552307503964, 47.64706237699857], [8.633357932605271, 47.64718968795912], [8.63270140444275, 47.64716894591672], [8.632177843203515, 47.64720602577852], [8.631812980580671, 47.64723186810813], [8.631401255942881, 47.64726102740524], [8.631396482825634, 47.64727132105067], [8.631341160605114, 47.647296551988525], [8.631237621884718, 47.647299000544955], [8.63115987389267, 47.64732787078489], [8.63112199800985, 47.647366567018], [8.631038974878113, 47.647379867992086], [8.630933735933162, 47.647442848366694], [8.630882704198811, 47.647464743214904], [8.630767437808963, 47.647481945782545], [8.630671829306102, 47.64745587205396], [8.630618031419809, 47.64746071460613], [8.630552274008016, 47.64747709381256], [8.630469316037852, 47.647535347858636], [8.630281342304068, 47.64761031200155], [8.630246511728833, 47.64764772678057], [8.630199219029082, 47.64772759795998], [8.630154706344689, 47.64780272550028], [8.63015534530933, 47.647809248748445], [8.63012375011682, 47.64783192396012], [8.630050419091964, 47.6478607660024], [8.629884756679585, 47.64785182528418], [8.62971087761801, 47.64788714009595], [8.629654876987008, 47.64791008357858], [8.629611503755067, 47.647940551616095], [8.629555405499591, 47.647967470972475], [8.629476578864512, 47.64799879692126], [8.629347505473607, 47.648018864605525], [8.629022568593875, 47.64808157780329], [8.628274986768128, 47.64834134514211]]]]}}]}