{"type": "FeatureCollection", "features": [{"type": "Feature", "properties": {"bfs_nummer": 2571}, "geometry": {"type": "MultiPolygon", "coordinates": [[[[7.851564900993483, 47.28994431531374], [7.850934019903565, 47.28941348586302], [7.849551920871877, 47.288374290493344], [7.8477799226607505, 47.28962015647245], [7.847006579921975, 47.2901435579708], [7.845775579797783, 47.29103243327608], [7.844506224486172, 47.29195582564798], [7.8436621199279735, 47.292506559435985], [7.840576134199951, 47.29447171076376], [7.841629734382187, 47.29434937458985], [7.842780942272066, 47.294197822851956], [7.844023501080718, 47.29404286469745], [7.84532922066617, 47.29386716100564], [7.84533383170185, 47.294760020628196], [7.8454023504341235, 47.29777098453169], [7.845464715098972, 47.29851274450417], [7.8454960613793245, 47.299141292190356], [7.845355593145187, 47.30106895573146], [7.845323854536154, 47.30106834791025], [7.8451318202711775, 47.30221200894276], [7.844982080171635, 47.303025401880774], [7.8449262243858255, 47.303627003124696], [7.844761991751561, 47.30505569305035], [7.844961986697431, 47.30601976509695], [7.844929758600389, 47.306082147778014], [7.844724836416733, 47.306267454599485], [7.8447767413459655, 47.30629550609368], [7.844793164098755, 47.30631100897634], [7.8447841182762605, 47.30632657437644], [7.844781563045699, 47.30634531902352], [7.84478680069627, 47.306362857984496], [7.844798687398446, 47.306378322820734], [7.844894238172163, 47.30644384506246], [7.844962272992933, 47.30649753720521], [7.845024356982505, 47.306554677167384], [7.8450866111087025, 47.30662199836217], [7.845165770844884, 47.306726533480216], [7.845225230939887, 47.30683676847782], [7.845266413434826, 47.30695712370451], [7.845294761257885, 47.307092122280125], [7.845100435430963, 47.30718437970057], [7.8451475887581985, 47.30724303821397], [7.8452190497171115, 47.307527923285946], [7.845258026369023, 47.30770765926115], [7.845295706169793, 47.30782293576584], [7.845344318447868, 47.307939414985505], [7.845384258293857, 47.3080197216361], [7.845506511190495, 47.30823623966637], [7.845624053987431, 47.30838980333715], [7.84569005217928, 47.30846045662945], [7.845712180459069, 47.308481786011484], [7.845937802644608, 47.30863993377311], [7.846022074005506, 47.308692722571166], [7.846120194397194, 47.30874763013677], [7.846244835444864, 47.30880846141816], [7.846381134271673, 47.30886324309264], [7.846552396966563, 47.308917784233266], [7.84673677146239, 47.30896099062227], [7.846812168792912, 47.308997970764196], [7.846897411417966, 47.309125761352426], [7.847829258245, 47.309596748334236], [7.848348609959809, 47.31003938315673], [7.848655460438352, 47.31036308817035], [7.848638745486533, 47.310421846064706], [7.848436632051922, 47.31052203426393], [7.848500000338663, 47.31055931661231], [7.848577130307479, 47.3105803599666], [7.848651935248947, 47.31066032597676], [7.848747177711386, 47.31061856794004], [7.848895237846557, 47.31061958924972], [7.849494781935826, 47.310844292198816], [7.849310798375191, 47.31153434593675], [7.849474992671275, 47.3116519417234], [7.849456205789121, 47.31169573109317], [7.850926918550917, 47.31230221377418], [7.850987349445, 47.31233707696821], [7.851013827784109, 47.31234067026523], [7.851039020037832, 47.312347272323244], [7.8510586436254926, 47.31235376832517], [7.851200447936053, 47.312386649978976], [7.85148633091545, 47.312435180005075], [7.851591517894728, 47.31245819903186], [7.851959849987563, 47.312577013780164], [7.852484233210496, 47.31273890141463], [7.852940543178717, 47.3129103759743], [7.853352484432238, 47.31302900303169], [7.854983294510958, 47.31341472617238], [7.8557548624405475, 47.313601332467066], [7.855731171778587, 47.31382622794817], [7.858252458898938, 47.31339486727155], [7.85899374499412, 47.313355455666816], [7.85941611210568, 47.31325082224769], [7.860015067528194, 47.31323712613285], [7.860499732335384, 47.31319384758207], [7.861118546943401, 47.31296055066647], [7.861306936264961, 47.312872721856564], [7.861662178000713, 47.312608068299554], [7.86167141685977, 47.311683893056795], [7.860636122139438, 47.31179722420373], [7.860674780662519, 47.31165848494924], [7.8609955146964285, 47.311094325345536], [7.861032580969375, 47.310844581856884], [7.86105471574628, 47.310825702288874], [7.861091089317787, 47.310809612879645], [7.861519481574704, 47.31097975164099], [7.861771734467729, 47.31108999161862], [7.861850951641409, 47.311116649088795], [7.862014782315961, 47.31116165112668], [7.862127157236161, 47.311185272657355], [7.862242480576935, 47.31120378332087], [7.862368184659522, 47.31121716488537], [7.86246521135763, 47.31122316809064], [7.862650111627885, 47.311224990008846], [7.863043111831072, 47.31120069157525], [7.863877264054829, 47.311069073500576], [7.86420182400358, 47.31103158507112], [7.8647182779281035, 47.3110073747007], [7.865236878534626, 47.311023503784995], [7.8657523282458985, 47.31107722156197], [7.86625198095221, 47.31115810518556], [7.866755248417754, 47.31125913914538], [7.870025382420777, 47.311988595241075], [7.870739044114422, 47.31213767559263], [7.87116356925609, 47.31222191323295], [7.872018123524385, 47.312380397030694], [7.872448473157443, 47.31245341862569], [7.872880414680434, 47.31252198951775], [7.873334026168667, 47.31258804826417], [7.87396942304788, 47.31266396237163], [7.8738088450454, 47.31306859767213], [7.874113894216804, 47.313122522019285], [7.874898981208152, 47.313173688905515], [7.875457740075073, 47.313227990733836], [7.875466120861645, 47.31319027176982], [7.876364071335574, 47.313189165307236], [7.8767549528477145, 47.31320383749476], [7.877597573769338, 47.31324517998628], [7.87839346989108, 47.31329925165044], [7.879951627017431, 47.3133250780066], [7.8799513473490475, 47.31333445142069], [7.880389189058345, 47.31333396537567], [7.880748746525283, 47.31152405808075], [7.8794627363211465, 47.31171810121378], [7.879025670723285, 47.31175979396648], [7.877539051434115, 47.31186885292025], [7.876753701018514, 47.311923805747256], [7.875904059323028, 47.31194308899582], [7.875434933868667, 47.31192523750264], [7.8748965978578696, 47.311900494795225], [7.874707651776991, 47.31188783321812], [7.874519501311798, 47.31187055411846], [7.874332384923267, 47.311848701573794], [7.8741465409975655, 47.31182231066884], [7.873962194474701, 47.311791389556774], [7.873649976363031, 47.311731519493215], [7.873522655161556, 47.311701956992295], [7.87339807083197, 47.311667410057815], [7.873276634321683, 47.31162799408195], [7.873158796540915, 47.311583860286234], [7.872933395881074, 47.31148563270514], [7.872823739071797, 47.311434254172916], [7.872716037826999, 47.31138100631402], [7.872610332045263, 47.31132591596768], [7.872506701590407, 47.31126904580131], [7.87240522595999, 47.311210413511134], [7.87095252132424, 47.310356976730155], [7.869338529543443, 47.30936814315735], [7.8688612751261084, 47.30914727892143], [7.867607551329944, 47.30861187119319], [7.867423108458946, 47.308537406299536], [7.867234121246175, 47.30846842666798], [7.867040934627018, 47.30840507491023], [7.866843906466094, 47.308347457613706], [7.866643381542527, 47.30829569940541], [7.865730989802862, 47.308092920561606], [7.8648631699496745, 47.307896689016395], [7.864339867248703, 47.30776125347068], [7.864161203039221, 47.30771237860384], [7.86398525476732, 47.307659104111785], [7.863812313891675, 47.30760149189609], [7.863642526907124, 47.30753966735531], [7.863476185050624, 47.30747366541051], [7.863313513866, 47.30740357519306], [7.862827722214611, 47.30718135021869], [7.862258677546206, 47.306867495017386], [7.861621576874893, 47.306475174724056], [7.861438933152849, 47.306357007061266], [7.861261064163301, 47.306235511636], [7.861088142307839, 47.306110750800684], [7.86092027429698, 47.305982841120496], [7.860757592996558, 47.305851863082815], [7.860600218258064, 47.305717924206206], [7.860536910721215, 47.305658548402526], [7.860476475133156, 47.305597785907175], [7.8604189915379905, 47.30553572637813], [7.860364499954103, 47.305472414646474], [7.860313093575745, 47.305407931327295], [7.86012348893356, 47.3051457209087], [7.85988011361992, 47.30475523676242], [7.859659331734618, 47.304321666673815], [7.859504870035001, 47.30395722967953], [7.859208290682015, 47.302954506124735], [7.858972001721512, 47.302085896243845], [7.858951381690967, 47.30199267949472], [7.858668618963871, 47.30129842693955], [7.858489072052813, 47.300918267065725], [7.858309761538292, 47.30059315286844], [7.858194159686418, 47.30040466857122], [7.857833903525199, 47.29986173222615], [7.857512415375227, 47.29942765050747], [7.857039739948754, 47.29886024016217], [7.856176785883105, 47.29791274279219], [7.855973104780682, 47.29764001639769], [7.855499304591788, 47.296971702330055], [7.855147374870106, 47.296411691440575], [7.8547333555595475, 47.2957450563356], [7.85451646966173, 47.295270167367754], [7.854498590795086, 47.29522376566772], [7.85439705740975, 47.29488091545206], [7.853872010879774, 47.29326016098171], [7.8536704199336755, 47.29277432270764], [7.852865506793735, 47.2914912361819], [7.852449358626414, 47.290908150702464], [7.851918867396229, 47.29030617944345], [7.851564900993483, 47.28994431531374]]]]}}]}