{"type": "FeatureCollection", "features": [{"type": "Feature", "properties": {"bfs_nummer": 2611}, "geometry": {"type": "MultiPolygon", "coordinates": [[[[7.437329610214597, 47.380892549238816], [7.43795275475342, 47.38176236939731], [7.437947109228103, 47.38288048450302], [7.437849831925812, 47.383251003477405], [7.438036294920738, 47.38353742833641], [7.438192725433299, 47.38382679422142], [7.4385044153962925, 47.38419381633711], [7.438841058543728, 47.38464097649842], [7.439071139650633, 47.38505371406925], [7.438956915044267, 47.385214242082846], [7.438959653658072, 47.38550347056706], [7.439044181382678, 47.38601697111694], [7.442067397434775, 47.38845829389883], [7.443615306894873, 47.3889725328039], [7.443555511306526, 47.388997304814204], [7.443466554551072, 47.38905728111072], [7.443351031735147, 47.3891502934621], [7.443242343833284, 47.38925978313653], [7.443202149558705, 47.389492113247144], [7.4431889528082875, 47.38961032439882], [7.443172809597656, 47.38963629099982], [7.443174549310125, 47.38971182385055], [7.443226842706419, 47.389786941406484], [7.443224063865881, 47.3898245012197], [7.443218939509612, 47.38984436041045], [7.443163673326033, 47.38988665254224], [7.443152218181759, 47.38991071190014], [7.443157784286413, 47.38996540527825], [7.443202738420622, 47.39000688498056], [7.443215985839848, 47.39005231424179], [7.443184242949531, 47.390117225923255], [7.443138207691281, 47.39015604611256], [7.443087323460869, 47.39017266873493], [7.443021167325694, 47.39017387566342], [7.442971451219965, 47.39023210548292], [7.442966486801724, 47.390270007045494], [7.442980131892944, 47.390324133610854], [7.442968361098267, 47.390383270644264], [7.442994706525131, 47.390417330879266], [7.443016416863411, 47.39045857761913], [7.443078233726657, 47.39053284975808], [7.443099122462815, 47.390565309195594], [7.4431084895351365, 47.39061456112836], [7.443129803384903, 47.39066685267541], [7.4431694471074845, 47.390709438862515], [7.443192867907792, 47.39077689448657], [7.443221649993762, 47.390800602275256], [7.4432696484457805, 47.390801787883966], [7.443292416741184, 47.39081357857341], [7.443298391823777, 47.39083969750487], [7.443253734326887, 47.39088928393715], [7.443243155794914, 47.39094868185197], [7.443289222263407, 47.390972802771486], [7.443299316910703, 47.39100570319143], [7.443264963822547, 47.39105973227678], [7.443217988223982, 47.39110832040951], [7.44321525442939, 47.391225712783125], [7.443183456142087, 47.39126086300638], [7.443156823961027, 47.39130617655705], [7.443164508255235, 47.391342485836695], [7.4431129944168815, 47.39147013294242], [7.4430822564429, 47.39151919719687], [7.443100696739008, 47.39157486166345], [7.443107708255565, 47.391652346452894], [7.443063277425184, 47.391738368329754], [7.443066725850962, 47.39181391038211], [7.443098437735218, 47.391870464991285], [7.443107063984881, 47.39192964654566], [7.443058524131706, 47.391970805484696], [7.4429961477352435, 47.39208482663088], [7.443005979734658, 47.392153011304266], [7.44301912151944, 47.39219669578679], [7.443049031414151, 47.39224189060383], [7.443031195863277, 47.392327407935326], [7.442993862913246, 47.39240135934783], [7.442983164198519, 47.39245275254364], [7.4430068955780335, 47.39260674125763], [7.443026580487363, 47.39264992183854], [7.442983407620192, 47.392747492053594], [7.442977716596437, 47.39281753899473], [7.442996144893252, 47.39288674879175], [7.4429688637987805, 47.39294907932689], [7.442963303135695, 47.39298579380787], [7.442972841385255, 47.393014448968465], [7.442907876318561, 47.39305395335733], [7.442898146682946, 47.39314708834598], [7.4429038462386465, 47.39321559687139], [7.442932299081656, 47.3932527058881], [7.442922501225499, 47.39331242752099], [7.442882174090724, 47.39338902314248], [7.442860508942667, 47.39345766735528], [7.442783386551737, 47.3935396785136], [7.442772222854389, 47.39357567353638], [7.442704916073211, 47.3936779122763], [7.442720458369954, 47.39377563361791], [7.442695123015661, 47.393828286273234], [7.442648449847576, 47.39389012257521], [7.442640505035265, 47.39393310602581], [7.44259993650258, 47.3939686343049], [7.442555119824918, 47.394072572430396], [7.442543997352176, 47.394142961047514], [7.442595951555784, 47.39424421631803], [7.442583184973003, 47.39428080505666], [7.442515727154796, 47.3943064851693], [7.442528975207853, 47.39435565595749], [7.4425341732371955, 47.394463604032154], [7.442478345867231, 47.39451039320992], [7.442457473780941, 47.394565249257276], [7.4424624441643985, 47.39462810950873], [7.442483837865956, 47.39466753954672], [7.442472807366054, 47.39472476988619], [7.442434982095955, 47.39480362286208], [7.442412134769178, 47.39483253950242], [7.442468510310559, 47.39487845317086], [7.4424626862489465, 47.39495534456737], [7.442625761613928, 47.39511109221325], [7.442679870666496, 47.39512255809807], [7.442755081479429, 47.39515460232266], [7.442756250282869, 47.39521122053543], [7.442772507307948, 47.395302033292715], [7.442794099807725, 47.39533715485088], [7.442831364953908, 47.395420251021356], [7.442723428838691, 47.3954831322236], [7.442732292829512, 47.39552971270103], [7.442778153416595, 47.395598507485424], [7.442856080235309, 47.395631082008826], [7.442957610221695, 47.39564853652295], [7.443080535311907, 47.395713506573074], [7.443095758072811, 47.39576498880239], [7.443087521003943, 47.39579457983046], [7.443147051198821, 47.3958477874287], [7.443210177736665, 47.39599993090109], [7.443200777321838, 47.396063178247914], [7.443132642355911, 47.39609470490915], [7.443089650808613, 47.39616808075017], [7.443088860539845, 47.39623824435414], [7.443081155519569, 47.39630309259029], [7.4431441691561755, 47.396342161379266], [7.443135348968419, 47.39636707555233], [7.443013018311834, 47.396517003067366], [7.442916087188479, 47.396572319998135], [7.442821245434323, 47.3965716030629], [7.442627410425293, 47.396710055513616], [7.44245937535984, 47.39679887730385], [7.442421282922399, 47.39686477849499], [7.442371228002805, 47.39690660267096], [7.442336777981203, 47.3969712085516], [7.442162394829626, 47.39702301881674], [7.442021327037595, 47.397108754299936], [7.4417722847248164, 47.397419031419396], [7.441687356588704, 47.397605293074484], [7.441641776337702, 47.3976118866437], [7.44159036823456, 47.39763782653118], [7.441518376677105, 47.397699887513646], [7.441395044216389, 47.39783934351317], [7.441357147954288, 47.3978884163331], [7.441369137679386, 47.397943406553296], [7.44141825833606, 47.39803851013468], [7.441339671760017, 47.39818896538359], [7.4414338567954434, 47.39828589359819], [7.441487506935258, 47.398348968587925], [7.441516056300365, 47.398446941373024], [7.44157100539865, 47.398526547518976], [7.44169396140887, 47.39856725327412], [7.4417289632998225, 47.398702281189536], [7.4417440941742115, 47.39879265403753], [7.441738400068159, 47.398842409906216], [7.441772393409114, 47.39891733914399], [7.441812771671519, 47.39898232118766], [7.4419058312633855, 47.39903232674298], [7.441959256432911, 47.39906579295188], [7.441950423667785, 47.39913154045202], [7.441906379943078, 47.399171771970266], [7.441852042999217, 47.399195202874616], [7.4418193652657205, 47.39924131662649], [7.441875111314513, 47.399343848628284], [7.441934881308128, 47.39936286102463], [7.441981035629522, 47.39942415541573], [7.442000657546799, 47.3995056151001], [7.441997853791224, 47.39961328417366], [7.441949664536641, 47.39967514699682], [7.4418854848686005, 47.399704379231885], [7.44175010812491, 47.39985317232313], [7.441678949256511, 47.399948007686305], [7.441612027285495, 47.39998570328995], [7.441576434459372, 47.4000248557667], [7.441316972681533, 47.40018302291166], [7.441842310354116, 47.40058670003791], [7.441984430000866, 47.400706895517516], [7.442113250530304, 47.40083376481307], [7.442245503913209, 47.40098481928731], [7.442664112070173, 47.40165200635156], [7.44271281227093, 47.40170386561562], [7.442952700058133, 47.40200417419976], [7.4432166959012935, 47.40222426299265], [7.443270787993851, 47.40226417748037], [7.443332364590799, 47.402298722147016], [7.44339295970246, 47.402316024933924], [7.443457899328571, 47.40232295733249], [7.4436556815793535, 47.402290373601716], [7.443985907190296, 47.40220506951584], [7.444054791367441, 47.40217467556883], [7.444177455197724, 47.402088020876825], [7.444233871736646, 47.40203990873984], [7.444297519760375, 47.4019741497957], [7.444362477894475, 47.401895349117744], [7.444767728236589, 47.40135912441883], [7.4448574748039045, 47.40119060529162], [7.444881827310114, 47.40109942109913], [7.444890732830636, 47.401000826406694], [7.44491479055107, 47.40087675958706], [7.444947475065969, 47.400784423656134], [7.445050266184032, 47.40059455145158], [7.445168841147158, 47.40047530975599], [7.445310652714523, 47.40037291307308], [7.445537627449527, 47.40026083423574], [7.446104553847684, 47.400013733384846], [7.44628630852545, 47.399968481788], [7.4467253414041705, 47.39980423976016], [7.446878280494344, 47.39973910319471], [7.447167101952508, 47.39965248846033], [7.44730767493723, 47.39963723412013], [7.4475425731088105, 47.39958898208724], [7.447833001735414, 47.39954219190551], [7.448248352436339, 47.39952938979322], [7.448478225370675, 47.39953909506554], [7.449045640948976, 47.39963115946215], [7.449192186982137, 47.39968634466585], [7.449450711381209, 47.39975520046302], [7.449648800202788, 47.39980217811498], [7.449838401990372, 47.39986933909282], [7.449941977560448, 47.399929392963976], [7.450060229022167, 47.39997937204066], [7.450162745755539, 47.400041647386914], [7.450497746119967, 47.40036213314356], [7.450578133256971, 47.40051226543783], [7.450647052575477, 47.40067995547064], [7.450739080542958, 47.40080959779261], [7.450803088461157, 47.40092561663179], [7.450848084626129, 47.40109232874994], [7.450858897433997, 47.4011705228892], [7.450850992170978, 47.40124886299722], [7.450862663084713, 47.40137478040336], [7.4508463293949285, 47.401500457856756], [7.4507872652746245, 47.40165267208111], [7.450687290977335, 47.401794699906276], [7.450306692243424, 47.40204486407028], [7.449742762906163, 47.40252789357178], [7.449636072244847, 47.40276431499706], [7.449608426744447, 47.40298689649162], [7.449648272774111, 47.40311220889328], [7.4496472543759396, 47.40326124257382], [7.44960330563467, 47.403369949975065], [7.449626424780658, 47.403520375613915], [7.449717854844149, 47.40362787506747], [7.450027349110739, 47.4037587039726], [7.450258654051089, 47.4038141499243], [7.451033888427793, 47.40386312076076], [7.451666257079327, 47.4037846812471], [7.452513756811938, 47.40382365989196], [7.453019868927493, 47.40389467419508], [7.453610038827647, 47.40406133809791], [7.454231942432402, 47.404184355114126], [7.454629160079973, 47.404201446966496], [7.45490219870192, 47.40415037818418], [7.455973400613487, 47.4036376348455], [7.456186122566016, 47.40347431510449], [7.456292076029162, 47.40334099705763], [7.45635951452276, 47.403196594815], [7.456593214470566, 47.402193754073565], [7.456700248511233, 47.401930190628825], [7.4568318705678385, 47.40171394179449], [7.4570074244445825, 47.40151257168008], [7.457124404627235, 47.40141258357919], [7.457266294520038, 47.40132877209375], [7.457444432973591, 47.401258913781135], [7.457639483048668, 47.40121458707238], [7.4580648852853955, 47.401200398878935], [7.458954400790425, 47.40121789963667], [7.459303198639562, 47.40117988514691], [7.459889429487073, 47.40108317733207], [7.460224349212854, 47.40102792046698], [7.460558119113962, 47.40094753311142], [7.461006828065321, 47.40085433385923], [7.461679927272127, 47.40079181430569], [7.4618337353685575, 47.40078254774958], [7.4619880757188835, 47.400779046157275], [7.462142431776344, 47.400781336650496], [7.462296392824364, 47.40078936522411], [7.462688286208553, 47.40086105228066], [7.46294432609748, 47.401011482570844], [7.463072043117579, 47.401104627376384], [7.463129964313485, 47.40117495008516], [7.463209984225844, 47.40133985111556], [7.463295547225294, 47.40154622315296], [7.463322683989346, 47.40167919667411], [7.463347199168718, 47.40184504422435], [7.463394254548601, 47.401965394648094], [7.463491104018301, 47.40210816629552], [7.463583130967012, 47.402189976301095], [7.463714743068958, 47.40227503384999], [7.463858249873053, 47.40238489468139], [7.46406020280724, 47.402460376273375], [7.464273605644385, 47.40251502436607], [7.464481791277562, 47.40254519114587], [7.464645190735152, 47.40255456379207], [7.464823528545899, 47.402497726720256], [7.465471392865814, 47.40226840269665], [7.466218054833094, 47.40202148615473], [7.466564346761823, 47.40192668805897], [7.4669282777561765, 47.40179626759618], [7.467855614735517, 47.401440755918784], [7.468281668024992, 47.40125947215064], [7.468789277618687, 47.40109641494841], [7.469177418163432, 47.400950520609996], [7.469557890549433, 47.40083581839651], [7.470321576668799, 47.40059019329215], [7.470813614717413, 47.40046031099589], [7.471344277200382, 47.40037258074335], [7.471922678382158, 47.4003254617503], [7.472373359944528, 47.40031431656541], [7.472847457096568, 47.4002951582535], [7.4734732273698485, 47.400331636708096], [7.474091082619907, 47.40041802283962], [7.474663746978652, 47.40051300024497], [7.4748140689517335, 47.400544982937056], [7.475082666905699, 47.400606384932566], [7.47528124241122, 47.40064926204533], [7.475482812364372, 47.400673061078116], [7.475590751822589, 47.400676436439376], [7.475966954829352, 47.4007538121598], [7.476158983359814, 47.40079060975512], [7.476286025603791, 47.400813540722936], [7.4764258560607315, 47.400843419752476], [7.476673729005462, 47.40090949279474], [7.476725999923988, 47.40092527880527], [7.476775572057475, 47.40094622831252], [7.476951661479332, 47.40103435905989], [7.477003966043794, 47.40105998461862], [7.477340393835377, 47.40119500371], [7.477380222721898, 47.40120622422466], [7.477362078790586, 47.40102562744919], [7.477359232437885, 47.400822800410175], [7.477355606220966, 47.4006598267357], [7.477352478730104, 47.400546051330416], [7.4773520858473255, 47.40044036077027], [7.477337647354226, 47.40036664914631], [7.477318143325936, 47.400304020243034], [7.477354300460297, 47.40029382719701], [7.477362540963936, 47.40016429927215], [7.477386022044579, 47.39976406844218], [7.477399645609322, 47.3996602351581], [7.477400575326925, 47.3995702930663], [7.477379731203171, 47.39920583737823], [7.477383643120299, 47.3990249629987], [7.477397018761641, 47.39892675107829], [7.477420476725695, 47.39883091933444], [7.477494110053475, 47.39861971169346], [7.477512373443031, 47.39852162405706], [7.477505627859531, 47.39842422818514], [7.477469337198192, 47.39833783285936], [7.4773983736608844, 47.398260236190175], [7.477334804828314, 47.398205500333546], [7.477246669783232, 47.3981214693966], [7.477151677222739, 47.398042882115234], [7.477081383795114, 47.39795623695076], [7.47704821200542, 47.39789571678269], [7.477033596888424, 47.39783295107914], [7.477031823596312, 47.3977788605887], [7.477046106403125, 47.397689264842995], [7.477084027055529, 47.3975712397986], [7.477186541614064, 47.397348006764894], [7.477213782264868, 47.397263281596324], [7.477228156296263, 47.39717224665959], [7.4772252480813055, 47.39699315525556], [7.477198058238028, 47.396811868185], [7.4771669590727186, 47.3967218104191], [7.477111793633188, 47.396634108015974], [7.476876614642351, 47.39631903675649], [7.476813084701387, 47.39622093970362], [7.4767742072207986, 47.396125182044116], [7.476786350173958, 47.39602524360441], [7.476846802978578, 47.3959283566554], [7.47698682865883, 47.39574464087248], [7.477099626693504, 47.395589121652954], [7.477154994098398, 47.395532692088004], [7.477179173168096, 47.39548447503619], [7.477259981203803, 47.39545961560738], [7.477307406438508, 47.39540871338841], [7.477366678254366, 47.3952949868537], [7.477414904166486, 47.39521783686281], [7.477444118642026, 47.39513549436812], [7.477461312921327, 47.39502566055477], [7.47744984695315, 47.39490187718781], [7.4774155662698805, 47.39480721545768], [7.477374746643276, 47.39473721795361], [7.4773083387608, 47.39463268212617], [7.477301894709789, 47.39458572557123], [7.477287202326675, 47.39448781948165], [7.477279217676483, 47.39439764618995], [7.477289079065515, 47.394257441356444], [7.477287276807047, 47.394181063462234], [7.477286772328833, 47.3940859588274], [7.477282890469714, 47.39397248905076], [7.477283023975716, 47.393917831226865], [7.477320202811689, 47.39382301117141], [7.477360999903629, 47.39376892469213], [7.477431357878298, 47.39369235216503], [7.477490182784721, 47.39363999550549], [7.4775341510483555, 47.39359413761258], [7.477551860807304, 47.3935209279443], [7.477622495153232, 47.39331288688069], [7.4776970233391395, 47.39304987175209], [7.4777101034467375, 47.39294876359219], [7.477721972163035, 47.39283927317673], [7.477694160889169, 47.39271450573417], [7.477650861207303, 47.39261973005235], [7.477532070992985, 47.39247756177286], [7.477503034067775, 47.39241635672701], [7.477477234135981, 47.39234371003812], [7.4774849512737545, 47.392243970794], [7.477480668871778, 47.392200701081094], [7.477516392224043, 47.39216580092008], [7.477500369184856, 47.39211452135906], [7.477504542791428, 47.39207936161289], [7.477566467264316, 47.3920298731178], [7.477598759545383, 47.39195713547775], [7.477642015765085, 47.39188074239543], [7.477703813102488, 47.39178363853289], [7.477747226530689, 47.39172366884196], [7.477822409299226, 47.391675381052856], [7.47785741826482, 47.39164253160591], [7.477905317374021, 47.39159547596149], [7.478039961399391, 47.39155509218916], [7.478100852534328, 47.391525076248826], [7.478135209519775, 47.39150675260849], [7.478173277313644, 47.39145508611887], [7.478210982963178, 47.39134235815184], [7.478218277626649, 47.39122843498026], [7.478223242128157, 47.39118873292979], [7.478228595997112, 47.391156343005655], [7.478236034470716, 47.39109460427105], [7.478269338652068, 47.39103123802712], [7.478228515499349, 47.39097216873932], [7.478229637869573, 47.390876101244594], [7.478283551224121, 47.39077733574854], [7.4783402414001054, 47.390654320976786], [7.4783800564777145, 47.390529575911586], [7.478423763772707, 47.3904935575107], [7.478480116052138, 47.39047100807559], [7.478686802225621, 47.39044209398926], [7.478724118277627, 47.39041454106928], [7.478772424844647, 47.390311604034096], [7.478755964041499, 47.390206368327895], [7.4787656855600915, 47.3900804010908], [7.478909671163096, 47.38996197949567], [7.478986518674624, 47.389876976196035], [7.479105699381243, 47.389742860633724], [7.479283071687302, 47.389729893785635], [7.479405872046633, 47.38969263373276], [7.47947343171338, 47.3896929433517], [7.479603448190928, 47.38967099763198], [7.479746990230913, 47.38963573564314], [7.479869526538519, 47.389600453743306], [7.480081814470158, 47.38962848656094], [7.480138138200749, 47.389605369668516], [7.480240505808102, 47.38950426572315], [7.480282531315265, 47.38943670440178], [7.4802762439271655, 47.38937206523579], [7.480179970182072, 47.38931811596605], [7.480209774993754, 47.38920346519714], [7.480272133227507, 47.389122657178085], [7.4803750362211945, 47.3890131253436], [7.480482890144752, 47.38896997806514], [7.480652620945293, 47.38891030419915], [7.480772778161213, 47.38893558927558], [7.480932170757057, 47.38893465996496], [7.480970669650668, 47.388898228567044], [7.480985803924946, 47.38882508230519], [7.48104161967902, 47.38879753997203], [7.481172241729384, 47.3887914221757], [7.481473824072989, 47.38887595852784], [7.481543275849835, 47.38889218591415], [7.481655694937239, 47.38889578774588], [7.481773548675131, 47.3889050179818], [7.48192732740966, 47.38890616716623], [7.482082214750365, 47.38896862954291], [7.482272502121261, 47.38897899315284], [7.482479959549691, 47.38899649121264], [7.4825952991251174, 47.38902454630711], [7.482705669219811, 47.38906511420933], [7.482877266249835, 47.38913648276098], [7.48306097708027, 47.38915324220876], [7.483267007601792, 47.38917345607422], [7.483407175944396, 47.38919487299247], [7.483453585265183, 47.389196546627986], [7.483649597985735, 47.38917835800048], [7.483957351144136, 47.38914323520199], [7.48415628188301, 47.38909899729814], [7.484377519095304, 47.389059013716604], [7.484492264746467, 47.388993599606124], [7.484595857149419, 47.38892664258541], [7.484659516790374, 47.38890504973939], [7.484744642877092, 47.38889613967135], [7.484849210193043, 47.38817640964246], [7.484907559879292, 47.38743504539827], [7.485089293018933, 47.387297066659904], [7.485704091862849, 47.38712493630181], [7.485911829968694, 47.386999348913385], [7.486073103896131, 47.387005993879406], [7.486346904412237, 47.38690068797106], [7.48681860355981, 47.38673554374765], [7.48756734201472, 47.38649682747617], [7.488336580827537, 47.3862356843521], [7.488720314023655, 47.38615280264754], [7.489160625272865, 47.38605929113748], [7.489890695467724, 47.385889678470804], [7.490401144884351, 47.385745818793986], [7.4908507801134, 47.38561781350056], [7.49034441021445, 47.38439847004121], [7.4902033044178, 47.38431448827822], [7.490136555120996, 47.384212791619376], [7.490157186231423, 47.384155695906486], [7.490189633588847, 47.38394934429845], [7.490105982749966, 47.3836485217493], [7.48956348658865, 47.38315404332157], [7.489428658314986, 47.38300864587614], [7.48905565554687, 47.38263020820035], [7.488700723832859, 47.38222511323802], [7.488775094443681, 47.382183006575644], [7.488892211665988, 47.3821552814215], [7.488969587666974, 47.38215563510009], [7.4891037142682535, 47.38209186256564], [7.489127465186678, 47.38205685586956], [7.4892636391180325, 47.38203043546365], [7.4893275672164625, 47.38198102069342], [7.4895661122466874, 47.381948646464046], [7.48967547465101, 47.381927444721285], [7.489894475810229, 47.38192555084048], [7.489994184287145, 47.38187636286642], [7.490123623386335, 47.38189864811421], [7.490213536745845, 47.38189597348341], [7.490355665764995, 47.381908125362166], [7.490471145327115, 47.381872637288275], [7.490565429798325, 47.38185737749859], [7.490729875179181, 47.3818587620354], [7.490842436802921, 47.381804612484935], [7.491026162301015, 47.38179209132168], [7.491152927644949, 47.381706031890054], [7.491328974434829, 47.38165448829874], [7.491543969143768, 47.381632769789434], [7.491593221667225, 47.38158271295994], [7.49171649280562, 47.38155415446771], [7.492014757225415, 47.38153514071487], [7.492153373896685, 47.38150439846912], [7.492207307586215, 47.3814617864419], [7.492373614202579, 47.381445215001854], [7.49253472922713, 47.38148123527702], [7.492683366226869, 47.381433542670635], [7.492827572062311, 47.38141763752315], [7.492909147401851, 47.38136760096712], [7.492906038164306, 47.38130408516332], [7.493000404385729, 47.38123991277309], [7.4931086904699775, 47.38124414405334], [7.4931865695372935, 47.38120608039071], [7.493325791166609, 47.38122529035491], [7.493457139638149, 47.38119779692152], [7.493613933900791, 47.38115178119751], [7.493727782329818, 47.38115675580353], [7.493887144900552, 47.38120109502529], [7.494083804704494, 47.38123948877243], [7.494188441619637, 47.381236345367135], [7.4944754879764375, 47.381307992549615], [7.494579876397552, 47.38135900331103], [7.494670845077832, 47.38136629932153], [7.494763551860943, 47.3813640874431], [7.494852636155939, 47.38139304233451], [7.494969450121971, 47.38144768942743], [7.495559808419375, 47.38078054944735], [7.4957520945613405, 47.380575587514635], [7.496007598934044, 47.380285616306075], [7.497231724167101, 47.37849278571256], [7.496421922758187, 47.374873972645894], [7.495804807090355, 47.373570265431994], [7.494457860777569, 47.37065167051916], [7.494383293921284, 47.3706374409625], [7.487588017540646, 47.36970856067234], [7.487425604805575, 47.36968938720568], [7.486892748188182, 47.36971571411066], [7.486442784446171, 47.36983657684988], [7.4860263798662, 47.36994028264775], [7.485566771806684, 47.370010591573006], [7.485350780884559, 47.37008244517454], [7.485107187397598, 47.370125752774555], [7.484993110180681, 47.37008666484948], [7.484641479387518, 47.37009414600223], [7.4845454961209334, 47.37013006011164], [7.484312661176173, 47.370152989227876], [7.484234637120431, 47.37013181188839], [7.484130220369763, 47.3701497884293], [7.483920569381592, 47.37026999938189], [7.483739153337855, 47.370386411305766], [7.48364312879272, 47.3703880765177], [7.48317991320842, 47.37047876331731], [7.4829615741185345, 47.37058484403711], [7.482687967889437, 47.37063631423227], [7.482462330926274, 47.37067553279878], [7.4823218424233, 47.37063936418196], [7.48213464756766, 47.37063897471463], [7.481487813071522, 47.37078759169406], [7.480826662041079, 47.371003101009464], [7.480571085771025, 47.37107413111233], [7.480385065237436, 47.371121489900084], [7.480207459053827, 47.371161505838124], [7.4800190709079555, 47.37123006447144], [7.479749024232595, 47.37125299554648], [7.479421376586432, 47.371405869425445], [7.479049365206347, 47.37135271473749], [7.478436785887701, 47.371296662694895], [7.478276344187474, 47.371275507792646], [7.478027923477911, 47.37130738583129], [7.47774464387534, 47.37128709818776], [7.4773821264540326, 47.37123260313172], [7.477054425569189, 47.371189474189975], [7.4770003441109525, 47.37108105616227], [7.476891080290103, 47.37102972477711], [7.47672902060816, 47.371002865616965], [7.476458929070407, 47.370942609621814], [7.476025691555985, 47.37102510867715], [7.475702768432897, 47.370937955325374], [7.475527495130995, 47.37087033615103], [7.475299415058475, 47.37083045386548], [7.475179363638226, 47.37077992469238], [7.474902054908401, 47.37073354479342], [7.474734334394113, 47.370692680217886], [7.474273093143042, 47.370633438107696], [7.474035462248635, 47.370683248716716], [7.473974316372485, 47.370776223869726], [7.473592620630933, 47.37073964867692], [7.472943023701667, 47.37070516530168], [7.472804615035316, 47.370639761848665], [7.472442051780904, 47.370644623555975], [7.472140720112017, 47.37051858092754], [7.471890485590389, 47.370399601837434], [7.471591883552688, 47.37033834331369], [7.4713256433466, 47.37030530846487], [7.47100237268887, 47.37025829343819], [7.470598938541393, 47.37023558376838], [7.469709770939059, 47.37020636289594], [7.469201330699375, 47.37017443014476], [7.469069754498607, 47.37017026353053], [7.468752807594357, 47.370182431593065], [7.468138784946599, 47.37012737954957], [7.467486408367118, 47.37012228741802], [7.4673202425232645, 47.37015158675128], [7.467166865622407, 47.37023171834771], [7.466960265099885, 47.37025962368106], [7.466682435365439, 47.37023550384067], [7.466465001461326, 47.370282865753154], [7.466344320526193, 47.37035492985412], [7.466264699598703, 47.3705410592041], [7.466016278262754, 47.37055163159458], [7.4658034261952935, 47.37044601473934], [7.465711344351203, 47.370444461536714], [7.465407988573802, 47.37047449051164], [7.465253201207104, 47.37043929438114], [7.464389507077819, 47.370300169767575], [7.463746428691462, 47.37031028923053], [7.463280567376894, 47.37030408990143], [7.46315754048828, 47.37035140720382], [7.462216554713225, 47.37044203445546], [7.461652445625959, 47.37050734422538], [7.461216791641928, 47.37062044972703], [7.460168304373477, 47.37091294832483], [7.459724584760423, 47.37100175573975], [7.459130602157845, 47.37104297146719], [7.458541636130542, 47.37112099655688], [7.4573867067514055, 47.37138604537439], [7.456829891471442, 47.37149784813157], [7.455685962544794, 47.37189917753004], [7.45517923841703, 47.372192136998194], [7.4548267585116585, 47.372221648654126], [7.45397885713005, 47.373007091916634], [7.453841898200949, 47.37314707729221], [7.45363631047224, 47.37347240696867], [7.452835628495003, 47.374575246198326], [7.451780439714853, 47.374891104603], [7.448517029985413, 47.37585747121274], [7.446790477728669, 47.37660623485537], [7.444978910936978, 47.378323357500555], [7.44360707867147, 47.37867436970242], [7.44144912197076, 47.379811924892685], [7.440178106883161, 47.38027893864503], [7.4361321487120255, 47.37811328563818], [7.437329610214597, 47.380892549238816]]]]}}]}