{"type": "FeatureCollection", "features": [{"type": "Feature", "properties": {"bfs_nummer": 2618}, "geometry": {"type": "MultiPolygon", "coordinates": [[[[7.615805212678984, 47.43275165894278], [7.617396567788457, 47.42866420481184], [7.617545470151617, 47.42622093655067], [7.613868096208058, 47.42403005961812], [7.613736873824465, 47.423902909400425], [7.613540786887941, 47.42390377119299], [7.611736853688612, 47.42320768356416], [7.610547460471908, 47.42236721148263], [7.608280517776714, 47.42033503820725], [7.603621376751281, 47.41855824685909], [7.5999905275416335, 47.41577504994059], [7.597636911461593, 47.4158511094217], [7.596541347575956, 47.415671959439024], [7.595996978271504, 47.41557638437463], [7.595674484025858, 47.41551408753412], [7.59269226716362, 47.41544590259163], [7.590325609086921, 47.414823446515925], [7.589258010193317, 47.41448147836325], [7.588122317890522, 47.41356027392465], [7.587756828081497, 47.412363653650345], [7.58774724801978, 47.41156943271578], [7.584867956706729, 47.411399397900865], [7.584825899976986, 47.41137442883288], [7.584592363217764, 47.41134648942571], [7.584429817144538, 47.41141530088051], [7.584228121673682, 47.41152949180124], [7.584188501656796, 47.41153320205442], [7.5840831408531, 47.41149957883708], [7.583975474293884, 47.41150978687495], [7.583922756763047, 47.411530566332836], [7.583914882253136, 47.41153881482604], [7.583868544920839, 47.41154753415996], [7.58386953796006, 47.411552182839024], [7.5838109439166255, 47.411570460227345], [7.583789874485368, 47.411584301569064], [7.583747643274873, 47.41163170858279], [7.583731493544636, 47.41166172429294], [7.58372353555315, 47.41169298893696], [7.583673786247165, 47.411723775018906], [7.5836316875591026, 47.41175658427886], [7.583628197020105, 47.41175443003055], [7.583602058498544, 47.41177038230665], [7.58359026545519, 47.411794618302466], [7.583527138556076, 47.411851711013966], [7.583499760029679, 47.411869724458995], [7.583466304377001, 47.411918856245876], [7.583462052441842, 47.41195363302505], [7.583446396212769, 47.41197514857192], [7.583410981731911, 47.412005502977685], [7.583407726232885, 47.41202168753192], [7.583372732492962, 47.412045943386396], [7.583317762602712, 47.412067049173544], [7.583295688525857, 47.412086791831854], [7.583281637774673, 47.41212390123471], [7.58326841310024, 47.41212835180365], [7.583257146999792, 47.41214172216111], [7.583220857414638, 47.412206282487304], [7.583227391011913, 47.41223135005715], [7.583221536854905, 47.412232211783], [7.5832068675581015, 47.412251261690336], [7.58319545081357, 47.41225792257999], [7.583172923176234, 47.412261836065326], [7.583141685357087, 47.41227867590687], [7.583130603241832, 47.412316078417625], [7.583094912487755, 47.4123276443104], [7.583040341957602, 47.41237908678748], [7.583009633452675, 47.41241537136341], [7.582970339910709, 47.412437266965796], [7.582944668521693, 47.412474354782255], [7.582795376170048, 47.41263523875102], [7.582708494827166, 47.41270401669879], [7.582657157067017, 47.41276057267873], [7.582630923938263, 47.412800764171024], [7.582632973001932, 47.41280394556477], [7.582574003100699, 47.41286054690689], [7.5825156027603215, 47.412907280812455], [7.582458229485482, 47.41299112340806], [7.582327847185709, 47.41313409394549], [7.582265804436908, 47.413186462647985], [7.582263889587556, 47.41319380425003], [7.582259207432099, 47.41319200220014], [7.58223978586785, 47.4132179293641], [7.582234341236224, 47.413248039562994], [7.5821161240441555, 47.413382108515165], [7.582112991699996, 47.41338013366759], [7.582061721880781, 47.41342791094363], [7.582021554411615, 47.413445499094], [7.581886748470932, 47.41356032282766], [7.581851790549771, 47.41360854754493], [7.581756057538516, 47.413688074880525], [7.581632471704788, 47.41380226381502], [7.581648212740315, 47.41384180987245], [7.581647954904275, 47.41386932331213], [7.5816344456117575, 47.41388650973237], [7.58159820409741, 47.41396035137235], [7.581540250989637, 47.41402647572284], [7.5814959754705145, 47.41405904402957], [7.581200227935661, 47.41421410643682], [7.581043067961694, 47.41426533189215], [7.5809816629728095, 47.414314344257676], [7.580906251732655, 47.41442822113894], [7.580896160710838, 47.41447535386203], [7.580887194613198, 47.414492039940626], [7.580851224503298, 47.41454888197964], [7.580834521168859, 47.41456596434073], [7.580747721708409, 47.414707728259295], [7.58073339526759, 47.41475170928883], [7.580715992893736, 47.414800056104774], [7.580698972247861, 47.41482747301681], [7.580632663307794, 47.41490145869991], [7.580579364804029, 47.414924845349226], [7.580485379844202, 47.41494049306389], [7.580394422360352, 47.41497873877006], [7.5803675910075174, 47.41501929903788], [7.580353081370993, 47.415089434953046], [7.580373141733642, 47.415159133203254], [7.58035871759514, 47.41520144126233], [7.580208893542555, 47.41534771500005], [7.580143924931403, 47.415402829250894], [7.580071680840001, 47.41547280146315], [7.580016562642783, 47.41555507496777], [7.57997178489805, 47.41560402172407], [7.579871196397201, 47.41567392897103], [7.579806850603375, 47.4157294555612], [7.579732588466564, 47.415798081606646], [7.579663264479248, 47.41585022347354], [7.579502009251533, 47.41595904124005], [7.579398391339099, 47.4161273472434], [7.5793779257084255, 47.416281567114865], [7.579328857231756, 47.41633713799273], [7.579275174567889, 47.41650796485135], [7.579247841812823, 47.416539819249735], [7.579207762657432, 47.41657213863275], [7.5791466951329, 47.416610059596806], [7.57910079149118, 47.41666998003502], [7.579039002376959, 47.41693337575257], [7.57903372731098, 47.41704937034033], [7.579030005588683, 47.41710571418993], [7.5789909465629695, 47.417158377123684], [7.578945276998049, 47.41720672175008], [7.578830705775304, 47.41730751339633], [7.578760346277073, 47.41731936255358], [7.578661625589367, 47.417411041759976], [7.578421278206561, 47.41758522368291], [7.578367166429605, 47.41760804390204], [7.5781228438309896, 47.41768121658791], [7.5780170240998626, 47.417698549179946], [7.577637725760102, 47.417798863733665], [7.577370757228624, 47.417965258835274], [7.577145059323146, 47.418016156819476], [7.577104318125582, 47.41807042085913], [7.576849357282833, 47.41823340129739], [7.576451199880834, 47.41842757163441], [7.576234622372568, 47.418563711624046], [7.576186433650202, 47.41859230700619], [7.576136173541623, 47.41863997238612], [7.5760622693897135, 47.41869156915284], [7.57590569702588, 47.41883960879759], [7.575795696260997, 47.41891760081876], [7.5756631681679325, 47.41898032930508], [7.57535409249404, 47.41907602184902], [7.574643098532773, 47.41935700490219], [7.574489194804212, 47.41943612648084], [7.574372103504613, 47.41947845467415], [7.574171620209352, 47.41949522857665], [7.573951118922197, 47.419498453268744], [7.573401938752169, 47.419482541228135], [7.573252130365658, 47.41946782933754], [7.573137375755573, 47.41941727103398], [7.572986055532752, 47.4192963035958], [7.572841700517357, 47.41919941438502], [7.572697230690169, 47.41916239010174], [7.572546935299135, 47.419153856869734], [7.572426249785217, 47.41916880903476], [7.572042822996225, 47.419274318740705], [7.571849005109275, 47.41929631559405], [7.571674231696041, 47.419329748927446], [7.571497186676992, 47.41939311706285], [7.571410080322886, 47.41948295120321], [7.571136268569212, 47.41962618015608], [7.570843121882139, 47.41983423337219], [7.570755199602573, 47.41992715279646], [7.570660440829716, 47.420015438861924], [7.570498905144261, 47.42017367604428], [7.5703421761049325, 47.42037926180927], [7.569990686556968, 47.42057104541671], [7.569470554523087, 47.42074902273372], [7.569415571775736, 47.42081425608091], [7.569389347063155, 47.42092884388418], [7.569392745957567, 47.4209749080618], [7.569414506826875, 47.42104587437342], [7.569418070740507, 47.42115957426374], [7.569384444251519, 47.4212224361021], [7.569365378475041, 47.42125671626332], [7.569332955767612, 47.42130245182386], [7.569298412027096, 47.42134246957377], [7.5691728937095615, 47.421513939825644], [7.5691568505050135, 47.42155965703328], [7.569155726643161, 47.421582494392226], [7.569143922183197, 47.4216110730288], [7.569139526334247, 47.42164533664669], [7.569156295699121, 47.42169101705607], [7.569182082549193, 47.42178808883668], [7.5691852186209925, 47.42186233191399], [7.569163557640458, 47.42191946900706], [7.569096998273007, 47.42198236766129], [7.569034759647089, 47.422050972694144], [7.5689253051992145, 47.42214247575623], [7.568847345711702, 47.42218254190219], [7.568733941257989, 47.42214840102333], [7.568640713366957, 47.42211135940109], [7.568541566348538, 47.42211995157267], [7.568434280440147, 47.42217158060655], [7.5683574193499386, 47.422222114415014], [7.568286051481358, 47.422297402897016], [7.568232374265578, 47.42238313189639], [7.568191355035952, 47.42249169167167], [7.568185543794441, 47.422560233456245], [7.568199242407066, 47.42278866924585], [7.568246361883678, 47.422857152076915], [7.568298369408345, 47.42290278429729], [7.568350961287011, 47.42295983841636], [7.568442817320048, 47.423113940419235], [7.56849185045444, 47.42322812019495], [7.568510714780155, 47.42328521182128], [7.568508826670006, 47.423353749241855], [7.568482392787583, 47.423405180210914], [7.568455704154703, 47.4234280550771], [7.568380792283065, 47.42348525133652], [7.568356675110617, 47.4235138345121], [7.568336363172488, 47.42355954730385], [7.568289593861457, 47.423690958678606], [7.568262303158166, 47.423793791968755], [7.568255868998348, 47.423862334443214], [7.56825542675202, 47.42394801299613], [7.5682723293095275, 47.42413647515777], [7.568250482499805, 47.4242107459892], [7.568187464324892, 47.42434217541774], [7.5681585910778635, 47.424393608982214], [7.568079534228514, 47.42450221114301], [7.5680004620273476, 47.42459367021772], [7.567871694486136, 47.424725172510016], [7.567782269585728, 47.42479952723693], [7.5677632136890525, 47.424822393429075], [7.567736632559156, 47.42487382434634], [7.5677326316274955, 47.42489096258882], [7.567732478549768, 47.424959488983326], [7.567797258041686, 47.425090776304984], [7.567811329277015, 47.42519928380047], [7.567798456777584, 47.42530780314851], [7.567717875557926, 47.4254392515828], [7.567536871566734, 47.42569647728602], [7.56747049911276, 47.425856466274304], [7.567468863244526, 47.42594784837729], [7.567510383097106, 47.42607345021779], [7.567631750555049, 47.426301766581716], [7.567732544024805, 47.426467290464345], [7.567798685393411, 47.42654146354068], [7.567926509283044, 47.42662127936533], [7.56805994827386, 47.426792468957885], [7.568131408976859, 47.4269066147826], [7.568197341025663, 47.42699792163455], [7.568321823321163, 47.427311902705284], [7.568343634124371, 47.427397547424526], [7.568356724020054, 47.42748320181351], [7.5683385397473835, 47.42788301967855], [7.568342640902602, 47.42820855720356], [7.568380422495974, 47.42828847280673], [7.56842700083675, 47.4283283997936], [7.568559777512299, 47.42857383602], [7.568569897951341, 47.42864807111832], [7.568627334030054, 47.428836496672375], [7.568715117562959, 47.42897918023885], [7.568911624310098, 47.42935590380845], [7.568942411189228, 47.42945295177766], [7.568978148560786, 47.42984699788537], [7.56901431269241, 47.430023997339305], [7.5691600876584095, 47.43040077754549], [7.569179393647731, 47.430583515946736], [7.569110957625688, 47.43067497256227], [7.569088711020968, 47.43074354154777], [7.569102984574018, 47.4308463282691], [7.569094996505208, 47.430886315906], [7.569113785391644, 47.43094910978772], [7.569080937652819, 47.4310405447584], [7.569057455507943, 47.431086260972926], [7.569052463017111, 47.431126245392406], [7.569093172172656, 47.43128040378228], [7.569110868718864, 47.43141174278768], [7.5691370432067355, 47.43149738225915], [7.569122182430672, 47.43159449028804], [7.569040819482521, 47.43178305304327], [7.568960999173685, 47.43190307888491], [7.568849724721021, 47.43202314878448], [7.5687758809474195, 47.4321374565279], [7.5687549841126875, 47.43219459247665], [7.568750857140662, 47.43227455472369], [7.5687663329451595, 47.43234307249387], [7.568864867986983, 47.43257141192258], [7.5689262118546825, 47.43269127945667], [7.5688903190316985, 47.432834100194704], [7.568889735697724, 47.43295975660784], [7.568844807621066, 47.43302263046208], [7.568806057023648, 47.43309120876794], [7.568803983946842, 47.433165457380866], [7.568835645180816, 47.43323966819786], [7.568822966077418, 47.43329679480016], [7.568825456404887, 47.43340530569477], [7.568845046078326, 47.433513797601975], [7.568878829088757, 47.43359371735169], [7.568887951625603, 47.433742199706835], [7.568926649328143, 47.43391351188963], [7.568970387478475, 47.43399342046347], [7.569111668924659, 47.43416459957771], [7.569133331649321, 47.43421497823968], [7.569142577090317, 47.43423937788175], [7.569143923252485, 47.434242398401395], [7.5691649964597, 47.4342901873698], [7.569206508421099, 47.434490033934786], [7.569199294352347, 47.43469564676939], [7.569175688628641, 47.43483273418053], [7.56917355744825, 47.434975517666196], [7.569182614172133, 47.43511828884164], [7.569168278131573, 47.43517542639904], [7.569123442706667, 47.435249722863624], [7.569029572605901, 47.435426867707214], [7.5689894887988745, 47.43555828940829], [7.568957211136383, 47.43579819812462], [7.568941500845283, 47.43585183851727], [7.568933611419766, 47.43587274064087], [7.568860626526229, 47.43601533370735], [7.568775856821249, 47.43615250745183], [7.568651008657133, 47.43636396328531], [7.568608584724199, 47.436443968131336], [7.568569299975899, 47.436501124468094], [7.568540739815539, 47.43656398006959], [7.568539552661863, 47.43662109391055], [7.568564334563986, 47.43668388994222], [7.568614540548492, 47.43673523530376], [7.568852564059409, 47.43684348276914], [7.568885535619176, 47.43687771340121], [7.568885972374847, 47.43690469520559], [7.568970059985501, 47.43688996798967], [7.569757893952201, 47.43675192880007], [7.570358019196902, 47.436662019793204], [7.570698373967403, 47.43656155912678], [7.571599083504133, 47.436469925231115], [7.571878967749977, 47.436596405068514], [7.5721993951889655, 47.43661831784881], [7.572491452855391, 47.436602127798984], [7.57261944801109, 47.43655200174137], [7.572739206398124, 47.436457876247594], [7.5732170164464945, 47.4364144689848], [7.573809614812286, 47.43645206239194], [7.573906523935723, 47.4364551069249], [7.574211094747566, 47.43651834106655], [7.5747666465865935, 47.436567197436645], [7.575135712194109, 47.43666767974436], [7.5752698011582, 47.43668997198876], [7.575547067127132, 47.4367426488221], [7.5756201438734285, 47.436751458060286], [7.57570651454748, 47.43646402268628], [7.576532536428987, 47.4360827157775], [7.576738922515167, 47.43593023747583], [7.577330042170238, 47.435412736350884], [7.5777928593293655, 47.435190426301716], [7.578429635248636, 47.43491064904533], [7.578378076082066, 47.434358474203044], [7.578316277372308, 47.43378824212595], [7.577967437959392, 47.4331617803351], [7.57765636895032, 47.43244275920942], [7.578980358437962, 47.43226021069005], [7.579945195126044, 47.43208192406405], [7.580106600034937, 47.43205210014444], [7.580100960297006, 47.43193900700694], [7.5800649375604525, 47.43178484695711], [7.580033469289127, 47.43161354769337], [7.579985355021234, 47.431447979744625], [7.579865019373511, 47.43120824397619], [7.579831084609646, 47.43115689286708], [7.579804659519918, 47.43112836019416], [7.579678231017975, 47.43106569927394], [7.579661284190125, 47.4310428564085], [7.579665553931533, 47.43096289384257], [7.579663129220256, 47.43092292704102], [7.579653599952301, 47.43088295972857], [7.579619972183854, 47.43083730145388], [7.579534152886603, 47.43076316853211], [7.579454119559837, 47.43071186424472], [7.579408644339748, 47.43067194053402], [7.579413176109211, 47.43058055526394], [7.579416004197387, 47.4303806487336], [7.579400486195707, 47.430260739949865], [7.579304775030571, 47.43018975731237], [7.581213309048103, 47.42878457426145], [7.584913179292545, 47.428627589915735], [7.589618299908808, 47.431341212978545], [7.592075552779923, 47.43271568322071], [7.594004349848585, 47.432372292680725], [7.595983567214095, 47.43226708174617], [7.59857526450913, 47.43213225004778], [7.602162613988565, 47.43125033427895], [7.607429159832548, 47.43266843553354], [7.608853776129218, 47.432706955526434], [7.611397933513949, 47.43279222718182], [7.614025932524794, 47.433358709928335], [7.615805212678984, 47.43275165894278]]]]}}]}