{"type": "FeatureCollection", "features": [{"type": "Feature", "properties": {"bfs_nummer": 2619}, "geometry": {"type": "MultiPolygon", "coordinates": [[[[7.375951384808469, 47.41410385978472], [7.376027197775034, 47.415103613248064], [7.376561429636374, 47.41658381649531], [7.377122013974846, 47.41804919115318], [7.3790233054266245, 47.42125678611608], [7.379229391718974, 47.42314303709046], [7.3792777336155035, 47.42339382173786], [7.3794829259860215, 47.42400132551885], [7.379554784285211, 47.42664549336338], [7.379591445220058, 47.427030647497105], [7.379637381843754, 47.427604779463934], [7.379740935158693, 47.42774414202352], [7.380568938035196, 47.42793864538362], [7.380987398063871, 47.428134074654885], [7.381296552527848, 47.428223766652884], [7.381537308292418, 47.42846732094014], [7.3817847535526635, 47.42853420797208], [7.38221433865328, 47.428819038934215], [7.382153152047555, 47.42906730477217], [7.382357262913434, 47.42921669764263], [7.3825457351368255, 47.429378836929054], [7.382803810865633, 47.429648011933466], [7.383017179466978, 47.429978237357155], [7.382996654051028, 47.430380447009725], [7.382868973536405, 47.43106179163721], [7.382808257176059, 47.43116946436774], [7.382633580360238, 47.43113926685061], [7.3823521458627575, 47.4311874085041], [7.382433633429472, 47.43141119479392], [7.3822075124051265, 47.4315048994688], [7.381732046327514, 47.4316311997381], [7.381771971766167, 47.43170222776987], [7.3816808137745555, 47.43170663419543], [7.381581871531284, 47.431726587479254], [7.381456810978185, 47.43177651382847], [7.381341361588356, 47.43186128810222], [7.381205454844311, 47.43193829898391], [7.381149646980949, 47.43195487388908], [7.3816176470489765, 47.432614639386045], [7.382105614926892, 47.43304749248217], [7.382905811565632, 47.4327789332658], [7.384111862311348, 47.43237415679385], [7.385585940489814, 47.431863108223936], [7.386403241536821, 47.43244212848558], [7.388449646972052, 47.433058707156356], [7.3899188276793115, 47.43367790464124], [7.392042705316677, 47.43447187658686], [7.393087092824933, 47.434866407401415], [7.393921258534541, 47.43517087785952], [7.394814552252338, 47.435274078633], [7.396431118876929, 47.435460803092404], [7.398745432366698, 47.43514235056652], [7.400429166932732, 47.43550231371655], [7.403052981427675, 47.435485503357896], [7.403351697216013, 47.436618773176626], [7.403040553574811, 47.43715626017366], [7.403100608332088, 47.43758808797001], [7.403156550436205, 47.43799036288992], [7.403209447285155, 47.43868231227358], [7.403566504529429, 47.43875259667875], [7.403942137793669, 47.438937911268205], [7.404193370988407, 47.438986466696214], [7.404624931743823, 47.43918103299245], [7.404942288689068, 47.439376805085246], [7.405413832709305, 47.43953812051281], [7.4057722606819665, 47.43969733212981], [7.4060354157589465, 47.43985332165854], [7.406316407145448, 47.44012932342686], [7.406696484833865, 47.440403814683556], [7.407319641584435, 47.44055787135418], [7.4076633938343965, 47.44064917596886], [7.408316026739833, 47.44075607777268], [7.408565928850152, 47.44085773296368], [7.408818415544493, 47.44100804642874], [7.40983709244924, 47.44140877371141], [7.410316046970179, 47.44162930507754], [7.410868612766674, 47.44172305507956], [7.411306700854981, 47.441746845241916], [7.411548027098539, 47.44186538293303], [7.411658255813083, 47.44182734763989], [7.412159066691822, 47.44200282557905], [7.412369305068015, 47.44202312148841], [7.41283948940202, 47.442237362840615], [7.413204424603981, 47.442266857008114], [7.4139274392334364, 47.4425545795748], [7.414402778049059, 47.442601732862975], [7.41454065717379, 47.44273962353638], [7.41502375552525, 47.44284002947024], [7.41512089910525, 47.442771497873025], [7.4152076854137965, 47.44271025885233], [7.4153800449734755, 47.44309029306466], [7.415703138836488, 47.44322545110094], [7.416077348207837, 47.443470437612234], [7.416423129812868, 47.44345656803504], [7.416556806759006, 47.443641134668134], [7.416730769331674, 47.44359209707678], [7.416899137512445, 47.44354464306458], [7.417043810670013, 47.44350386629332], [7.417031245010017, 47.4435596357629], [7.41702983696875, 47.44356597625948], [7.416970129136826, 47.443831341437786], [7.417264504024188, 47.44411826377788], [7.417774134387141, 47.44428783720392], [7.418009721367434, 47.44423968318655], [7.418156032011644, 47.44444651111131], [7.418379353046823, 47.44453787884482], [7.418675201924018, 47.44474745813242], [7.4191465509463885, 47.44495533169845], [7.41943402147987, 47.445003221972584], [7.419845601921595, 47.44526590252991], [7.420086460346694, 47.4453105455626], [7.420240484789566, 47.44544361995586], [7.420556222102542, 47.44557489601605], [7.420615702477206, 47.44563776499433], [7.420909739805059, 47.445948645783574], [7.421315299044799, 47.44555061842087], [7.421733493137918, 47.44514016427191], [7.422709885391802, 47.44426884741537], [7.423448700245694, 47.443609539229485], [7.425426486921084, 47.443286734122], [7.429295710399703, 47.44405489589968], [7.4363156048602175, 47.44577212173245], [7.437846361914596, 47.446330325217055], [7.437848881088694, 47.44632787885953], [7.439070918967236, 47.44514202821059], [7.438844683941395, 47.44501663185451], [7.439373563866505, 47.444476106961716], [7.438692440407061, 47.444199635318945], [7.438941943010348, 47.443961913808245], [7.439289365985196, 47.443602025541274], [7.439508078960127, 47.44335528190858], [7.439905598388957, 47.44348681977992], [7.440371894602022, 47.44325473318478], [7.4421660690836156, 47.442332022501155], [7.442674975395555, 47.4417451388992], [7.443182747537924, 47.44115957163884], [7.4457285449028054, 47.43917688844921], [7.448415512451706, 47.437735040482366], [7.450628175150654, 47.435356065169536], [7.4511728914749344, 47.43463406244248], [7.45110245522791, 47.43440741779124], [7.451156905866284, 47.433728671639095], [7.4515085006054065, 47.43313094157043], [7.451861806150817, 47.4328007037649], [7.4520452236635135, 47.43249418252901], [7.452015156080947, 47.43190860546424], [7.452147963784408, 47.43138026815491], [7.4523867419670005, 47.43102910263445], [7.452564816264276, 47.43091549580248], [7.452866286387115, 47.43078863513516], [7.453570697404285, 47.429929665997534], [7.45375828516717, 47.42983290905215], [7.454989578550471, 47.42910254555927], [7.455046398790848, 47.42883024038993], [7.4550954747891405, 47.42859506261156], [7.455265902157695, 47.42836495488949], [7.455591856341407, 47.427924854619526], [7.455474650868206, 47.427607927496176], [7.454829544247852, 47.42586353074856], [7.454660292835281, 47.425462210307764], [7.454039004324508, 47.424859109929336], [7.453558916566747, 47.424420347383574], [7.453264890830405, 47.42412561959843], [7.452965077354052, 47.423833634624614], [7.452498713815427, 47.42340560520718], [7.4521972639252985, 47.42310780819564], [7.451795761110209, 47.42275572318845], [7.451182501468268, 47.42139424713177], [7.450340117085315, 47.41952403437073], [7.450420464354357, 47.4193376864602], [7.450478203393886, 47.419013930045466], [7.450433019232032, 47.41876817987799], [7.450295541065271, 47.41840092781368], [7.450288385250166, 47.418066527777796], [7.450370740428115, 47.417791453086636], [7.450234464503467, 47.41752675107624], [7.449817210144644, 47.4171861272671], [7.449313047780382, 47.416629767037925], [7.448941353251095, 47.41623172683191], [7.448639833250751, 47.415788115992136], [7.448412741544622, 47.41506969121607], [7.447496704923644, 47.41448835859007], [7.447037923656472, 47.414321962517], [7.4466241104573525, 47.41420574010727], [7.446070849764623, 47.41407059174282], [7.445589771201476, 47.41397768228568], [7.445157616955607, 47.4139071009682], [7.44492832521822, 47.41382499611333], [7.444768280306399, 47.41374284272132], [7.4445147520986685, 47.41362781960843], [7.444233534968052, 47.41354836879763], [7.443763037495239, 47.413448148099164], [7.443640034568284, 47.41343378903021], [7.442856640125897, 47.413409368908226], [7.44213611858051, 47.413378790328345], [7.441769222145393, 47.41343015464717], [7.441421667840682, 47.41339649635315], [7.441142803614479, 47.41338425101025], [7.440891445118943, 47.41329012213252], [7.440486571160363, 47.413222274572504], [7.440290401709841, 47.413176972558375], [7.439912559861357, 47.4131530860899], [7.439753359181263, 47.41313629452549], [7.439723943836418, 47.413091647773435], [7.439354344845357, 47.41300069921968], [7.439131399182552, 47.412921685383594], [7.438874957038676, 47.41289265107234], [7.438580899406894, 47.412813995570225], [7.438166346297919, 47.4127448716717], [7.438111133359698, 47.412743593878126], [7.437570197350304, 47.412801984888745], [7.437431599666776, 47.41284931871254], [7.437283118421638, 47.41286617989457], [7.436965647928548, 47.41283517065481], [7.436689941206529, 47.41281390180485], [7.436277274671474, 47.41291108165445], [7.436144797488117, 47.412949014887374], [7.435944615025425, 47.41294274861513], [7.43536615911637, 47.413053077964236], [7.43511683565574, 47.413155547707035], [7.434945509952639, 47.41316788098113], [7.434646275532765, 47.413230305946406], [7.434248863551674, 47.413352815448754], [7.43367506654045, 47.413557746085544], [7.433391193130813, 47.413669231787935], [7.432578429071499, 47.41390763929568], [7.4318967363763715, 47.414013160707114], [7.431303152067199, 47.41413928873093], [7.430961912609913, 47.414150164916556], [7.4306603541617315, 47.41418281771861], [7.429643970653336, 47.414312144146955], [7.429056174740996, 47.41434648725048], [7.428473020525342, 47.41435865745954], [7.427488910517694, 47.4144847077869], [7.4271960401835235, 47.41418109861351], [7.426898466426798, 47.41388932435574], [7.42668654797062, 47.41380403664065], [7.426280607081349, 47.41360665865536], [7.4257226127195946, 47.41339763182614], [7.425278549308249, 47.41328113922136], [7.42457302252257, 47.413312181403995], [7.42434130430302, 47.41326016447087], [7.4233157318923535, 47.413065659957944], [7.421519305012192, 47.41166205416193], [7.421286263088631, 47.41136403056287], [7.420749700537402, 47.41110342656988], [7.420033713188716, 47.4111088743907], [7.4195449847300035, 47.41107755373629], [7.419161998108428, 47.41109141837003], [7.41888204838668, 47.41111977207335], [7.4184451873597625, 47.411136584284534], [7.417886709208239, 47.4111160641299], [7.4174367068030165, 47.411189595761435], [7.417061373075203, 47.41121343864365], [7.4170199297788395, 47.41111616802772], [7.416567911396265, 47.41106961518946], [7.415941418710926, 47.41103193830735], [7.415386236831708, 47.411051493748545], [7.414651907767664, 47.41101093607861], [7.413713620088906, 47.41093350657487], [7.413108887042644, 47.41097567856342], [7.412563437313013, 47.41100720319062], [7.412018309798336, 47.4111064156354], [7.4116213652242955, 47.41122972076129], [7.4114151097671925, 47.41125065441197], [7.411123621828843, 47.4112414634621], [7.4108246000924884, 47.411295759292756], [7.410368658989994, 47.41135481804052], [7.410031393276662, 47.411320869654716], [7.409793155421935, 47.411240940610156], [7.408257865502599, 47.41128101087679], [7.407655696336464, 47.41118879210454], [7.407438935471128, 47.411226579695274], [7.407002385147087, 47.41124870992413], [7.4064289740185245, 47.41131913288188], [7.405969322064022, 47.41141300707441], [7.40519838052745, 47.41150451211961], [7.404595099892417, 47.41171384871711], [7.403959868850087, 47.41178610239587], [7.403155940339745, 47.411837802492116], [7.402619563331608, 47.41179616088536], [7.402083564163293, 47.411858561083044], [7.401470467417488, 47.41189520925768], [7.401006523026984, 47.41200667357207], [7.400453068334479, 47.41212271705825], [7.400268166283642, 47.41210409925935], [7.399523902098365, 47.41224947659042], [7.398954861294987, 47.41243410734571], [7.398594528160128, 47.41248499455064], [7.398237448039568, 47.41256048090573], [7.397709885033202, 47.412711967966935], [7.396952739510774, 47.41287356712252], [7.396680635662435, 47.412807413062566], [7.396377948485771, 47.41287544886768], [7.395982009083224, 47.4128590024336], [7.395877917980931, 47.41297009507894], [7.3952620213583, 47.41295890480147], [7.395062283516481, 47.4131250053532], [7.394187305217461, 47.41320756432662], [7.394101398235638, 47.41318378614345], [7.393827972357835, 47.413040015072944], [7.39353145284181, 47.413080578851826], [7.3928579051376415, 47.41322022223464], [7.392622416010118, 47.41325838836961], [7.392403583770753, 47.41330924217899], [7.391928620105756, 47.413335013106526], [7.391578750689586, 47.41349427221109], [7.39122104548675, 47.413495480738135], [7.390909097399409, 47.41347799083291], [7.3905922983572685, 47.41352001266526], [7.390171937859357, 47.413558409401475], [7.389883999058622, 47.413612286957296], [7.389495269666995, 47.413646719664214], [7.38902424321124, 47.413749911546404], [7.388422628706889, 47.413898562957414], [7.388276011121766, 47.4139561956435], [7.38804326880644, 47.41401046164506], [7.387604430205434, 47.41405069424795], [7.387258057853494, 47.41386932376163], [7.386907112043514, 47.413799576628065], [7.386434860019075, 47.41381064011245], [7.385676116046284, 47.41386699762963], [7.385612194936435, 47.41361984389205], [7.384995271590062, 47.41353300376611], [7.384361783353802, 47.41350130476075], [7.383619914876681, 47.413425945974204], [7.382267341300874, 47.413305624955896], [7.38180168509583, 47.4132971901857], [7.381533853614664, 47.41331380271528], [7.380693533830501, 47.413496009987405], [7.380233321442376, 47.413713810574], [7.379567754075837, 47.413776750146866], [7.37912820489184, 47.41384283400182], [7.378431676878418, 47.413977719557835], [7.377851827461535, 47.414011165180405], [7.377597824056806, 47.414073141534885], [7.377327030916247, 47.414079569959085], [7.376591403187196, 47.4140275799209], [7.375951384808469, 47.41410385978472]]]]}}]}