{
  "type": "FeatureCollection",
  "features": [
    {
      "type": "Feature",
      "properties": {
        "bfs_nummer": 2762
      },
      "geometry": {
        "type": "LineString",
        "coordinates": [
          [
            7.555888311881628,
            47.54434070190785
          ],
          [
            7.555805597292418,
            47.544339876585624
          ],
          [
            7.555675468076639,
            47.54432330569433
          ],
          [
            7.55555016041846,
            47.54429447132339
          ],
          [
            7.555392120726753,
            47.54423986643808
          ],
          [
            7.555291996531894,
            47.54419217364897
          ],
          [
            7.554735398213973,
            47.54384674722407
          ],
          [
            7.554526426686377,
            47.54373332757103
          ],
          [
            7.554385861720473,
            47.54366268605369
          ],
          [
            7.554148972882415,
            47.54351919124151
          ],
          [
            7.554066875486363,
            47.54346519290137
          ],
          [
            7.554004063945794,
            47.543416994415885
          ],
          [
            7.5538573487883625,
            47.54328995839484
          ],
          [
            7.553667443806487,
            47.54317123901192
          ],
          [
            7.55339341219809,
            47.542912128317376
          ],
          [
            7.553284142430002,
            47.54283426865876
          ],
          [
            7.553062652003168,
            47.542646012450945
          ],
          [
            7.552903720450609,
            47.542599445451
          ],
          [
            7.552771696242799,
            47.54257628071051
          ],
          [
            7.552463322784785,
            47.54244165716176
          ],
          [
            7.552306535467459,
            47.54229092137029
          ],
          [
            7.552191571589216,
            47.54215725085079
          ],
          [
            7.552102894613591,
            47.542067714100405
          ],
          [
            7.552019889564599,
            47.541971939086565
          ],
          [
            7.551918616318311,
            47.54177948966388
          ],
          [
            7.551663125421656,
            47.54140537135008
          ],
          [
            7.551574982123441,
            47.54125928079178
          ],
          [
            7.551504398394166,
            47.54120145609957
          ],
          [
            7.551375884949777,
            47.5408945327009
          ],
          [
            7.551290296073302,
            47.54077494409822
          ],
          [
            7.551197105680965,
            47.54067844079009
          ],
          [
            7.551085704909744,
            47.54043594993876
          ],
          [
            7.550928205716722,
            47.54024507363123
          ],
          [
            7.550851775747372,
            47.54013451461978
          ],
          [
            7.550761527715241,
            47.540046813024155
          ],
          [
            7.550652505933244,
            47.53990505875808
          ],
          [
            7.5505579867593235,
            47.53984510690805
          ],
          [
            7.5504302785857496,
            47.53970339731316
          ],
          [
            7.550387361052329,
            47.539593219602
          ],
          [
            7.550400668131754,
            47.53946536925403
          ],
          [
            7.550365978762438,
            47.539358331474325
          ],
          [
            7.5503292196001475,
            47.53916311162076
          ],
          [
            7.550288472933714,
            47.539112812383834
          ],
          [
            7.55008360026799,
            47.538945103147284
          ],
          [
            7.550038021696476,
            47.538742633606795
          ],
          [
            7.549779836622069,
            47.53846480978927
          ],
          [
            7.549565892473789,
            47.5383334521223
          ],
          [
            7.549554014132082,
            47.53827986044377
          ],
          [
            7.549738318382117,
            47.53811252674286
          ],
          [
            7.549760190549221,
            47.537765831432566
          ],
          [
            7.549703075562701,
            47.53766713398341
          ],
          [
            7.549782581863246,
            47.53746463515585
          ],
          [
            7.549924823865315,
            47.53717080751726
          ],
          [
            7.549908601252458,
            47.53711661740919
          ],
          [
            7.549750242007593,
            47.53702291800588
          ],
          [
            7.549713901616614,
            47.536957288920405
          ],
          [
            7.54984637109234,
            47.53690805674713
          ],
          [
            7.549894755261918,
            47.53669131427602
          ],
          [
            7.550015741363248,
            47.53661280906101
          ],
          [
            7.54955160196527,
            47.53615338028458
          ],
          [
            7.549378143127137,
            47.53601980721442
          ],
          [
            7.549191166989821,
            47.53593208803939
          ],
          [
            7.549145218425292,
            47.53570831199112
          ],
          [
            7.548980560421659,
            47.53550054916409
          ],
          [
            7.5489384000827595,
            47.53532287161387
          ],
          [
            7.548910936881738,
            47.535239615009516
          ],
          [
            7.548695201328513,
            47.53512099250431
          ],
          [
            7.548655523578824,
            47.535052182386664
          ],
          [
            7.548563085481061,
            47.53500439546065
          ],
          [
            7.548514388990285,
            47.53494133182278
          ],
          [
            7.5484299627673215,
            47.53485632092206
          ],
          [
            7.54844535650216,
            47.53479879112143
          ],
          [
            7.548294427239871,
            47.53469049473441
          ],
          [
            7.548248606803969,
            47.53461780491504
          ],
          [
            7.5482348120263385,
            47.534483297638204
          ],
          [
            7.548188224046876,
            47.53438583959163
          ],
          [
            7.548007857074089,
            47.53422710622692
          ],
          [
            7.547777241021444,
            47.53411532220239
          ],
          [
            7.54771354018078,
            47.53401999348711
          ],
          [
            7.547727887081867,
            47.53398941915835
          ],
          [
            7.547760551574217,
            47.53396734484087
          ],
          [
            7.547763917965776,
            47.53392489096422
          ],
          [
            7.547730536875763,
            47.53388853323995
          ],
          [
            7.547685636760976,
            47.53384969497956
          ],
          [
            7.5476447617156905,
            47.533739604064856
          ],
          [
            7.547651527524548,
            47.533670849144556
          ],
          [
            7.547665693867654,
            47.53362336664434
          ],
          [
            7.5475987942347365,
            47.53345669301801
          ],
          [
            7.547505365261308,
            47.53331812272364
          ],
          [
            7.547279985121807,
            47.533179423343036
          ],
          [
            7.547149005909059,
            47.533056213111756
          ],
          [
            7.547062623935031,
            47.53289470169908
          ],
          [
            7.546943912307628,
            47.53276933031612
          ],
          [
            7.546960002681224,
            47.53271430929667
          ],
          [
            7.547187511902256,
            47.53259437255601
          ],
          [
            7.547227385058345,
            47.53255834228834
          ],
          [
            7.5472730164858,
            47.53236915116825
          ],
          [
            7.547219225069136,
            47.532260529058206
          ],
          [
            7.547293271212661,
            47.53212831422272
          ],
          [
            7.547299418987925,
            47.53210173180996
          ],
          [
            7.547288590626788,
            47.53206639623175
          ],
          [
            7.547117063244739,
            47.531952550211095
          ],
          [
            7.547092808742303,
            47.53192357670956
          ],
          [
            7.547092389265366,
            47.53188692734243
          ],
          [
            7.547055840610869,
            47.53184626430787
          ],
          [
            7.546932507188343,
            47.53175892297069
          ],
          [
            7.546910370690089,
            47.53172651183134
          ],
          [
            7.546908954724323,
            47.53168954860174
          ],
          [
            7.546918062147995,
            47.53166203709942
          ],
          [
            7.546924554078349,
            47.53160198843046
          ],
          [
            7.546917150329576,
            47.53150658000296
          ],
          [
            7.546877427932691,
            47.531459201475876
          ],
          [
            7.546757952658474,
            47.53141423518414
          ],
          [
            7.546611618214465,
            47.531404900084496
          ],
          [
            7.546447053873266,
            47.53135749285683
          ],
          [
            7.546349235592134,
            47.531364004687816
          ],
          [
            7.54624461645178,
            47.531402756505784
          ],
          [
            7.546142787667674,
            47.531362980733434
          ],
          [
            7.546081890637232,
            47.531311790058254
          ],
          [
            7.545974051035192,
            47.5312676666632
          ],
          [
            7.545902157069494,
            47.53128196990783
          ],
          [
            7.545861018121498,
            47.53126277892186
          ],
          [
            7.545860493123632,
            47.531232695118746
          ],
          [
            7.5459001141755735,
            47.53116366724298
          ],
          [
            7.5459095642038,
            47.531134608565786
          ],
          [
            7.545903719186952,
            47.53110045545264
          ],
          [
            7.545850044420405,
            47.531087895416256
          ],
          [
            7.545733295743003,
            47.53112393278578
          ],
          [
            7.545712790389198,
            47.531109831307816
          ],
          [
            7.545682593102995,
            47.53105693942253
          ],
          [
            7.54563268023401,
            47.531026271302395
          ],
          [
            7.545510356479391,
            47.5309769533243
          ],
          [
            7.545490413951471,
            47.530965342576124
          ],
          [
            7.545483162485659,
            47.53095161566481
          ],
          [
            7.545397727431474,
            47.530927833213084
          ],
          [
            7.545304391469045,
            47.53085086853155
          ],
          [
            7.544675962715426,
            47.53044794247605
          ],
          [
            7.5436296423309726,
            47.53015339597124
          ],
          [
            7.541301125385989,
            47.52972083044329
          ],
          [
            7.541596031429178,
            47.529389086022334
          ],
          [
            7.539339326387917,
            47.52788290688714
          ],
          [
            7.539103553154743,
            47.52798490183814
          ],
          [
            7.537340744284946,
            47.5287183745312
          ],
          [
            7.5360381337307025,
            47.52943902617022
          ],
          [
            7.534719813745696,
            47.52864510902031
          ],
          [
            7.5332810342399465,
            47.52796001845805
          ],
          [
            7.530944687996916,
            47.52683870204749
          ],
          [
            7.531230857050162,
            47.52816398457375
          ],
          [
            7.530961811980744,
            47.52905040265964
          ],
          [
            7.530489502306265,
            47.52976476616774
          ],
          [
            7.529762667627909,
            47.5306834405549
          ],
          [
            7.527983674496823,
            47.53177365661096
          ],
          [
            7.527569180973334,
            47.53216326909965
          ],
          [
            7.526784363892791,
            47.53288110049216
          ],
          [
            7.526745942384657,
            47.53287969041697
          ],
          [
            7.526684281733013,
            47.53287076101111
          ],
          [
            7.526626634682477,
            47.53287176670316
          ],
          [
            7.526576006024308,
            47.53286054451982
          ],
          [
            7.526507574228485,
            47.53283638461125
          ],
          [
            7.526457774966527,
            47.53279634561972
          ],
          [
            7.526396610018675,
            47.53276561471823
          ],
          [
            7.5263316096187625,
            47.5327444830424
          ],
          [
            7.526285106187218,
            47.53270577258826
          ],
          [
            7.526188077132612,
            47.53265366318461
          ],
          [
            7.526158578963589,
            47.53264349527161
          ],
          [
            7.52605764709279,
            47.532584004766186
          ],
          [
            7.525989723161857,
            47.532561463054314
          ],
          [
            7.52595446412324,
            47.5324630522188
          ],
          [
            7.525894244544223,
            47.532425269203785
          ],
          [
            7.525872475471481,
            47.532390578354
          ],
          [
            7.525787707403864,
            47.53234009634238
          ],
          [
            7.525665399129946,
            47.532282609034255
          ],
          [
            7.525628867982838,
            47.53221000225245
          ],
          [
            7.525600115282219,
            47.5322007240281
          ],
          [
            7.525566420053263,
            47.5322063521963
          ],
          [
            7.5254593163034755,
            47.53218079935762
          ],
          [
            7.525417316475872,
            47.532167105963
          ],
          [
            7.525302683002097,
            47.53214966197655
          ],
          [
            7.525273870711507,
            47.53216100650194
          ],
          [
            7.525179502410906,
            47.53214358336746
          ],
          [
            7.525158012765266,
            47.532150074790785
          ],
          [
            7.525117721706718,
            47.53218309382887
          ],
          [
            7.525082857247144,
            47.53216363001434
          ],
          [
            7.525045409493504,
            47.53213154979279
          ],
          [
            7.52499831311386,
            47.532119577824176
          ],
          [
            7.524975285897748,
            47.53209484386908
          ],
          [
            7.524932578610614,
            47.53209529807007
          ],
          [
            7.524897414215613,
            47.53207918011452
          ],
          [
            7.524833675905974,
            47.53207401066147
          ],
          [
            7.524660386720379,
            47.531974288947694
          ],
          [
            7.524602244142353,
            47.53193063077613
          ],
          [
            7.5245234667770164,
            47.53192138900915
          ],
          [
            7.524488158994297,
            47.53188188714804
          ],
          [
            7.524421283710357,
            47.53188301542988
          ],
          [
            7.524404296976943,
            47.531865220148134
          ],
          [
            7.521149191828001,
            47.53387044223859
          ],
          [
            7.519359571266024,
            47.53472304174169
          ],
          [
            7.517731061192855,
            47.534054924218864
          ],
          [
            7.515798820850259,
            47.53295158528849
          ],
          [
            7.515786053023715,
            47.53293837281007
          ],
          [
            7.515288767489111,
            47.53318041634987
          ],
          [
            7.513608605774262,
            47.534171126070305
          ],
          [
            7.51113295722898,
            47.535914860643146
          ],
          [
            7.511137409859693,
            47.53596677902865
          ],
          [
            7.512202148453863,
            47.53651189509601
          ],
          [
            7.510990900777096,
            47.53744192223342
          ],
          [
            7.510512124241154,
            47.5376783842503
          ],
          [
            7.50978658804089,
            47.537923412319394
          ],
          [
            7.509095880191332,
            47.53822778285767
          ],
          [
            7.509202320939933,
            47.53859526770711
          ],
          [
            7.509408179200479,
            47.53956126434492
          ],
          [
            7.509501690805546,
            47.5401424576243
          ],
          [
            7.509595655672083,
            47.54064278742634
          ],
          [
            7.51023385871468,
            47.54095471753012
          ],
          [
            7.509887196922942,
            47.54133605756232
          ],
          [
            7.509742935093169,
            47.541503725980675
          ],
          [
            7.508813731311245,
            47.542608549093686
          ],
          [
            7.508677981653201,
            47.54272896676368
          ],
          [
            7.508608936433043,
            47.54277796100861
          ],
          [
            7.50852670122344,
            47.542816494321826
          ],
          [
            7.50842954049821,
            47.542837768420725
          ],
          [
            7.508331905740182,
            47.542841783683144
          ],
          [
            7.508255969295143,
            47.542831395972556
          ],
          [
            7.50818829958427,
            47.5428145727724
          ],
          [
            7.508131025229666,
            47.54279394801039
          ],
          [
            7.508058591743507,
            47.54276006638032
          ],
          [
            7.505003923363425,
            47.54256010222365
          ],
          [
            7.504919714641454,
            47.54263739722296
          ],
          [
            7.504461259345163,
            47.543085616439136
          ],
          [
            7.504233533881127,
            47.543133149931094
          ],
          [
            7.504165172370262,
            47.543147443192545
          ],
          [
            7.50410707803159,
            47.54325988863363
          ],
          [
            7.5041009275990795,
            47.54330314307048
          ],
          [
            7.504127454355076,
            47.54334790823755
          ],
          [
            7.504184204105606,
            47.54337483090249
          ],
          [
            7.5042344046492575,
            47.543411920148564
          ],
          [
            7.504270371233513,
            47.543453127474244
          ],
          [
            7.504249485762997,
            47.54348167634966
          ],
          [
            7.5042521022455615,
            47.543503313882624
          ],
          [
            7.504291568409745,
            47.54351687241855
          ],
          [
            7.504334292905392,
            47.54355553071158
          ],
          [
            7.504453077759867,
            47.54359696145379
          ],
          [
            7.504547675132153,
            47.54361684759593
          ],
          [
            7.504563391730409,
            47.543641103949795
          ],
          [
            7.504546230165732,
            47.54370602156291
          ],
          [
            7.50459874881947,
            47.54373744327624
          ],
          [
            7.504664052771467,
            47.543753073728
          ],
          [
            7.5048820973235815,
            47.54382428950422
          ],
          [
            7.504947967231289,
            47.54385711554944
          ],
          [
            7.505080096845956,
            47.54396936398557
          ],
          [
            7.5050258253464,
            47.54400340907466
          ],
          [
            7.505027766906259,
            47.54404834980365
          ],
          [
            7.505105290356004,
            47.544095271388244
          ],
          [
            7.505267195468809,
            47.544202951907955
          ],
          [
            7.505342480576653,
            47.54422256954301
          ],
          [
            7.5053927545184775,
            47.544242561095665
          ],
          [
            7.505385542339338,
            47.54432864447768
          ],
          [
            7.505460490965508,
            47.54438734910941
          ],
          [
            7.505563460102401,
            47.54439793909993
          ],
          [
            7.505650302731021,
            47.544439692585925
          ],
          [
            7.5056906882729795,
            47.5444653647115
          ],
          [
            7.5059366988566305,
            47.54451619165188
          ],
          [
            7.505976881325158,
            47.54458113054901
          ],
          [
            7.506036381761934,
            47.54463897126444
          ],
          [
            7.506263876777044,
            47.54473194389361
          ],
          [
            7.506413553198671,
            47.54476631270453
          ],
          [
            7.506611828122112,
            47.54479727154923
          ],
          [
            7.5067195677177345,
            47.54478750487233
          ],
          [
            7.50698897053904,
            47.544805623694366
          ],
          [
            7.50703917023858,
            47.5448603484695
          ],
          [
            7.507196164022727,
            47.54493450039439
          ],
          [
            7.507325574836967,
            47.544981776904905
          ],
          [
            7.507418325538751,
            47.54504021801718
          ],
          [
            7.507501732650405,
            47.5450526164914
          ],
          [
            7.5075426310085,
            47.54497975204692
          ],
          [
            7.5075484298329975,
            47.54493365563006
          ],
          [
            7.507601529193345,
            47.544918344057734
          ],
          [
            7.50763676259565,
            47.544892502275914
          ],
          [
            7.50770038220782,
            47.544877301394095
          ],
          [
            7.507906469958731,
            47.54488856608704
          ],
          [
            7.507997601446778,
            47.54497858477996
          ],
          [
            7.508082506396046,
            47.545029691088494
          ],
          [
            7.508207367406894,
            47.5450502218659
          ],
          [
            7.508264257902434,
            47.54504945065127
          ],
          [
            7.508351251182051,
            47.545061477642584
          ],
          [
            7.508506454946048,
            47.5450543702426
          ],
          [
            7.508556793214126,
            47.545061004647
          ],
          [
            7.508643366088527,
            47.54511738888593
          ],
          [
            7.508701468836364,
            47.54518046342361
          ],
          [
            7.5087089669947344,
            47.54520583933356
          ],
          [
            7.508750324388874,
            47.54524179866521
          ],
          [
            7.508977777880718,
            47.54527706202141
          ],
          [
            7.509032589896431,
            47.54529159905088
          ],
          [
            7.509090829499123,
            47.54532681064621
          ],
          [
            7.509221912725238,
            47.54546224083923
          ],
          [
            7.509232699725142,
            47.54551366065596
          ],
          [
            7.509226737714887,
            47.545586180904664
          ],
          [
            7.5092321907184845,
            47.545611674926
          ],
          [
            7.5092812134343765,
            47.54570850819157
          ],
          [
            7.509278094054347,
            47.54573040986605
          ],
          [
            7.50934615462067,
            47.54583940918701
          ],
          [
            7.509833809807552,
            47.545386908293786
          ],
          [
            7.510981442318592,
            47.54451210296874
          ],
          [
            7.511305924904277,
            47.54456602690507
          ],
          [
            7.514009465868275,
            47.5450522143887
          ],
          [
            7.516764134952888,
            47.54541360617513
          ],
          [
            7.518862907469199,
            47.546340299123024
          ],
          [
            7.522268051104185,
            47.548706251673245
          ],
          [
            7.521904929578745,
            47.54892699209369
          ],
          [
            7.525428634300733,
            47.55091467752198
          ],
          [
            7.5247976979978635,
            47.55147790881144
          ],
          [
            7.527323340337324,
            47.55278425210006
          ],
          [
            7.529619998648781,
            47.55369757498787
          ],
          [
            7.530790826498128,
            47.55405960097608
          ],
          [
            7.53070944796876,
            47.55420328593926
          ],
          [
            7.533122615081756,
            47.5547059464583
          ],
          [
            7.5342617663955425,
            47.55494320182085
          ],
          [
            7.535010567705376,
            47.55511300948005
          ],
          [
            7.536529809474831,
            47.55545750272013
          ],
          [
            7.53796029826071,
            47.55664938635252
          ],
          [
            7.539491015871369,
            47.558003133374235
          ],
          [
            7.5403671341786564,
            47.557277372440026
          ],
          [
            7.543809703171554,
            47.55958705192391
          ],
          [
            7.546861798768505,
            47.56149911698398
          ],
          [
            7.549696553063222,
            47.56242405016273
          ],
          [
            7.554659522884046,
            47.564366624210486
          ],
          [
            7.5562970471363045,
            47.563489826548796
          ],
          [
            7.557934172883071,
            47.56262540813666
          ],
          [
            7.558726828902246,
            47.56196398958058
          ],
          [
            7.559876683186185,
            47.560537153681125
          ],
          [
            7.561591129780861,
            47.559185079614
          ],
          [
            7.564567871609538,
            47.55722262299671
          ],
          [
            7.564584703053314,
            47.55704121033853
          ],
          [
            7.563059060394449,
            47.554934356490186
          ],
          [
            7.561249880258498,
            47.551727952478515
          ],
          [
            7.55875892578172,
            47.55235847670198
          ],
          [
            7.555888311881628,
            47.54434070190785
          ]
        ]
      }
    }
  ]
}