{"type": "FeatureCollection", "features": [{"type": "Feature", "properties": {"bfs_nummer": 2791}, "geometry": {"type": "MultiPolygon", "coordinates": [[[[7.454817211126873, 47.44923506941156], [7.456517560105433, 47.44926024994259], [7.4588077996257125, 47.45009819052478], [7.459264939629833, 47.450265440350236], [7.461661604541067, 47.45115417023104], [7.462443612316201, 47.451446991640985], [7.463114117255605, 47.45136126891137], [7.464069823228728, 47.4512517900663], [7.465749405001656, 47.45059497195699], [7.466610157392466, 47.45025835713004], [7.466855294100978, 47.450278913061275], [7.467424504143113, 47.45042625121968], [7.468347375427894, 47.45047844010414], [7.468586501784977, 47.45048866888448], [7.468778510119483, 47.45058228397313], [7.46918872849747, 47.4505298685771], [7.469553066488981, 47.45047356074693], [7.470220392860267, 47.45039080941347], [7.471908944045779, 47.45048548287063], [7.472575793285493, 47.450516123541185], [7.47326830483479, 47.45053277619142], [7.474070619650415, 47.450489312087775], [7.4748970892852045, 47.45040152180382], [7.477072983977176, 47.45015104928938], [7.477137269359464, 47.44995043369733], [7.4773341684904455, 47.449780183437724], [7.477637347105672, 47.44963928160213], [7.478005840074571, 47.44948182580961], [7.478319249749451, 47.44942957338243], [7.478433430921755, 47.449275286393394], [7.478579451559565, 47.44912728488331], [7.478540509177108, 47.44896401992049], [7.478688605700074, 47.448431916592526], [7.478694764088593, 47.44795459897699], [7.478865620984363, 47.447403878867114], [7.478920371119916, 47.44735692912262], [7.478959030870559, 47.44729980359331], [7.478987604390045, 47.44721184988406], [7.479004213843257, 47.44690342836141], [7.4790260647355975, 47.44683259306427], [7.479110126697532, 47.44665780979775], [7.479179111682589, 47.4465869588915], [7.479229570661928, 47.4465127038445], [7.479285038883119, 47.4463824675911], [7.47945499051038, 47.44623048964444], [7.479567696569925, 47.44606825033811], [7.4796686674383075, 47.445991675635], [7.4798537521832085, 47.445814562773805], [7.479892461577987, 47.44579057120861], [7.479988360909123, 47.44568886850939], [7.480811190772467, 47.44496553434411], [7.482353739897965, 47.44367703926459], [7.482701723068865, 47.443227736360846], [7.482903150342696, 47.44237025537157], [7.482750894033648, 47.4417895643319], [7.4823850672625145, 47.44025206354394], [7.482042071478557, 47.43881041803342], [7.482304761303526, 47.4363997961245], [7.481757193450365, 47.43591044836483], [7.480919798356953, 47.43536866730172], [7.480207920910177, 47.43496166646682], [7.479787343327165, 47.434308212041145], [7.479460058612267, 47.433573398988244], [7.479474106223158, 47.43249185301452], [7.479755463800583, 47.43172968472577], [7.480346174312743, 47.4309483302781], [7.483413174235016, 47.429989864428485], [7.484666558905722, 47.4295826680425], [7.4848761332938185, 47.42930022485781], [7.48455611282755, 47.42906391686014], [7.484480341225078, 47.42900339843754], [7.484424754749677, 47.42891030432229], [7.484478513208635, 47.428784626544825], [7.484582764038607, 47.42865266031206], [7.484814110488289, 47.42852521291021], [7.484789689919972, 47.42851722681749], [7.48508230543386, 47.42821554832045], [7.484852452671081, 47.42810084894721], [7.484971511965707, 47.42796045819048], [7.484896789672187, 47.42757410132563], [7.4848222443695835, 47.42714602860765], [7.4848711213768535, 47.42714318523878], [7.484832910831378, 47.42658199414605], [7.484898021729225, 47.42346895485889], [7.484871755619909, 47.423469882598596], [7.4848757859471196, 47.42330049449064], [7.484889594781006, 47.42306658766194], [7.4848894603664, 47.42290911804756], [7.484844827596131, 47.42291119550433], [7.484819785129433, 47.422854937707896], [7.484684802049463, 47.42283267621466], [7.48403897914086, 47.42281845557742], [7.483341204225299, 47.4228500218955], [7.483056634327255, 47.42286960173619], [7.483045427702263, 47.422794612989364], [7.483009761601972, 47.42277413781018], [7.4829911861783565, 47.42274733334293], [7.482946375112288, 47.42256322250676], [7.482880577014356, 47.422352298840146], [7.482867591106926, 47.42235413851783], [7.482810269051108, 47.421303465926634], [7.482763523758897, 47.42075860987147], [7.482680667069159, 47.420261759917736], [7.4830339724590145, 47.41905426472843], [7.483169163619327, 47.41869553685522], [7.483362953958383, 47.41821146245487], [7.48361961206793, 47.4176239759019], [7.48387794501206, 47.416985877944796], [7.484013082879121, 47.41671935674104], [7.484112751786232, 47.41674450185458], [7.484236131640949, 47.41655403019652], [7.484719151040442, 47.41567081569018], [7.484881207642564, 47.41534289785403], [7.484795375757145, 47.41531894421296], [7.484540539601767, 47.415132028833625], [7.484868798924963, 47.41321676658964], [7.484761156408879, 47.413187865575374], [7.484659124956895, 47.41318186136563], [7.4843468447725865, 47.4131975337496], [7.484108037317827, 47.413245627931154], [7.483950508052878, 47.41324833284414], [7.483573632811275, 47.41331244341009], [7.483464946666485, 47.41341526999991], [7.483255218450337, 47.41357246836285], [7.483035092803109, 47.413671226259126], [7.482933984041469, 47.41370899472003], [7.482743891014644, 47.4137365880192], [7.482542703274558, 47.41379205801482], [7.482384374553813, 47.41382432484941], [7.482187228728704, 47.41383168304016], [7.482031763663194, 47.413849728587145], [7.4819208234228505, 47.413872479576696], [7.481789440068422, 47.41391484514331], [7.481625054061152, 47.41409672191409], [7.481561061648492, 47.41418965476318], [7.481530753593842, 47.41430177795114], [7.481481655173295, 47.4144126396817], [7.481371885444648, 47.41447666383314], [7.481167796272484, 47.41455505855169], [7.480861964925514, 47.414628344674114], [7.48070113882926, 47.41463982466086], [7.480499302302047, 47.41466866862454], [7.480270792897893, 47.41473310248892], [7.479944774669497, 47.41476608161344], [7.4798503343134835, 47.41484892375892], [7.47970538516202, 47.41488281919465], [7.479402366664349, 47.41512567615788], [7.479341906484594, 47.41520006961225], [7.479206729628619, 47.4152978375241], [7.478961061572579, 47.41544106340489], [7.478571257160844, 47.4156117696481], [7.478269608667941, 47.415783416457344], [7.478165665263145, 47.415887666377074], [7.4778165283040625, 47.41612246672468], [7.477749873481522, 47.41621097321282], [7.477114282270976, 47.41683504244421], [7.477058152304202, 47.416912617184195], [7.476990906775568, 47.41708773696273], [7.47693903606846, 47.417457179160614], [7.476806365209551, 47.417628452496984], [7.476711740472853, 47.41774625223487], [7.4766473347857945, 47.417816157408815], [7.476537642558153, 47.41789578169468], [7.476430053299718, 47.417950905223684], [7.476370652535559, 47.41799663236374], [7.476354379836289, 47.418054101159576], [7.476259950653734, 47.418131309909505], [7.476196673575233, 47.41820599935522], [7.475339172209932, 47.4178230602454], [7.474602064709685, 47.41750992840386], [7.473917654450328, 47.4172395445002], [7.472959760462509, 47.41684672149355], [7.47237904977639, 47.41659465788814], [7.471825799327577, 47.416362658381416], [7.470843978127017, 47.416014227858575], [7.469855246170475, 47.41565293001889], [7.469257532881494, 47.41539469450053], [7.4686686525912585, 47.41511663031406], [7.467788239390889, 47.414638021041874], [7.466898266215509, 47.41416732236024], [7.4663618993794625, 47.41381665960125], [7.465495248982123, 47.41332442125654], [7.464637728644942, 47.41294118302115], [7.462991187398996, 47.41266971265222], [7.461722461768212, 47.412883551193005], [7.460365446134896, 47.41311803925209], [7.459497989377875, 47.41331686784789], [7.458681903565738, 47.41349405148965], [7.458066009353535, 47.41351241538089], [7.45617889169113, 47.41355356778488], [7.454564033646677, 47.41312730287627], [7.4540664701101, 47.413145644605336], [7.453043905484647, 47.41330661454965], [7.451976107437596, 47.413563952518025], [7.450833806567512, 47.41376227738033], [7.450335364797556, 47.413932630266366], [7.450222623096896, 47.41396005507792], [7.450030790894187, 47.41399318922059], [7.449862511806198, 47.41399664011057], [7.449677411712553, 47.41403663555875], [7.449295408723941, 47.41406750029787], [7.4485179881964365, 47.41426176547831], [7.447496704923644, 47.41448835859007], [7.448412741544622, 47.41506969121607], [7.448639833250751, 47.415788115992136], [7.448941353251095, 47.41623172683191], [7.449313047780382, 47.416629767037925], [7.449817210144644, 47.4171861272671], [7.450234464503467, 47.41752675107624], [7.450370740428115, 47.417791453086636], [7.450288385250166, 47.418066527777796], [7.450295541065271, 47.41840092781368], [7.450433019232032, 47.41876817987799], [7.450478203393886, 47.419013930045466], [7.450420464354357, 47.4193376864602], [7.450340117085315, 47.41952403437073], [7.451182501468268, 47.42139424713177], [7.451795761110209, 47.42275572318845], [7.4521972639252985, 47.42310780819564], [7.452498713815427, 47.42340560520718], [7.452965077354052, 47.423833634624614], [7.453264890830405, 47.42412561959843], [7.453558916566747, 47.424420347383574], [7.454039004324508, 47.424859109929336], [7.454660292835281, 47.425462210307764], [7.454829544247852, 47.42586353074856], [7.455474650868206, 47.427607927496176], [7.455591856341407, 47.427924854619526], [7.455265902157695, 47.42836495488949], [7.4550954747891405, 47.42859506261156], [7.455046398790848, 47.42883024038993], [7.454989578550471, 47.42910254555927], [7.45375828516717, 47.42983290905215], [7.453570697404285, 47.429929665997534], [7.452866286387115, 47.43078863513516], [7.452564816264276, 47.43091549580248], [7.4523867419670005, 47.43102910263445], [7.452147963784408, 47.43138026815491], [7.452015156080947, 47.43190860546424], [7.4520452236635135, 47.43249418252901], [7.451861806150817, 47.4328007037649], [7.4515085006054065, 47.43313094157043], [7.451156905866284, 47.433728671639095], [7.45110245522791, 47.43440741779124], [7.4511728914749344, 47.43463406244248], [7.450628175150654, 47.435356065169536], [7.448415512451706, 47.437735040482366], [7.4457285449028054, 47.43917688844921], [7.443182747537924, 47.44115957163884], [7.442674975395555, 47.4417451388992], [7.4421660690836156, 47.442332022501155], [7.440371894602022, 47.44325473318478], [7.439905598388957, 47.44348681977992], [7.439508078960127, 47.44335528190858], [7.439289365985196, 47.443602025541274], [7.438941943010348, 47.443961913808245], [7.438692440407061, 47.444199635318945], [7.439373563866505, 47.444476106961716], [7.438844683941395, 47.44501663185451], [7.439070918967236, 47.44514202821059], [7.437848881088694, 47.44632787885953], [7.437846361914596, 47.446330325217055], [7.439612994601716, 47.44697382611405], [7.4431121159846, 47.44809018445608], [7.445139651587219, 47.44875307348304], [7.4477026829097035, 47.449411383734095], [7.449745242902187, 47.449384004277015], [7.452916872894729, 47.449350295349305], [7.454817211126873, 47.44923506941156]]]]}}]}