{"type": "FeatureCollection", "features": [{"type": "Feature", "properties": {"bfs_nummer": 2852}, "geometry": {"type": "MultiPolygon", "coordinates": [[[[7.835461084316415, 47.4036949839975], [7.836395430018886, 47.40494952895858], [7.843496726404934, 47.40570142498195], [7.851064795050189, 47.40650705673431], [7.855059770081229, 47.40723051900292], [7.855543705058807, 47.40732436174507], [7.856184551743723, 47.40743533912773], [7.858221401064616, 47.40780530677379], [7.858734844846189, 47.408538058487444], [7.86288654863207, 47.40704711967693], [7.867636791200449, 47.40579241431281], [7.874324854981804, 47.40365259903241], [7.87462700320943, 47.40341103589235], [7.875244493485852, 47.403215306578524], [7.876783882381179, 47.40248766506134], [7.878294027771806, 47.401975138705815], [7.879809773523338, 47.401721176188374], [7.877709705696249, 47.401259143292414], [7.875284579720654, 47.39759697037998], [7.872010282333378, 47.39679982872878], [7.869143557588821, 47.39551630369341], [7.870836586435274, 47.392971953055685], [7.871509022792402, 47.391927489271765], [7.871952304085948, 47.39124860693269], [7.872104666024193, 47.391197101570455], [7.872212236240101, 47.39119811974388], [7.872324108762742, 47.391158116454605], [7.872389815704325, 47.3911188797855], [7.872384384058517, 47.39107146407807], [7.8725002816953085, 47.39098084338912], [7.872626055805821, 47.390902786614596], [7.872624076572627, 47.39086135718795], [7.872718135357483, 47.39084759387887], [7.872911129801494, 47.390709768960434], [7.872976457990394, 47.39067619971641], [7.873027020781855, 47.390612033175515], [7.8733365252092575, 47.390335707180604], [7.873555390999415, 47.39010291236527], [7.873606834234534, 47.39009976912518], [7.873677791655568, 47.39012647653692], [7.873771714444902, 47.39010596717371], [7.873902633197137, 47.39003229733892], [7.873950461782812, 47.39003907004022], [7.874052804424864, 47.390079816263324], [7.874463548242706, 47.39013183170866], [7.874587453711383, 47.390169330227934], [7.874769285606919, 47.39018503293123], [7.874893634119707, 47.3901632836224], [7.875102163069398, 47.3901978902924], [7.875456504804495, 47.39027155741432], [7.875710270859328, 47.39028908271473], [7.875840185840062, 47.390337305455496], [7.876107616425126, 47.39038014225494], [7.87631209117258, 47.39038372238449], [7.876632263638801, 47.39034596706473], [7.876672082704815, 47.39033534686576], [7.876719504189394, 47.39029727436989], [7.876814846055096, 47.39026904884154], [7.876918201651658, 47.390147386640386], [7.877076432479616, 47.39002772905536], [7.877085863631742, 47.389939180061226], [7.87713513668524, 47.38990569648158], [7.877109639942672, 47.38984916475191], [7.877106478198183, 47.389759341285675], [7.877085929994952, 47.389739271895365], [7.877108335995365, 47.38969203893895], [7.877145918887282, 47.38967851304481], [7.8771802235588115, 47.3896303262289], [7.877199427731509, 47.38957550464366], [7.877131019030955, 47.389507685947954], [7.877179673450535, 47.389447347324825], [7.877168341664466, 47.389394827325766], [7.877202650638861, 47.38936008696814], [7.877348000610415, 47.38905137210883], [7.877499234830249, 47.38896074754372], [7.877607775876533, 47.38893702252193], [7.877844414004209, 47.388911408363434], [7.8779382745391855, 47.388869300485666], [7.878005621405841, 47.388888526624434], [7.878140617313932, 47.388892897998424], [7.878235684943903, 47.388873576753056], [7.878250265314535, 47.388826750772196], [7.878292393315206, 47.38878790597665], [7.878254727386911, 47.388701199644714], [7.878255255822849, 47.3885933194265], [7.878280408656738, 47.38851476636255], [7.878350878937418, 47.388459839814445], [7.878445926359274, 47.388446185124884], [7.878493680012628, 47.38846485576274], [7.87861052525314, 47.3883995443542], [7.878780507855187, 47.3883521362438], [7.878844317992306, 47.388329587691295], [7.878882513025663, 47.388290901642584], [7.8790054171440715, 47.388273011844866], [7.879040243513908, 47.388249826878486], [7.879070701425539, 47.388222107175594], [7.8791255334725845, 47.38822866224728], [7.8791855294675885, 47.38817249794734], [7.879249168210573, 47.38813887759879], [7.879299318832427, 47.38813184209082], [7.879362920401074, 47.38808249980113], [7.879441693895303, 47.387995593154905], [7.879407255727802, 47.3879663127993], [7.879442284993862, 47.38792606447267], [7.879463834283949, 47.38785566444847], [7.8794715778424615, 47.38779743251704], [7.8795150436664745, 47.387704310221785], [7.879568982629043, 47.38763971401342], [7.879556182305552, 47.38760526038474], [7.879608450073061, 47.387551580946166], [7.879655518912232, 47.387549935456136], [7.8796569772643705, 47.38752287487614], [7.879687313583938, 47.38750776564329], [7.8797068553968215, 47.38741084012576], [7.8797447075203335, 47.38735646883095], [7.879674328923782, 47.38723784094377], [7.879661120781166, 47.38716205080165], [7.8796397250129155, 47.38710992920389], [7.879600318399994, 47.38707072914684], [7.879563762267295, 47.386975798074886], [7.879468094689485, 47.386864273209696], [7.8795010284876055, 47.386743578608], [7.879444075732568, 47.38661637266531], [7.879355255597232, 47.386467917633475], [7.879348857026313, 47.38639232637706], [7.879310993144766, 47.386334573956375], [7.879256733260202, 47.38634093280615], [7.879151035481573, 47.38627677390596], [7.87907400162303, 47.386169827438984], [7.8790043492328605, 47.38613724519613], [7.878982649643041, 47.38610435451671], [7.878939968822867, 47.386058222982314], [7.878866983615253, 47.385997258277584], [7.878865726542043, 47.38595082523892], [7.878902386798744, 47.385894866847224], [7.8788979167793665, 47.38583302069527], [7.87899325124256, 47.38576324867429], [7.87917242136524, 47.38555281833114], [7.879200247454357, 47.38553854640089], [7.879161169147168, 47.38545229550722], [7.879219413237692, 47.38541689695832], [7.879138746404032, 47.3853220981478], [7.879158661618057, 47.38527521566233], [7.879159112926932, 47.38520955517431], [7.879136885593184, 47.38518328641011], [7.879149764592074, 47.385121473274516], [7.879190746612852, 47.38509823782765], [7.879154472148658, 47.38496011515189], [7.87933789792642, 47.38472159883199], [7.8794558081832635, 47.38459388025504], [7.879632744793651, 47.38448887158571], [7.878819133968719, 47.38351238926941], [7.876107917401599, 47.38447600833547], [7.875086821597917, 47.384105058673846], [7.874008209582006, 47.38375646106194], [7.872604220334267, 47.38317702609259], [7.871579062540658, 47.38268129908873], [7.870747676778716, 47.38236375573419], [7.870398990068133, 47.382240304677254], [7.869176629350666, 47.381504436432124], [7.868572406558503, 47.38127663440929], [7.867571599862002, 47.38154024666862], [7.8669098893235105, 47.38161807333018], [7.86622327553645, 47.38166881587578], [7.865475462092642, 47.381704120517185], [7.864247164093506, 47.38180354793712], [7.863476182364984, 47.38191656406277], [7.863064888170424, 47.38198564066767], [7.862657053806655, 47.38198695747924], [7.862056425517954, 47.38184043588039], [7.859847884195678, 47.38113763535], [7.859996285551485, 47.38023123429312], [7.858728611457253, 47.379751560126174], [7.849977043131778, 47.3783546519659], [7.849449550645209, 47.37783348864337], [7.849296232789726, 47.377663726284915], [7.84897586798056, 47.377338018723094], [7.848588571511409, 47.37721410096419], [7.848403032144774, 47.377069032177495], [7.8477858927510225, 47.37685833833539], [7.8473574067980385, 47.37672727613018], [7.847023584648555, 47.37665493653973], [7.846773036245328, 47.376586042226855], [7.846512491374396, 47.37653964193537], [7.8462351019250685, 47.37645655816456], [7.845970745170865, 47.376422321944744], [7.8458093474243675, 47.37638059824871], [7.845340482453656, 47.376299518787384], [7.845102322538786, 47.37623633421415], [7.84487579024474, 47.37615251052355], [7.844720933917243, 47.37614195463117], [7.844392815111758, 47.376148457622065], [7.844119251710085, 47.376080259149944], [7.843825696522895, 47.37602788901178], [7.843071871788868, 47.375861843695034], [7.842637234623067, 47.37571315697398], [7.842207893152583, 47.37550286451839], [7.841853598785486, 47.37541263690261], [7.840777725287442, 47.3749900202749], [7.840125830340736, 47.37476524901266], [7.839747118158726, 47.37438844603253], [7.839484645932091, 47.37415020352894], [7.839820121823472, 47.374669582307675], [7.839953546912412, 47.37486146247731], [7.8407776807130904, 47.375982174925], [7.841535730146373, 47.37731577930298], [7.842734559586321, 47.37891586999978], [7.842782947119743, 47.379192546647545], [7.842800366869907, 47.37933859910138], [7.842858074158172, 47.37951171745951], [7.843198245282147, 47.37981540221102], [7.843542902755335, 47.3803152219297], [7.843771330898682, 47.38060133454139], [7.843975223736956, 47.38105660884317], [7.844046946717428, 47.38128000321665], [7.84404332659416, 47.38144668188073], [7.843782455338153, 47.381794490529686], [7.843758158348724, 47.38181409330135], [7.843425077790776, 47.38228540815502], [7.84326193881406, 47.38263274662324], [7.843176385086924, 47.38288544453694], [7.8430313555104965, 47.3832849209314], [7.84296745774766, 47.38366626742348], [7.843080966407536, 47.38429951166126], [7.8431361930078065, 47.38472467741973], [7.842956873570907, 47.38505111278755], [7.842855658682872, 47.38556613696834], [7.84237596202624, 47.386942168670515], [7.841477586807782, 47.38850219959016], [7.84089199712271, 47.3895353343694], [7.8406306301371975, 47.389905984373165], [7.840405288954866, 47.39021381827703], [7.84009391741855, 47.39073582824871], [7.840059199509236, 47.39095368385412], [7.839993873490708, 47.39112593594976], [7.839831396216321, 47.391236572086534], [7.839697499929861, 47.39139469775653], [7.839828734210066, 47.39161186089619], [7.840005066862016, 47.39188858132439], [7.8399248524233185, 47.39263313328319], [7.839538664974471, 47.39282920037704], [7.839384302444393, 47.39289235425069], [7.839000386789092, 47.392839196357706], [7.836477019473098, 47.395853196720545], [7.833629921154274, 47.39872830422277], [7.832182273826323, 47.40005038225961], [7.82628267158897, 47.40281542407261], [7.826642206163945, 47.402839619490756], [7.827316548394834, 47.40291666874329], [7.8278531743285615, 47.40296910102682], [7.828319060654393, 47.402965546750536], [7.8285424707220255, 47.40300893865518], [7.8290645557081096, 47.40303453124041], [7.82984487664251, 47.40313362283811], [7.830233747745924, 47.403188747481714], [7.831270082396865, 47.40307297796665], [7.831592502810752, 47.40303093269107], [7.832631820280512, 47.40286961157746], [7.8327397523993305, 47.40286815587354], [7.833433834557982, 47.40276681685003], [7.834103365467381, 47.40267443387212], [7.834351180118571, 47.40266590543165], [7.834897598483722, 47.40260048036661], [7.835313570386375, 47.402583772733735], [7.835809632130838, 47.402399151900596], [7.836321895999712, 47.40206747078195], [7.83635363289782, 47.40203135747678], [7.836361194376129, 47.4025609569712], [7.8363351177382325, 47.402684717754774], [7.835969591316328, 47.403206866251786], [7.835847513211902, 47.40335297418959], [7.835461084316415, 47.4036949839975]]]]}}]}