{"type": "FeatureCollection", "features": [{"type": "Feature", "properties": {"bfs_nummer": 2854}, "geometry": {"type": "MultiPolygon", "coordinates": [[[[7.79979352916022, 47.49804283782033], [7.800166135254344, 47.49816735974248], [7.800346818724934, 47.49806830441965], [7.800630360710417, 47.49789590483607], [7.8009256959433975, 47.4976800185089], [7.801304148109947, 47.497452584025226], [7.801718350923644, 47.49723121461712], [7.802239811990372, 47.49698319081751], [7.8027486158692065, 47.496922836755196], [7.80450908015522, 47.496783646328], [7.804975323207271, 47.496764286772645], [7.805008115769475, 47.49691862784304], [7.8054990377594455, 47.49695798278281], [7.806253811380744, 47.49685574463231], [7.806618384802351, 47.49704973285943], [7.806902700477424, 47.49691987625349], [7.807426130735862, 47.49714217453089], [7.8087972032125235, 47.49677381581436], [7.809627046111242, 47.4960490375749], [7.810573862974684, 47.495222072075244], [7.810632180346388, 47.494668086459086], [7.810966751482327, 47.49149024625046], [7.808221778887102, 47.48958507356774], [7.807306428250862, 47.488949701212036], [7.806628499842348, 47.488654980974964], [7.806191891795283, 47.48847755038809], [7.806040388387843, 47.488429751880936], [7.805654564185324, 47.4885242507873], [7.8039430311191, 47.487991638730264], [7.802768390917118, 47.487707648430415], [7.800621138337049, 47.487781781758656], [7.797660657658694, 47.48784346747325], [7.796477901573316, 47.48717179154624], [7.794679663943964, 47.48615053384248], [7.792705717278752, 47.4847197117221], [7.791858774070381, 47.484105778114674], [7.791774559625019, 47.48406337567854], [7.791187732584326, 47.48410585913366], [7.790616616731308, 47.484164831987584], [7.790162062462395, 47.48427656780965], [7.7894864433235025, 47.48453485387001], [7.788941909662099, 47.48471686614282], [7.788027507624588, 47.48490885907495], [7.787253290540197, 47.48506216330792], [7.786920623317079, 47.485239770347384], [7.786219491498307, 47.48556359139895], [7.7864018233468695, 47.48588639086507], [7.786671553659519, 47.48606247724892], [7.786477248338778, 47.486507418605036], [7.786231402003961, 47.486569638141965], [7.786235400473193, 47.48667614221233], [7.785673344413685, 47.48670535403948], [7.785556561231961, 47.48711217835458], [7.784729309020968, 47.487102271850404], [7.784769789506681, 47.48730618042015], [7.785101354209639, 47.48774154434997], [7.785506095828989, 47.488108540886145], [7.78546278776548, 47.488194499953515], [7.785246950761974, 47.48929393167161], [7.7860647979428235, 47.48972265724239], [7.786630888254406, 47.48932296754322], [7.786356291361372, 47.489088697245876], [7.7865832163031845, 47.488760528040665], [7.787308837027396, 47.488796573935105], [7.788085022952843, 47.48879144129741], [7.788329172417138, 47.48847130272584], [7.788824651751217, 47.48875999829726], [7.788762393196044, 47.48915010115629], [7.788639448929297, 47.48933540572083], [7.788603479787372, 47.48942902426966], [7.788577501484418, 47.48947396454263], [7.788572505368711, 47.48954167706095], [7.788594941885519, 47.48954339919299], [7.78877227348589, 47.48960198157088], [7.788723156356401, 47.48971611002637], [7.788839906739542, 47.48972709960449], [7.789074569418912, 47.489760432958654], [7.7894965175224815, 47.48984429405383], [7.7902319248835, 47.489911104823605], [7.79011568282617, 47.49014653069643], [7.789821578927363, 47.49071510901461], [7.790121468455412, 47.490726504599394], [7.7904844266439985, 47.49065102514537], [7.790965251644797, 47.49066907391428], [7.79101654679, 47.49079685647208], [7.7910150504670375, 47.490990060466956], [7.791058145029912, 47.49099725966801], [7.790884639437256, 47.49141052729613], [7.790758601304167, 47.49163540762606], [7.790479676501581, 47.4919824763491], [7.790115776337186, 47.492435250911534], [7.789918466044539, 47.49264081398659], [7.789779663348743, 47.492731795373714], [7.789596942127827, 47.4928357801376], [7.789400730389138, 47.49292654837605], [7.788949253693543, 47.492813538252435], [7.788644143662102, 47.492705930177515], [7.788169567209479, 47.49240682863342], [7.788053807305304, 47.49229871934083], [7.787974307637132, 47.49231095747855], [7.787700287602646, 47.49234204945168], [7.787366829322355, 47.49241361147992], [7.787881230293173, 47.49322348494149], [7.788545632797573, 47.493262079931114], [7.789186308799064, 47.493305065376184], [7.789842617237155, 47.493359890773135], [7.789860105468917, 47.493601049023674], [7.790358791856442, 47.494065346380204], [7.791100815703443, 47.494477446874534], [7.791772002508785, 47.494795986808114], [7.792052169097595, 47.49513173230944], [7.79263668520779, 47.495374227939244], [7.793056486483085, 47.49583967396805], [7.793602265259739, 47.49607845127909], [7.794438943852246, 47.496264672001196], [7.794742680881271, 47.49597553354885], [7.795287862308802, 47.496167436179924], [7.795711524391565, 47.49586657555615], [7.796384408341583, 47.495860324602596], [7.79696569006407, 47.49587074145969], [7.796809691594645, 47.495197592664525], [7.796873353767519, 47.49505384297642], [7.798229237025773, 47.495438339793715], [7.798457773613542, 47.495499382247566], [7.798898128789037, 47.49565522591242], [7.798455185030977, 47.496289688254485], [7.798100946068569, 47.49678226235776], [7.797791287509934, 47.49723466612794], [7.796786999495227, 47.49732806852472], [7.797025690844651, 47.49769800108572], [7.797217336481398, 47.49810913577254], [7.797441413180431, 47.49873194231132], [7.7977899757800335, 47.49906998175069], [7.798170788102528, 47.499403235017134], [7.798715640000901, 47.4988582425352], [7.798325085200721, 47.49874873866366], [7.798562646999567, 47.49846953125214], [7.79879351806675, 47.497993925940285], [7.799062895886074, 47.49776524616803], [7.799408058578626, 47.497480837525664], [7.79953526971343, 47.49765972972711], [7.79979352916022, 47.49804283782033]]]]}}]}