{"type": "FeatureCollection", "features": [{"type": "Feature", "properties": {"bfs_nummer": 2892}, "geometry": {"type": "MultiPolygon", "coordinates": [[[[7.778975428958747, 47.37681295720575], [7.778446825687915, 47.37682324572032], [7.777736217703708, 47.37678935291445], [7.777218050992342, 47.376802399962564], [7.776365510389805, 47.376894301200046], [7.775667528677192, 47.377000067109655], [7.769869872957957, 47.37845452088116], [7.770495018407894, 47.37919675423285], [7.770637759548376, 47.37965854112461], [7.770850009091903, 47.38044357366047], [7.770967986157291, 47.38078910868101], [7.770614399692264, 47.38108418466139], [7.770554388014795, 47.381331781118675], [7.770045083134467, 47.38198404366392], [7.769639813251119, 47.38213416836433], [7.769209359315919, 47.38246083928027], [7.768976521783478, 47.3823849184263], [7.768483381775811, 47.38256740807564], [7.767986277409224, 47.38282921790167], [7.767424465212975, 47.3830547637095], [7.767242224147322, 47.38312256701228], [7.766796239339833, 47.38325100973267], [7.766038529250234, 47.38345721724844], [7.764663921085604, 47.383212816620976], [7.764018236171128, 47.383349472364024], [7.763652666923968, 47.383452096038965], [7.763223664941715, 47.38356586147104], [7.762669325281624, 47.38367241116386], [7.76196738902997, 47.38385757503994], [7.761250317150238, 47.383931788198765], [7.760641545110093, 47.38413990991103], [7.75987380190103, 47.384410412598065], [7.759356354880175, 47.384587306334915], [7.758572789518188, 47.38473686085236], [7.758133619307635, 47.38487657611662], [7.757908155119454, 47.38494341371403], [7.75712422262344, 47.385203922348026], [7.756258737251663, 47.38542992353503], [7.755549952493712, 47.38554624502723], [7.754657626008804, 47.385591413687735], [7.754123992305102, 47.38569848847999], [7.753852059765926, 47.38571793647309], [7.753486447298232, 47.38578072209156], [7.752834801071909, 47.38593575508868], [7.752357019242543, 47.38599061986988], [7.751900022373221, 47.38599261962798], [7.751372941762208, 47.38601733809711], [7.750704960787664, 47.38615721989354], [7.750143161584465, 47.386310456210154], [7.749859414634343, 47.38656003665133], [7.749829294975039, 47.38671417931772], [7.749929542192218, 47.387624060532055], [7.749809700004832, 47.38775176828081], [7.749706985518701, 47.387798238662825], [7.74921123753008, 47.387909892791974], [7.749251308300905, 47.38824599176991], [7.749259058975761, 47.388383124881074], [7.748607009467663, 47.388423709981744], [7.748194982426182, 47.38845474914276], [7.748086774912166, 47.38814088721579], [7.748045382486784, 47.38792285050279], [7.748002672157756, 47.387740289831], [7.747950932286168, 47.38759932487043], [7.747302841952968, 47.387656282329644], [7.746433195415968, 47.38792458428278], [7.7459737716143024, 47.38759691276904], [7.745751858666726, 47.387463844923325], [7.745274778649616, 47.38729865033437], [7.744572042226574, 47.387341354346574], [7.744468118212682, 47.387475286348995], [7.744094773465883, 47.38760228486044], [7.743791431724636, 47.38766640607752], [7.743570391621487, 47.38772671184255], [7.743423955138754, 47.38773162176953], [7.7423417702268305, 47.38768310970309], [7.742090774276712, 47.387718441876224], [7.741552590456131, 47.387825103493945], [7.7407726873637825, 47.38781242558919], [7.740288010185552, 47.38808379096185], [7.7399746197910355, 47.388067850744356], [7.739859583065799, 47.388110252429115], [7.739707413772548, 47.3881486312861], [7.739458422906371, 47.3879646707373], [7.739335817521156, 47.38783893446684], [7.739182918378306, 47.38765569557132], [7.7391332528710715, 47.387580191683625], [7.739444018894609, 47.38752112813409], [7.739718695555572, 47.38748341072399], [7.739937152798079, 47.38744594652783], [7.739829945147223, 47.38721352636247], [7.739732362118012, 47.38696830215732], [7.739674018410346, 47.386807376982816], [7.740280682891085, 47.386541797889606], [7.74011709876209, 47.38634959336342], [7.740031967674875, 47.386163974667134], [7.739817809654096, 47.38592946777045], [7.73972363996933, 47.38572084100455], [7.739695731795457, 47.38568714037571], [7.739420417898253, 47.385289701280755], [7.739029428063705, 47.38468876677989], [7.738184943890479, 47.384670827215], [7.737285137229487, 47.384704011657966], [7.736435311484552, 47.38470198261913], [7.735653686544911, 47.3847448433284], [7.734951645195887, 47.38474359326587], [7.733271697925636, 47.38477759976345], [7.732615178657292, 47.38483737293877], [7.731803802772505, 47.38489187751709], [7.731258552305414, 47.384983569025344], [7.729628303997833, 47.38500678256611], [7.728843600613964, 47.3850698329843], [7.727734742593438, 47.3849717200008], [7.727633358539, 47.385200794912066], [7.727232173794173, 47.38525865691717], [7.7267954991383165, 47.385319636216316], [7.726349310022713, 47.38526625976695], [7.725896611570462, 47.385216369483345], [7.7253773276291735, 47.38519634975998], [7.724911738638348, 47.38521225194167], [7.724482684371338, 47.38522018258014], [7.724462390732359, 47.385586241667426], [7.724466234909818, 47.385882059008864], [7.724473614906076, 47.386202664239946], [7.724478275818725, 47.386239717619546], [7.723941326890825, 47.38739358785028], [7.72849581066461, 47.38726815582527], [7.7291523502703825, 47.38834160663263], [7.731359154720105, 47.39026428284887], [7.732363068573585, 47.391828807235484], [7.731122247332626, 47.39342279839374], [7.730613130444279, 47.394383021205826], [7.730466997557102, 47.39508370824687], [7.730185404658452, 47.395929319321894], [7.729577298063902, 47.39646135525464], [7.729157475367893, 47.39713544286842], [7.730823067645524, 47.39835164277367], [7.732798422224969, 47.399630022410285], [7.735136838966805, 47.40064785981699], [7.735195467837764, 47.40101218462255], [7.735350410265983, 47.40096265192565], [7.735778605392125, 47.400835165831566], [7.736100446852918, 47.40073564431324], [7.736214436280735, 47.40070199130902], [7.736748456845917, 47.40056733806746], [7.737062230872623, 47.40056562018737], [7.737435004499343, 47.4005610415519], [7.738157629812595, 47.40036203642534], [7.738363181460276, 47.39971035429198], [7.738475389998495, 47.3993954808225], [7.738562640855573, 47.39913963842083], [7.738873488831845, 47.39921733429547], [7.7394934003573805, 47.39916372814432], [7.739702268275542, 47.39890864810075], [7.7397699905561375, 47.39866742716951], [7.740119147838572, 47.39875220739339], [7.740595557478159, 47.39915171321359], [7.741333593906659, 47.39947784967697], [7.740804226013147, 47.39964473425366], [7.74038269764067, 47.39985364509595], [7.7402263184362745, 47.40005331922129], [7.740322528060845, 47.400249915177014], [7.740410505099248, 47.40047346995975], [7.739713898505983, 47.40073530647306], [7.739377380496886, 47.40095643163077], [7.739240394266012, 47.401074648197756], [7.739054312542737, 47.40126355980167], [7.738631647696648, 47.40180181003319], [7.738361660442227, 47.40211020212078], [7.738171831842368, 47.40237390913677], [7.738126735919961, 47.40249657201748], [7.7368153953858325, 47.40486944990491], [7.740086736047038, 47.4050279816009], [7.742866416939104, 47.40542205749451], [7.7458692028689, 47.40543106504627], [7.748706006381001, 47.405411796673086], [7.74872500803926, 47.40414209811989], [7.748081042422807, 47.403679081004974], [7.748656722626071, 47.40255992391725], [7.749181281733029, 47.401087568890674], [7.749579221359769, 47.40007379345156], [7.749915910694963, 47.40032212818327], [7.749913214646453, 47.40040048436217], [7.750022691652897, 47.400634886918674], [7.749961567302533, 47.40078678424241], [7.74988504138703, 47.400900956057114], [7.750515860253534, 47.40089821890563], [7.750664974150036, 47.40079673103473], [7.751203483882458, 47.40079858052223], [7.751220493365239, 47.400803103835294], [7.75123609426958, 47.40081367502694], [7.751243259725752, 47.4008270301676], [7.751327302620345, 47.401347777423084], [7.751347448420439, 47.401435416989315], [7.751445699347925, 47.40142331519183], [7.751476779422468, 47.401520854794114], [7.753220289081087, 47.40348554788651], [7.754733445676567, 47.405201069569955], [7.755784217113533, 47.405568034762474], [7.758183613029979, 47.40637454079686], [7.760456816234838, 47.407222313951046], [7.763051505636684, 47.40614292465151], [7.767548760815801, 47.40559063682274], [7.7658912910364695, 47.40249394691194], [7.765011566373965, 47.40101875475323], [7.762947503868655, 47.40018426657558], [7.761405504624884, 47.39971598856748], [7.759779078780115, 47.398664919704494], [7.760844198817696, 47.398081291443525], [7.761121421786444, 47.39806580582873], [7.761551269871556, 47.398054365476106], [7.7618125896148875, 47.398007055992636], [7.762223248455625, 47.39784126277095], [7.762276980484814, 47.39782448235343], [7.762524160014546, 47.39759715629342], [7.7627836154232535, 47.3973344320278], [7.762954058129238, 47.39697005992877], [7.7631970140483055, 47.3968661907156], [7.7634419153893095, 47.39672734580003], [7.763480408724696, 47.39656827404137], [7.76388773777872, 47.396654475979794], [7.764599131286749, 47.396855234661665], [7.765061058863196, 47.39694492852399], [7.765547166844934, 47.397016004947226], [7.766142168858941, 47.39700862833085], [7.766121364798653, 47.397169414603745], [7.766376699065747, 47.397173655672994], [7.766611620799779, 47.39717350249029], [7.766919855734519, 47.39712945564238], [7.7672247975344755, 47.39708207109101], [7.767264948427207, 47.396955398131745], [7.7672277434795625, 47.396876381030566], [7.7672381564036135, 47.396669995796664], [7.767256598390225, 47.39644883741853], [7.766971446557614, 47.3961873945979], [7.766852229556496, 47.395604843498276], [7.766808378434604, 47.39520065719859], [7.76667700133522, 47.39467378470759], [7.766912244632199, 47.39423674887418], [7.767321371915547, 47.393823575804156], [7.767691155873661, 47.393507283569434], [7.767920939355311, 47.393280135200484], [7.768043928836184, 47.393053739941294], [7.768443378549179, 47.392667789025026], [7.768823665246871, 47.39222540684849], [7.768865320228121, 47.391885210204606], [7.7689202433465585, 47.391536106450474], [7.768963615739319, 47.39128513856555], [7.7690866090576955, 47.390920045999444], [7.769128358756441, 47.39065321656799], [7.76917560892959, 47.39047469638876], [7.769219771323668, 47.39027666752507], [7.769299522906181, 47.390081028253455], [7.769497668915574, 47.38948411938863], [7.769478541924358, 47.38944745027079], [7.769510885656351, 47.38932789569815], [7.76951367428091, 47.389230749371634], [7.769486389583798, 47.38915143470181], [7.7694864637105185, 47.389005205310305], [7.769462633132369, 47.38895964534465], [7.769427311454751, 47.38892341835199], [7.769402773359555, 47.388876942991], [7.769418361142756, 47.38882978640005], [7.769458297022151, 47.38879845306305], [7.769482687524733, 47.388761245940394], [7.769498502186955, 47.38868445253927], [7.7695240177325, 47.38864073032776], [7.769591811059023, 47.38860808515352], [7.76965115676899, 47.388565120638994], [7.7697295166432045, 47.38846164208423], [7.769796170497666, 47.38842683249587], [7.769906209336723, 47.3883958651982], [7.769969632232313, 47.388363322297074], [7.770021996765658, 47.38831379380161], [7.770058365367628, 47.38825408454558], [7.770069764829973, 47.38820014011007], [7.770052670140779, 47.38809825668518], [7.7700455660340735, 47.38801415354495], [7.7700598624499975, 47.387953248252046], [7.770192964350382, 47.387801709154616], [7.770198226314374, 47.38775758596306], [7.77023670548726, 47.38768381248657], [7.77028413583471, 47.38763963160207], [7.770369353229435, 47.387499867952066], [7.77053532397614, 47.38741431540989], [7.770664593367204, 47.3872900933908], [7.770828987333484, 47.38720887107594], [7.770933021738825, 47.38710950033186], [7.771127194845982, 47.3869700080558], [7.771194836150266, 47.38688367538081], [7.771299164599004, 47.38683384405956], [7.771366831756068, 47.386745343686854], [7.771544037807027, 47.386686677199634], [7.771707958187895, 47.38652790616261], [7.771845605829254, 47.386477969491466], [7.77193238365117, 47.38640880545828], [7.771996682904431, 47.386294473615585], [7.772208749267404, 47.38623030911384], [7.7723978446473385, 47.38629439746857], [7.772576724582826, 47.386245411771924], [7.77271389956801, 47.38612225306764], [7.772929297972303, 47.38608286595805], [7.773022963387095, 47.386100898945855], [7.773281062439281, 47.38604308450174], [7.773352073125361, 47.38598795108382], [7.773343222311138, 47.38583937285994], [7.773510259354611, 47.385674132283405], [7.77371585615661, 47.38558844253468], [7.773791910570021, 47.385577465305836], [7.773847058538672, 47.38542589582531], [7.773932402674515, 47.38537586523897], [7.7740161297684285, 47.38531510008154], [7.774092465073861, 47.38524770959421], [7.774227002725805, 47.385169483099624], [7.774264781560757, 47.385139278706966], [7.774278790501066, 47.38510305406859], [7.774268207230567, 47.38504374937443], [7.774300456998067, 47.3850104039891], [7.7743550290679595, 47.384992967904104], [7.774429006124955, 47.384990864650284], [7.774559170393932, 47.38493963389257], [7.774643713090538, 47.38485076845952], [7.774642520914664, 47.38475385863773], [7.774602707493277, 47.38471737646187], [7.774588994896328, 47.38467853400712], [7.774603907541549, 47.38464075970071], [7.77459149795589, 47.38460906384405], [7.774597576591276, 47.38457538054459], [7.774629758237022, 47.38456076134396], [7.774620778094592, 47.384455266580446], [7.774652086318084, 47.38430383845554], [7.774882775062019, 47.38306343384686], [7.777113742683494, 47.38058082631499], [7.779155775698256, 47.37919113777998], [7.778975428958747, 47.37681295720575]]]]}}]}