{
  "type": "FeatureCollection",
  "features": [
    {
      "type": "Feature",
      "properties": {
        "source": "swisstopo swissBOUNDARIES3D",
        "source:date": "2026-01-01"
      },
      "geometry": {
        "type": "LineString",
        "coordinates": [
          [
            7.73178774473139,
            47.40636166307079
          ],
          [
            7.732324498562175,
            47.40480579382849
          ],
          [
            7.7322082701209585,
            47.40370653352046
          ],
          [
            7.7321957991468135,
            47.40302126677382
          ],
          [
            7.733386733931052,
            47.40173052771872
          ],
          [
            7.734286237447946,
            47.40137231522397
          ],
          [
            7.735107462286042,
            47.401037618101086
          ],
          [
            7.735195348076245,
            47.40101202036902
          ],
          [
            7.735136719811437,
            47.400647696397314
          ],
          [
            7.732798303911727,
            47.39962986009584
          ],
          [
            7.730822954093957,
            47.39835148695586
          ],
          [
            7.729157364081469,
            47.397135290130635
          ],
          [
            7.7282639935784,
            47.39640936984727
          ],
          [
            7.727239875122672,
            47.3963069447533
          ],
          [
            7.726678378935026,
            47.39623653206302
          ],
          [
            7.726079080145417,
            47.39608736676006
          ],
          [
            7.725440125139765,
            47.395970055267114
          ],
          [
            7.724364813297917,
            47.39587780499374
          ],
          [
            7.723289017233412,
            47.39525652145401
          ],
          [
            7.722327437108776,
            47.39511659994453
          ],
          [
            7.717211227161296,
            47.39367746724186
          ],
          [
            7.715440717802733,
            47.39292404314102
          ],
          [
            7.714062389633333,
            47.392504354781416
          ],
          [
            7.713347738681151,
            47.392388856252474
          ],
          [
            7.711499652597053,
            47.39206724438465
          ],
          [
            7.71084694155534,
            47.39202873730493
          ],
          [
            7.7100610066566055,
            47.39213227934496
          ],
          [
            7.708584772406271,
            47.3924708365616
          ],
          [
            7.707808646611523,
            47.39267533695333
          ],
          [
            7.706880862744895,
            47.39289146211067
          ],
          [
            7.705857175889618,
            47.394593310758765
          ],
          [
            7.705792573315914,
            47.395437588590504
          ],
          [
            7.705537180183302,
            47.39810228312418
          ],
          [
            7.701989981548604,
            47.40102359749281
          ],
          [
            7.699935872169527,
            47.402508832868484
          ],
          [
            7.698821513509218,
            47.403284510924955
          ],
          [
            7.697993913747225,
            47.40380077272666
          ],
          [
            7.696872225164084,
            47.404773484425384
          ],
          [
            7.696234287035005,
            47.40633139008869
          ],
          [
            7.695912972405743,
            47.40884077956172
          ],
          [
            7.696259584943897,
            47.409058056454896
          ],
          [
            7.696478925927083,
            47.40919808535491
          ],
          [
            7.696693392212922,
            47.409258552893895
          ],
          [
            7.697173551098003,
            47.40940201996175
          ],
          [
            7.697919534869468,
            47.40966302071929
          ],
          [
            7.698831486517938,
            47.40984747225624
          ],
          [
            7.699756947343777,
            47.41003225492732
          ],
          [
            7.702146855019995,
            47.41039937775529
          ],
          [
            7.704278747686839,
            47.41062302746291
          ],
          [
            7.706800622890565,
            47.410099891157834
          ],
          [
            7.709454807050528,
            47.40985317849209
          ],
          [
            7.710247573717347,
            47.408386507074916
          ],
          [
            7.710704945909902,
            47.40753368154072
          ],
          [
            7.71312452913025,
            47.40759538772694
          ],
          [
            7.715350457386379,
            47.40731917906388
          ],
          [
            7.717111039410689,
            47.40715194135449
          ],
          [
            7.718408747086438,
            47.40849840797257
          ],
          [
            7.719770928905389,
            47.40906020030554
          ],
          [
            7.722195883371579,
            47.40837159432365
          ],
          [
            7.723696996669563,
            47.408070238387076
          ],
          [
            7.725305822725432,
            47.40718693968806
          ],
          [
            7.728299324956032,
            47.40712506179913
          ],
          [
            7.729886007796893,
            47.40677014733169
          ],
          [
            7.7311985539483645,
            47.40659130006711
          ],
          [
            7.73178774473139,
            47.40636166307079
          ]
        ]
      }
    }
  ]
}