{"type": "FeatureCollection", "features": [{"type": "Feature", "properties": {"bfs_nummer": 2963}, "geometry": {"type": "MultiPolygon", "coordinates": [[[[8.796057952126167, 47.67533679251472], [8.795666987800429, 47.67603363679156], [8.795478801659002, 47.67636980197344], [8.795162171769666, 47.676899473117594], [8.794671434303211, 47.6773571935105], [8.793831985984015, 47.67877812283009], [8.793655233854922, 47.6793040232844], [8.793532043075416, 47.68010370687796], [8.79373628699513, 47.68061910960334], [8.793973893096021, 47.68111552173417], [8.794224723041323, 47.681591370259284], [8.794470394158727, 47.68218446133882], [8.794853309197219, 47.68280543226686], [8.7949320882175, 47.68334104111116], [8.79512678602712, 47.68379682757908], [8.795979005655173, 47.684420643949615], [8.796165101804748, 47.68519465105061], [8.796119506707749, 47.685601632813885], [8.796212074419685, 47.685959417819674], [8.796560594628582, 47.68633320828523], [8.79671845589237, 47.686686506066515], [8.79683105671189, 47.68708660113117], [8.79669042132224, 47.68754140246062], [8.79683645108414, 47.68809443757472], [8.797090594143976, 47.68843489771336], [8.797362374473899, 47.68868589802264], [8.797737773506933, 47.68919874095809], [8.798138128869834, 47.689624295494376], [8.798554874910838, 47.69019245612547], [8.799114014966202, 47.69057561051378], [8.799824318739779, 47.691137899832334], [8.799813237841382, 47.69158175072742], [8.800107559489861, 47.69184978590537], [8.801506540197078, 47.692013636512236], [8.802973365203833, 47.692164548755784], [8.804203373397836, 47.69177763075618], [8.805393747073675, 47.69153682670368], [8.806160745642945, 47.69158767755192], [8.807643619597041, 47.691984225925644], [8.808560826264218, 47.692439085333916], [8.810112949197189, 47.693353074614926], [8.809659088533564, 47.693683596401456], [8.809073546346928, 47.69449102536349], [8.808622675505944, 47.69482958499462], [8.808148707543861, 47.69526701178292], [8.807745821885634, 47.69550855143499], [8.807429515013744, 47.69579218262094], [8.807056352209699, 47.696051450485626], [8.806336316590963, 47.696511790795206], [8.805319620171428, 47.69635338715321], [8.804080521145973, 47.69632954813903], [8.802800232368686, 47.69647446824417], [8.801176843310131, 47.69664180017], [8.800752859318173, 47.69672977296669], [8.799769255569206, 47.69688441991361], [8.798572075151856, 47.69700066025255], [8.7976025385188, 47.69720858839175], [8.798110642688506, 47.69775183509903], [8.798346545035606, 47.69853589257234], [8.798569967352803, 47.698943151520766], [8.798563141090414, 47.699287480814064], [8.798457209271318, 47.6999124134811], [8.798503018041131, 47.70044995195327], [8.798163644612144, 47.70127625381006], [8.79769060686836, 47.70207413941175], [8.797625866668096, 47.70244696828082], [8.797595580758678, 47.70284880553611], [8.79684536696783, 47.70274502957516], [8.796340577030538, 47.70286610484779], [8.79587650007434, 47.70312061255667], [8.795667118682829, 47.70351854691722], [8.79516279667297, 47.70344661427481], [8.794206211783482, 47.70383668716964], [8.793968451875596, 47.70423946650989], [8.793731068582204, 47.704231163726696], [8.79380524877409, 47.70446094041595], [8.793969172980233, 47.70496866320855], [8.794143656017436, 47.70550913260532], [8.79439354368668, 47.70628315008517], [8.794264791724833, 47.70630290183765], [8.794216330357257, 47.70641964036435], [8.79415878359077, 47.706428217717125], [8.794001088819398, 47.70634335857308], [8.793661010247442, 47.70639552594883], [8.792842300166178, 47.70648873558898], [8.792184152554768, 47.70654619553635], [8.791969347548099, 47.70659587296572], [8.79171926920775, 47.70669456707838], [8.791750252768177, 47.707575034326695], [8.79162500698603, 47.70797262746717], [8.791616309035028, 47.70805206006562], [8.791735821654765, 47.70865412639764], [8.791370477027066, 47.70870019458654], [8.791584509721806, 47.71033953142628], [8.791586022565594, 47.71045923081361], [8.791463825586519, 47.71199187917788], [8.791518454846473, 47.71205245993764], [8.792814222408875, 47.71244791575134], [8.792954556577834, 47.71251668970735], [8.793964586100426, 47.71328339091923], [8.793687876394982, 47.71345383446309], [8.793584585841618, 47.71351148818788], [8.79347574424212, 47.7135636748848], [8.792411564977149, 47.7140227232328], [8.791663727408308, 47.71438283606906], [8.791796603102128, 47.714570603833835], [8.792181482940903, 47.71455100280064], [8.792796023941463, 47.71516503142522], [8.792204701959855, 47.715422181486815], [8.792184341068836, 47.715484894321], [8.794261076007974, 47.717710127471236], [8.794352709959577, 47.717724223589], [8.794378224053451, 47.71775194389033], [8.796045361242813, 47.71704781833792], [8.796137666249386, 47.71706212105229], [8.79625499866542, 47.7171895971729], [8.796332317685524, 47.71726501261952], [8.796434228284342, 47.717350844248955], [8.796545341632745, 47.717431189548435], [8.799389664827123, 47.719240796584934], [8.799510020154429, 47.71932308167103], [8.79948367021377, 47.71947503754109], [8.799435510452295, 47.71961596946868], [8.79934082482548, 47.71974623866825], [8.799219020599518, 47.71987416273121], [8.799008513465706, 47.720057667329094], [8.798755157022535, 47.720212836513376], [8.797448143581509, 47.72088449370243], [8.797162634411757, 47.721010281507404], [8.79685306744164, 47.72111072444299], [8.796350185575534, 47.72124550767155], [8.796208572230677, 47.72129321322068], [8.796080414162493, 47.72135415434433], [8.795966395089176, 47.72142848503277], [8.7958722011568, 47.721514960407475], [8.79567892319588, 47.72172284872949], [8.795680829476918, 47.72183411542478], [8.795981526417423, 47.72215320120042], [8.796106393555883, 47.72227103708181], [8.796246716601457, 47.72237820482888], [8.796773357191245, 47.72274036913603], [8.796988841718257, 47.72289762982659], [8.797190254977078, 47.72306490344194], [8.797395902413829, 47.723245447963926], [8.797584798771847, 47.723423525348046], [8.797759077052438, 47.72360849211499], [8.798108670378467, 47.724011907994495], [8.7981973188302, 47.724129355416096], [8.798470380798616, 47.724512663258615], [8.798560183106918, 47.72461424876874], [8.799504403145441, 47.7254901194684], [8.799620458011146, 47.725607829710576], [8.799567696419471, 47.72562908975564], [8.799544660260718, 47.72563266946428], [8.799308932574075, 47.72672812245137], [8.799200160429612, 47.72711836082537], [8.799132006153972, 47.727832265083244], [8.799121761709973, 47.728875012831956], [8.798383131377484, 47.73006072140409], [8.79768145325411, 47.7317111855664], [8.797163144951933, 47.73293057494004], [8.796648470369306, 47.73414599656269], [8.796567047748189, 47.73454970014078], [8.797207007088248, 47.734671951718], [8.799783639456965, 47.73529645258548], [8.799446673802333, 47.73612378357788], [8.802309149790634, 47.73646372718219], [8.804617468102272, 47.73674325538273], [8.804510241747673, 47.73740600196976], [8.805384361065334, 47.737552936493486], [8.805257546239728, 47.738283983870176], [8.806675961392253, 47.73827769503774], [8.807578155029168, 47.73713505481872], [8.807268610739229, 47.7355266689374], [8.807112146222893, 47.73467995606431], [8.807439518727705, 47.733420179947615], [8.808263460934548, 47.732264681565866], [8.808546647907376, 47.73121091592738], [8.810687234439419, 47.730929540589365], [8.812180069998245, 47.730422910970354], [8.810904615329102, 47.729743129336846], [8.811548122844982, 47.729294352940975], [8.811534454513046, 47.728845033013215], [8.810861560697568, 47.728212128576814], [8.809794829560506, 47.72755384200225], [8.808314738707862, 47.72695326769983], [8.806890632926434, 47.72640538905801], [8.80562522324874, 47.72589854020292], [8.80491851965485, 47.725340779624275], [8.804811062008106, 47.72451747283991], [8.806186205460147, 47.72455945465119], [8.808478372273136, 47.724609579472094], [8.810705556759347, 47.724352058891974], [8.812706788602423, 47.72376536753882], [8.813575666917185, 47.72282895702101], [8.815126621397267, 47.721484839186935], [8.816497445733582, 47.720238419245355], [8.817657353342973, 47.71880510331415], [8.818534837809436, 47.7176453691142], [8.818970185258978, 47.717722554373296], [8.819966025085446, 47.71784267510529], [8.821309611631083, 47.71809650194076], [8.822492580667689, 47.71832660003744], [8.824007758540894, 47.718583443969514], [8.825380116699604, 47.718707350639534], [8.826254466435064, 47.7178646693714], [8.82555787153999, 47.7170245264227], [8.82473065216279, 47.716595521867475], [8.823726112134398, 47.71607263481966], [8.82286313525625, 47.715534471568425], [8.822173074529669, 47.7147983067378], [8.821186136873733, 47.71451030619174], [8.819881545240719, 47.713807960636395], [8.818943445511282, 47.71329867936016], [8.819053364663281, 47.71277611216914], [8.820014803090261, 47.7126498745267], [8.822332082515176, 47.71240397789984], [8.823496800071585, 47.7121662135749], [8.82299021451421, 47.71161131115], [8.823758410626969, 47.71096604478425], [8.825532207968347, 47.71100016410858], [8.827980902247733, 47.711566900450975], [8.830090068695876, 47.71187019686057], [8.829928666532474, 47.7123495074501], [8.831746017511865, 47.71377748651689], [8.833592986097107, 47.714557427391334], [8.83406988279799, 47.713796086305415], [8.835414010477134, 47.713821541982895], [8.837705816039746, 47.71321583400018], [8.840681959647892, 47.712804682483196], [8.84101497099377, 47.71209331195435], [8.84318259673729, 47.71215488083186], [8.845767386020354, 47.711154008060426], [8.845866632611623, 47.7085581076514], [8.846140852852795, 47.70718094843638], [8.846543446635335, 47.70719466376837], [8.846868774788302, 47.706449074137055], [8.847113498996903, 47.70574339210353], [8.84758163644401, 47.70508068826137], [8.84799876095545, 47.70446878376496], [8.848343570208222, 47.703368836586826], [8.848072417618761, 47.703361197463224], [8.847484907203242, 47.70319442775626], [8.846783682785151, 47.703050071781334], [8.845653850397385, 47.70312866240838], [8.845354407531145, 47.70302010589102], [8.844733385813875, 47.702878463599156], [8.844259399907122, 47.70263921874691], [8.843667697816375, 47.702084738251536], [8.843361146157521, 47.70167620914709], [8.842965606995262, 47.701453622127595], [8.84222318685604, 47.70129049530478], [8.841655098004134, 47.70124669604314], [8.841037243059873, 47.70123356384139], [8.840448720605599, 47.70134143010934], [8.839816303358502, 47.70152625091705], [8.83956497181729, 47.70137596702433], [8.839328600553829, 47.701226041210575], [8.8408716800023, 47.70052837394037], [8.840641329823871, 47.70025006913079], [8.840270699056347, 47.69999364880317], [8.839888671349382, 47.699681525675416], [8.839658192882599, 47.69924445511003], [8.839708294789382, 47.699123259160054], [8.839954312275424, 47.69894124376224], [8.840763556733075, 47.698802236486934], [8.840485926788487, 47.69857773146803], [8.840249318912972, 47.69824132319834], [8.839726293027654, 47.69800597786173], [8.839163140119641, 47.69807484636732], [8.838993293693049, 47.69811929402705], [8.838971972663456, 47.69805871099188], [8.839174747313969, 47.697913207755505], [8.8391712572102, 47.69773890684867], [8.839313076656827, 47.69751891533392], [8.83919126018792, 47.69727758235942], [8.83918742829709, 47.697144777547855], [8.839260814507409, 47.69686219863844], [8.839506169826365, 47.69654262011054], [8.84001452997907, 47.69630343017866], [8.840423504021482, 47.696163235599236], [8.840854457109335, 47.696098446454464], [8.841287351156192, 47.696082329436216], [8.841577229698528, 47.696025788468816], [8.841730921938224, 47.69589392384183], [8.841773546340795, 47.695531013749644], [8.841850732171853, 47.69530696900786], [8.841936948628161, 47.69513767346298], [8.842151402152695, 47.69480622823309], [8.841960858753724, 47.69479866210679], [8.841552463252896, 47.69466192678656], [8.84091528317549, 47.694417190212256], [8.84060968072757, 47.694401358655185], [8.840362851135312, 47.6944466649508], [8.83962102589451, 47.694268789611165], [8.838662766849422, 47.69407226325905], [8.837697647718754, 47.69390927234917], [8.83719148059959, 47.6939232543497], [8.83641020208473, 47.69376666582366], [8.835922865749911, 47.69352795883406], [8.83595386630951, 47.69313003060878], [8.835995127037052, 47.69272815622945], [8.836141189078672, 47.692261024213565], [8.836265852808733, 47.69174540708817], [8.836611608498417, 47.691263279288776], [8.836906105562544, 47.69079867719829], [8.837023442068801, 47.6904544960357], [8.837161577609708, 47.68985928335304], [8.837138552703381, 47.6896688820251], [8.837050145889021, 47.68948906268296], [8.836916961169768, 47.68935042012913], [8.836728708999942, 47.68925224153339], [8.836465277605676, 47.68917144533067], [8.835770513167857, 47.68896937019171], [8.83550895418798, 47.688852372839705], [8.835330295343168, 47.688728837785156], [8.835169429449818, 47.688657653629086], [8.835034125164366, 47.68864651630229], [8.834672546315485, 47.688685400743154], [8.833803288746612, 47.688837337243065], [8.833275605632663, 47.688892936359956], [8.832964389812451, 47.68895400374705], [8.83232655006753, 47.68909208850564], [8.831781171792466, 47.689199828465675], [8.831543511233578, 47.689239043410005], [8.831419909806321, 47.68926668166083], [8.831303791535422, 47.689309898815864], [8.830851928061934, 47.68951860280664], [8.830780064134423, 47.68955680980704], [8.830717999206644, 47.689603426258714], [8.830590405770103, 47.68971694755259], [8.830426160216664, 47.68987948792217], [8.830356645761778, 47.68996455564054], [8.830101469436372, 47.689808280517404], [8.829547304898961, 47.68945556139563], [8.828985323085016, 47.68904580809265], [8.82810447583522, 47.68823774146099], [8.828075434248701, 47.688426086192], [8.827994260136112, 47.688810724184805], [8.827876953012602, 47.689188589467015], [8.827830509853253, 47.68929708980545], [8.821596203136378, 47.68828850091023], [8.821473275316931, 47.68874513857853], [8.817941138844294, 47.68847051598677], [8.817910948021343, 47.68839613795702], [8.81772135385838, 47.6879967329247], [8.817686250692505, 47.687888683190955], [8.817616126215036, 47.68744494609797], [8.817104967451177, 47.68746448626787], [8.816702675402984, 47.687479851718365], [8.81669620814999, 47.68758968110381], [8.8167210354061, 47.68769913932621], [8.817032093309672, 47.6887214412621], [8.817055588584637, 47.68896650935085], [8.817147309700749, 47.68926611196874], [8.81746837563859, 47.68961494597391], [8.817546567318695, 47.68979231869199], [8.817587860460245, 47.69000709737757], [8.817289191089163, 47.69029365794781], [8.81721714635904, 47.690456353350875], [8.815536868923864, 47.69010239839062], [8.815591516274191, 47.689941079541384], [8.815660941369723, 47.689702564440026], [8.815636013028472, 47.689457989909705], [8.815546913916597, 47.68922460063471], [8.814661389015596, 47.68757838734713], [8.81432378437456, 47.686927503483986], [8.814225401969207, 47.68676866265218], [8.813656233876152, 47.68573456723374], [8.813957928651, 47.68505685648369], [8.813499138832924, 47.684465600199964], [8.812913633764044, 47.684257385089], [8.812545265076547, 47.68431172492417], [8.811981907033354, 47.6841031265907], [8.81180912339784, 47.683933173412825], [8.811163536278357, 47.68365162467756], [8.810718363921104, 47.68350730242097], [8.810285415550249, 47.68355360140814], [8.810121836420466, 47.68364371611896], [8.809847831282363, 47.6836878942935], [8.809701777958118, 47.68351597649427], [8.808783714765589, 47.68327162996041], [8.808533160496577, 47.68270108615832], [8.80785288528009, 47.68184402810548], [8.807651732981808, 47.681317693632316], [8.807591815342409, 47.680604053357904], [8.807085844835024, 47.6796004821486], [8.805043800581725, 47.678236231874074], [8.804758451916875, 47.67829150535066], [8.804468234965691, 47.678331031713334], [8.80417432449819, 47.67835490513316], [8.803878487142828, 47.67836293386016], [8.803582667124664, 47.678355095089586], [8.803288690370877, 47.67833143028111], [8.802998425610657, 47.678292088449325], [8.802713690775363, 47.67823731807731], [8.802436306139441, 47.6781674576439], [8.802167988427229, 47.67808296377163], [8.801910442373234, 47.67798434716977], [8.801665296520007, 47.67787226340649], [8.801434099510086, 47.677747369033256], [8.798870152246845, 47.67624552548514], [8.798819985432745, 47.676216034857205], [8.798521581615315, 47.676053577554974], [8.79820667510338, 47.67590602790367], [8.797876857103457, 47.67577415867688], [8.797533876007401, 47.67565864190093], [8.797179452118018, 47.675560095953315], [8.79681547528656, 47.675479002300314], [8.796057952126167, 47.67533679251472]]]]}}]}