{
  "type": "FeatureCollection",
  "features": [
    {
      "type": "Feature",
      "properties": {
        "bfs_nummer": 3,
        "segment_length_m": 0.1784774994665748
      },
      "geometry": {
        "type": "LineString",
        "coordinates": [
          [
            8.4413224379914,
            47.315827628521184
          ],
          [
            8.441319326499128,
            47.31588237303581
          ],
          [
            8.441348073179743,
            47.31591498251421
          ],
          [
            8.441364333629675,
            47.31596238056687
          ],
          [
            8.441315875116631,
            47.316016178845054
          ],
          [
            8.441312522633462,
            47.31606091385268
          ],
          [
            8.441274205117423,
            47.31611519968224
          ],
          [
            8.441198703132972,
            47.31616440248772
          ],
          [
            8.44119287329238,
            47.31620048769239
          ],
          [
            8.441126258308909,
            47.316317913374476
          ],
          [
            8.441110087134668,
            47.31635623825297
          ],
          [
            8.441105790755879,
            47.316405658924
          ],
          [
            8.441087117919484,
            47.31645727336955
          ],
          [
            8.441112518674755,
            47.316517365151334
          ],
          [
            8.441089338778964,
            47.316543814354596
          ],
          [
            8.441095402997512,
            47.31657864484418
          ],
          [
            8.441039841291449,
            47.31660501553533
          ],
          [
            8.441033340628174,
            47.31664483054306
          ],
          [
            8.441054509894819,
            47.316672594563286
          ],
          [
            8.440996060627715,
            47.31673256019321
          ],
          [
            8.440904976440422,
            47.31689377973595
          ],
          [
            8.440855890286938,
            47.3169311311294
          ],
          [
            8.440833683284032,
            47.31697911519377
          ],
          [
            8.44077114034972,
            47.31703524834091
          ],
          [
            8.440735121015575,
            47.31708801181819
          ],
          [
            8.440722225524269,
            47.3171366795826
          ],
          [
            8.440678765401024,
            47.31716864791938
          ],
          [
            8.440680551356648,
            47.317213041428936
          ],
          [
            8.44066170816415,
            47.31730634075548
          ],
          [
            8.440681168617395,
            47.31735580696521
          ],
          [
            8.440678600263258,
            47.317402181233795
          ],
          [
            8.440655996746772,
            47.3174199090407
          ],
          [
            8.440623068428772,
            47.31746965025148
          ],
          [
            8.440568942260061,
            47.3174887041793
          ],
          [
            8.440486721744337,
            47.31758319238008
          ],
          [
            8.440490711544403,
            47.31774427870505
          ],
          [
            8.440535478800271,
            47.31779317441096
          ],
          [
            8.440535794950101,
            47.31783749072364
          ],
          [
            8.440526235035065,
            47.317848250956054
          ],
          [
            8.440914443009692,
            47.31789503674394
          ],
          [
            8.44120423168347,
            47.317949908429966
          ],
          [
            8.441618980385204,
            47.31808703334821
          ],
          [
            8.441988155348472,
            47.31823435775227
          ],
          [
            8.442311751210982,
            47.318405671675954
          ],
          [
            8.442387753949424,
            47.318369614733584
          ],
          [
            8.443010650188443,
            47.31873038723413
          ],
          [
            8.443497849508663,
            47.318942200179144
          ],
          [
            8.443612984459232,
            47.319009623605815
          ],
          [
            8.443767571851419,
            47.319092147952574
          ],
          [
            8.44408263771697,
            47.319232093233005
          ],
          [
            8.44410472597441,
            47.31928391968827
          ],
          [
            8.44425162349618,
            47.31930224909897
          ],
          [
            8.444657001450325,
            47.3194205640486
          ],
          [
            8.444733047491773,
            47.319445744122646
          ],
          [
            8.444805798695286,
            47.31947507264987
          ],
          [
            8.445795730581409,
            47.31999320180417
          ],
          [
            8.446466730086962,
            47.32124922721765
          ],
          [
            8.446628652351707,
            47.32154789090075
          ],
          [
            8.446669117117652,
            47.321609451003944
          ],
          [
            8.446836689864163,
            47.3216007370892
          ],
          [
            8.44707796593858,
            47.321684811431915
          ],
          [
            8.447491283455252,
            47.32184603494476
          ],
          [
            8.447576632761672,
            47.32186765071986
          ],
          [
            8.447663336447144,
            47.321925208166626
          ],
          [
            8.44773132847841,
            47.32200619959153
          ],
          [
            8.447743945637576,
            47.3220508131044
          ],
          [
            8.447843979380368,
            47.32212909559705
          ],
          [
            8.447875944714061,
            47.32217272133831
          ],
          [
            8.447965441110428,
            47.32223171134994
          ],
          [
            8.44800731962824,
            47.32228258139366
          ],
          [
            8.448065961712517,
            47.322380448324026
          ],
          [
            8.448290798050024,
            47.32272589179731
          ],
          [
            8.44837467960725,
            47.32284392073812
          ],
          [
            8.44834435240113,
            47.32289249896882
          ],
          [
            8.448229206424346,
            47.32295250544803
          ],
          [
            8.44812535198972,
            47.322969560201855
          ],
          [
            8.448099480414172,
            47.32298725506073
          ],
          [
            8.449170285837502,
            47.323350993186715
          ],
          [
            8.448617869253306,
            47.324269905731654
          ],
          [
            8.448986299705357,
            47.32449756806882
          ],
          [
            8.449322845123888,
            47.32476404363181
          ],
          [
            8.449600471133495,
            47.325121327513784
          ],
          [
            8.449964134970646,
            47.32551086897341
          ],
          [
            8.449804819144859,
            47.32558103270115
          ],
          [
            8.449725479980845,
            47.325627009292624
          ],
          [
            8.44942037452843,
            47.32565529094555
          ],
          [
            8.448893813145597,
            47.32581038091722
          ],
          [
            8.44851683613681,
            47.325973883409446
          ],
          [
            8.450006754591696,
            47.32691620985125
          ],
          [
            8.449901594358368,
            47.326973638716005
          ],
          [
            8.452414316394602,
            47.32870204773321
          ],
          [
            8.451551439801984,
            47.32913907790429
          ],
          [
            8.45373615053586,
            47.33165236357842
          ],
          [
            8.45452619064704,
            47.332764262395486
          ],
          [
            8.454742109290452,
            47.33301212043977
          ],
          [
            8.454963752811862,
            47.33341174732995
          ],
          [
            8.455085972651128,
            47.33382638065289
          ],
          [
            8.455110913170456,
            47.33408326854109
          ],
          [
            8.454721590611774,
            47.3343856939656
          ],
          [
            8.454439630869562,
            47.334559811405335
          ],
          [
            8.4541216722655,
            47.3347530446197
          ],
          [
            8.454807177535631,
            47.33475824693873
          ],
          [
            8.455236995457573,
            47.33481778800724
          ],
          [
            8.45530961421871,
            47.33473322398837
          ],
          [
            8.455622620187263,
            47.334515024662295
          ],
          [
            8.456240352459309,
            47.334193653990994
          ],
          [
            8.456598182177734,
            47.33425153981264
          ],
          [
            8.456680325820944,
            47.33403598488524
          ],
          [
            8.456844142575953,
            47.333706496854035
          ],
          [
            8.456904958716121,
            47.33348835035189
          ],
          [
            8.45713859097268,
            47.333407482828115
          ],
          [
            8.457599018361366,
            47.33329730378468
          ],
          [
            8.457491536122596,
            47.33291747089043
          ],
          [
            8.45773818386129,
            47.33254704202485
          ],
          [
            8.457891100269538,
            47.33217530843414
          ],
          [
            8.457854126540994,
            47.332024022023276
          ],
          [
            8.457858229904549,
            47.33158780296256
          ],
          [
            8.45804983821004,
            47.33159802941951
          ],
          [
            8.45810175850669,
            47.331457570643686
          ],
          [
            8.458498791764283,
            47.3314837831606
          ],
          [
            8.459041265380348,
            47.33150264593116
          ],
          [
            8.459015653678794,
            47.33164118149486
          ],
          [
            8.45995368643884,
            47.33167538729793
          ],
          [
            8.460096091673226,
            47.33028431583156
          ],
          [
            8.460145237469767,
            47.33048092835581
          ],
          [
            8.460162550289933,
            47.33051860867677
          ],
          [
            8.460189622044707,
            47.330549789091165
          ],
          [
            8.460222555292233,
            47.33057407232151
          ],
          [
            8.460266407962179,
            47.33059511059537
          ],
          [
            8.460311323544532,
            47.33060808879716
          ],
          [
            8.463357917926986,
            47.330947615302826
          ],
          [
            8.463475287500632,
            47.33099575866674
          ],
          [
            8.463528746161805,
            47.33099331406079
          ],
          [
            8.463571465584875,
            47.331036543167876
          ],
          [
            8.463622148428193,
            47.331075554782984
          ],
          [
            8.465608918700777,
            47.33240793946108
          ],
          [
            8.465783431037506,
            47.32924983773178
          ],
          [
            8.465784576293885,
            47.32916707217665
          ],
          [
            8.465778399729066,
            47.32906066056707
          ],
          [
            8.465760871885122,
            47.32894258431657
          ],
          [
            8.465546643109333,
            47.32795538389694
          ],
          [
            8.465681882558124,
            47.32794238788847
          ],
          [
            8.465734699440448,
            47.32796930811484
          ],
          [
            8.468551689088239,
            47.32800385197053
          ],
          [
            8.468494374874753,
            47.32761311009927
          ],
          [
            8.468542830800809,
            47.32754085138829
          ],
          [
            8.469414423209434,
            47.32763117162803
          ],
          [
            8.469713588237,
            47.327800639720955
          ],
          [
            8.470476291738416,
            47.328211198847896
          ],
          [
            8.47047799550008,
            47.328185736314445
          ],
          [
            8.470501063027411,
            47.328114972065
          ],
          [
            8.470493355995165,
            47.32799215811187
          ],
          [
            8.471625091607601,
            47.327967039520296
          ],
          [
            8.47202677023896,
            47.327940326168175
          ],
          [
            8.472209125397216,
            47.3279344025877
          ],
          [
            8.472490144541725,
            47.32791723253494
          ],
          [
            8.473179630583145,
            47.327809336981446
          ],
          [
            8.473314330228119,
            47.3277808921453
          ],
          [
            8.4733659665967,
            47.327762438895114
          ],
          [
            8.473389470789911,
            47.327840594032935
          ],
          [
            8.473478319180122,
            47.32782805874161
          ],
          [
            8.4735340493048,
            47.3277614715712
          ],
          [
            8.47391561445192,
            47.32755264495936
          ],
          [
            8.473976435274327,
            47.327510496737126
          ],
          [
            8.474011040862212,
            47.32747687720193
          ],
          [
            8.474038773574325,
            47.32744019799137
          ],
          [
            8.474132714111636,
            47.32726812322377
          ],
          [
            8.474158250289861,
            47.32731732254532
          ],
          [
            8.4752315822226,
            47.327367559187024
          ],
          [
            8.477182513859306,
            47.327468675589124
          ],
          [
            8.477167622669906,
            47.327390812467335
          ],
          [
            8.477151566278074,
            47.327176961846035
          ],
          [
            8.477156891328011,
            47.32711409165808
          ],
          [
            8.477177946922959,
            47.326995498757135
          ],
          [
            8.4772781535603,
            47.32665247464596
          ],
          [
            8.47731293449002,
            47.3264948000871
          ],
          [
            8.47733342553359,
            47.326311222086964
          ],
          [
            8.477324048660284,
            47.32613672815443
          ],
          [
            8.477283256474566,
            47.32596453186062
          ],
          [
            8.4772275375005,
            47.32579960304831
          ],
          [
            8.47718237890137,
            47.32572521455292
          ],
          [
            8.477278768899875,
            47.325666049397114
          ],
          [
            8.47707852198405,
            47.32550202531927
          ],
          [
            8.477062800004488,
            47.32539979269675
          ],
          [
            8.477611299820303,
            47.324997827024525
          ],
          [
            8.47768421821492,
            47.32490532978836
          ],
          [
            8.477774886644797,
            47.324758989459966
          ],
          [
            8.477923892247944,
            47.32463963097234
          ],
          [
            8.478116355745987,
            47.32455152590232
          ],
          [
            8.478161582450786,
            47.324547232617235
          ],
          [
            8.478207222011191,
            47.3245485126064
          ],
          [
            8.478251752813254,
            47.324555352590956
          ],
          [
            8.4782893053207,
            47.324565934451115
          ],
          [
            8.478347408666592,
            47.32459378180509
          ],
          [
            8.478394386079309,
            47.32463452051382
          ],
          [
            8.478466683017393,
            47.32463445382279
          ],
          [
            8.478503839418828,
            47.32465321580055
          ],
          [
            8.478454856779646,
            47.32470509157646
          ],
          [
            8.478413767854079,
            47.324766260192234
          ],
          [
            8.478386398724558,
            47.324830876271825
          ],
          [
            8.478373627805013,
            47.32489241940224
          ],
          [
            8.479204134093754,
            47.32509143653215
          ],
          [
            8.479311800253315,
            47.32487736092349
          ],
          [
            8.480053274540946,
            47.3251325670846
          ],
          [
            8.480134267708594,
            47.32501951337496
          ],
          [
            8.480274397671797,
            47.32490587189466
          ],
          [
            8.480503407566326,
            47.32479590748786
          ],
          [
            8.480538270767402,
            47.32483539642752
          ],
          [
            8.480585091045839,
            47.32487544304744
          ],
          [
            8.480633817618337,
            47.3249074217493
          ],
          [
            8.48068800243065,
            47.32493505145006
          ],
          [
            8.480753580763198,
            47.32496012255985
          ],
          [
            8.481163686723624,
            47.32508915154529
          ],
          [
            8.481288286374204,
            47.32511444477191
          ],
          [
            8.4814171489695,
            47.32512635049603
          ],
          [
            8.481537896826051,
            47.32512513347396
          ],
          [
            8.481690520937873,
            47.325109361874006
          ],
          [
            8.48177985852088,
            47.32509172442354
          ],
          [
            8.48186851285631,
            47.32506418038757
          ],
          [
            8.481950105023381,
            47.325027965803
          ],
          [
            8.482022864818301,
            47.3249838882647
          ],
          [
            8.482139875661632,
            47.324889694192784
          ],
          [
            8.482211696922652,
            47.32481320637214
          ],
          [
            8.482267136263443,
            47.324729085811626
          ],
          [
            8.48231042485431,
            47.32462504282855
          ],
          [
            8.482334141138784,
            47.32451257743377
          ],
          [
            8.48233576400908,
            47.32440617669822
          ],
          [
            8.482194958634702,
            47.32356577940163
          ],
          [
            8.482210120695171,
            47.323464401458
          ],
          [
            8.48270895481469,
            47.323439731334936
          ],
          [
            8.482700539101934,
            47.323171229117236
          ],
          [
            8.483897265584897,
            47.323273582561065
          ],
          [
            8.4838156585648,
            47.32362894806517
          ],
          [
            8.483717055858886,
            47.32376573136072
          ],
          [
            8.48376638862156,
            47.32377795882666
          ],
          [
            8.483861240546572,
            47.32381775804807
          ],
          [
            8.483963092084416,
            47.32387585297271
          ],
          [
            8.484122775662726,
            47.32374324760472
          ],
          [
            8.484286001345358,
            47.323558536750234
          ],
          [
            8.48456538642252,
            47.32331493384615
          ],
          [
            8.484664109997313,
            47.32316085092968
          ],
          [
            8.484826294175017,
            47.3228564136685
          ],
          [
            8.485009207407217,
            47.32268965752746
          ],
          [
            8.485181574589724,
            47.32261185125085
          ],
          [
            8.485349594079862,
            47.32250193531705
          ],
          [
            8.485571816118277,
            47.32231608470355
          ],
          [
            8.485750758314332,
            47.32214941731924
          ],
          [
            8.486056699367,
            47.32200320348682
          ],
          [
            8.48577130485581,
            47.3217046432575
          ],
          [
            8.485426727104004,
            47.32140867909109
          ],
          [
            8.485013487478222,
            47.32121406474205
          ],
          [
            8.48440722255502,
            47.321030301466344
          ],
          [
            8.484149815035687,
            47.320678124126644
          ],
          [
            8.484054826574432,
            47.32046903676035
          ],
          [
            8.483909850213767,
            47.32025256729443
          ],
          [
            8.483767037432209,
            47.320066131008524
          ],
          [
            8.483492959797578,
            47.31987008891528
          ],
          [
            8.48340195238996,
            47.319612121017876
          ],
          [
            8.483318246381362,
            47.31935003010232
          ],
          [
            8.483358835766174,
            47.3193145183894
          ],
          [
            8.48328954283653,
            47.319086577658396
          ],
          [
            8.483192966586659,
            47.3188791770236
          ],
          [
            8.483063725354533,
            47.31855859748585
          ],
          [
            8.483159877478037,
            47.318361901619674
          ],
          [
            8.483213178983654,
            47.31804397841324
          ],
          [
            8.483118032831893,
            47.31776490893232
          ],
          [
            8.48305604259011,
            47.31742940918904
          ],
          [
            8.483066718939124,
            47.316940872897284
          ],
          [
            8.483335677101627,
            47.31650397865838
          ],
          [
            8.483426667281764,
            47.31622628231795
          ],
          [
            8.48369974644396,
            47.315952873686854
          ],
          [
            8.483893003685335,
            47.315805400800244
          ],
          [
            8.484225501865833,
            47.31570317115964
          ],
          [
            8.484332378664437,
            47.315338076470034
          ],
          [
            8.48449823587837,
            47.3148516503214
          ],
          [
            8.484853669891008,
            47.31460339845245
          ],
          [
            8.485201355143637,
            47.31445254395995
          ],
          [
            8.485390015881153,
            47.31432678857699
          ],
          [
            8.485462382141966,
            47.31403090903685
          ],
          [
            8.485659418972537,
            47.31385353458667
          ],
          [
            8.485912436810633,
            47.313692031972614
          ],
          [
            8.486229844753773,
            47.31347551410697
          ],
          [
            8.486726964006893,
            47.31331044383235
          ],
          [
            8.487386777842321,
            47.3132267386931
          ],
          [
            8.487652445350465,
            47.31318366522165
          ],
          [
            8.488237937714928,
            47.31297963610842
          ],
          [
            8.488400220237587,
            47.31273726761828
          ],
          [
            8.488631068223567,
            47.312652959701744
          ],
          [
            8.488935507474528,
            47.312577417432664
          ],
          [
            8.489350284261187,
            47.31255717972913
          ],
          [
            8.489620160263517,
            47.31256686533079
          ],
          [
            8.489891205142035,
            47.31255531091396
          ],
          [
            8.490407958889277,
            47.312562034421816
          ],
          [
            8.491108827012006,
            47.31254880699478
          ],
          [
            8.491464046329702,
            47.312459598788124
          ],
          [
            8.491935946581812,
            47.31227186101691
          ],
          [
            8.491525902853025,
            47.311697875831456
          ],
          [
            8.491186869976525,
            47.31156338712567
          ],
          [
            8.490805648651722,
            47.31156110729754
          ],
          [
            8.490276982936221,
            47.31152661801223
          ],
          [
            8.48982117454231,
            47.31150458658283
          ],
          [
            8.48906016314899,
            47.31139125128862
          ],
          [
            8.48842162909515,
            47.311251070320594
          ],
          [
            8.487885272449438,
            47.31126241679988
          ],
          [
            8.487707429085587,
            47.31141281504663
          ],
          [
            8.487303996238962,
            47.31130251302594
          ],
          [
            8.486840636168008,
            47.311138242986125
          ],
          [
            8.486525282015776,
            47.31101462567427
          ],
          [
            8.485779649252846,
            47.310626046149345
          ],
          [
            8.485578627329335,
            47.31061987367387
          ],
          [
            8.48539688442023,
            47.31057302043658
          ],
          [
            8.485280274029012,
            47.31072890416106
          ],
          [
            8.485092914329918,
            47.31087315997894
          ],
          [
            8.4848846571196,
            47.3110849072458
          ],
          [
            8.484580063366856,
            47.31121989870145
          ],
          [
            8.48420938600861,
            47.311336418340915
          ],
          [
            8.483896544732362,
            47.31146239751879
          ],
          [
            8.483684041384075,
            47.31143874906704
          ],
          [
            8.483496674985238,
            47.311338458185006
          ],
          [
            8.483307966827955,
            47.31110269312649
          ],
          [
            8.483101263751463,
            47.310820495411576
          ],
          [
            8.48288540537933,
            47.31060224626425
          ],
          [
            8.48254856617963,
            47.3101571614592
          ],
          [
            8.482340501827046,
            47.309946306809486
          ],
          [
            8.48214580962493,
            47.3098172683303
          ],
          [
            8.481943919975834,
            47.30948169232095
          ],
          [
            8.482011841885116,
            47.309214909414564
          ],
          [
            8.482169907809775,
            47.308964366082805
          ],
          [
            8.48190880366973,
            47.30883543313568
          ],
          [
            8.481431929148751,
            47.308424254904274
          ],
          [
            8.481336574396924,
            47.308180536546985
          ],
          [
            8.481311440156093,
            47.3078688092501
          ],
          [
            8.48147693307165,
            47.307519198165906
          ],
          [
            8.48174296924356,
            47.30710373221839
          ],
          [
            8.481808679949102,
            47.306811881528354
          ],
          [
            8.481681719958834,
            47.306297521766325
          ],
          [
            8.481597230800961,
            47.306074385301386
          ],
          [
            8.48144242210925,
            47.305802950349744
          ],
          [
            8.481357414437772,
            47.30580838723694
          ],
          [
            8.481345020106495,
            47.30570670021724
          ],
          [
            8.481254931405033,
            47.305564400280424
          ],
          [
            8.481153818650181,
            47.305046567945254
          ],
          [
            8.481225846534363,
            47.304881754003965
          ],
          [
            8.481047957499635,
            47.304542810935615
          ],
          [
            8.480768392066457,
            47.304217550360875
          ],
          [
            8.480631254084567,
            47.304101590198606
          ],
          [
            8.48053844736821,
            47.30386655535755
          ],
          [
            8.480364720551858,
            47.303467413473236
          ],
          [
            8.48054251497319,
            47.30318948313267
          ],
          [
            8.480610941624914,
            47.302807026234774
          ],
          [
            8.480519621902708,
            47.30260672649082
          ],
          [
            8.480427458785858,
            47.30229542403458
          ],
          [
            8.48045746011152,
            47.30191583280673
          ],
          [
            8.480383040809889,
            47.30157316552494
          ],
          [
            8.480334890531811,
            47.301308060806534
          ],
          [
            8.480556643496232,
            47.300956161149216
          ],
          [
            8.480611358912768,
            47.30074463851705
          ],
          [
            8.480720656483797,
            47.30044420851365
          ],
          [
            8.480935194585543,
            47.30034548138938
          ],
          [
            8.48126186005499,
            47.300267472963384
          ],
          [
            8.481488354965256,
            47.30025223853888
          ],
          [
            8.481795339256507,
            47.30020178804404
          ],
          [
            8.482085684408789,
            47.29996376541021
          ],
          [
            8.482430464037662,
            47.29972290169632
          ],
          [
            8.482810162132543,
            47.2994833579637
          ],
          [
            8.483021730796635,
            47.29928731612606
          ],
          [
            8.483340695239729,
            47.29886291028198
          ],
          [
            8.483557252730046,
            47.298565283779595
          ],
          [
            8.483838162281966,
            47.298135922913794
          ],
          [
            8.483628742345669,
            47.29775912005979
          ],
          [
            8.483457300963925,
            47.29760730398239
          ],
          [
            8.483213313119514,
            47.29748411989529
          ],
          [
            8.483026442800114,
            47.297272813351846
          ],
          [
            8.482767943976766,
            47.297137706075915
          ],
          [
            8.482689752355009,
            47.29727730060021
          ],
          [
            8.48247162638989,
            47.29750280682918
          ],
          [
            8.48210977049455,
            47.297917154967124
          ],
          [
            8.481882995899882,
            47.298221356738296
          ],
          [
            8.481686679010537,
            47.29860920829769
          ],
          [
            8.481398372052196,
            47.298566119066386
          ],
          [
            8.48107592695027,
            47.29849473273882
          ],
          [
            8.480324840474614,
            47.29835094651026
          ],
          [
            8.479682324442964,
            47.29822109872453
          ],
          [
            8.479250514353117,
            47.29812847604118
          ],
          [
            8.478978960337063,
            47.29815773135656
          ],
          [
            8.479075684662558,
            47.298574958065885
          ],
          [
            8.479099891432794,
            47.29874501974731
          ],
          [
            8.479242610880402,
            47.29909255899532
          ],
          [
            8.478414142327821,
            47.29925231925668
          ],
          [
            8.478291440077912,
            47.29908296534119
          ],
          [
            8.477927328234019,
            47.29890957987527
          ],
          [
            8.47746932062289,
            47.298626676266316
          ],
          [
            8.477182466630662,
            47.29820271376865
          ],
          [
            8.476779785809143,
            47.29832264708658
          ],
          [
            8.47621327423292,
            47.298775338541994
          ],
          [
            8.475743524840793,
            47.29913099802126
          ],
          [
            8.475401672047603,
            47.299408155997675
          ],
          [
            8.475020778525666,
            47.299662707824
          ],
          [
            8.47446150405208,
            47.300047591086894
          ],
          [
            8.47360641865287,
            47.30047966132876
          ],
          [
            8.473232310304377,
            47.300716704389906
          ],
          [
            8.47324297641478,
            47.30074782218581
          ],
          [
            8.4728869980984,
            47.30098030280307
          ],
          [
            8.472764077528652,
            47.30098941056121
          ],
          [
            8.472612502366303,
            47.30108252063269
          ],
          [
            8.472541022550594,
            47.301147018448255
          ],
          [
            8.471114873865831,
            47.301857533525386
          ],
          [
            8.470994580101863,
            47.30192805325998
          ],
          [
            8.47128071139737,
            47.30215827975246
          ],
          [
            8.469992677495187,
            47.30257971480227
          ],
          [
            8.469205091114855,
            47.302670049127386
          ],
          [
            8.467876918466793,
            47.30319835815519
          ],
          [
            8.467358182896845,
            47.30350857958147
          ],
          [
            8.467011891257556,
            47.303893307068584
          ],
          [
            8.466253687309786,
            47.30449310880106
          ],
          [
            8.46548055041498,
            47.30496923712978
          ],
          [
            8.4645483606702,
            47.30543705976204
          ],
          [
            8.463550716904498,
            47.30583520359834
          ],
          [
            8.462764029318798,
            47.306180805181604
          ],
          [
            8.462032539479203,
            47.30639368218867
          ],
          [
            8.46143277830378,
            47.30657768152707
          ],
          [
            8.460750806627345,
            47.30681343582687
          ],
          [
            8.460167191620513,
            47.30704965547015
          ],
          [
            8.459369071837045,
            47.30748622208671
          ],
          [
            8.458788075659559,
            47.30762144036723
          ],
          [
            8.458272450760498,
            47.307781714271215
          ],
          [
            8.45781527779571,
            47.30795029378252
          ],
          [
            8.457648169259498,
            47.308046804047684
          ],
          [
            8.457043214706708,
            47.30835544538669
          ],
          [
            8.456226650575285,
            47.30860177835308
          ],
          [
            8.45605634678873,
            47.30868633284229
          ],
          [
            8.455533278135269,
            47.30900802455665
          ],
          [
            8.454883267525277,
            47.30924718578447
          ],
          [
            8.454587188845226,
            47.30949797938295
          ],
          [
            8.454556718959724,
            47.30957797198298
          ],
          [
            8.453877790177577,
            47.310046795110964
          ],
          [
            8.454138202972631,
            47.310230289838955
          ],
          [
            8.45438507683007,
            47.310422250703546
          ],
          [
            8.453316842822206,
            47.31116291297035
          ],
          [
            8.453522351569017,
            47.31130085457041
          ],
          [
            8.452037900601143,
            47.312355624119526
          ],
          [
            8.451926306678802,
            47.31227737471173
          ],
          [
            8.45181968599168,
            47.31219284787315
          ],
          [
            8.451720789241424,
            47.31210411534063
          ],
          [
            8.451638204195092,
            47.31202044772139
          ],
          [
            8.45082785302483,
            47.31104834492137
          ],
          [
            8.450712451713564,
            47.31093018918055
          ],
          [
            8.450674690562948,
            47.31094895151064
          ],
          [
            8.450656331940724,
            47.31102561648428
          ],
          [
            8.449321733416197,
            47.3116939351065
          ],
          [
            8.449213655792787,
            47.31176198571453
          ],
          [
            8.44911720318056,
            47.311837697241025
          ],
          [
            8.449045378656363,
            47.31190719324013
          ],
          [
            8.448988569683356,
            47.31197411102325
          ],
          [
            8.44831622965199,
            47.312891845357214
          ],
          [
            8.448215766199898,
            47.31300741276513
          ],
          [
            8.447538702761374,
            47.31369487128521
          ],
          [
            8.447487618086228,
            47.313672281330966
          ],
          [
            8.447443936355594,
            47.313715255329086
          ],
          [
            8.447342529493852,
            47.313847570161116
          ],
          [
            8.447150235655496,
            47.31396764531463
          ],
          [
            8.446895202077677,
            47.314268783227455
          ],
          [
            8.446791768266907,
            47.31437094548249
          ],
          [
            8.4465915790199,
            47.314416302896646
          ],
          [
            8.446449386004238,
            47.314434905561335
          ],
          [
            8.44628337572831,
            47.314439017951486
          ],
          [
            8.446171674653055,
            47.31446486495028
          ],
          [
            8.446130405914122,
            47.314483710335146
          ],
          [
            8.445983585846141,
            47.314601956195034
          ],
          [
            8.44589003961688,
            47.31466608072666
          ],
          [
            8.445853524645692,
            47.31475320272499
          ],
          [
            8.445698701835148,
            47.31480981128659
          ],
          [
            8.445566300065966,
            47.314918395887126
          ],
          [
            8.445350519491608,
            47.31502788769297
          ],
          [
            8.445222683848543,
            47.31511214512764
          ],
          [
            8.445113604391336,
            47.315155067998504
          ],
          [
            8.444904718061744,
            47.31520238727633
          ],
          [
            8.444673430193154,
            47.315207183499155
          ],
          [
            8.444608849085052,
            47.315197671961215
          ],
          [
            8.444538627436629,
            47.315203285434734
          ],
          [
            8.444275134432187,
            47.3152699783931
          ],
          [
            8.44412534807129,
            47.31525077474483
          ],
          [
            8.443811203572677,
            47.3152813966674
          ],
          [
            8.443533036149326,
            47.31528954936789
          ],
          [
            8.443473587466034,
            47.31523158059351
          ],
          [
            8.443347601316399,
            47.31523088759065
          ],
          [
            8.443209840332617,
            47.31521458243128
          ],
          [
            8.443094399867407,
            47.315131869506274
          ],
          [
            8.442991435664283,
            47.31509359186363
          ],
          [
            8.442911739601099,
            47.315015353055045
          ],
          [
            8.44279877374603,
            47.31498889196601
          ],
          [
            8.442748233718811,
            47.314911550696756
          ],
          [
            8.442539346665905,
            47.31496099753945
          ],
          [
            8.44235512310818,
            47.31491387341512
          ],
          [
            8.442148158951797,
            47.314879899785126
          ],
          [
            8.441860459222392,
            47.3148438482419
          ],
          [
            8.441861254936335,
            47.314916432185
          ],
          [
            8.441806938904543,
            47.31502514304243
          ],
          [
            8.441757781936152,
            47.315217634815184
          ],
          [
            8.441663868718798,
            47.31537445405009
          ],
          [
            8.441564583702052,
            47.31548124389667
          ],
          [
            8.441411762037394,
            47.31558979420697
          ],
          [
            8.441377140704038,
            47.31575700002553
          ],
          [
            8.4413224379914,
            47.315827628521184
          ]
        ]
      }
    }
  ]
}