{"type": "FeatureCollection", "features": [{"type": "Feature", "properties": {"bfs_nummer": 3007}, "geometry": {"type": "MultiPolygon", "coordinates": [[[[9.269350751257502, 47.34276179025014], [9.269297482132659, 47.342811325969905], [9.269260966697669, 47.34285420829631], [9.269249427501348, 47.34290555615222], [9.269276933555147, 47.343005424829], [9.269229691840337, 47.34318886330047], [9.26927174071251, 47.34323657197647], [9.269339894508851, 47.34333407773768], [9.26945557674778, 47.343417603899525], [9.269449955627074, 47.34348325267075], [9.269467279668516, 47.34352056642108], [9.269439339387388, 47.34355338018934], [9.26920452229381, 47.34360997056839], [9.26916142031284, 47.34365225543905], [9.2691771801788, 47.34372766849719], [9.269157820370175, 47.34380183029448], [9.269141468580647, 47.34384178352113], [9.26912532367443, 47.343926699313144], [9.269162704665492, 47.34396411787041], [9.269157306455746, 47.34411566498714], [9.269190803324047, 47.34414327557978], [9.269272786813561, 47.34414855187316], [9.26929844243883, 47.344181792796824], [9.269300869021633, 47.344194250884186], [9.269269709969691, 47.34421891948988], [9.269276813034718, 47.34425924735275], [9.269183045395943, 47.344324018465926], [9.26919724936784, 47.344420418602354], [9.269159560442693, 47.344485442508955], [9.26917082262574, 47.34452700896226], [9.269143436704631, 47.34453512664716], [9.269132232253467, 47.34458351811566], [9.269105740538098, 47.34459801833381], [9.269077841322632, 47.34465633723118], [9.269080906605812, 47.344707444332606], [9.269147404895087, 47.34472431132813], [9.269167256067858, 47.34478009139421], [9.269154578708529, 47.3448387894201], [9.269290402020289, 47.34492014308348], [9.269351580956528, 47.34492048603777], [9.269362161137268, 47.34496453757477], [9.269318905772485, 47.345004306023235], [9.269358290897575, 47.34502604749506], [9.269367046109002, 47.34518385618704], [9.26940461245006, 47.345211995991825], [9.269499627976803, 47.34520162683122], [9.269534564831835, 47.34522334858717], [9.269537126337854, 47.34529870095716], [9.269463906073334, 47.345298108301904], [9.269360780127444, 47.34527775618808], [9.269331463284475, 47.3453156119276], [9.269338560082883, 47.34538350593175], [9.269380286354377, 47.34545144452152], [9.269437296551136, 47.34547877207536], [9.269466271370971, 47.345506112479114], [9.269447727785895, 47.345582078671775], [9.26940513664987, 47.34560728857521], [9.269378463058615, 47.34560802662783], [9.269323917765583, 47.3455842498102], [9.269255879592967, 47.3455688288511], [9.269123537708115, 47.34559391503885], [9.269090293773539, 47.34561455913888], [9.269047034639586, 47.345661956503974], [9.269009602032225, 47.345679347310096], [9.26898339086453, 47.34574251558815], [9.268922170617467, 47.3457864911571], [9.26892656467236, 47.34581345691699], [9.268824194336467, 47.345817059906324], [9.268790944154665, 47.34586644863875], [9.268745615861647, 47.345910649016886], [9.268671234721133, 47.34594721293815], [9.26859168016743, 47.345998109878686], [9.268526716717332, 47.34592919911955], [9.268442450413737, 47.34592651390946], [9.268411795486392, 47.345943158099026], [9.2683523502724, 47.345999916647074], [9.268222856870613, 47.34606021500794], [9.268182299045014, 47.34609957114051], [9.268147307752525, 47.346227070408354], [9.268055253395792, 47.34631529474039], [9.267938894074671, 47.34644051220038], [9.267884549230745, 47.34647118893403], [9.267822903590051, 47.34651516164864], [9.26774039382316, 47.346594561450026], [9.267663268487777, 47.34668660638472], [9.26757783115584, 47.346737793600475], [9.267569271101785, 47.346758369982226], [9.267509315920805, 47.3468049429324], [9.267473079725532, 47.34682599383262], [9.267449999712456, 47.34688326426575], [9.267388216946015, 47.34688930851007], [9.267353655794075, 47.346904781855685], [9.267320451766375, 47.34695479931687], [9.26725777660061, 47.346979589116046], [9.26727678651789, 47.34703017363412], [9.267283585207606, 47.34708095179989], [9.267312158596498, 47.347147912138716], [9.267303299154658, 47.347199505344456], [9.267371180407364, 47.34741247313713], [9.26738454050989, 47.34741643592224], [9.267408850445374, 47.34750265378299], [9.267850315845466, 47.34771164336907], [9.267641550766978, 47.34803503922679], [9.26725710115642, 47.34838182093555], [9.267156427179408, 47.348499087443294], [9.267004489103618, 47.34876086259275], [9.26713155691524, 47.3488387855732], [9.267173612831973, 47.34890360663826], [9.267087109995677, 47.34895974043704], [9.266991163916153, 47.349030796378486], [9.266869164640177, 47.349099511859], [9.266811837083115, 47.3491143379549], [9.266751473488975, 47.34911204634805], [9.266619593952822, 47.34915476474306], [9.266783900027308, 47.34939596492179], [9.266575062279767, 47.34943849956608], [9.265659641518877, 47.35175298411313], [9.26586574755635, 47.35199347878532], [9.266011774554247, 47.35211530352258], [9.266486737811721, 47.352340482884806], [9.26676576264613, 47.35250397909029], [9.267070439515136, 47.352618674344576], [9.267132265002644, 47.35262796016073], [9.267586215713433, 47.35284621703537], [9.267714200592131, 47.352944763638504], [9.267194426405812, 47.35332893739384], [9.26703054254742, 47.353459773300074], [9.266556716621078, 47.353918239501816], [9.266410036772026, 47.35403198715097], [9.26557107024033, 47.35448792613455], [9.265381081962897, 47.35455610573906], [9.265915061012503, 47.35570273691828], [9.266076223728776, 47.356071558189214], [9.266024326255128, 47.356214517758744], [9.265533338638521, 47.356377591203724], [9.265112750939032, 47.35651075003471], [9.264978666204332, 47.35658473750604], [9.26481191362673, 47.35679188930231], [9.264931450849478, 47.357001978248626], [9.265003895602302, 47.3571997392809], [9.26515513166047, 47.35729747723678], [9.26492500843105, 47.35745931744389], [9.26448489367262, 47.35764730333333], [9.264572471091803, 47.35805811538036], [9.264819408274704, 47.35890986226537], [9.264102246658208, 47.359131639177654], [9.263431358669731, 47.35926694062808], [9.26284816630781, 47.35904961441363], [9.26194012617274, 47.35947276210747], [9.26242826367316, 47.359757325193016], [9.262864570506595, 47.36002442698232], [9.263722892410476, 47.36052941702832], [9.264412284696062, 47.36042441046917], [9.264352824972537, 47.36097555042378], [9.264218328379082, 47.36128942587372], [9.26414371775593, 47.36155974835335], [9.264304334762038, 47.36163989715808], [9.265053933288057, 47.36193785157439], [9.265231470059828, 47.36198540632659], [9.265244992193727, 47.361956519901376], [9.265908252243868, 47.362112282666374], [9.267272943507832, 47.3624565868931], [9.268875030615877, 47.363036893072234], [9.26966289693122, 47.36331160034362], [9.269926010130785, 47.363367326033284], [9.27014905724284, 47.36338340887967], [9.270282598887055, 47.36334958522353], [9.270288539423692, 47.36338220260398], [9.270243677910399, 47.36347547162979], [9.270282482956949, 47.36348262919327], [9.27033907481108, 47.36348141644073], [9.270419027076764, 47.363485671860865], [9.27049659816902, 47.36351194424736], [9.270544946560124, 47.36348933300343], [9.270546179851948, 47.36346627288356], [9.270611776963396, 47.36345430986412], [9.270617979781857, 47.36347450809852], [9.270661655384075, 47.36347967193637], [9.270701726034774, 47.36350322828104], [9.270810942783328, 47.36351944369052], [9.270898827410996, 47.36351524203971], [9.270981964466749, 47.36353856454014], [9.271032168028638, 47.36352254522413], [9.27111119192275, 47.363536378521204], [9.271164466832754, 47.363557691839254], [9.271268925923012, 47.36357609647116], [9.271337498017283, 47.3635616928644], [9.271406326738793, 47.36357361854952], [9.271565797219052, 47.36363763563486], [9.271595349625303, 47.36364487663792], [9.271681539647519, 47.36364836695608], [9.271735280536733, 47.363669357766646], [9.271910719740097, 47.36365712552075], [9.272038838817354, 47.36372470776529], [9.272209794009783, 47.3637530225442], [9.272373619889626, 47.36378848579226], [9.272462424627436, 47.363844870463794], [9.272496229726595, 47.36382831031383], [9.272545059137938, 47.36381661267232], [9.272732246579652, 47.363878325737154], [9.27283879220394, 47.363905764528546], [9.27295029622439, 47.36388412850722], [9.273017765035377, 47.363907302726936], [9.273071052199287, 47.363903936864496], [9.273156841193378, 47.36389077015848], [9.273196815405749, 47.36389456127593], [9.273292232747131, 47.363978370254586], [9.273363831604877, 47.36398380029882], [9.273390577075277, 47.364000649066625], [9.27348173346761, 47.36401376616816], [9.273589692481501, 47.364001092297514], [9.273659575883668, 47.363971318089455], [9.273683285132298, 47.36396690176184], [9.273683838996737, 47.36389759215355], [9.273675789693206, 47.36379265626807], [9.273370788137662, 47.36360542448863], [9.273214407857813, 47.36346622885992], [9.273041779655955, 47.36332469936033], [9.272997584690987, 47.36325714300548], [9.273065642511474, 47.36314702211112], [9.2733858380346, 47.36266985956869], [9.273499928120142, 47.36246267782167], [9.274415550815565, 47.36281885959892], [9.275126958776257, 47.363211381824925], [9.275767799550405, 47.363638875826716], [9.275812578304494, 47.36373671327202], [9.276423982330995, 47.36419307291551], [9.27783765613594, 47.36480212386731], [9.277882414264457, 47.36481405099984], [9.277922069492703, 47.36484233454288], [9.278200779261145, 47.364927436997604], [9.278282751593101, 47.36497517169411], [9.278318787584986, 47.36500754328744], [9.278366039533642, 47.365040302853316], [9.278417244334566, 47.3650517761784], [9.278477115574569, 47.365057290613876], [9.27848273848894, 47.36506060176414], [9.278543017384738, 47.36506296962917], [9.278603274961277, 47.36507200447373], [9.278614975131633, 47.365097152856706], [9.278651159936059, 47.365115415188484], [9.278672964071816, 47.36514096025968], [9.278728624276347, 47.36513650113763], [9.27876892084978, 47.36515380724211], [9.278793572502543, 47.36518511874114], [9.278850195050248, 47.365198169991565], [9.278929710590393, 47.3652019583346], [9.27902782193134, 47.36520088863952], [9.279073659789923, 47.365236774500005], [9.279112883455802, 47.36523796629187], [9.279154944206525, 47.36525343582073], [9.279214389717884, 47.365330588277374], [9.279241032161897, 47.36535818820339], [9.279369647952022, 47.36542559177833], [9.279449301384131, 47.36544370943643], [9.27954394422034, 47.36549708006061], [9.279664294799973, 47.36557359398461], [9.279660335338226, 47.36559965759624], [9.27977009667142, 47.36568854891383], [9.279859967879595, 47.365783550962824], [9.279863744908214, 47.3658296348097], [9.27994074947274, 47.36592207121274], [9.280018538935488, 47.36598778354101], [9.280044883007303, 47.366002126911646], [9.280027548300554, 47.3660381293025], [9.280066856386746, 47.36609539610316], [9.279795546343928, 47.366299822314794], [9.279293320585023, 47.36625322394331], [9.278839949897442, 47.366329450789905], [9.278093883380553, 47.36653517268585], [9.278288522204969, 47.36684371820018], [9.278457136389601, 47.36705315578605], [9.27880056335268, 47.36735385751668], [9.278881773395305, 47.36761602178755], [9.279005184201075, 47.367845862765705], [9.279034301988366, 47.367878002564524], [9.27920791993795, 47.36789282302393], [9.27953817180224, 47.36801320098246], [9.27992912931519, 47.367911677325964], [9.28010571843283, 47.36790135629574], [9.280637390773814, 47.36810618935352], [9.280700967060683, 47.36821377533484], [9.281571684227751, 47.368429472900246], [9.281971138733075, 47.36853638996399], [9.28248026198482, 47.36872579609676], [9.282403972303058, 47.36853982891693], [9.28235310520447, 47.36843070087855], [9.282326204957071, 47.36829892291615], [9.28231409504166, 47.36809362936485], [9.282259290796464, 47.36795183388653], [9.282168827782591, 47.36779596121921], [9.282099434255663, 47.36755625364629], [9.282106971556427, 47.367317467494644], [9.282291951510315, 47.36726916057479], [9.282344309357725, 47.3672633490816], [9.282483107551284, 47.367391701762735], [9.28252296127057, 47.367356697903446], [9.282556684987924, 47.36735464784435], [9.282585027624487, 47.36733830680197], [9.28268877334325, 47.3673514408431], [9.282889024068204, 47.367333811230985], [9.28416939172051, 47.36718136819804], [9.284622961034323, 47.36715659339695], [9.284894147293448, 47.367169819606715], [9.285096010679947, 47.367192259322735], [9.285333058551187, 47.36711073643391], [9.285582968880645, 47.36704998759717], [9.285906783394259, 47.36703429879202], [9.286189845038406, 47.367047079340374], [9.286139387194725, 47.36715697168523], [9.286509914203238, 47.36735494363337], [9.286755592929747, 47.36746354198178], [9.286750135392923, 47.36753224665442], [9.286756379947049, 47.367645144032224], [9.286788835501095, 47.36764089085131], [9.286803871817256, 47.36762617440146], [9.286888910165287, 47.36759547509897], [9.287112684626704, 47.367800863072766], [9.287010756197226, 47.36805967666048], [9.287312013704602, 47.36810090016537], [9.287559392941114, 47.36810680031172], [9.287901592629446, 47.368382998444964], [9.288427414560202, 47.36870863275487], [9.28883893566514, 47.36848357389774], [9.289050118056451, 47.368356549122375], [9.289371842811674, 47.36869001991907], [9.28948261903553, 47.368723196691676], [9.289569379603554, 47.368792025452436], [9.290497476849332, 47.369122386825445], [9.290131132789634, 47.36934064687026], [9.289931041430338, 47.36944538295476], [9.289454370231041, 47.369823862797745], [9.289331104527365, 47.36999585022475], [9.289970617032408, 47.37018801659348], [9.290368839930332, 47.3705196541381], [9.290609145190457, 47.37075843100033], [9.291293842339865, 47.370562823321], [9.291835012731097, 47.37044015847051], [9.292134122076792, 47.37038335645939], [9.292506540843341, 47.37030282205639], [9.292989497960573, 47.37024243555305], [9.293201548635764, 47.37001722278682], [9.293474372797146, 47.36977686374981], [9.293781583988787, 47.369965158520486], [9.293936964915964, 47.3699438493423], [9.293959377605427, 47.37011290603949], [9.293882211714761, 47.37034882498469], [9.293874039576123, 47.37058275367339], [9.293954567108916, 47.370677346238274], [9.294070878218328, 47.370661973990714], [9.294223221781559, 47.37065339032698], [9.29439397470396, 47.370652445776166], [9.29476523826178, 47.37066045912906], [9.29501746414261, 47.37067245434223], [9.295053729865447, 47.370796169897], [9.295030991001491, 47.37097789996541], [9.295084977660737, 47.37112864430271], [9.295215171579427, 47.37134492648801], [9.295347126152146, 47.371469136192545], [9.295317787791003, 47.37151881119995], [9.295143715068912, 47.3715594863578], [9.295041417163949, 47.37161446384893], [9.294977693149507, 47.371627499062264], [9.29483411189462, 47.37168657676156], [9.294760573967334, 47.37168553673427], [9.294687280240296, 47.37169796990203], [9.294608881655238, 47.37168285594704], [9.294540788759683, 47.37168225011372], [9.294450647377372, 47.371721629287464], [9.29432624067065, 47.37173502784363], [9.294131757767332, 47.37180116660679], [9.294108020782723, 47.3718413497548], [9.29398809042008, 47.371891274683634], [9.293890981746804, 47.371906680982725], [9.293852750218532, 47.37193642683693], [9.29380207249429, 47.372085309881605], [9.293681154925173, 47.37215369362453], [9.293620322903546, 47.37217374404575], [9.293480698038849, 47.37220198763449], [9.293482837257102, 47.372217787518764], [9.293623085089656, 47.37229682077642], [9.294057353676129, 47.37234835067773], [9.295247013451666, 47.37252778009918], [9.295691415702343, 47.372600157754775], [9.295983037293453, 47.372638319797964], [9.29651790374521, 47.37265506068698], [9.296670904853517, 47.37231498752424], [9.296873527311831, 47.37212078712658], [9.298268217202075, 47.372331263642124], [9.29866270812336, 47.37241015480573], [9.299000285934403, 47.37231439845906], [9.299280614775181, 47.37228630970428], [9.299582925417882, 47.372338531357535], [9.3001455472869, 47.37250463754926], [9.300361869125684, 47.37225901758047], [9.300590764617906, 47.371972690438035], [9.301191541313901, 47.37154107325884], [9.301038691230026, 47.37121769331344], [9.300911581766085, 47.37080472990901], [9.301181486717933, 47.370678756370964], [9.301892846883018, 47.37028710699798], [9.302103417263938, 47.37051555517844], [9.302203730937261, 47.37101072931213], [9.30198323350983, 47.37135925313556], [9.302016116131053, 47.37153871272096], [9.301927981836672, 47.371696635802756], [9.301824929981697, 47.37180292374826], [9.302012514335399, 47.37189728631155], [9.302234268780474, 47.372059823707126], [9.302367688043965, 47.372211352992416], [9.302819816662575, 47.372007479043376], [9.302820157866277, 47.37195364546285], [9.302807615333764, 47.371906308824286], [9.302839919604523, 47.371850006722994], [9.302960025161672, 47.371721310983304], [9.303021626131356, 47.371699506587596], [9.303276351611107, 47.37146373328323], [9.3033234113774, 47.37142984653593], [9.303290592216635, 47.371362063672294], [9.303247157857014, 47.371313372544115], [9.303247550546489, 47.371214103982936], [9.303259821032896, 47.37116738322344], [9.303313794268492, 47.37113615614686], [9.303322784289048, 47.371039231733604], [9.30339492023772, 47.3709737482658], [9.30340263795274, 47.37094262958009], [9.30341013261922, 47.37062171839811], [9.303451379911264, 47.37054852892696], [9.303505985828714, 47.3704253161749], [9.303620944208415, 47.37032865966817], [9.303770802418846, 47.37032558154672], [9.303837345972278, 47.37030164549938], [9.30388293475002, 47.3702734327139], [9.303923969024511, 47.370234659383264], [9.30400259682995, 47.37021848106141], [9.304024282277469, 47.370202395285666], [9.304166065505447, 47.37017861088498], [9.304185847184927, 47.37019175024682], [9.304288593730565, 47.37019457007611], [9.30433589569771, 47.37020092211703], [9.304556336312352, 47.37020341404687], [9.304611496622265, 47.37016303489172], [9.304714364145687, 47.36996929821293], [9.304741399446913, 47.36994413791345], [9.304755538531678, 47.369905061097484], [9.304798967145976, 47.36986057151844], [9.30479368651183, 47.369742321629545], [9.30478029513677, 47.36968969072533], [9.304803453376035, 47.3696317277898], [9.304844029007189, 47.36960750013292], [9.304890436995564, 47.36950970112879], [9.304935375984357, 47.36950229879936], [9.304918512977965, 47.36942240035295], [9.304934157847914, 47.36936167072526], [9.304927247180201, 47.369336780242634], [9.304941992599662, 47.3693006622634], [9.304938670503029, 47.36921111642046], [9.304976225768812, 47.369160028067654], [9.305020942206193, 47.36908087085612], [9.305063251027967, 47.369052071810216], [9.305112128025172, 47.36898432725057], [9.305134831562562, 47.36896179207293], [9.30521534815323, 47.368957251352654], [9.305330923723336, 47.36896230125558], [9.305369177017534, 47.36894211454572], [9.305406325476863, 47.36892856746787], [9.305593378328, 47.36893076043542], [9.305862968868015, 47.36886260008443], [9.30600583957863, 47.36884694577763], [9.306123349609061, 47.368825224117394], [9.306192849609042, 47.36877502185694], [9.306288890545202, 47.36877325177881], [9.306372566252447, 47.36875382317685], [9.306729629992406, 47.368592840917714], [9.306850046645906, 47.36862192216828], [9.306848910722682, 47.36866167030391], [9.307015124679692, 47.36868065343021], [9.307110405257692, 47.368663240769614], [9.307170133236145, 47.36870864344011], [9.307211763147375, 47.36871112752768], [9.307309787132123, 47.36864886513844], [9.307365642186081, 47.368657848063286], [9.307430782429794, 47.368683118031875], [9.307805481034864, 47.36867999834686], [9.308033275602694, 47.36856811052551], [9.308169343543145, 47.36854843503224], [9.308234936075094, 47.368513742508014], [9.308324392891796, 47.368528514843966], [9.308410112706648, 47.368527738246186], [9.308473283313516, 47.36854328698636], [9.30848264597875, 47.36855197008264], [9.308493311637099, 47.36857551304656], [9.308572593291194, 47.368611655533314], [9.30866688576112, 47.36861138744211], [9.30869818970091, 47.368564915617775], [9.308803717115431, 47.36845273382098], [9.307867547330234, 47.368065107824556], [9.30724189409701, 47.36783883591106], [9.306939209603874, 47.36769197653781], [9.306467677196327, 47.36718865964041], [9.3062589043179, 47.366799335476834], [9.306030992781519, 47.36661085058998], [9.306036844045718, 47.36646229059951], [9.306116443389, 47.366259753383446], [9.306389661145674, 47.36598709322432], [9.306675077615106, 47.36581204838996], [9.306944063441438, 47.365673768934975], [9.30708690978088, 47.365661416616206], [9.30747231675632, 47.36545627624959], [9.307681961160942, 47.365288168385014], [9.307974549869602, 47.36494031907195], [9.308243128270625, 47.36474081982158], [9.308410994095652, 47.36447547463774], [9.30836194358841, 47.36388852441869], [9.308258486590386, 47.36372585495183], [9.308025407001898, 47.36356804672982], [9.307601213801957, 47.363450642061615], [9.307384235740322, 47.36343245446275], [9.306299029290924, 47.36354248691997], [9.306183827581975, 47.36348731973244], [9.306091658821849, 47.363342756432885], [9.306435117628268, 47.36270504702384], [9.306402382410878, 47.36257160509106], [9.30630502393661, 47.36245726523413], [9.306026278066529, 47.36234757819296], [9.305361511140536, 47.36225941922671], [9.305177919043185, 47.362195460634545], [9.30486899660049, 47.362194167469816], [9.304313488771044, 47.362151442748875], [9.303083852436776, 47.36196659611904], [9.302717961663683, 47.36185914535125], [9.302459890872264, 47.36176748740516], [9.301624762765417, 47.361249742606354], [9.301469539924787, 47.36112666111412], [9.301216933568176, 47.3608214267756], [9.300779826497259, 47.360483415117955], [9.300390556775309, 47.36002884148714], [9.299898931675607, 47.35966035196892], [9.299555842373282, 47.35960689162414], [9.298248657799565, 47.359979949907185], [9.297941985388574, 47.359929298949424], [9.29753383959059, 47.35973901340893], [9.297343618977928, 47.35947990957747], [9.297243915659395, 47.35907929474682], [9.297241111817645, 47.35888765380813], [9.297633138726983, 47.358308963442695], [9.2979675974968, 47.357977945848056], [9.298018449518661, 47.35776532370573], [9.297757827072349, 47.357245952138925], [9.297388327673977, 47.356768405243], [9.297081940028903, 47.35628643132753], [9.297064941278736, 47.356027884540595], [9.297158397326852, 47.3557874691797], [9.297303458152985, 47.355574328782154], [9.297385845165264, 47.35550857578574], [9.297626758941332, 47.35538807030744], [9.297702883980357, 47.35505550042223], [9.297454165621204, 47.354458653500274], [9.297390756106246, 47.35414943725458], [9.297352584121146, 47.353841065180575], [9.297421321032816, 47.353277666037336], [9.297365748740045, 47.35298130589234], [9.29750083383107, 47.35266115551371], [9.298085765108986, 47.35253554835448], [9.298246758795594, 47.35247245994263], [9.298383808885468, 47.352299122940785], [9.298342178738432, 47.35202039704985], [9.297854229468795, 47.35137217377009], [9.297565602786387, 47.35090523613217], [9.296701718013733, 47.35007804314132], [9.296601245181403, 47.34935732301393], [9.29640729450268, 47.34873207957594], [9.296414741920646, 47.34829244639361], [9.296357744848791, 47.34801035040195], [9.296281401687311, 47.34783366689217], [9.296068171499416, 47.34788308229804], [9.295947631015329, 47.347875899649026], [9.295888677804362, 47.34788218358957], [9.295788038937971, 47.34791543604663], [9.295654082373616, 47.34792706567188], [9.295563913982518, 47.34792040171388], [9.295457235069682, 47.34789275245309], [9.295316536769782, 47.3478753941794], [9.29525825904354, 47.347848243695196], [9.295132318146326, 47.34781825932336], [9.295088491787515, 47.34779326935612], [9.295091703719983, 47.34776918704259], [9.295056250388892, 47.3477189252024], [9.294992550130159, 47.34767822255933], [9.294890699750452, 47.347654255975115], [9.29475706396477, 47.347615020138235], [9.294617005617253, 47.34759129903041], [9.294496235570666, 47.34758586386143], [9.294388485304466, 47.34762360206215], [9.294320511346951, 47.347624767129794], [9.294139497152523, 47.34761666573361], [9.294031667723903, 47.347575691629785], [9.293891028273928, 47.347550098488206], [9.293816778166136, 47.34757441421805], [9.293768344464524, 47.34756459456327], [9.293597295320787, 47.34741108718508], [9.293430258233938, 47.34733366458994], [9.293392667225142, 47.34732881670584], [9.293269870361911, 47.34735108728561], [9.293111020689162, 47.34738951953717], [9.293009448697905, 47.34739786363375], [9.292931595175476, 47.34739052266596], [9.292832507802121, 47.34738658166339], [9.292712574105828, 47.34736025868582], [9.292628655233834, 47.34736006861696], [9.292540422900979, 47.347330627078534], [9.292502539136887, 47.34729337707369], [9.29251237379055, 47.347218752226404], [9.292514904418725, 47.34713316989783], [9.292400064058334, 47.34705002167234], [9.292322844320479, 47.34701177528482], [9.292329598890513, 47.346964289561434], [9.292242920704984, 47.34688891213244], [9.292129082138155, 47.346879476439646], [9.29212593583679, 47.346819437402736], [9.292158537854926, 47.34679769031082], [9.292160971213361, 47.34674394029298], [9.29215055730149, 47.34670673499412], [9.29215431011337, 47.346668474189904], [9.29216115776912, 47.34665412218925], [9.29207103978587, 47.34664388292714], [9.292005728003009, 47.34665304718032], [9.291887738575074, 47.346616336804466], [9.291804714659815, 47.346571022039676], [9.291724191261839, 47.34651272051808], [9.291701609985765, 47.346455260574395], [9.291648764356628, 47.34639919571324], [9.291563354354352, 47.34632785589135], [9.291437776058332, 47.34626852326152], [9.29135044225623, 47.346177284298534], [9.291311043053645, 47.34612610363384], [9.291337002560777, 47.346072452158374], [9.291291820914964, 47.345993897421245], [9.29110282486506, 47.34589381896446], [9.291071817354844, 47.34587154577211], [9.290886657020382, 47.34580907497529], [9.290816804756169, 47.34578963847612], [9.290535023414503, 47.345749905514474], [9.290450579261112, 47.3457543375753], [9.290314388775482, 47.34574535788451], [9.290245421045379, 47.34575938397036], [9.290127226606804, 47.34579404692096], [9.289986620280745, 47.34581609577246], [9.289853882665385, 47.3458280228377], [9.289662670109733, 47.34582259741001], [9.289629551614627, 47.34578373155615], [9.289619158254343, 47.34573143777581], [9.289634000721312, 47.34560306704585], [9.289570676959816, 47.345505909549736], [9.289434459199397, 47.34543168435133], [9.289291442203575, 47.34536139172498], [9.289157351227075, 47.34531905273344], [9.289082256866271, 47.3452869867458], [9.28906398157985, 47.34522608455262], [9.288990656963009, 47.345184363531914], [9.288919985603433, 47.3451370676768], [9.288848226764683, 47.34510193410899], [9.288685794160365, 47.34507707094081], [9.288424189672487, 47.34499528384593], [9.28820532251486, 47.3448832113229], [9.287729628775507, 47.34466838586457], [9.287653999905569, 47.3445926294191], [9.287614984115555, 47.344518005180504], [9.287541599260532, 47.34442372477991], [9.287350686201217, 47.34441228070922], [9.287216216683056, 47.3444299094624], [9.287117861414647, 47.344420562939526], [9.28704088921207, 47.344402983562176], [9.286852152152175, 47.34430615991483], [9.286515951068449, 47.34403916550101], [9.286402148379327, 47.343942715532584], [9.286259256422289, 47.34387006900764], [9.28589638732088, 47.343845199442775], [9.285552815541436, 47.343859623971696], [9.28505219928798, 47.34381733416028], [9.284955481594505, 47.343830001787595], [9.284865188425416, 47.34385006992991], [9.284763880728208, 47.34388003072128], [9.284489941783104, 47.34392147103407], [9.284383086202004, 47.34394718383276], [9.283983946759854, 47.34394173687773], [9.283466031400138, 47.34390825486724], [9.283257632219819, 47.34387604913021], [9.283007830639777, 47.34380792348602], [9.282738215504809, 47.343779997036826], [9.28248378336608, 47.34373754034785], [9.282353750832181, 47.343701273643596], [9.282075633261773, 47.343544953014955], [9.281725760090412, 47.343430677333636], [9.281599179327724, 47.343419941601596], [9.281499724069661, 47.34339783242558], [9.281163555487396, 47.34330124889573], [9.281055333735832, 47.343233053642365], [9.280747913657715, 47.34313906887562], [9.280684164437654, 47.343132475262905], [9.280437690379928, 47.34312061135087], [9.280359416149878, 47.34310582857918], [9.280308199000292, 47.34304091521255], [9.280335979873186, 47.34293126854139], [9.280472800966946, 47.34281777636645], [9.280551396388633, 47.342738420577135], [9.280500920999629, 47.34265780525197], [9.280397454091556, 47.34262488204043], [9.280315868051508, 47.342625329533], [9.280260378273374, 47.34260875244683], [9.280178316749803, 47.34260693117622], [9.280103522355839, 47.34259668988942], [9.2800678940508, 47.34258798273523], [9.280049407633468, 47.34257776947711], [9.279959218944596, 47.342409618837195], [9.27988533621519, 47.34234719935731], [9.279619203264797, 47.34223164416332], [9.279537200252653, 47.34216633118397], [9.279521474207117, 47.34210495399248], [9.279487059839973, 47.34208577307509], [9.279468699993041, 47.34202401506088], [9.279460795796311, 47.34194536513492], [9.279501068818554, 47.34173747222722], [9.279488981661176, 47.34162354073164], [9.27950142920957, 47.341554705537035], [9.279473767398594, 47.341510666459314], [9.27941994296216, 47.34150854722031], [9.279339371607222, 47.341594303645444], [9.279225912392942, 47.34173269423489], [9.278813555930855, 47.34212034017099], [9.278734672204273, 47.34220979393196], [9.27877757849838, 47.34232314446515], [9.278712952357642, 47.342345947312765], [9.278656044624583, 47.34234348997235], [9.278536562646968, 47.34232932694506], [9.278288055505715, 47.3423136581342], [9.277675255755279, 47.34226555001418], [9.27737583513073, 47.342284959521926], [9.277034825686213, 47.34228016390777], [9.276933734936538, 47.34225810383314], [9.27687115490269, 47.342234701462125], [9.276693146787812, 47.342190690742335], [9.27634878799074, 47.3421804852104], [9.276212719931149, 47.34220005193523], [9.27596235751472, 47.34227107391074], [9.275751942205408, 47.34227567472254], [9.275489281163912, 47.342269060071935], [9.275392235457332, 47.34225181963922], [9.275181598705105, 47.34213433643005], [9.275014354286665, 47.342056917810915], [9.27490732610319, 47.34204881456933], [9.274788488392122, 47.34209788496044], [9.27461543218305, 47.34218914891433], [9.274410612096792, 47.3422547467531], [9.274350893589798, 47.3422659801579], [9.274285642838468, 47.342258390316005], [9.274140554516045, 47.342208210943646], [9.274017948788394, 47.3421840073534], [9.273688783044772, 47.34220909851215], [9.273579199702414, 47.3422217453371], [9.273454786864301, 47.342223480761554], [9.273157126938635, 47.34221022898123], [9.273058744500723, 47.34218450573926], [9.272883325489468, 47.34213062357933], [9.272809298325518, 47.34214723000765], [9.272722885697716, 47.342143556268304], [9.272598561363802, 47.34200433675343], [9.272499413357806, 47.34192362793649], [9.272312802764977, 47.34185525800197], [9.272288839531754, 47.34181851826195], [9.272234262884663, 47.341812997846056], [9.27214226362016, 47.34184160306514], [9.272072758561928, 47.341893485303274], [9.272033572980833, 47.341952559971446], [9.27189682116056, 47.342035793729366], [9.271754682209336, 47.34207399421898], [9.271568767474035, 47.34205934098886], [9.271179745906869, 47.34197924956308], [9.271051904875566, 47.34197480219091], [9.270983815060356, 47.342000885569846], [9.270907601199797, 47.34210330970681], [9.270920364051229, 47.34219275110728], [9.270938931288885, 47.342221929838544], [9.271026769374549, 47.34227747574229], [9.271043662986402, 47.342303405978434], [9.270936118140366, 47.342355360828925], [9.270775620574009, 47.342389371023295], [9.270341865064925, 47.34246391319086], [9.270223438255842, 47.34247269359656], [9.269974944112873, 47.3425459578875], [9.269818633968328, 47.342628303224174], [9.269569946837592, 47.34268288326879], [9.269350751257502, 47.34276179025014]]]]}}]}