{"type": "FeatureCollection", "features": [{"type": "Feature", "properties": {"bfs_nummer": 3033}, "geometry": {"type": "MultiPolygon", "coordinates": [[[[9.576626337568056, 47.46288798797844], [9.576545517954921, 47.46265180059905], [9.57682073610368, 47.46264188946504], [9.576784212650908, 47.46252245984865], [9.577549351917188, 47.46244421313493], [9.578065636952854, 47.46243991708934], [9.578434203413547, 47.46246826827774], [9.579681332459195, 47.46270288527702], [9.579691423836904, 47.462661886792304], [9.579833185953312, 47.46261871118156], [9.579930322752858, 47.462505507626354], [9.580378333690918, 47.462492605052226], [9.580402371948693, 47.46253472596515], [9.580561416746518, 47.46254184877603], [9.580626760308961, 47.462069424681125], [9.580752007351432, 47.462062913039354], [9.58099622919701, 47.4621653038426], [9.581030112205069, 47.46217547292504], [9.581115945761976, 47.46219278600621], [9.5812463472199, 47.46220852648623], [9.581409166071076, 47.46221056608665], [9.581436615405009, 47.46211999403717], [9.581303985553939, 47.462098005903684], [9.581218058407442, 47.46207770763819], [9.581133099961164, 47.46205444919421], [9.581041937523361, 47.46202308202365], [9.581097275784428, 47.46189825428766], [9.581316357922779, 47.46191539276177], [9.581313427823694, 47.46188382166594], [9.58136043649126, 47.4618819160306], [9.581351947712063, 47.4617815282782], [9.581417547897667, 47.46179290011709], [9.581477049133861, 47.46179482074093], [9.581675021624314, 47.46178360358013], [9.581913115635407, 47.4617441107077], [9.582833807893056, 47.461718145576135], [9.582914074907093, 47.4617102601682], [9.582973132131263, 47.46169689267857], [9.583015483660333, 47.46167984910925], [9.583046874486786, 47.46166012076848], [9.583148658536707, 47.461550490958025], [9.58311969583263, 47.46148103831171], [9.583071021075432, 47.461461022239035], [9.583039689623273, 47.46143812039601], [9.585327616838757, 47.460460972652314], [9.585505923779483, 47.460467217600446], [9.586164624774788, 47.460370021712365], [9.586663986774672, 47.46021528406001], [9.587389776870438, 47.460026845361085], [9.587511374054317, 47.459746927114985], [9.587457426055822, 47.459737924546225], [9.587631844220468, 47.459427060514834], [9.587974862169105, 47.45947161001739], [9.588157594833875, 47.45950701855716], [9.588580067318278, 47.459612287328724], [9.588785912060874, 47.459653617300724], [9.588855256273874, 47.45940774613428], [9.588773397720848, 47.45928524017456], [9.589112852501987, 47.45918667980553], [9.589081740486737, 47.45917186407053], [9.589021046637892, 47.459073437132496], [9.589212052584655, 47.4582246348778], [9.589193746591258, 47.45813279751935], [9.589094235866373, 47.45802418747266], [9.589075900463634, 47.45795655357211], [9.588981525296882, 47.45787585683642], [9.588952219061575, 47.45786368855672], [9.588855261347485, 47.45782345589152], [9.588740117175089, 47.45776881476952], [9.588702174728127, 47.45774483151192], [9.588662842338167, 47.4576999191434], [9.588646517421266, 47.45763277858694], [9.588714153567699, 47.45752491202591], [9.588746519603653, 47.457488068907246], [9.588731927283904, 47.457443119458844], [9.588689656457158, 47.45738622327358], [9.588587719624575, 47.457328133261676], [9.588548959595084, 47.45727504974882], [9.588555250093405, 47.45724655504273], [9.58863093250347, 47.45723866077602], [9.588723495492887, 47.45723879319408], [9.588825385588505, 47.457217293317385], [9.588858408124176, 47.457192098703146], [9.588885535183326, 47.4571628387572], [9.588898354377903, 47.45711503125478], [9.588883085784998, 47.45707895651282], [9.58885017952958, 47.456942610405775], [9.58884562140786, 47.45680524234537], [9.58889816096632, 47.456693165832206], [9.588989578025227, 47.45653599234964], [9.588990233942358, 47.45645605712574], [9.589005801292162, 47.45641879789533], [9.589018240461606, 47.45640328821754], [9.589147436249013, 47.456307124150804], [9.58915485049126, 47.45628804732658], [9.58915616229389, 47.456199706507576], [9.589141136302718, 47.456049566293494], [9.589169374717933, 47.4560537197871], [9.58923017155297, 47.45605372219614], [9.589229352219778, 47.45602952526735], [9.589291076278446, 47.455971081941094], [9.58935649283734, 47.45593637701333], [9.589396857331103, 47.45587592865807], [9.589404447794069, 47.45578937664797], [9.589415750907106, 47.45574116544847], [9.589405202431312, 47.45566696244799], [9.589267878600856, 47.455489857103764], [9.589271904144477, 47.4554463698649], [9.589283381249713, 47.45540902420511], [9.589285829223327, 47.45529141006019], [9.589247014037038, 47.45519002101102], [9.589174625996613, 47.4550670327016], [9.589190881414895, 47.45501039768848], [9.589189071289706, 47.45498235953209], [9.589110878594147, 47.454867045992316], [9.589040689199203, 47.45484075641334], [9.58877289040826, 47.454782134432584], [9.588656901766399, 47.45470938832805], [9.58859470318657, 47.45468189727635], [9.588591575938544, 47.454658679198815], [9.58852473254131, 47.45461471967387], [9.58852912924118, 47.454592216500416], [9.58851329250467, 47.45454205367773], [9.58845861155593, 47.454445205914276], [9.5883846212027, 47.45438753202678], [9.588326002821248, 47.45435178662806], [9.58825610604792, 47.45423521180862], [9.588210496632826, 47.45409003272879], [9.588166575383402, 47.453983015963246], [9.588179900451856, 47.453951007699594], [9.588195884987831, 47.45393655780403], [9.588141793803892, 47.45389137082316], [9.588172620878426, 47.45383388931702], [9.588193140845972, 47.45381186020655], [9.588235527562253, 47.45378209174775], [9.588254933369022, 47.45374299732098], [9.588151754394348, 47.45364577362415], [9.588127765711175, 47.45363875173656], [9.588120194162038, 47.453588588524454], [9.5880782117195, 47.45354792709446], [9.58811288365559, 47.45346182599527], [9.588134136154467, 47.45343166756253], [9.588104785757805, 47.45341439853704], [9.588071460732897, 47.45341235483566], [9.587970222209137, 47.453379875966114], [9.587948202201808, 47.45335754915227], [9.587957311389125, 47.453256313229886], [9.587932733665243, 47.453148983160794], [9.587957904044126, 47.4531061289915], [9.587920494733513, 47.45309295048106], [9.58787023163277, 47.45306433765327], [9.587819949286235, 47.452866134755375], [9.587680655029724, 47.45279426176316], [9.587645522501239, 47.452725464137934], [9.587570821221751, 47.452672769426094], [9.587230778388319, 47.45275323208065], [9.587172064612755, 47.45267696370173], [9.587086184829527, 47.45263716257161], [9.586993678217393, 47.45269795156853], [9.586860986596312, 47.45270343327655], [9.586976269109671, 47.45278482231992], [9.587048064205188, 47.45293376107508], [9.587162717745455, 47.45313357516846], [9.587234203249976, 47.45328893519036], [9.587230802544369, 47.45336369455199], [9.58713352551133, 47.453455215675405], [9.586863044446215, 47.45357498516628], [9.586509936372906, 47.45363637457651], [9.586093323445185, 47.453561283894466], [9.585918638785516, 47.45353839071729], [9.585784858773659, 47.45359687440508], [9.585486890427209, 47.453658199612754], [9.585424338937472, 47.45361300706495], [9.585123293366358, 47.45381194677667], [9.585188759853988, 47.45385310008189], [9.585276045967138, 47.453922827808434], [9.585603679250688, 47.45415210657205], [9.585489634098117, 47.45421611711979], [9.585493488993485, 47.45435010544659], [9.585682114638857, 47.45455699584064], [9.58578126753745, 47.45467682474637], [9.585433925315792, 47.45468701729679], [9.58539724844649, 47.45476663131729], [9.585434751601037, 47.45475647898821], [9.585646181856811, 47.45489301928413], [9.585695840964911, 47.45494741255817], [9.585782374255245, 47.4550204383468], [9.58585022052524, 47.45509389195728], [9.585613407799721, 47.45520434464926], [9.585515891266216, 47.455194099939256], [9.58531794618017, 47.455147840020274], [9.585171468274034, 47.455159017354774], [9.584831856641284, 47.45519350296996], [9.584263213898069, 47.455175049625645], [9.584209386251109, 47.455472526124176], [9.58398638072923, 47.455462079210925], [9.583919651609381, 47.455728484944544], [9.58384617630705, 47.455947988076915], [9.583574447531351, 47.45583529965895], [9.583005111996597, 47.455630986433974], [9.582754619180099, 47.45551223380022], [9.582548605348066, 47.45539212492888], [9.582337715469762, 47.455248425455046], [9.582260090079066, 47.4552774875068], [9.581878956552742, 47.45543707097356], [9.581724618098605, 47.455382250040145], [9.581771823264015, 47.45530801850616], [9.581482094384508, 47.45526137464936], [9.58143496774463, 47.4555582247604], [9.581310390108737, 47.4557466329146], [9.581257426909035, 47.455912813219605], [9.581148734461877, 47.45587807321276], [9.581021859429974, 47.45584377787767], [9.580641180821052, 47.45605945879331], [9.580561048010768, 47.45610902461603], [9.580784236735866, 47.45619184012085], [9.581092751861004, 47.45629146420817], [9.58100301046721, 47.456794877786045], [9.580328276405139, 47.45680967148376], [9.580053118109207, 47.45682031890606], [9.579834982981277, 47.45681992237289], [9.579805182250553, 47.45679440907589], [9.579770523170673, 47.45673948371656], [9.57970449746904, 47.45665573582264], [9.579637622066345, 47.45658679531862], [9.579583788403438, 47.45654689055438], [9.579355113446717, 47.45663984091144], [9.579127880287745, 47.45670766115058], [9.578978893667957, 47.45669090453321], [9.578800816416702, 47.45668276532084], [9.578270833772319, 47.45670296588808], [9.578119457691376, 47.45669376437785], [9.577843967945848, 47.4567004622651], [9.577784822477406, 47.457068842378206], [9.577073397786245, 47.457083144119764], [9.576243856373734, 47.45703515911312], [9.576129240436405, 47.45693155057743], [9.576162736798262, 47.456836809996105], [9.575650054242116, 47.45698886629119], [9.575514392030358, 47.45698117015407], [9.575430517062648, 47.456841684500084], [9.575263672526505, 47.45683116284208], [9.575170383672145, 47.45683870706842], [9.57504356328611, 47.456890624928505], [9.574822887213076, 47.45699609189242], [9.574802953413982, 47.45695260742586], [9.574769238800478, 47.45691842906569], [9.574790307899315, 47.456864317139036], [9.574771173830822, 47.45684272638306], [9.574760131054592, 47.456805915687326], [9.574733690975927, 47.4567929984382], [9.574738069760349, 47.456753707511496], [9.57471994561309, 47.45672554817121], [9.574662310947378, 47.45669792989329], [9.574648907551534, 47.45667666498604], [9.574613770788167, 47.456664223072046], [9.574610554995909, 47.45665483538133], [9.57457762159184, 47.456645726758644], [9.574493838401331, 47.45660254018647], [9.574418897684845, 47.45659191344457], [9.574395137118604, 47.45655850461472], [9.574390879045152, 47.45653603635559], [9.574328425449274, 47.4565271668786], [9.573956157044375, 47.45673694139489], [9.573453300411694, 47.456762412553125], [9.572933125227607, 47.456712353649664], [9.572915066320137, 47.45681079302663], [9.572479319138642, 47.45679190609815], [9.572170389001998, 47.45690619414047], [9.57178372727559, 47.45710005794082], [9.571908874717247, 47.45711287312973], [9.571976651919394, 47.457125811146], [9.572085129701934, 47.457133139570495], [9.572206618848456, 47.45716587010392], [9.572087345010095, 47.45728489482893], [9.571805260994898, 47.45751286643959], [9.57172491043949, 47.457583376289236], [9.571635948933418, 47.45755163756287], [9.571487772037187, 47.457788029256015], [9.571084040388097, 47.45742954793705], [9.570961066501832, 47.45734786233709], [9.570498654199803, 47.45728634486137], [9.569985313295104, 47.4572300917492], [9.569416775145305, 47.457153016761204], [9.569304271279101, 47.45745358164143], [9.567228539416018, 47.45723963490512], [9.566923381874982, 47.45719853760517], [9.566892357445656, 47.45709187954468], [9.566862133483477, 47.45704667598376], [9.56689337595802, 47.457014538685506], [9.566927293145572, 47.456996199129264], [9.566941051939638, 47.456961099620955], [9.566494767022617, 47.4569234722705], [9.565962026275852, 47.45682641378139], [9.565349764211284, 47.45676400619034], [9.564808277360276, 47.45671820731139], [9.564865483507106, 47.4564909207273], [9.564699313947278, 47.456469629358146], [9.564750104204434, 47.4562500990585], [9.564259199378988, 47.45617159895968], [9.562704506927401, 47.45601340184037], [9.562605941976411, 47.456360922354136], [9.562182138351206, 47.45632896514139], [9.561879552453588, 47.45633710326604], [9.56186091961994, 47.45621294986324], [9.56170446642482, 47.456205385203724], [9.561459935318297, 47.45625815328274], [9.561335195383116, 47.45633556111935], [9.561208479650881, 47.45648746651731], [9.561223173741695, 47.45660138996926], [9.561289656407236, 47.45666342016558], [9.561688589936082, 47.456921793250956], [9.561246014432822, 47.456912552011175], [9.561173484295033, 47.456949673442175], [9.561107984311393, 47.45699007690085], [9.561219371297632, 47.45709429019981], [9.561168889948426, 47.45737417413898], [9.56103094736404, 47.457339862303215], [9.560931348680443, 47.45747560460648], [9.56112838917625, 47.457589653776466], [9.560985110961964, 47.45786487201453], [9.561180305940809, 47.45817196587603], [9.560827744595985, 47.4580822804014], [9.56045819094655, 47.45814255011011], [9.560375429483235, 47.4580169828201], [9.560308952923396, 47.45788759014908], [9.560136222569898, 47.457620330067265], [9.559941877214627, 47.45765732877724], [9.55940774348659, 47.45781304196016], [9.559670361002885, 47.457837051689204], [9.559974552474873, 47.457991064461375], [9.559997581907364, 47.45802798025357], [9.560063956165772, 47.45811089598307], [9.560201037181871, 47.45827392984811], [9.560340082327185, 47.458469867361465], [9.56044797768284, 47.458734952928886], [9.5604959685238, 47.45878267537253], [9.56055428170334, 47.458801822097506], [9.560698943667164, 47.45889840675286], [9.560764957100718, 47.45900647593036], [9.560857925997892, 47.45912280460626], [9.560888790032564, 47.45921240856202], [9.560950982833061, 47.45924964034732], [9.561157930660185, 47.45929397659618], [9.561176403619726, 47.45937359566944], [9.561320881902363, 47.45951869629801], [9.561394227530148, 47.45965852561753], [9.56153935101835, 47.45977188989369], [9.56154497550209, 47.45992877071846], [9.561520655727172, 47.46017403264579], [9.561508573223541, 47.46025090222461], [9.56140142060007, 47.46033673280263], [9.56123664787506, 47.46037364966844], [9.561131141421178, 47.46046251777814], [9.561072019905152, 47.460519916716095], [9.561060524533374, 47.460556665437934], [9.561039147288062, 47.460674264467514], [9.561069359518779, 47.460815668177], [9.561048868819118, 47.460894293593405], [9.561098279659015, 47.46108957209184], [9.561110728770435, 47.46110066214059], [9.56110466217983, 47.461192005428806], [9.561054185492, 47.461322105461115], [9.561097676753313, 47.46139330336166], [9.561241135661158, 47.46153598518644], [9.561331807306766, 47.461651123231626], [9.561349527360576, 47.461688235563074], [9.56132181038833, 47.46176497800243], [9.56126837164186, 47.46186274243942], [9.561240369359997, 47.461889789195666], [9.561190780642322, 47.46199194559273], [9.561164285679592, 47.46211095276648], [9.561178323535684, 47.4622153693196], [9.561181000725146, 47.46231270654064], [9.56119149828684, 47.46236630855083], [9.561204255807056, 47.46240905430089], [9.56125000637573, 47.46246968387081], [9.561339318933568, 47.46254241585937], [9.561717821103192, 47.46274747011184], [9.561942807333013, 47.46287538307061], [9.561990120551487, 47.46289769133502], [9.562055580734432, 47.46291427707505], [9.562089668412284, 47.46288245817221], [9.562260497035723, 47.462925270154], [9.562482313449602, 47.46294384289385], [9.563041653711542, 47.46298070584616], [9.563374666952335, 47.46305181111938], [9.563431982888522, 47.46294986316749], [9.563720868314757, 47.46300567323832], [9.564061699440094, 47.46313693227188], [9.56435315907808, 47.46315188165463], [9.56446219830731, 47.463214459974694], [9.564713286532125, 47.4632539847391], [9.565623430620418, 47.463333132360404], [9.565978837275637, 47.46335759064238], [9.566597420009431, 47.463416559615865], [9.566583992728836, 47.463506752005735], [9.568081688174635, 47.46352530377919], [9.56993951138906, 47.46340161827773], [9.570150269942198, 47.46351028991456], [9.570354058433004, 47.463504284708556], [9.570503255347383, 47.46349243842215], [9.570759501544194, 47.46344997986309], [9.570986727553668, 47.46338955753765], [9.571500873965851, 47.463214589453266], [9.571552169814849, 47.46328382232938], [9.57169403748291, 47.46323381708712], [9.571765538669966, 47.463203446027094], [9.57183405314634, 47.46317006193662], [9.572244703950696, 47.46293710435928], [9.572543432628494, 47.46319042442657], [9.572784492889335, 47.463127673641075], [9.572771022555987, 47.46310443042304], [9.574212902257948, 47.46273088797042], [9.574372475307893, 47.4629167308551], [9.57447875108177, 47.462882782964385], [9.57447854337886, 47.46286175118265], [9.575597562514485, 47.462810965514855], [9.576626337568056, 47.46288798797844]]], [[[9.526348067483733, 47.4599070481875], [9.526063425371872, 47.46024432473592], [9.525955317934404, 47.46042752707486], [9.52637151214529, 47.46059705961691], [9.526359484127989, 47.460645852492874], [9.526041109543275, 47.460780708790615], [9.525640754411926, 47.46136793286364], [9.525736184220968, 47.46134904366365], [9.52576084868765, 47.461375787962396], [9.525900612820061, 47.461565057554935], [9.525892072061724, 47.4616286955676], [9.525920900427264, 47.4616793871366], [9.526054399486265, 47.461705273142954], [9.526235546788985, 47.46185740180699], [9.526284425985077, 47.46193658528096], [9.526277331021497, 47.4620015558555], [9.526659903803079, 47.4622855631429], [9.52681010116449, 47.46219434607066], [9.52694329451372, 47.462353304546426], [9.527114026683362, 47.462515777581615], [9.527373450130808, 47.462725862940864], [9.527480062053167, 47.46287239043909], [9.527493482896016, 47.46291244633646], [9.527431929819851, 47.46298863043459], [9.527503872226664, 47.463004695460015], [9.527511867666911, 47.46308395993557], [9.527555988569958, 47.46316285078227], [9.528069251856932, 47.46380293926709], [9.52816744088696, 47.46391091265322], [9.528334731421099, 47.46403789875838], [9.528402388577998, 47.46408127506313], [9.528730607751903, 47.464249924260656], [9.528682783818137, 47.4642905829702], [9.528844601405911, 47.464370414088506], [9.52996340011696, 47.46496987491176], [9.530003352495573, 47.46501348137713], [9.530000979856052, 47.465062801667884], [9.529971142441372, 47.465109073755556], [9.529519161545709, 47.46497509094777], [9.529532299353091, 47.46524987806262], [9.529324675362806, 47.46528104555466], [9.529336122392744, 47.46533361602262], [9.529959435594042, 47.4654048860772], [9.530559158596198, 47.46543565936775], [9.53109006532677, 47.46562803195569], [9.53097396330369, 47.46571383317797], [9.530342930046928, 47.466253729817296], [9.532489137288689, 47.467837384988904], [9.533359930909292, 47.46794405086986], [9.534038617973621, 47.467954896970554], [9.53744118303618, 47.46846607619696], [9.537602084037092, 47.46845275569812], [9.537856305803427, 47.468349748710274], [9.538003941331844, 47.46832812951514], [9.5383697427402, 47.46833245665393], [9.538727681591702, 47.4681927730827], [9.538966463196495, 47.46803385662342], [9.539018961313687, 47.46806934113494], [9.539179685932547, 47.46793065512375], [9.539319699691847, 47.46802351610479], [9.539527788671627, 47.468247465247956], [9.541026052564463, 47.4686604843968], [9.542011000653321, 47.468686896650574], [9.542401205253809, 47.469037364603345], [9.542862427788156, 47.4690406876596], [9.543309369708416, 47.468893710360405], [9.543444458336504, 47.468730401107], [9.543362424683332, 47.46841273741385], [9.544104381026884, 47.467813785970094], [9.54427057310796, 47.46768653609907], [9.544361632153484, 47.46748440271655], [9.544432896003928, 47.46728299812713], [9.54472706272532, 47.467305613499626], [9.545594246163876, 47.46729258808713], [9.546154694138645, 47.46742528721043], [9.546263140858827, 47.467328325895686], [9.546386783027001, 47.46736834149649], [9.546818463305126, 47.46749733871718], [9.54686812446155, 47.467442745729834], [9.547202444295383, 47.466995032980286], [9.547058662731528, 47.466916247175455], [9.546775322668777, 47.466870164902815], [9.546558716068132, 47.46678276413131], [9.5467150832893, 47.466649929606795], [9.546471122273704, 47.46650604791251], [9.546754882575858, 47.46619898995375], [9.54688262565338, 47.46611062722132], [9.54690942109388, 47.46605826078544], [9.546691575804367, 47.46590102897711], [9.547142683083836, 47.46560954708151], [9.547321095017562, 47.46543719806412], [9.547151279186503, 47.46535187863935], [9.547099161033227, 47.46530632219413], [9.547054003925508, 47.46511772775149], [9.547016769952581, 47.465093853317875], [9.546928624434408, 47.46498891529929], [9.546826651140076, 47.46472759657184], [9.546718363044302, 47.46458074730832], [9.546548952349037, 47.46447844185304], [9.546424005501178, 47.46444249906324], [9.546249040629009, 47.464272329449656], [9.546032636958206, 47.46421352656353], [9.545858093988443, 47.464207314187334], [9.545726717862129, 47.46422439150911], [9.545453094242031, 47.464262441575315], [9.545235004692925, 47.464383792426204], [9.544978154689984, 47.46446115041928], [9.544428806682221, 47.46442799535992], [9.543658999657772, 47.464300880066496], [9.543473040351383, 47.464282104859244], [9.543278457993722, 47.46430190439461], [9.542987609093375, 47.46434224193561], [9.542774726567503, 47.46430625898408], [9.542692508742862, 47.46418523986057], [9.542715305189013, 47.464145057750294], [9.542807275691983, 47.464044775031624], [9.542811105204553, 47.46390816393635], [9.542615413745905, 47.46381673181011], [9.542146264674816, 47.46371149669526], [9.541898668585407, 47.46359278329086], [9.541650790510209, 47.46348200998476], [9.541567290697568, 47.46342711605655], [9.541483397951433, 47.46332537163807], [9.541312227134892, 47.46329429458293], [9.54119391352279, 47.46333535885814], [9.540836878441901, 47.46338646723342], [9.540576444070824, 47.46339666243596], [9.540337020882397, 47.46338727518068], [9.54013772322649, 47.463364571499405], [9.539946154749028, 47.46333299062503], [9.539690620784226, 47.463306008962135], [9.539535522539225, 47.46330359052139], [9.539329260370112, 47.463236889637116], [9.539221314767655, 47.463150498056116], [9.539219941313311, 47.46305760896807], [9.539246037681108, 47.462942042799504], [9.539252038642072, 47.462849433690344], [9.53926655892252, 47.46274041179543], [9.539165044810886, 47.46269523629259], [9.53887760985553, 47.46265960973277], [9.538654915659887, 47.46259936021951], [9.538470884346793, 47.46252975267605], [9.538257112304803, 47.46235638953356], [9.538135055767325, 47.462238115078236], [9.538030538268746, 47.462110075181805], [9.537865372802049, 47.46208678401979], [9.537749597021637, 47.46196996038621], [9.537681187426703, 47.461791672134645], [9.537477861547362, 47.46153627019287], [9.5373481116969, 47.46144147342852], [9.537310348697277, 47.46138888636219], [9.537268230088308, 47.461365781226476], [9.536979552079222, 47.46139224450553], [9.536872051800215, 47.46142960805932], [9.536828543061297, 47.4614751766327], [9.536673067159327, 47.46155720915045], [9.536481554282478, 47.461598795820635], [9.53615847733289, 47.461643866116674], [9.536041641893247, 47.461615772749454], [9.536025338276069, 47.461608744738264], [9.535916223353306, 47.46158668324645], [9.535849526880606, 47.4616074527606], [9.535763374039528, 47.461588006678134], [9.535562756406673, 47.46155446893233], [9.535214899588984, 47.461416874793876], [9.534472446242793, 47.462099941342615], [9.534219291482312, 47.462311205432734], [9.534492484122556, 47.46242694207178], [9.533917005374109, 47.463044907684086], [9.533318631397389, 47.46282847956158], [9.533069834030297, 47.462573559485406], [9.5329859592842, 47.462635531860116], [9.532850953162413, 47.46272379352533], [9.531932319218337, 47.46224314196905], [9.532382195503287, 47.46193902899234], [9.532175225138541, 47.461721875873145], [9.531708521443548, 47.462086844716495], [9.531228286388947, 47.46180778772699], [9.531254607002698, 47.46178046317556], [9.531039243523518, 47.46167454969615], [9.53045136442044, 47.46140177496624], [9.530427889844443, 47.46142455827481], [9.530144625981302, 47.46130066261334], [9.5299358652569, 47.46155616453418], [9.529614236981702, 47.46138949555918], [9.528772941324055, 47.46106392837935], [9.528572967702658, 47.46096660331662], [9.528392856489447, 47.46083893108658], [9.527881711171647, 47.460610164162475], [9.527281212239464, 47.46038828209179], [9.527057308379165, 47.46033547346039], [9.527171742442043, 47.46024454853955], [9.526875525982295, 47.460121877260825], [9.52683778283725, 47.46015396856911], [9.526348067483733, 47.4599070481875]]]]}}]}