{"type": "FeatureCollection", "features": [{"type": "Feature", "properties": {"bfs_nummer": 311}, "geometry": {"type": "MultiPolygon", "coordinates": [[[[7.402405574440781, 47.02049660863998], [7.401471050443111, 47.02056286552239], [7.401183410212227, 47.020554755045936], [7.400291596088948, 47.02023878094508], [7.399354921056943, 47.02014159756988], [7.398732321215535, 47.02005642841555], [7.397246967998222, 47.01966877909914], [7.39600053680671, 47.01951667405979], [7.394563057171948, 47.0192988079544], [7.39221503753781, 47.01883936563235], [7.390702503710471, 47.01958650819022], [7.389723520781809, 47.020207789091835], [7.3896934452587, 47.02024426896701], [7.389291116448109, 47.020653908022304], [7.388712728777015, 47.02128087750768], [7.38851885223393, 47.02148407008456], [7.38852842650259, 47.021665189924], [7.3884649067790065, 47.02181880601607], [7.388362769528377, 47.02195696913534], [7.3879110227097025, 47.02236969301243], [7.386565672068722, 47.02196520898855], [7.386264533513849, 47.02186113028874], [7.38619124930637, 47.021880408264934], [7.3859854116064145, 47.02185309309278], [7.3859571688969075, 47.02185530164049], [7.385897139165088, 47.02189200930774], [7.385880717500562, 47.021937516582], [7.385760844619345, 47.02198151747204], [7.385689447004853, 47.0220602623188], [7.385705186660346, 47.02209139243232], [7.385695530260894, 47.022132288307795], [7.385652090978876, 47.02215158917229], [7.3855736879257945, 47.02214633496195], [7.385493373590944, 47.02217117728035], [7.385441762970885, 47.022141244294296], [7.385404958234249, 47.022155322047176], [7.385374903389684, 47.022206309694944], [7.385283596524389, 47.022240231766624], [7.384278113254212, 47.02236589645399], [7.383913811551213, 47.02217561838409], [7.383477270413546, 47.02208917929806], [7.383210882521962, 47.0219792189585], [7.382891925557177, 47.0215799522382], [7.382522602646337, 47.02140880917363], [7.3823591007022955, 47.021328015156556], [7.3820608633442175, 47.021130415117355], [7.381229989210875, 47.02110180602643], [7.380899896768793, 47.02113563858134], [7.38044534226296, 47.02117461490648], [7.379852165671021, 47.02115335825438], [7.379104342787728, 47.02118216490579], [7.378640865922314, 47.02104984532889], [7.377995305003943, 47.02094568855995], [7.377699124169641, 47.02103369889936], [7.377206198947627, 47.02109640683016], [7.376928354096686, 47.02124990019844], [7.376634134214613, 47.02124443224252], [7.376705162614404, 47.02116553066009], [7.376372587693586, 47.02096022568536], [7.3759990089040794, 47.020761679427196], [7.375821937997212, 47.02067558869403], [7.375615348178725, 47.020559428418785], [7.375366070114074, 47.02038349876625], [7.375306844625941, 47.02027126108814], [7.375221701961845, 47.020175038240325], [7.374546507486388, 47.01934771489142], [7.37437870793107, 47.019451979933955], [7.374151858188745, 47.019561284234676], [7.3741195444103305, 47.01952661686037], [7.3738984601571005, 47.019653122678655], [7.3736062800308595, 47.0197395233962], [7.373334031229812, 47.01974713851007], [7.372977039023912, 47.019351698413764], [7.37277286009026, 47.01916776598956], [7.372538116678902, 47.01909801553768], [7.372258963800988, 47.01907576043863], [7.371729738752688, 47.01907324504297], [7.371402961620269, 47.01903939186085], [7.371101741831057, 47.01895309365837], [7.370385968829813, 47.01858661928878], [7.369477678477309, 47.01820986735574], [7.368772921453664, 47.01815259505057], [7.368755466882141, 47.017934327913075], [7.367953845269002, 47.01774962035904], [7.367085075322445, 47.01739797966701], [7.3660104272283, 47.01725984214442], [7.365117130482079, 47.01722461722852], [7.364717383607516, 47.01719302759902], [7.364357485766836, 47.01717253490407], [7.363900002218219, 47.01714941375886], [7.363179463056328, 47.01717951073671], [7.362297851539553, 47.01720612152827], [7.361448980766086, 47.01712966434668], [7.360651427588596, 47.01704771327968], [7.36017879403405, 47.01704299736072], [7.359749349502655, 47.01668780939601], [7.3591327109131806, 47.016143853560926], [7.359057996448022, 47.01617725371791], [7.358020640599429, 47.01656569171464], [7.357675955670686, 47.01669019858916], [7.356973810756431, 47.01694738557919], [7.355908412275542, 47.017317839279606], [7.355552897949044, 47.01747288812067], [7.355338379121332, 47.017617380502756], [7.3548823570340955, 47.0179431884342], [7.354517224739275, 47.01827040232687], [7.3540381461312005, 47.018944119055924], [7.353545075273391, 47.0196497646265], [7.353381167802383, 47.0198026658094], [7.353196455772638, 47.019928250885634], [7.352940342634996, 47.02006541224604], [7.352644913714093, 47.02019438456972], [7.351517678821155, 47.020629271368996], [7.351571697105074, 47.02069447311472], [7.350411101473715, 47.02114424696322], [7.349396349065693, 47.0215446968092], [7.347336779656546, 47.02234604646697], [7.345897089779537, 47.02291929277186], [7.345837443231121, 47.02294614817738], [7.345700105641157, 47.02305096309355], [7.345353398478466, 47.023425349822716], [7.343416591950437, 47.02561567790709], [7.343275984248411, 47.025740465393746], [7.342980667243955, 47.02590850544538], [7.342763441252141, 47.02599943315501], [7.342467170109879, 47.02608253079805], [7.342244730105303, 47.02612451098159], [7.341985632876085, 47.02615661891358], [7.341509635981592, 47.026207106587314], [7.341663947687428, 47.02700772325852], [7.341647653528389, 47.02704841188924], [7.340262448759624, 47.027778545944635], [7.340371732604743, 47.02784636407745], [7.340519590881305, 47.027947685958914], [7.340654021972165, 47.028054267234495], [7.34079715545565, 47.02818593404106], [7.340881808971589, 47.0282854111176], [7.34096110886359, 47.028406237752414], [7.3410016535719045, 47.02849878659785], [7.341030216883804, 47.02861129414686], [7.34104401299064, 47.02874204892958], [7.341037692373469, 47.02887415363675], [7.3409908200354534, 47.0293534139284], [7.3409790425946575, 47.029619800819226], [7.3409535828563035, 47.029714928400715], [7.340822535816958, 47.030075165833296], [7.340640598443815, 47.03023014602591], [7.340428293993111, 47.03018068780545], [7.340009851093556, 47.030041945277624], [7.339647325604604, 47.02989370630383], [7.339285007803294, 47.029727089878556], [7.338815531495302, 47.0294821667123], [7.338103082886929, 47.029187381978595], [7.3376401222727035, 47.028931412463415], [7.337050415604692, 47.02913544832706], [7.3366919907580925, 47.029270159127954], [7.336467068894473, 47.02939553480991], [7.336101069385225, 47.02960881744977], [7.3356925105395625, 47.029889307438744], [7.335112134855827, 47.030305374120545], [7.334962180654514, 47.030403309896904], [7.334393912699091, 47.03061677914904], [7.3341698375340405, 47.03040717797182], [7.333627796572503, 47.03056918189935], [7.333942861733674, 47.03101547326394], [7.3345724252847795, 47.03155411614193], [7.334875037844301, 47.03201760957553], [7.335098915843965, 47.03244099365285], [7.3353266771201415, 47.03238502664743], [7.3354385934748825, 47.03256200625555], [7.335524967992653, 47.032823750075195], [7.335426483989234, 47.03318729275894], [7.335586625618592, 47.033578460904124], [7.335603689420094, 47.033869834003134], [7.3354980784699375, 47.034244362558944], [7.3356725445961, 47.03421147251617], [7.3357836047844955, 47.03458159195483], [7.335686116322935, 47.03472312146323], [7.33535926681981, 47.03494588324236], [7.334965160014512, 47.0352615461545], [7.334643273469728, 47.035171456635624], [7.334022374569907, 47.03517483643145], [7.333582285021544, 47.03519963431742], [7.3330913038832835, 47.035390061836814], [7.3328380414779035, 47.03571699256216], [7.332600268364417, 47.03559949399754], [7.33222284847624, 47.035128315323036], [7.331959997135854, 47.03478436023961], [7.3315395709501425, 47.034663098490206], [7.331312205531019, 47.03456841836216], [7.330562217166557, 47.03440536596228], [7.32998598860974, 47.034320650010514], [7.329710389840524, 47.0342286817475], [7.328933322673173, 47.03392483772767], [7.327843269382606, 47.03359233280173], [7.327603635016964, 47.033468669426405], [7.327156667915104, 47.03315873126936], [7.326716289390742, 47.03300849514901], [7.326451942863394, 47.03334395484653], [7.326336829159881, 47.033708866971345], [7.325850047757064, 47.03425804380643], [7.325694089466777, 47.03449360348929], [7.32591940610872, 47.03474919580186], [7.326088604823325, 47.035088565324116], [7.32581500139279, 47.03561333349231], [7.32578364475337, 47.03607335241023], [7.326021532327514, 47.03619915885622], [7.326181833267675, 47.036256993775375], [7.326250571365457, 47.0363598836653], [7.326370140060606, 47.0364295784633], [7.3264409791453105, 47.03649113830331], [7.326470995555437, 47.03648871230515], [7.326491341732824, 47.03644875842921], [7.326543715730385, 47.03642581877328], [7.326623896848435, 47.03645598596685], [7.326693016874259, 47.03654055328878], [7.326740573265938, 47.036556134588075], [7.326827293292832, 47.0365490327458], [7.32703448964581, 47.03664986358067], [7.327101005100866, 47.03666568819134], [7.327156168919752, 47.03664247212627], [7.327207115537004, 47.036666421732065], [7.3272614368418845, 47.036706188028], [7.327326224371847, 47.0367241335912], [7.327362655184655, 47.036749877075955], [7.327405121745298, 47.03676467950076], [7.327423939204803, 47.03678848069069], [7.327401836235637, 47.03683204014574], [7.327408842456812, 47.036872875434604], [7.327483151977623, 47.036892764180756], [7.327482951006507, 47.03683157974639], [7.327510118910024, 47.036832343879006], [7.327531122942377, 47.03682354024039], [7.327588779355462, 47.036791178404435], [7.3276632812652185, 47.03682599889924], [7.327669067151726, 47.03689054383527], [7.327741544326904, 47.036956287258796], [7.327774057584549, 47.03700585463435], [7.327806275984309, 47.03698867867069], [7.32785967549263, 47.037003923247745], [7.327882386315173, 47.03707888277934], [7.32789626585711, 47.037174207628944], [7.327878620648687, 47.037244306740064], [7.327893995082066, 47.0372536945601], [7.32800614885439, 47.0372593536443], [7.328087818266578, 47.03728983624117], [7.328221279465393, 47.03730539233653], [7.32830702002111, 47.037403053778505], [7.328337382706981, 47.037411448518746], [7.328413053239625, 47.0374607606807], [7.328496563299538, 47.03748585685814], [7.328596230424568, 47.03756183539761], [7.328650703915007, 47.037579851144265], [7.32930153746499, 47.03806916074461], [7.329062742929632, 47.03813304776413], [7.3287629748936585, 47.0384018924131], [7.329114946213344, 47.038608991720274], [7.3290204568524295, 47.03886649156219], [7.329046127954334, 47.03889173833187], [7.329176970355818, 47.039050068835174], [7.329267524945892, 47.03914433395724], [7.3293751358845665, 47.03923045692837], [7.330049699939109, 47.0397102505461], [7.330502989426136, 47.04022025082851], [7.330979958776212, 47.04091159180002], [7.331065089261221, 47.040945367552865], [7.3310931418670515, 47.04098464836261], [7.331183983550429, 47.040946739228595], [7.33116116128665, 47.04101479211982], [7.331242504468195, 47.041210330749294], [7.331415388522353, 47.04146542174758], [7.331730786833332, 47.04167092210685], [7.332619486113021, 47.042231964195665], [7.332792514888297, 47.04233360732393], [7.33307497361897, 47.042082710659216], [7.333405055049521, 47.04230043428788], [7.333621342276391, 47.04238626663271], [7.333898754633267, 47.04241053010591], [7.334239690782336, 47.04242447133437], [7.33482942463368, 47.04221765676088], [7.3350238837717034, 47.04211442636141], [7.335105810465391, 47.042160510505916], [7.335126434955422, 47.04217809656331], [7.335164849087086, 47.04222299867413], [7.335187435584195, 47.04229391796402], [7.335405513330446, 47.042455216953314], [7.3355704837918925, 47.04253552128029], [7.335746203100675, 47.04256942980706], [7.335774712409871, 47.04259932808526], [7.336073593108697, 47.04269615967161], [7.336188061565017, 47.04274289307671], [7.3362425377522715, 47.04280451308544], [7.33627578482122, 47.04284792601461], [7.336305554893162, 47.042913463542085], [7.336405827490621, 47.04300033770513], [7.336483997456229, 47.04307849374843], [7.336727272536015, 47.04314154238421], [7.336912520845833, 47.04316201905614], [7.3370050929298545, 47.043182304678496], [7.337243045786686, 47.04331111000351], [7.337365656144721, 47.043353936674315], [7.337415759637018, 47.04340487512087], [7.337522313122908, 47.043470255757356], [7.3376373725724156, 47.04349149644893], [7.337628522169417, 47.043523186967704], [7.337625720076709, 47.043605794727405], [7.337537639900896, 47.04366538927505], [7.337515160972555, 47.043750255382044], [7.337576080572613, 47.0437671302003], [7.337544777854282, 47.04393871823304], [7.337561447240074, 47.0440162700786], [7.337652176876417, 47.044058312467286], [7.337700568114399, 47.0440552162049], [7.337983540499633, 47.044053632209966], [7.338124309923945, 47.0440700108238], [7.338280163510059, 47.044133005718805], [7.338365998398134, 47.04427277406429], [7.3383792699714965, 47.04432462403583], [7.338497996910825, 47.044411809462375], [7.338558154885166, 47.04442841327038], [7.338632446242893, 47.0444237382162], [7.338761529930025, 47.044447985314164], [7.339007590999673, 47.04452471282027], [7.339068613854182, 47.04455744523351], [7.339238906178334, 47.044725486350025], [7.339414499908349, 47.044852757361866], [7.339570471963904, 47.0448754619218], [7.339622052937049, 47.04489104123215], [7.339662348552062, 47.044939163696256], [7.339693119176149, 47.04509906789283], [7.339772895943137, 47.04518078531127], [7.339764417946554, 47.045210857132204], [7.339714050677479, 47.04524283548888], [7.339603749295129, 47.04524357664631], [7.339491971925993, 47.04535116826284], [7.339503912270573, 47.04542599911194], [7.339574519647971, 47.04546388434415], [7.339680896334432, 47.045443818161395], [7.339785672970605, 47.04546364451889], [7.339833050764103, 47.04555316817294], [7.3396370011065795, 47.04577318623643], [7.339749530273423, 47.04587012459211], [7.33981107884159, 47.0459536967361], [7.339957982548842, 47.04607108347666], [7.339950834959507, 47.04612877122973], [7.339748751800606, 47.04621726833985], [7.339744022913606, 47.04626920143615], [7.339901677406277, 47.04640848248591], [7.339936958477781, 47.04647192800139], [7.339987875650768, 47.046512791617054], [7.340085521523452, 47.046440655210105], [7.3401958971617045, 47.04647240430533], [7.340210177893937, 47.04651355991007], [7.340080495560776, 47.04663853207266], [7.340113860165297, 47.0466924681019], [7.340351257849587, 47.046714243708195], [7.340395000673767, 47.04676377206477], [7.340375419304623, 47.04682776382978], [7.340558559137139, 47.04688589471185], [7.340617204585211, 47.046953776698466], [7.340711708220777, 47.04701559991867], [7.340848100309723, 47.0470554573818], [7.340902332965327, 47.04714026402713], [7.341029312451556, 47.0472537823207], [7.341155092506565, 47.04727548734207], [7.3412548204290715, 47.04733086519982], [7.341270862475616, 47.04737372221737], [7.3422186899367, 47.04688580419185], [7.342294890346155, 47.04675236607936], [7.3421935815926345, 47.046516934678536], [7.341832610495136, 47.046079721478215], [7.342057255619958, 47.04601484434223], [7.342744484379978, 47.04599002479356], [7.3430114977907985, 47.046028631562336], [7.3434308330996485, 47.0461247706546], [7.34485588468672, 47.04608480326692], [7.345628431284259, 47.04608629232387], [7.346128084098884, 47.046061720745236], [7.346451300980954, 47.0459658628097], [7.346496363989055, 47.045947684499254], [7.3467087093517325, 47.04628562714896], [7.347053168559663, 47.04626441632245], [7.347590017715693, 47.04625914523739], [7.349412573281479, 47.04626839923935], [7.349412971681205, 47.04631314968961], [7.349675870043953, 47.04632186521756], [7.350064502805554, 47.04636476944666], [7.350564025881402, 47.04644259617779], [7.350725514305148, 47.04647732514765], [7.351493032660397, 47.046691584612134], [7.351869234789241, 47.04677412335592], [7.352452426610583, 47.04688035847955], [7.3525090287275425, 47.04694351944944], [7.35243001402298, 47.04758464015664], [7.35241463238581, 47.04766412616584], [7.352375227298863, 47.047739672110964], [7.3519472868686115, 47.04833220568524], [7.351905706818388, 47.048417302572346], [7.351893618888618, 47.04846180057996], [7.351838157801915, 47.048416576308185], [7.35132879528635, 47.048387869462644], [7.351140732335979, 47.048368214732456], [7.350864743043551, 47.048327668523044], [7.350631654021179, 47.048311765023996], [7.350399081608057, 47.04830964159237], [7.3498204255983675, 47.04832502157501], [7.349893585044406, 47.048370233632134], [7.350031208391494, 47.04893077343], [7.349992981780148, 47.04897584443373], [7.349444843092197, 47.04912037846651], [7.349250892818514, 47.04920375349331], [7.3490789343956315, 47.04930946215965], [7.348931228865035, 47.04943113781936], [7.348398368586065, 47.04996593604564], [7.348305045423315, 47.05009127915452], [7.348132210315398, 47.05039168245966], [7.347352133682498, 47.050553506895795], [7.347474232070554, 47.05060995881121], [7.347623342107679, 47.05080860725032], [7.347811675853581, 47.050843577747116], [7.347927162092617, 47.05088851019841], [7.348100993062524, 47.05087739623165], [7.348212205717695, 47.05103647236048], [7.348293075768706, 47.05117667886332], [7.348440906363656, 47.05133345383862], [7.3484982708362, 47.05140491974248], [7.34939405845825, 47.05190389776671], [7.349188852947293, 47.05194386294456], [7.349193032846035, 47.052197175849386], [7.349151702679611, 47.05239545715107], [7.349138937067356, 47.05255903056446], [7.349132109737839, 47.05273656887055], [7.349158894582661, 47.052852373838135], [7.349517402394479, 47.052851709909866], [7.349881591475943, 47.053042670729084], [7.350112026215199, 47.053083795206014], [7.350375054196947, 47.053437989581155], [7.3512781910498575, 47.054028769993586], [7.351692121636746, 47.054089642494624], [7.352064586450198, 47.054284480269246], [7.352112885155387, 47.05435131408242], [7.352507511010963, 47.05442853973838], [7.352950997436735, 47.05443819460278], [7.353928612940697, 47.05435924255086], [7.354865112522711, 47.054269925613966], [7.3553939691405965, 47.05435950972107], [7.356236165815641, 47.054353927451935], [7.356472074650076, 47.05429255487004], [7.356723933993465, 47.05401048347607], [7.3568187159454395, 47.053750452738555], [7.356858587936751, 47.05351625197037], [7.357340144056072, 47.05324231401136], [7.357824152689711, 47.05326392423724], [7.358676508390608, 47.053334743621264], [7.359419314703427, 47.05344811668171], [7.360228606269271, 47.05357648137567], [7.361437174164982, 47.05363342246331], [7.362318119814047, 47.0537366075557], [7.36359648419312, 47.05387087682463], [7.364566944127273, 47.05398617476058], [7.365899098042977, 47.05406202986294], [7.367191677741482, 47.05414912475846], [7.368237686608263, 47.054222918629605], [7.3684404808169175, 47.05424031492676], [7.369198713933343, 47.054327260229314], [7.370946005142955, 47.05458972161196], [7.371374418378124, 47.05465717896658], [7.371992971238249, 47.0547606186439], [7.372223395213766, 47.05478812588564], [7.373071420687937, 47.054426453851484], [7.373894765165269, 47.054069466649125], [7.374717004865222, 47.053691946380376], [7.374790950944106, 47.05365430809646], [7.375114747127159, 47.05343313221665], [7.375591423683368, 47.053231415907696], [7.376448859518615, 47.05335494232844], [7.377452660070799, 47.05351722051013], [7.378156077576708, 47.05373360535392], [7.3787841366728015, 47.05360373705989], [7.379549659524825, 47.05351076238943], [7.379989570571564, 47.05341907202993], [7.380645380063142, 47.05337214284859], [7.381058930373569, 47.053324870118864], [7.382195673328288, 47.053167087578906], [7.383431633289192, 47.05295688327751], [7.384630028518991, 47.0524579351855], [7.385302147045811, 47.0521585509518], [7.385826559606849, 47.0519588395264], [7.386211688185374, 47.05170548663926], [7.386391932049154, 47.051566075968964], [7.386907328934954, 47.05123632348721], [7.387294827258527, 47.05097140023378], [7.388521084163383, 47.05080209179486], [7.388734745572487, 47.05124643203098], [7.388811449334721, 47.05122903371077], [7.392175004311154, 47.05061734872176], [7.392349853427498, 47.051096845411685], [7.392311239975343, 47.0511417055118], [7.392566939090163, 47.051110903951866], [7.393572812223216, 47.05102815292109], [7.393028344714272, 47.049512869075485], [7.39492102851149, 47.049161781691545], [7.39507190846661, 47.04917927271678], [7.39601224493766, 47.04959697559473], [7.3960798251870346, 47.04952942185335], [7.397301422588849, 47.049300695702854], [7.398207114263996, 47.04927467947777], [7.4002550012458705, 47.049701088983845], [7.401554684838757, 47.04996177041896], [7.40163484911137, 47.04993679084183], [7.401553270027806, 47.04934048482472], [7.401278482150086, 47.047484336222006], [7.401066395671303, 47.04589616851041], [7.4010317495502775, 47.04559995105307], [7.401121844385951, 47.04564594563225], [7.402152973581361, 47.04571149024601], [7.402699622594244, 47.04431822230802], [7.402790157708989, 47.04391345749721], [7.402792900301639, 47.04384797476826], [7.4027616371671625, 47.043806380857816], [7.403532626570181, 47.04371015477501], [7.403628591061431, 47.043734066754865], [7.403615424762036, 47.04360779945848], [7.403593181519078, 47.04359540629511], [7.403608469851854, 47.04344154207181], [7.403605074594123, 47.04324572827541], [7.403514209206396, 47.04264589366602], [7.403431269822405, 47.04233496354623], [7.403380294166148, 47.04221767948887], [7.403277976070955, 47.0418069438462], [7.403271531012553, 47.04170603563053], [7.403251350147872, 47.04166125200132], [7.403336876060998, 47.041646545268385], [7.403360508206125, 47.04160782911506], [7.403404476282591, 47.041579103814954], [7.4034648292136085, 47.04156571117076], [7.403793739923376, 47.0415170158537], [7.407059406051912, 47.04081795102852], [7.414626225858367, 47.039385501434275], [7.415142167578293, 47.03927127693249], [7.419775091644769, 47.03829182130281], [7.423722706779369, 47.03745207515727], [7.429139850366015, 47.03631173179669], [7.428761588706174, 47.035257146388574], [7.428732591625039, 47.03519034659481], [7.428688411001092, 47.03512732326743], [7.42855113778409, 47.03478761258474], [7.427851950025545, 47.034990435271894], [7.426903825908904, 47.03516112299772], [7.426836559947035, 47.03508721230847], [7.426501702025074, 47.03419800690633], [7.426595741764789, 47.03420963014652], [7.430876492124293, 47.03261197755765], [7.431007517384294, 47.03258919404523], [7.432374135058271, 47.03208378504509], [7.432007940604471, 47.03179114403393], [7.431940396788696, 47.03170907786421], [7.431908743524908, 47.03161873860156], [7.431925082945179, 47.03152773691501], [7.431977705194809, 47.03144265636894], [7.432247971291847, 47.03110867927753], [7.432316168987116, 47.03112060205204], [7.432414976711182, 47.030961378164776], [7.432494315697874, 47.03078537724067], [7.432500560697652, 47.03071557613117], [7.432453815124661, 47.0306434869467], [7.431739279763361, 47.0297598590809], [7.43024478364121, 47.0303074460602], [7.42927969851374, 47.03069135214766], [7.428380413680572, 47.03103266544449], [7.427681197445854, 47.030169524437085], [7.427922228925985, 47.030006847624094], [7.4272286569617245, 47.02963258539009], [7.4269185584227975, 47.02947173101518], [7.4266622375889195, 47.02932294412053], [7.425679902762572, 47.02918327172], [7.424109202317479, 47.029009313728075], [7.423149676664881, 47.02904317223585], [7.423146838077304, 47.03004511249882], [7.422426057694121, 47.03051310833099], [7.421619087938171, 47.03092351796013], [7.421242915806222, 47.03122992990255], [7.42102176078576, 47.03148263050995], [7.419739264470275, 47.03145513662264], [7.418134528824253, 47.03133905089536], [7.417133245501277, 47.031212825571316], [7.416179745457767, 47.03120772453988], [7.415623943744196, 47.031321020093614], [7.414921061160542, 47.03134097585138], [7.414152393956601, 47.03101074458494], [7.413569888649666, 47.030978070413056], [7.412439927337646, 47.03088563726154], [7.411789993130189, 47.030843789971456], [7.411299491156511, 47.03095536159857], [7.410558416712723, 47.03088546564085], [7.409949495198439, 47.030621018589024], [7.4095588340692835, 47.030560344710544], [7.408563634931348, 47.03013786297068], [7.408005246177729, 47.02987496424597], [7.4074399978520935, 47.02965486124321], [7.407798242536817, 47.02883730220257], [7.408172377694727, 47.02802330707313], [7.408276046921513, 47.02771544302993], [7.408309323121016, 47.027635063452415], [7.408676158547776, 47.02713556003145], [7.409070881546309, 47.026437387473194], [7.408929856350182, 47.026152890927804], [7.40869107824568, 47.025875312446075], [7.408114852968886, 47.02593338954509], [7.408038427443904, 47.02550830099004], [7.407654145303412, 47.02544895353204], [7.407525156760559, 47.025422085350606], [7.407413851803716, 47.02536654575726], [7.4073395916554965, 47.025307625361954], [7.407400308680671, 47.02537874823646], [7.407399361456406, 47.02542277874556], [7.407348609866205, 47.025382709617446], [7.407008288481406, 47.02515443630915], [7.406341505409568, 47.02461312092739], [7.406077027536651, 47.0243830947078], [7.405864409173722, 47.02404212028317], [7.405692931551778, 47.02360840927398], [7.4055197534534045, 47.02303955552228], [7.405197464482864, 47.02284839545093], [7.404925193022113, 47.02275123890958], [7.4041344165767455, 47.0225777797337], [7.403470631404112, 47.022460925072885], [7.403344806819038, 47.02245674767794], [7.403212332986197, 47.022462435605085], [7.403054719630968, 47.0224532646623], [7.402142494427792, 47.02265552151421], [7.402085808847694, 47.02236315406854], [7.401939765766793, 47.02183455450326], [7.401984474165028, 47.021684243283914], [7.4020801400157, 47.02149421760261], [7.402147680753246, 47.02140239991822], [7.402255764642239, 47.02130371424676], [7.402282957115422, 47.02116465937101], [7.4022888002915765, 47.020895178127795], [7.402370304533654, 47.02073341926246], [7.402405574440781, 47.02049660863998]]]]}}]}