{"type": "FeatureCollection", "features": [{"type": "Feature", "properties": {"bfs_nummer": 3231}, "geometry": {"type": "MultiPolygon", "coordinates": [[[[9.65105804533803, 47.41642053192026], [9.640429285252635, 47.41593888375729], [9.640423478745447, 47.4161375727508], [9.640347031615097, 47.41682920422256], [9.640275868396401, 47.41687014101067], [9.63661301917687, 47.41669302838048], [9.63650661646871, 47.416728784656804], [9.634282688960788, 47.417390537965105], [9.633945582385094, 47.416874090589985], [9.63372615463482, 47.41655045753675], [9.6328043141146, 47.41514012302641], [9.63245927689364, 47.414635429095824], [9.63200290632148, 47.41402505612405], [9.631535955812547, 47.4134803400501], [9.630959792560006, 47.41286709012597], [9.630413454836491, 47.41232856398173], [9.63031760585458, 47.4122506182255], [9.63145046433114, 47.41119611049298], [9.63048247621911, 47.41071864619391], [9.631079881991578, 47.410178023634316], [9.630924164205409, 47.410077847653795], [9.63077695566907, 47.40997185948613], [9.630638907253633, 47.40986041569286], [9.630479604792507, 47.40971562482238], [9.630404597965136, 47.40964093677222], [9.630300900707452, 47.40952709533904], [9.630206072227637, 47.40941006235456], [9.630074144311754, 47.4092212029711], [9.629964333912763, 47.409025463629156], [9.629917228131784, 47.4089256374422], [9.629874842817683, 47.408820701065565], [9.629860386093194, 47.408801468357034], [9.629838726033956, 47.40878626828241], [9.62981153844132, 47.40877556388403], [9.629780950143621, 47.40877111437464], [9.629792820235913, 47.408684349814436], [9.62921179197492, 47.40864172487804], [9.629061910454118, 47.40846769101709], [9.628827133567867, 47.40816566415115], [9.628726916952122, 47.408011905214394], [9.628737336135682, 47.40789627683573], [9.628591229666254, 47.40769599672343], [9.62835944353621, 47.40711496713707], [9.628214750564636, 47.40678042384078], [9.627836857568028, 47.406786146303226], [9.627840926515775, 47.40672748549175], [9.625351401664485, 47.40663054996877], [9.625337958578145, 47.40652235580409], [9.624020461444939, 47.40655092290669], [9.62395951818758, 47.40606199226421], [9.62244152411981, 47.40612588004064], [9.622410437902632, 47.40602134832576], [9.622276111222844, 47.40570978007398], [9.622277118668748, 47.40568587230067], [9.622293908632582, 47.405665463194325], [9.622057960184582, 47.40573402233573], [9.620039843024708, 47.40634457912068], [9.619721368334808, 47.406436663931764], [9.619536295543778, 47.4064861720073], [9.619453132749316, 47.40652670178843], [9.619336884665383, 47.40665514208431], [9.620995441471893, 47.407363470710926], [9.621528489426659, 47.407617686701165], [9.622800729106608, 47.40815491160461], [9.623338624591984, 47.40838957498377], [9.623283972695683, 47.408398166538646], [9.623521426925421, 47.40850039670283], [9.623437617757574, 47.408554249034566], [9.625081520091156, 47.40926728773462], [9.625055895400866, 47.40929494543953], [9.625487602360243, 47.40949016584147], [9.625300003870516, 47.409688074632214], [9.625505151004722, 47.409768301316895], [9.625436481562842, 47.40983223377473], [9.625550106050444, 47.40988242217996], [9.625458483660802, 47.40997774995777], [9.625550655701767, 47.41002099333527], [9.6249073824889, 47.410515954675866], [9.624721122892165, 47.41065106075977], [9.624790565690128, 47.410728565912265], [9.624816239543337, 47.41074566144249], [9.625391454544392, 47.4110238507993], [9.625434703338529, 47.4110496291554], [9.62546458685193, 47.41107916956167], [9.625485764817281, 47.41111168202054], [9.625496499392293, 47.41114584077756], [9.625344363830704, 47.4121184850542], [9.624662148962708, 47.41206860321824], [9.624540221173026, 47.4122201266121], [9.625103232612698, 47.41243872180078], [9.625283826547196, 47.41244081915599], [9.625254845631398, 47.41261946669063], [9.625135944861581, 47.412611010517885], [9.625041531769297, 47.4126649664861], [9.625244573341458, 47.41268079097569], [9.624999117769674, 47.414181929892365], [9.624934199082245, 47.414535181368784], [9.624895040013547, 47.41471361633386], [9.624838801250904, 47.41488544637385], [9.625010435626157, 47.41488640043816], [9.62637586607927, 47.41498862525669], [9.626369369022544, 47.415029867413274], [9.626412235797408, 47.41508399519917], [9.624609725508334, 47.417501931640444], [9.624525688742006, 47.41751634314355], [9.624435120478104, 47.41761381797874], [9.627813993690241, 47.419222280196514], [9.627874367928511, 47.4191649732861], [9.627932144749048, 47.41919342673967], [9.627972768405819, 47.41930699846403], [9.628235186440236, 47.42092761597593], [9.62829082015951, 47.42119008374694], [9.628377778270652, 47.42133485397978], [9.628580193575875, 47.421517925277676], [9.628882913970429, 47.42171866490536], [9.629040201779402, 47.42184595083147], [9.629173327825445, 47.421989485426934], [9.629446853598065, 47.42242325722072], [9.629616362836703, 47.42270241541337], [9.629682481554434, 47.42285673945296], [9.629801988181491, 47.42333338013671], [9.629826484563331, 47.42340283613005], [9.627169492924502, 47.423880997151045], [9.62712258769649, 47.42393584408817], [9.627811494186307, 47.42568561360008], [9.629354645851443, 47.425411616957376], [9.629990887406063, 47.427000676899574], [9.629970843944132, 47.42704005257976], [9.6304996713663, 47.42715952607968], [9.62947807393911, 47.428680506598724], [9.629370619743115, 47.42864148758881], [9.629351939720895, 47.428849290164315], [9.628808148341442, 47.42957213418156], [9.627691342252493, 47.4291909397099], [9.626912775336972, 47.43022581238], [9.626406527531184, 47.43004910206938], [9.626308058397552, 47.42999126713253], [9.626489951413685, 47.430157671164544], [9.629745994553932, 47.433046482099954], [9.629549710944728, 47.43311237641722], [9.62912197104459, 47.4333355263569], [9.629069234460154, 47.43341025213388], [9.62912702380631, 47.43348113754274], [9.629041066704668, 47.43348201986495], [9.628867555568423, 47.433431457593706], [9.628405641525767, 47.43342332194389], [9.62815322374566, 47.4334260438959], [9.62806195332107, 47.43343668961834], [9.627978453519093, 47.43346087340657], [9.627922305239398, 47.43349268187114], [9.627883691432057, 47.43353491023885], [9.62784414782606, 47.43364510606965], [9.627832623633905, 47.43371566755329], [9.627811536059056, 47.43377875322981], [9.627790502300893, 47.43381188487416], [9.627753104427903, 47.43384789980131], [9.627888460173091, 47.43403110958686], [9.627852566116454, 47.434198425244254], [9.6277993234979, 47.43431184054525], [9.627752198235024, 47.434542684523066], [9.627711188049684, 47.4346162879733], [9.628444339224956, 47.43475571912941], [9.628251757249178, 47.43547110644809], [9.627954105852476, 47.435506581728795], [9.62785582703423, 47.435521661011194], [9.627693475346295, 47.43559548467702], [9.6275967243192, 47.43566027360977], [9.627380351677738, 47.435780306044], [9.627314959766757, 47.43585728656666], [9.627170487036885, 47.436251653556994], [9.627171555965862, 47.43628473535097], [9.626997861703442, 47.43665286929652], [9.626865643113554, 47.43688617926648], [9.627024063257446, 47.4369748835601], [9.626754733213858, 47.437041112400436], [9.626772947143715, 47.437083506097], [9.626691253401626, 47.437097262411456], [9.626516664834439, 47.437587591980744], [9.62637205981029, 47.43795639041357], [9.626502517457611, 47.43813964186087], [9.626384144731238, 47.43837595775056], [9.62631291867773, 47.43854624652181], [9.626246023710944, 47.43853326053037], [9.626108750170332, 47.43897941197237], [9.626276457013859, 47.43915931388779], [9.626464715197313, 47.43925719900284], [9.626901971915258, 47.439347569749195], [9.627764842059422, 47.4393486404546], [9.627946868209794, 47.43933239805484], [9.62814184599345, 47.43938531735076], [9.628391236620475, 47.43948169923229], [9.628557626740843, 47.4395066993031], [9.628698405297062, 47.43955030576258], [9.629131303211393, 47.43962903554949], [9.629348782776795, 47.439707216189376], [9.629492941846829, 47.439747571124265], [9.629742956822298, 47.43983583117833], [9.629792739625657, 47.43985315281213], [9.629938201236744, 47.43994377085349], [9.630074238319436, 47.43998396401926], [9.63054547138224, 47.44020405204746], [9.63083373610068, 47.440272022047246], [9.631187998284007, 47.44042373254624], [9.631450059018688, 47.4404649895481], [9.631779023750674, 47.440569218949044], [9.631916270004622, 47.44067625931051], [9.632503382342875, 47.44081643689176], [9.632675804598636, 47.440847660047396], [9.632840066000428, 47.4408675119573], [9.633319228204773, 47.440914109256184], [9.633358945527673, 47.4407382756924], [9.633663061379362, 47.440798075615895], [9.6339833794785, 47.44083878929083], [9.633998675204795, 47.440796147260706], [9.634060445421737, 47.44071992203893], [9.634354331807172, 47.44073815615061], [9.635263071274597, 47.44086923341291], [9.635433517310998, 47.44089909653761], [9.635917271635973, 47.440952425968796], [9.636246451752738, 47.44099796700578], [9.636417760315588, 47.44104227110047], [9.636511641972977, 47.44109871871573], [9.636699845858578, 47.441148126606954], [9.637006800132069, 47.441201051994696], [9.637166907609181, 47.44122203033482], [9.637318163782655, 47.44122106044722], [9.637797974210466, 47.441202951644634], [9.63829531029102, 47.441199425633116], [9.638346706147821, 47.441124495241034], [9.638475001129477, 47.44116126545261], [9.63867653668077, 47.441188876588846], [9.638882183799568, 47.44119307833065], [9.639136854914193, 47.44120641466608], [9.639311090065554, 47.44122840788974], [9.639639503268368, 47.441217466790725], [9.639768312992306, 47.44123685083748], [9.640141369544372, 47.44132757633948], [9.640681392246426, 47.441483465527995], [9.640815184044705, 47.44157768564971], [9.640894159027006, 47.44152060218466], [9.641250765025477, 47.441579696806755], [9.641723308381193, 47.44167199584513], [9.642115525578168, 47.441737157447164], [9.64375553826198, 47.442068666992874], [9.643842638369943, 47.44189730915843], [9.644226704046346, 47.44192795043091], [9.644465818833925, 47.441992686753444], [9.64472226494182, 47.44203112418682], [9.64493012583868, 47.44207807371853], [9.64528107417468, 47.44214957221679], [9.645848519544954, 47.44233705363456], [9.646162133210304, 47.44249606187951], [9.64615249379903, 47.44251434028053], [9.646397788442327, 47.442608656055384], [9.64647526306671, 47.44264590193306], [9.646806515875834, 47.44266259901682], [9.647419510017155, 47.44301187964438], [9.6477170502546, 47.44322113813114], [9.64778950289049, 47.443234176587474], [9.648026994525567, 47.443058181718385], [9.64859379946096, 47.44340758434394], [9.648939922888484, 47.44362851627332], [9.649221308804563, 47.44382989174625], [9.650945788652814, 47.44274339690622], [9.649969935652305, 47.44204543561833], [9.649557875287458, 47.441762235668044], [9.648992745583968, 47.4413954312898], [9.648703590277773, 47.44121676987559], [9.64818439349637, 47.440904742734894], [9.647964435205777, 47.44076382447778], [9.647750510412148, 47.44061870559727], [9.647542756841682, 47.44046950944238], [9.647341365268106, 47.44031635839879], [9.647146512415226, 47.44015935707747], [9.646958336736104, 47.43999864680866], [9.646776989217228, 47.43983435072455], [9.646602621941351, 47.439666618911055], [9.646435385482153, 47.43949556548104], [9.646275419804628, 47.439321367772905], [9.646122835689027, 47.43914414062971], [9.645905890674328, 47.43887798625022], [9.645696394743736, 47.43860912492817], [9.645494366272155, 47.43833768230078], [9.645299913833616, 47.43806371935807], [9.645177190538995, 47.43787982955833], [9.64506214519657, 47.43769366963483], [9.644954823450615, 47.43750538269133], [9.644855325085484, 47.437315137812995], [9.644763748740154, 47.437123077088486], [9.644680153303039, 47.436929343370196], [9.644604466833512, 47.436733803064776], [9.644536932821639, 47.43653689246909], [9.64447757108928, 47.43633877311858], [9.644426428048156, 47.43613960613637], [9.64438357617563, 47.43593954308447], [9.644349008482788, 47.43573873708146], [9.644304897610938, 47.4353358556682], [9.644294213684015, 47.43493191340882], [9.644316930114226, 47.43452820647289], [9.644373019550319, 47.43412601299933], [9.644462294914335, 47.43372659616141], [9.64458446244658, 47.43333120318906], [9.644821044038746, 47.43266217653159], [9.64490328224961, 47.432448172614315], [9.645038751993162, 47.432129418693926], [9.645188716430932, 47.43181361795124], [9.645352910159678, 47.43150109033198], [9.648321475606307, 47.4261081059816], [9.648611737926359, 47.425562875587296], [9.648884680786413, 47.425013539669095], [9.649140169019187, 47.42446034388123], [9.649490290313283, 47.42362410560815], [9.649800538717601, 47.42278062990357], [9.650070569182402, 47.42193082347729], [9.650300113983665, 47.4210755375536], [9.650488934571369, 47.42021568575178], [9.650636830650479, 47.41935214488579], [9.65098289061684, 47.41700184554796], [9.65105804533803, 47.41642053192026]]]]}}]}