{"type": "FeatureCollection", "features": [{"type": "Feature", "properties": {"bfs_nummer": 3237}, "geometry": {"type": "MultiPolygon", "coordinates": [[[[9.576626337568056, 47.46288798797844], [9.575597562514485, 47.462810965514855], [9.57447854337886, 47.46286175118265], [9.57447875108177, 47.462882782964385], [9.574372475307893, 47.4629167308551], [9.574212902257948, 47.46273088797042], [9.572771022555987, 47.46310443042304], [9.572784492889335, 47.463127673641075], [9.572543432628494, 47.46319042442657], [9.572244703950696, 47.46293710435928], [9.57183405314634, 47.46317006193662], [9.571765538669966, 47.463203446027094], [9.57169403748291, 47.46323381708712], [9.571552169814849, 47.46328382232938], [9.571500873965851, 47.463214589453266], [9.570986727553668, 47.46338955753765], [9.570759501544194, 47.46344997986309], [9.570503255347383, 47.46349243842215], [9.570354058433004, 47.463504284708556], [9.570150269942198, 47.46351028991456], [9.56993951138906, 47.46340161827773], [9.568081688174635, 47.46352530377919], [9.566583992728836, 47.463506752005735], [9.566597420009431, 47.463416559615865], [9.565978837275637, 47.46335759064238], [9.565623430620418, 47.463333132360404], [9.564713286532125, 47.4632539847391], [9.56446219830731, 47.463214459974694], [9.56435315907808, 47.46315188165463], [9.564061699440094, 47.46313693227188], [9.563720868314757, 47.46300567323832], [9.563431982888522, 47.46294986316749], [9.563374666952335, 47.46305181111938], [9.563041653711542, 47.46298070584616], [9.562482313449602, 47.46294384289385], [9.562260497035723, 47.462925270154], [9.562089668412284, 47.46288245817221], [9.562055580734432, 47.46291427707505], [9.56212349984513, 47.46293928391729], [9.56223968034277, 47.462989739451054], [9.562224765004956, 47.4631009683432], [9.56219379117131, 47.46315128306686], [9.562140641588941, 47.463182840990434], [9.562214438971443, 47.46324342252873], [9.56214134163586, 47.463280457442316], [9.562178005986999, 47.46331019468293], [9.562156272989693, 47.463326455925596], [9.562010832037174, 47.46338154490937], [9.562021885660265, 47.46339056406193], [9.561883039994676, 47.4634546641339], [9.561859071378159, 47.463434536467936], [9.561699588069073, 47.46349017943617], [9.561541166963956, 47.463556815502514], [9.56137500684393, 47.463619373587925], [9.561200185979741, 47.46366605733504], [9.561044495022951, 47.46371768900583], [9.558948493983616, 47.46451932141653], [9.558073850188293, 47.46474689784952], [9.558039986883557, 47.4647807632204], [9.557205151720149, 47.46485577527888], [9.556619444293034, 47.46478651826162], [9.556087533823913, 47.46457882246423], [9.55569840969882, 47.464452328558416], [9.55525415376616, 47.464298672036364], [9.554974692070843, 47.46415920090439], [9.554983971871255, 47.4641183278341], [9.55443388096213, 47.46396991541688], [9.554077515355882, 47.463806881291866], [9.553975700165818, 47.46388728048093], [9.553823637514883, 47.463903890646854], [9.553608972178825, 47.46385261882328], [9.553573357961817, 47.46387887624212], [9.553064501270853, 47.46384137760475], [9.553049206866723, 47.463948597632964], [9.552980246738342, 47.46394770859709], [9.552905980652715, 47.46396654802958], [9.552841537574938, 47.46453902310832], [9.55241674679882, 47.46444997736098], [9.552153915095422, 47.46450372831665], [9.551683241921877, 47.46442690996713], [9.551419790595775, 47.46433353676933], [9.550849110146778, 47.46425040889685], [9.55054898874089, 47.46421814748926], [9.550262831001387, 47.46424885378099], [9.550075085940405, 47.464167447233244], [9.549824870571904, 47.46408153019904], [9.549242781805898, 47.46392373763643], [9.54899812564667, 47.46376152007325], [9.5486369084078, 47.46358406404783], [9.54846388132462, 47.46344579356511], [9.548065513675157, 47.46328089062911], [9.54781532767299, 47.46320589154677], [9.54774238851303, 47.46327394472161], [9.54736770985947, 47.46310445003549], [9.547373172939837, 47.46315791091055], [9.547018883823636, 47.46303950756013], [9.546717505151603, 47.462959897500056], [9.54655482392658, 47.46289535696896], [9.54611219268628, 47.46336801060903], [9.545688974355212, 47.46375254825814], [9.545703516881439, 47.463784736000896], [9.545739946167973, 47.46382383960398], [9.545797823583374, 47.46398872867516], [9.545776040723295, 47.4639881266896], [9.545726717862129, 47.46422439150911], [9.545858093988443, 47.464207314187334], [9.546032636958206, 47.46421352656353], [9.546249040629009, 47.464272329449656], [9.546424005501178, 47.46444249906324], [9.546548952349037, 47.46447844185304], [9.546718363044302, 47.46458074730832], [9.546826651140076, 47.46472759657184], [9.546928624434408, 47.46498891529929], [9.547016769952581, 47.465093853317875], [9.547054003925508, 47.46511772775149], [9.547099161033227, 47.46530632219413], [9.547151279186503, 47.46535187863935], [9.547321095017562, 47.46543719806412], [9.547142683083836, 47.46560954708151], [9.546691575804367, 47.46590102897711], [9.54690942109388, 47.46605826078544], [9.54688262565338, 47.46611062722132], [9.546754882575858, 47.46619898995375], [9.546471122273704, 47.46650604791251], [9.5467150832893, 47.466649929606795], [9.546558716068132, 47.46678276413131], [9.546775322668777, 47.466870164902815], [9.547058662731528, 47.466916247175455], [9.547202444295383, 47.466995032980286], [9.54686812446155, 47.467442745729834], [9.546818463305126, 47.46749733871718], [9.546386783027001, 47.46736834149649], [9.546263140858827, 47.467328325895686], [9.546154694138645, 47.46742528721043], [9.545594246163876, 47.46729258808713], [9.54472706272532, 47.467305613499626], [9.544432896003928, 47.46728299812713], [9.544361632153484, 47.46748440271655], [9.54427057310796, 47.46768653609907], [9.544104381026884, 47.467813785970094], [9.543362424683332, 47.46841273741385], [9.543444458336504, 47.468730401107], [9.543309369708416, 47.468893710360405], [9.542862427788156, 47.4690406876596], [9.542401205253809, 47.469037364603345], [9.542011000653321, 47.468686896650574], [9.541026052564463, 47.4686604843968], [9.539527788671627, 47.468247465247956], [9.539319699691847, 47.46802351610479], [9.539179685932547, 47.46793065512375], [9.539018961313687, 47.46806934113494], [9.538966463196495, 47.46803385662342], [9.538727681591702, 47.4681927730827], [9.5383697427402, 47.46833245665393], [9.538003941331844, 47.46832812951514], [9.537856305803427, 47.468349748710274], [9.537602084037092, 47.46845275569812], [9.53744118303618, 47.46846607619696], [9.534038617973621, 47.467954896970554], [9.533359930909292, 47.46794405086986], [9.532489137288689, 47.467837384988904], [9.532357738714161, 47.468025779202904], [9.53238967016398, 47.4681547234703], [9.53283370851236, 47.46847129127313], [9.53298553799389, 47.469190596644154], [9.53250113024454, 47.46930142103064], [9.532140322143754, 47.46941735665068], [9.53205728630585, 47.469696509997554], [9.53195751838347, 47.47060646442103], [9.531788666615375, 47.47122205245213], [9.531650773866405, 47.471193786560924], [9.531683020994995, 47.47122723023942], [9.531675342693152, 47.47126409552955], [9.531521413765125, 47.47143660301857], [9.531558659104165, 47.471516453862044], [9.531912629772602, 47.47189690862428], [9.531929202604971, 47.47203509287924], [9.531888969425749, 47.472049586739395], [9.531460041438319, 47.472011058205126], [9.53144687596353, 47.47212464189991], [9.531146876888677, 47.47213372230789], [9.530997412836792, 47.472186108065515], [9.530418039743019, 47.47210757847916], [9.530301372806715, 47.47243819028335], [9.530040741354597, 47.472846071966195], [9.529836423759043, 47.473224270282834], [9.529831556778658, 47.473284747049235], [9.529468241765626, 47.47395639829485], [9.530325146605517, 47.47412931487206], [9.531326729992317, 47.47427025027], [9.530712549410246, 47.475710190359344], [9.530705485703812, 47.476194128407776], [9.530704740796589, 47.47687443946497], [9.53068768168971, 47.47693566755316], [9.531521135484223, 47.477125086887604], [9.531161477593631, 47.479547192338806], [9.53083981015177, 47.479480196826266], [9.53037839561409, 47.47942871012529], [9.530292506828344, 47.47961301176554], [9.530224953600198, 47.47992132252874], [9.530200301093107, 47.479986583535634], [9.530128426351828, 47.48023093148985], [9.529892525518031, 47.480737073833545], [9.529906349694235, 47.480776087379034], [9.529988154468551, 47.48084722438345], [9.530055194401498, 47.48089087155306], [9.530115567954125, 47.48089729266665], [9.530241401151063, 47.48088322241097], [9.530291284747236, 47.48076739120699], [9.530333710345227, 47.48076121682839], [9.530514730147777, 47.480296588971505], [9.530800615329468, 47.48035363416614], [9.530695010432346, 47.480513434545074], [9.53106246150241, 47.48059973824679], [9.53131154395495, 47.48068672456774], [9.531554899106437, 47.480795757980694], [9.531672335313962, 47.48084349544661], [9.531876755423674, 47.48093001122403], [9.532079343913665, 47.48104077983893], [9.532266701054985, 47.48115131082997], [9.532285190848636, 47.481190122738106], [9.532287387779693, 47.481239171283455], [9.532277122948695, 47.481321932754696], [9.532284609917983, 47.481380278620655], [9.532275300929161, 47.48143743491142], [9.532108962041834, 47.481653083323245], [9.532067540247906, 47.48171037986331], [9.532043748946386, 47.48172500785595], [9.532022222289076, 47.48174322069493], [9.531791683242036, 47.482084568554036], [9.531673272889654, 47.48227881762319], [9.531566546656192, 47.482421625499605], [9.53145389244871, 47.4825746803031], [9.531390516984652, 47.482655577237885], [9.531388165057601, 47.48268146853879], [9.531408132079356, 47.48269913787451], [9.531457162920363, 47.482717432646034], [9.531981417748577, 47.482857056956725], [9.532395081040297, 47.482978571853955], [9.532428634862303, 47.4830038853181], [9.532471179436413, 47.48301282322464], [9.532504968173212, 47.483004672123826], [9.532530127551434, 47.48298230873805], [9.532523743271597, 47.48295466815563], [9.532460895854378, 47.48294986751749], [9.531986776315112, 47.48283067937443], [9.532671211193408, 47.48152495531817], [9.532978683713056, 47.48126223298042], [9.533416270374456, 47.48134848322407], [9.533479099787645, 47.4811888341548], [9.534655354226675, 47.48145946753211], [9.5345549610557, 47.481684910285075], [9.534269432355247, 47.482299153033686], [9.534092366557529, 47.48235834953765], [9.533897221894199, 47.48240773342471], [9.53366308627924, 47.4824487719744], [9.533465436593396, 47.48247232472254], [9.533267392850767, 47.482483522197434], [9.533049683703776, 47.48248606029003], [9.53291870250641, 47.48247700509855], [9.532852270487478, 47.4824691296088], [9.532841955104312, 47.48245018838891], [9.532793525776547, 47.48244986846352], [9.53277652785502, 47.48247152633298], [9.532785521750224, 47.482498363926496], [9.53285222839575, 47.482515231630806], [9.533086619747328, 47.48252816391031], [9.533453611702669, 47.48250400180873], [9.533712374383253, 47.48247492475168], [9.53391934724676, 47.48244108996324], [9.534108183756489, 47.482396318867195], [9.534288729180366, 47.48234492280327], [9.534415987465751, 47.48229219754021], [9.534427749292325, 47.4822582631948], [9.53438789054773, 47.48222520104115], [9.534472923440042, 47.48202249359816], [9.534647983360882, 47.48166873057456], [9.534741455061736, 47.48147712538973], [9.53700954639383, 47.48198997121459], [9.537218930981322, 47.48207415600898], [9.537266029868526, 47.48208347739134], [9.537367777738321, 47.48208627410884], [9.53751914794079, 47.482125328686024], [9.537584823562025, 47.482159082042884], [9.53767870221991, 47.48216761749754], [9.537773064926785, 47.48219076445354], [9.537888761127345, 47.482224797638956], [9.537925410066856, 47.48222861317817], [9.537949999361455, 47.48222044742404], [9.537969899521187, 47.482201759122304], [9.537974750608146, 47.48216260551702], [9.537983624797223, 47.48211710790785], [9.537990180326448, 47.48208515699512], [9.538019285270748, 47.482047497547754], [9.538070748620285, 47.4819992926122], [9.538094170930364, 47.48198006351311], [9.538141339749666, 47.48196762816634], [9.538227201126167, 47.48194388294053], [9.538312473861845, 47.48192304542984], [9.538346497737166, 47.48191953995568], [9.538488249737737, 47.48196036932436], [9.53864693926745, 47.482015367393686], [9.538713871630556, 47.48203489077889], [9.538804296245145, 47.48206114941156], [9.538798681183046, 47.4820759076926], [9.538889088447121, 47.48209500485384], [9.538894240555747, 47.48208465456802], [9.538973877399911, 47.482099547599525], [9.539105539649668, 47.48214968252594], [9.539306211648102, 47.48222890262219], [9.539480055390277, 47.48229353039432], [9.539715947419339, 47.48239410820702], [9.539811172194602, 47.48244171912583], [9.539816951151066, 47.482466374315536], [9.539844894668953, 47.48251722253245], [9.539890782899388, 47.48256909439297], [9.539886662709172, 47.48261125791003], [9.539863975754743, 47.482659156957475], [9.539868905404726, 47.48266467265716], [9.53988493057245, 47.482664813491255], [9.539898509360121, 47.48264536708206], [9.539920911421184, 47.48261242633542], [9.539940891718055, 47.482602832277166], [9.540004451570072, 47.48260885751878], [9.540104763379707, 47.48265117543772], [9.540169596064285, 47.48270820031782], [9.540230760939538, 47.48282016542594], [9.540235817639132, 47.48288261277005], [9.54022825295156, 47.482999128368], [9.540217381706528, 47.48301857075276], [9.54019729624185, 47.483031216716974], [9.540188988867849, 47.48304467441168], [9.540190892930246, 47.48306698874732], [9.540229635247131, 47.483095201798314], [9.5402338282592, 47.48310524743461], [9.54022231451904, 47.48312085971671], [9.540108998170128, 47.483134362513354], [9.540097034643313, 47.48315068472725], [9.540199200387294, 47.48322476483044], [9.540237180085143, 47.483257184445726], [9.540232747020637, 47.48326591124572], [9.540080581289073, 47.48315918899697], [9.539946966345445, 47.48324375095302], [9.540086010753472, 47.48334120169434], [9.540202314966724, 47.48326292814889], [9.540226095430354, 47.48327895195814], [9.54022582603884, 47.483279523672536], [9.54020754747759, 47.483315385459136], [9.540188827686954, 47.48335217297399], [9.540159564953502, 47.48343349894472], [9.540156606129676, 47.48352686214076], [9.540169423375882, 47.483573432486025], [9.54020154932796, 47.483611203762784], [9.540279743034695, 47.483662713579086], [9.540343201810202, 47.48369602883077], [9.540579959542978, 47.48378674638559], [9.540762521525274, 47.48384578860826], [9.54085975343758, 47.48386754040008], [9.540885951699096, 47.4838893142818], [9.541112546724252, 47.483940151152225], [9.54113899909263, 47.483935792671886], [9.541483287469578, 47.48400588509988], [9.541592776778886, 47.484029806739024], [9.541663943197625, 47.48407507337118], [9.54173252641462, 47.48416743301336], [9.54177397177098, 47.4842488325982], [9.541818887294355, 47.48428207030455], [9.54186654168277, 47.484292612379775], [9.541904920512613, 47.484285760602994], [9.541958767649731, 47.4842716727864], [9.542071601722636, 47.48423083463792], [9.542110344527213, 47.48421976551489], [9.542156486077351, 47.48422360509217], [9.54218724388069, 47.48422541210201], [9.54222433078136, 47.48421006340785], [9.542288513745511, 47.48419186475687], [9.542313095038017, 47.484190868959985], [9.542372831943094, 47.48418844214458], [9.542398941091212, 47.48419553398037], [9.542421645070016, 47.48422256245985], [9.54242517889791, 47.4842414282089], [9.54241635860318, 47.48426572797884], [9.542419047009341, 47.4842803354481], [9.542471666503195, 47.484322429953245], [9.542504872867962, 47.48435022111705], [9.542379961746326, 47.484431667552755], [9.542317181263359, 47.48446988637119], [9.542293864861179, 47.48462896613815], [9.54239085639758, 47.48469691243369], [9.542585175727675, 47.48476448328378], [9.54267155647537, 47.48479001178404], [9.542694935290488, 47.48476600506254], [9.542657263945022, 47.484702540463346], [9.542612167873118, 47.484611103830716], [9.54256240562651, 47.48457145862326], [9.542534297213358, 47.484504464131824], [9.542545226752734, 47.48444693545676], [9.543107568750257, 47.484566761562974], [9.54315550909453, 47.48445912026675], [9.543221616484116, 47.484458016704], [9.543270228283474, 47.484511169343534], [9.543253503404598, 47.484587913362155], [9.54325979642567, 47.48463053538624], [9.543288375194656, 47.48466379082466], [9.543328835246292, 47.48466759835533], [9.543393729763856, 47.48467775440498], [9.54341548812331, 47.48470099413924], [9.543398991917844, 47.48473724683573], [9.543345561758208, 47.48477863401111], [9.543375412880671, 47.484815528094344], [9.54328661491324, 47.48485031602495], [9.543216713261328, 47.48492020877814], [9.543361007558595, 47.484996452891316], [9.543548334068866, 47.48513708932335], [9.543880973875908, 47.4854667746915], [9.543948891336909, 47.48552575677207], [9.543956143194595, 47.48553626843389], [9.54395114963872, 47.48556602292289], [9.543956269298306, 47.48559140070538], [9.543970245202077, 47.48560780912649], [9.544001391178243, 47.48564386076523], [9.544040243621025, 47.48569318691296], [9.544071013588407, 47.48571069326144], [9.544105685315058, 47.485723495042], [9.544157128804848, 47.48572811908592], [9.544197634168984, 47.48572298287334], [9.54419401827283, 47.48575368342451], [9.54419031694008, 47.48578958646794], [9.54416211621072, 47.48578500728772], [9.544095840272547, 47.48576815613082], [9.544048518571051, 47.48576438376028], [9.543948250412422, 47.48576897951392], [9.543887263951262, 47.48578212746574], [9.543847899630169, 47.48580601142085], [9.543824518986433, 47.485837009188224], [9.54379501619422, 47.48586859519701], [9.543779611936596, 47.48589387857047], [9.54378060386935, 47.48593602118863], [9.54379203673944, 47.485983066206714], [9.543787231902895, 47.485999825357986], [9.543789847964788, 47.48601460506566], [9.543802504711469, 47.48602317398206], [9.543822963813277, 47.48605615416222], [9.543844366585555, 47.486096539814255], [9.543891772529042, 47.48618923860003], [9.543910117094507, 47.48625562767886], [9.5439333428674, 47.486341370779634], [9.54393640242822, 47.486401533046916], [9.54393984354673, 47.486437144137824], [9.54394762749624, 47.48646108787291], [9.54397444120647, 47.486481914199025], [9.54400241083654, 47.48649807695961], [9.544031283837153, 47.48650219409448], [9.54408034176316, 47.486498512240274], [9.544136469369239, 47.48650073876941], [9.54417053853672, 47.48651540491394], [9.544193345414639, 47.486538616378816], [9.544201422924594, 47.48656996840842], [9.544195838871802, 47.486601569063765], [9.54418190961505, 47.486612484231856], [9.54404780460986, 47.48664317572955], [9.544022214350164, 47.48665290846373], [9.544018537466643, 47.48666362799797], [9.544044890326962, 47.4867247609383], [9.54408806479227, 47.48676287894443], [9.544140183108498, 47.48678418044389], [9.544176234627152, 47.48679694811002], [9.544200572218244, 47.48684238168384], [9.544183301817826, 47.486854734162876], [9.543982569281123, 47.486997824909864], [9.54383582128856, 47.487106130719134], [9.543818502606152, 47.48713469689269], [9.54380373324205, 47.48715859214243], [9.543812393753896, 47.487170481744634], [9.543826086896653, 47.48717069144642], [9.543837344509843, 47.48716168739505], [9.543944989419419, 47.48708421560338], [9.54409531151206, 47.486980028299776], [9.544121583632277, 47.48697075100903], [9.544146846202082, 47.48696983243506], [9.544216765731509, 47.48699217745823], [9.544278220300336, 47.48702532918312], [9.544294207495684, 47.487049609475804], [9.544362916622624, 47.48717944745529], [9.544387230745002, 47.48722394568256], [9.544386941289856, 47.48725081645523], [9.544376215822725, 47.487273252615346], [9.54437624612748, 47.48729177718865], [9.54438858764114, 47.48732722627669], [9.544393956452165, 47.487359554294294], [9.544393045735463, 47.487387830920404], [9.544369391763436, 47.487429027518125], [9.544328747741725, 47.48748999416202], [9.544284133288386, 47.48755427202224], [9.544231724754242, 47.487628876478475], [9.544199749116869, 47.487701264643405], [9.544144165903797, 47.4878167019039], [9.544125666625908, 47.487867071691724], [9.544110078921076, 47.48788773389944], [9.544070665464417, 47.487927840652326], [9.54401556969634, 47.487969132458396], [9.543923639132771, 47.48802917877421], [9.543847887541212, 47.48808382922752], [9.543821133708018, 47.48811581503136], [9.54381031597006, 47.4881359315441], [9.54382099589748, 47.488146857695725], [9.543831290932086, 47.48814806493297], [9.543883679164535, 47.48812487075802], [9.543982507516862, 47.48804895397218], [9.544011122364536, 47.4880294402912], [9.544030065695107, 47.48802446205009], [9.544062151366603, 47.48802387819562], [9.544108493834791, 47.48803739433302], [9.544122692711337, 47.488051036558716], [9.54414324988506, 47.48808680396793], [9.544192035650484, 47.48816233793088], [9.544247048204129, 47.48822249039427], [9.544305792662556, 47.48827330785231], [9.544377166100386, 47.48831555508036], [9.544426900520993, 47.48836375634193], [9.544463544541182, 47.48842562857862], [9.544481080419356, 47.48845447816669], [9.544509993227074, 47.488476660729276], [9.544560277214726, 47.488503546685806], [9.544629624931897, 47.48852915892102], [9.544670075140102, 47.488549727886415], [9.54470065234562, 47.488579743614444], [9.54474307650276, 47.48863271134198], [9.544776255989108, 47.48871131826264], [9.544805086326729, 47.48876591898195], [9.54483781685173, 47.488798684592695], [9.544896035548007, 47.488836537445486], [9.544951113003856, 47.48886378583415], [9.545073340244814, 47.48890537677768], [9.545108716810981, 47.48899586483014], [9.54514244376639, 47.48903802324343], [9.54519151657538, 47.48905743635858], [9.545306430183366, 47.48906786816724], [9.545384818268442, 47.48908074638871], [9.545772134542569, 47.48914433021162], [9.545978590607579, 47.489517523518685], [9.54591759115841, 47.48952642589294], [9.545928305374238, 47.48955661415321], [9.545717375490979, 47.48961639087596], [9.545564924887227, 47.48935922144029], [9.545521888466256, 47.48932734549174], [9.545435650250706, 47.48930630597441], [9.545160976211452, 47.4892491008075], [9.545153392516317, 47.48926272559616], [9.545174667297982, 47.48931857947502], [9.54511427484561, 47.48934547377665], [9.545119660235153, 47.48936112073511], [9.545158216192812, 47.48935597426792], [9.54531695997216, 47.48965576595654], [9.545442659628025, 47.489839169361744], [9.545393980655438, 47.48989569403654], [9.545410335444682, 47.48990442945328], [9.545488402607502, 47.48985526011392], [9.545518332177696, 47.489877279876985], [9.545565524729655, 47.48992290878558], [9.545612537456945, 47.48998643627163], [9.545643579953062, 47.49004523417998], [9.545612978060047, 47.490056156162595], [9.545576479549272, 47.49007001957897], [9.54557031598314, 47.49007861612335], [9.545576562663006, 47.49008383767882], [9.545596384640115, 47.49008158735405], [9.545634023773717, 47.49007272354946], [9.545641132682054, 47.49008831207735], [9.545673158260172, 47.490136412433955], [9.54570483233516, 47.49018702938878], [9.545719786396765, 47.49022539081233], [9.545723665992067, 47.490253274293586], [9.545723082682843, 47.49027338457356], [9.54562538064397, 47.490298727269966], [9.545619143013136, 47.490305120864605], [9.545628824708848, 47.490315624175565], [9.545651192646249, 47.49031866276402], [9.545704201205004, 47.49031141746384], [9.545750186026181, 47.49037277727982], [9.545804531435714, 47.49045785427109], [9.545826631044424, 47.49051272126659], [9.545856316490141, 47.490606920638754], [9.545838670155174, 47.49065669030418], [9.545739612256025, 47.490685350720504], [9.545741596449488, 47.4906965610135], [9.54583322233407, 47.49068602124571], [9.545872778424831, 47.49075731396989], [9.545904141527176, 47.49088076842659], [9.545909206814878, 47.49093353438931], [9.545898584914049, 47.490986712019236], [9.545879525200535, 47.49103063230453], [9.545850781204662, 47.49105729248815], [9.545801086463628, 47.491080843313334], [9.545757793433166, 47.49107568461803], [9.545652377591447, 47.49104409892127], [9.545627646719922, 47.49104140026628], [9.54562081236962, 47.491048146619974], [9.54562544249745, 47.49105712242981], [9.545668497930727, 47.49108006386729], [9.54573932159398, 47.49112238329238], [9.545759680082403, 47.491145378134924], [9.545794263786567, 47.49120508316266], [9.545829882506856, 47.49123129098277], [9.54583935356703, 47.49123111848515], [9.54584243588226, 47.49122549311908], [9.545830343926754, 47.491195716859636], [9.545817322425865, 47.491156555526246], [9.545828801296489, 47.4911340335542], [9.545875699477659, 47.491111595320326], [9.545970923683871, 47.49109001340318], [9.546094027359677, 47.49109061443968], [9.546123589605855, 47.491089617119805], [9.546157118701235, 47.49106479503579], [9.546180008104857, 47.49104783236357], [9.546703764514415, 47.49059004438369], [9.546963689298881, 47.49031365759793], [9.547313739339819, 47.490054926524756], [9.547589765244744, 47.48987034863237], [9.547964529628407, 47.489695351186846], [9.548123478644438, 47.48976574418297], [9.548252804905866, 47.489960334111444], [9.547983133414357, 47.490048096362614], [9.547758116633592, 47.49012050463303], [9.547635637197882, 47.490172050501286], [9.547614224747345, 47.49020614412369], [9.547657352334424, 47.490240266968605], [9.547705717978754, 47.49023945759032], [9.547764125535341, 47.490201351687], [9.54781102170278, 47.49025116854859], [9.547712387189982, 47.49030550986102], [9.547821931354813, 47.490386277829174], [9.548046912248017, 47.490472490116204], [9.548069776662524, 47.49051847164417], [9.548037791648314, 47.49056545290318], [9.547859621085877, 47.49074867984982], [9.547801830100738, 47.49078092644967], [9.547750366560251, 47.490786300169646], [9.547690078146308, 47.49076932380146], [9.547532802867872, 47.49070002435356], [9.547365799491132, 47.49062975933857], [9.547225414136895, 47.4905826534987], [9.547126646319215, 47.49057309012256], [9.547010458632462, 47.49057279612445], [9.546975183479903, 47.49057901705701], [9.546958251103876, 47.490602916211216], [9.546965982825556, 47.49063988837406], [9.546762329597929, 47.49081762183613], [9.54648649334837, 47.49105504342506], [9.546466027622035, 47.491094625880045], [9.546483318220982, 47.4911225978446], [9.546344806146474, 47.49136846681151], [9.546347630019607, 47.49139783603761], [9.546384597034551, 47.491393761716246], [9.546407966905756, 47.491333343078416], [9.546458409065117, 47.49124495392762], [9.54650694215939, 47.49120483323748], [9.546602193848962, 47.49115047368189], [9.546762791607433, 47.491106403857806], [9.546805646082204, 47.49110083655762], [9.546888485872536, 47.491071580034244], [9.546980637110774, 47.49104549175064], [9.547116323948176, 47.49103201580084], [9.547154471732744, 47.49103228331946], [9.547178251411609, 47.49102706349868], [9.54720112705945, 47.491016119983726], [9.547230671637882, 47.49101367418364], [9.54725643385021, 47.49102229181531], [9.547329464014213, 47.49103052485329], [9.547348759010816, 47.49103639923201], [9.547355586866528, 47.49104823203086], [9.547370883606648, 47.49106039629758], [9.547411222109798, 47.49106301703472], [9.547493012757874, 47.49107826096638], [9.54753225405516, 47.49108902608793], [9.547579345905401, 47.4910838671276], [9.54764724202332, 47.491068755978915], [9.547692160072332, 47.49106267392558], [9.547723794131313, 47.491059695071314], [9.54781554948267, 47.49107716840603], [9.547874961535905, 47.491097138767906], [9.547890383490838, 47.4911131244608], [9.547916695990779, 47.49113560551994], [9.547940349617221, 47.49114427042355], [9.5481760802018, 47.491137687596286], [9.548184899818677, 47.49121943684997], [9.548246141821702, 47.49121727665003], [9.548256735021848, 47.49129621356939], [9.548076409234458, 47.49130609599393], [9.547967442575807, 47.491467404109514], [9.547928914545281, 47.49151978595811], [9.547960120667064, 47.4915361227265], [9.548016565580829, 47.49153516572401], [9.548243090805666, 47.49168090139559], [9.548533180615191, 47.49170837076739], [9.548566917079645, 47.49174396906159], [9.548739387388778, 47.49193543228227], [9.548850904036438, 47.49205673150584], [9.549083825546743, 47.49222670427894], [9.549143340858228, 47.492298711583], [9.549171315084903, 47.492352984972214], [9.549206689415643, 47.49250736965187], [9.549240150316237, 47.492575785439634], [9.54929960484153, 47.492648252622864], [9.549382664416404, 47.492665955411304], [9.549443961986045, 47.492664819249285], [9.54950165720094, 47.49261509213781], [9.549512169286444, 47.49251644459682], [9.549526687852746, 47.492397345419924], [9.54957700490162, 47.49236473945797], [9.549720212115952, 47.492353039602506], [9.549981121517877, 47.492377654830996], [9.550106548852256, 47.492444356313925], [9.550171623387799, 47.49253596541057], [9.550149984564662, 47.4925730326613], [9.55013088107927, 47.492605753001655], [9.550120645854465, 47.49267157401929], [9.550089310172188, 47.492694782725444], [9.550035583504567, 47.492683329004805], [9.549983217602048, 47.49270579672291], [9.549932669614599, 47.49277236223614], [9.5498972690684, 47.49281488989546], [9.54986353849248, 47.49289812615051], [9.54988954617879, 47.49306060801894], [9.549891416390107, 47.49309165005992], [9.549894523529499, 47.49314313804878], [9.549918667855744, 47.49318116932519], [9.549961309330477, 47.49321699167643], [9.54998722337904, 47.49323875077007], [9.550097284367657, 47.49338074187239], [9.550266790741905, 47.49346959051791], [9.55042474073779, 47.493590319834425], [9.550481393194929, 47.493641307411835], [9.55058286821655, 47.49363564954633], [9.55091423746792, 47.49372981127791], [9.551254426084316, 47.49380268576167], [9.551595031120678, 47.49394812270052], [9.551880171488646, 47.49403004398317], [9.55211369790066, 47.494099249651164], [9.552271131801325, 47.49412472407731], [9.552346377884733, 47.49414748896072], [9.55238972790393, 47.494162010257334], [9.552456893988431, 47.49419122966948], [9.552585578845045, 47.49422616303117], [9.552698373287315, 47.49426809852232], [9.552732051264226, 47.4943091220467], [9.552752246311211, 47.49437963262088], [9.552719894947447, 47.49442403080246], [9.55269747470573, 47.49447613805251], [9.552706728604639, 47.49455693439384], [9.55276762674249, 47.494685209841975], [9.552755177108724, 47.49474501644835], [9.552717347974825, 47.49477152042614], [9.552674461693952, 47.49479136891108], [9.552643303445057, 47.49482338319497], [9.552657518837774, 47.494861370399796], [9.552797254974397, 47.49493546417109], [9.55287502029641, 47.494991490163024], [9.55294837532434, 47.49501273272003], [9.553121294078139, 47.4950199197974], [9.553304537956645, 47.49504604589107], [9.55345724679706, 47.495076796471636], [9.55356826669425, 47.495123450993866], [9.553600438659762, 47.49515161788867], [9.55361705921797, 47.49520532402817], [9.553653800112404, 47.49527057464779], [9.553708500147103, 47.49529272452257], [9.553760475276283, 47.49529877428665], [9.554012075498447, 47.495300545092334], [9.554096479105553, 47.49531484608741], [9.554179658973531, 47.495340424868566], [9.554210793082126, 47.49535451205607], [9.554239429180956, 47.49538888846691], [9.554239132301419, 47.49542712277559], [9.554186232932771, 47.495484241149676], [9.554155204001457, 47.49556685348413], [9.554196535829545, 47.49568872007913], [9.554275911595502, 47.495790808144505], [9.55434813890606, 47.495826699829884], [9.554448098023764, 47.49582388249508], [9.554495782153017, 47.49580282998939], [9.554582801295972, 47.495799106502055], [9.554664636730905, 47.49583257301929], [9.554740288267283, 47.49592011750372], [9.554749663363978, 47.49595819296506], [9.554784715568903, 47.49599131828845], [9.554839084852173, 47.496024135323644], [9.554875838472254, 47.496067981106485], [9.554883119303819, 47.496091465489975], [9.554899121546057, 47.49612193411494], [9.554913258286964, 47.496158896820056], [9.554913577409925, 47.49619325111547], [9.554893767421575, 47.49622652499868], [9.55488621090691, 47.496248130403735], [9.554907055206563, 47.496268505644366], [9.554936902419799, 47.49630160015607], [9.554946569490667, 47.49635867225242], [9.55494743686879, 47.49643380063], [9.554939268811953, 47.49649405999986], [9.55493385752082, 47.4965435353494], [9.5549151506082, 47.49657750882933], [9.554894898746541, 47.49659935540452], [9.554887429493249, 47.49662382031322], [9.554889758733738, 47.496655978525055], [9.554949132233565, 47.496794447549576], [9.554995603573023, 47.49690095170352], [9.555033481271929, 47.49695033711036], [9.555097898143053, 47.496977068147544], [9.555132585788172, 47.496999349471025], [9.555139304281596, 47.49703571005371], [9.555127193428069, 47.49710230358084], [9.555077225567576, 47.497177048087735], [9.555020654195422, 47.49725232724023], [9.554916731636728, 47.49738139356092], [9.554766043163735, 47.497508273957436], [9.554665710589076, 47.49758548677918], [9.554528187641054, 47.497665268921125], [9.554389482719497, 47.497751721375806], [9.554284132528581, 47.49783531458005], [9.554201239202717, 47.49792876292038], [9.554104003510313, 47.4980304537966], [9.554023627617083, 47.498128795361474], [9.55398520170014, 47.49816636808508], [9.553977106222904, 47.49819412830959], [9.553985717712138, 47.49822903277569], [9.55405331227251, 47.498326234937565], [9.554147595473896, 47.49841818068455], [9.554352881872735, 47.49859383979198], [9.554415748566692, 47.49866062785676], [9.554436129403587, 47.49869468731019], [9.554558918428661, 47.49879364216246], [9.554603712797473, 47.49883999515951], [9.554628945897658, 47.49887854541065], [9.55464445766794, 47.49889200941633], [9.554685521511637, 47.49890935181586], [9.554750312526531, 47.49896176307098], [9.55483537479171, 47.4990601389145], [9.554906461038746, 47.499164276521626], [9.555018604843406, 47.49933025637332], [9.555057812833947, 47.499439340497936], [9.555056018055865, 47.49947261777576], [9.55504209951387, 47.49949450146106], [9.554984284989136, 47.4995282903879], [9.554928729200826, 47.49957045932709], [9.554885318918057, 47.49961823624904], [9.554741980224158, 47.49971346498125], [9.554535821131926, 47.50045007879661], [9.554515632787048, 47.50046855916929], [9.554545055702249, 47.50048160688232], [9.554662245254056, 47.50049017078178], [9.554793335798905, 47.50049973997637], [9.555081472959463, 47.50050920810116], [9.55512805780173, 47.500592137515966], [9.555182592091183, 47.500672645262426], [9.555270138469607, 47.50073329538321], [9.555219653634241, 47.50078180462703], [9.555158505221456, 47.500840594608846], [9.55509818866831, 47.50086093357099], [9.555064098456857, 47.50089438770208], [9.55494920005052, 47.5009587220124], [9.554972639203156, 47.50098319750687], [9.555010860404114, 47.5009734564186], [9.555084154327982, 47.50095626303534], [9.555169240971862, 47.50099548196826], [9.555471584427305, 47.50112354170887], [9.555463998910135, 47.50121876223529], [9.555490559142862, 47.50124092219008], [9.555566816809089, 47.50113313615227], [9.555746967371466, 47.50113271065437], [9.556008654537914, 47.501095371463855], [9.556046629384214, 47.501118438112336], [9.556103792284688, 47.50122321663492], [9.556126377089136, 47.501222902363054], [9.556109522500766, 47.50107346235515], [9.556186343836048, 47.501055834814565], [9.556395328216022, 47.5009900203755], [9.556551540253572, 47.500937290508666], [9.55662581955949, 47.50093850430713], [9.556768499400134, 47.5010859113707], [9.55679296004501, 47.501078032029724], [9.556695282163334, 47.500939788218055], [9.556770752699771, 47.50088594457914], [9.556884318863519, 47.50085852999174], [9.557006928586048, 47.50085681654961], [9.5571235283541, 47.50086753905201], [9.557209409056426, 47.50091198730178], [9.557226521831693, 47.50089697268946], [9.557094301934155, 47.500803150807144], [9.557040459596207, 47.50074074261787], [9.557048187366657, 47.50069080177681], [9.557015787282257, 47.500642720299986], [9.557156327521488, 47.50062120860291], [9.557284304333177, 47.50060160913517], [9.557470912463623, 47.50057404435802], [9.557629483061964, 47.50058418685948], [9.557834867250936, 47.50063860161902], [9.558083402195829, 47.50072499339438], [9.558193211299598, 47.50076951555085], [9.558269327778298, 47.5008201249768], [9.558380548142642, 47.50094662115579], [9.55852344305507, 47.501099627457286], [9.55858771540063, 47.50117847976387], [9.55862538907226, 47.50128016822069], [9.55867134000329, 47.50147385387085], [9.558698205948915, 47.501589173023085], [9.558760865982766, 47.501707795197824], [9.558931113675442, 47.50187108749251], [9.559052313778048, 47.5019707506462], [9.559235165894066, 47.502043273244986], [9.559402726860924, 47.50205267285705], [9.559811415454295, 47.502019190137226], [9.560058253491798, 47.502041873060755], [9.560337128453929, 47.50210243997592], [9.56061876194481, 47.50223540071342], [9.560846747621952, 47.502375777535896], [9.560913827431937, 47.50244334868705], [9.560954399394202, 47.50253602212642], [9.560961846612031, 47.50264935766995], [9.560940491856563, 47.50272603611961], [9.560946843431253, 47.50276638887593], [9.560987135843348, 47.5028085034081], [9.561029627425066, 47.50290900513006], [9.561042972942278, 47.50305033958735], [9.561027843297163, 47.503121316677706], [9.560989279034379, 47.50316902500069], [9.56098727516794, 47.50320163144065], [9.561008265240886, 47.503245143618244], [9.561045998003781, 47.50330527239428], [9.561107220497476, 47.503475149518216], [9.56112277173169, 47.50355169101419], [9.561111321081354, 47.50358812354151], [9.561073099099088, 47.50359786661446], [9.561047276966091, 47.503636829991095], [9.561067779987455, 47.50366814194695], [9.561120192649014, 47.50369322751487], [9.561141155754765, 47.503736389274295], [9.561149911675516, 47.50379803912278], [9.561173662421895, 47.5039156461755], [9.561161406988845, 47.50397647575679], [9.561121747114262, 47.504031671804995], [9.561128940032152, 47.504088095988934], [9.56120146318606, 47.504134315891264], [9.561230613484081, 47.5041813312406], [9.56130489641401, 47.5041901626088], [9.561371997674465, 47.50413687436801], [9.561377049210728, 47.50408915980908], [9.561367607026678, 47.504052219741155], [9.561368047889593, 47.5039342860165], [9.56138027147291, 47.50387233236979], [9.561378762942025, 47.50383190882021], [9.561332360275836, 47.503756185152454], [9.561316289724065, 47.50371485007693], [9.561325409877146, 47.50365630924697], [9.561344844799564, 47.50357179343873], [9.561336466159524, 47.50338995288804], [9.561309878112397, 47.503326299870885], [9.561262942859793, 47.50314947574993], [9.561238860486087, 47.503022895690606], [9.561249254480106, 47.50295536130055], [9.561234879397016, 47.502916244400545], [9.561188764349, 47.502884925469566], [9.561165398900275, 47.50282083537572], [9.561109874113953, 47.50250604456957], [9.561117721104026, 47.50233384795392], [9.561103472539997, 47.5022560049557], [9.561099014746597, 47.50217231418933], [9.561091413968867, 47.50205447389902], [9.56109995689308, 47.502024032782586], [9.561121788225869, 47.50200351473697], [9.56112052274097, 47.50196983459965], [9.561083306749635, 47.50194057463082], [9.561073623286992, 47.50188062420579], [9.561064050433798, 47.5017965143998], [9.561008427779944, 47.501646787130014], [9.560997035168437, 47.50160088563773], [9.56101638044901, 47.5015141311616], [9.561043653516371, 47.501422759688936], [9.561084225361393, 47.501385127249996], [9.561115685204372, 47.50136335296825], [9.56117544827776, 47.50136476708006], [9.561200593398956, 47.50134644653365], [9.561241732520537, 47.50133664986017], [9.56121466062215, 47.5010926486134], [9.561186724605662, 47.50090978083506], [9.56112480563656, 47.50080450710488], [9.561034299577036, 47.50070881767679], [9.560935599229753, 47.500650625676485], [9.560810065492294, 47.50060536879953], [9.560554937201582, 47.50053417394087], [9.560390895197358, 47.50049075628875], [9.560247903930767, 47.50040959626386], [9.560139741792089, 47.50031422991784], [9.56007425259607, 47.500241842786565], [9.560028999584754, 47.49998458873566], [9.559983117377469, 47.49962773875698], [9.559988456496322, 47.499056024241305], [9.55998834696654, 47.49905095185155], [9.559983697552257, 47.49885397243696], [9.56004946257009, 47.49867688106899], [9.56019350411858, 47.49874157513388], [9.560334575013108, 47.49877407789625], [9.560584138178285, 47.498787577294124], [9.560601439989291, 47.49873743382405], [9.560618058702573, 47.49871108236051], [9.560647081603884, 47.49846937199668], [9.560796879673848, 47.4982257079511], [9.561150442224601, 47.49824675480322], [9.56112638423661, 47.49815130441245], [9.561029202036773, 47.49804889946636], [9.56109898191115, 47.49802497375654], [9.560999071232837, 47.49790675713735], [9.561194854889253, 47.497559060331774], [9.561208552691792, 47.497498815907484], [9.561228585684711, 47.497355861329616], [9.561355872860696, 47.497157676065214], [9.561416631390307, 47.49707377848847], [9.561502377496282, 47.49691416117502], [9.561573898337452, 47.49672812814568], [9.561678657046707, 47.4964828326275], [9.561710777149647, 47.49638560473061], [9.561742486946498, 47.49633726595119], [9.561805890080425, 47.496261452970174], [9.561831116651227, 47.496230282727204], [9.561845774816991, 47.496208726452934], [9.561857637992668, 47.49615874540253], [9.561876596105764, 47.49609063081188], [9.561917520290713, 47.49598948941877], [9.561968756122605, 47.49587065035232], [9.562015106675332, 47.49575946734185], [9.562055304179028, 47.49569630729504], [9.562077537428955, 47.49567229967814], [9.562090915330984, 47.49565027201304], [9.56210382307877, 47.49559221930755], [9.562138247884004, 47.495529120123265], [9.56224255019812, 47.49533033871905], [9.562298622655478, 47.495244205332945], [9.56231712263129, 47.49520219088064], [9.562342509471282, 47.495176712779994], [9.562372261542428, 47.495147852613115], [9.56239830427483, 47.495142777077746], [9.562436496752444, 47.49513943093044], [9.562668409765124, 47.49520896912535], [9.5628986099637, 47.494885208442554], [9.563473322143912, 47.49422226152802], [9.56412562632634, 47.49359318207598], [9.564851240458854, 47.49300213218908], [9.565645369046106, 47.49245303143722], [9.566502700717018, 47.49194949403056], [9.57667742607827, 47.48645004050156], [9.575696508553646, 47.483950507496324], [9.577813482959247, 47.48279812398422], [9.576932038077194, 47.48135553056081], [9.577184381231135, 47.4811140488095], [9.577287181051535, 47.481032099671424], [9.577420904983391, 47.480973592426885], [9.578504294039885, 47.48080306888064], [9.579469048895625, 47.480639049336574], [9.579567818686696, 47.4805998377849], [9.57964503613575, 47.4805468182914], [9.579702461384375, 47.48048151481536], [9.579548145077952, 47.480194343428494], [9.579624021007033, 47.480178552516406], [9.579606771316088, 47.48014700341566], [9.579686721081107, 47.480107798249385], [9.58021307726652, 47.47998220666022], [9.580728182969134, 47.47983767438459], [9.581232197212849, 47.479676852331366], [9.581722505395058, 47.47949609268394], [9.582187572969282, 47.47928879776353], [9.582620939019398, 47.47907346890534], [9.58299397594179, 47.478874417358696], [9.58308110014825, 47.47884045680229], [9.583089573025157, 47.478860660968756], [9.583137639605166, 47.47883131144006], [9.583102974701122, 47.47873393683373], [9.583006964083841, 47.47855415125029], [9.58286678795576, 47.47837767657789], [9.58266755773029, 47.478219031184594], [9.582486246298881, 47.47811439703715], [9.582256411639069, 47.478010643862845], [9.580367362284276, 47.47724416516302], [9.580189703094938, 47.477148295265316], [9.57943146398094, 47.4765909666754], [9.578728313248085, 47.47608866720294], [9.577884166044774, 47.47557358644165], [9.577791931154433, 47.47550256715262], [9.57748110132735, 47.47520288377988], [9.577381432206542, 47.47508590853091], [9.577212831769385, 47.47484211327276], [9.577092635725123, 47.474581632704286], [9.577048285536266, 47.47445227086204], [9.576980197349247, 47.47418668799277], [9.576859693100422, 47.473792090232834], [9.576670657511736, 47.47345970673495], [9.576226561297343, 47.4727222913758], [9.576059137168638, 47.47244702722159], [9.575949848141782, 47.47228397344661], [9.57586235926291, 47.472169713943934], [9.575765938479275, 47.472055079624454], [9.575579150541405, 47.47186910181644], [9.575418074836971, 47.471734167204936], [9.575197975289854, 47.47156221014018], [9.574989177828257, 47.471422164306816], [9.574607020468745, 47.4712109030509], [9.574585042242001, 47.471046613936515], [9.574586489001566, 47.47076616820075], [9.574598296880104, 47.47070467850157], [9.574632658117165, 47.4706113627408], [9.57468749636511, 47.47052273428021], [9.574760662099054, 47.470440119393366], [9.574772245239197, 47.47044240673088], [9.574850160099057, 47.47037793258954], [9.575293586572696, 47.470089124834374], [9.575374219650593, 47.47002264771671], [9.575474804147458, 47.46991674464926], [9.575523433893084, 47.46980740172346], [9.575566766711502, 47.46973498257708], [9.575474307375552, 47.46957549520809], [9.575304958953858, 47.46935602162676], [9.575270916675693, 47.46929706138991], [9.575250011915951, 47.46923581609521], [9.575239979983117, 47.46917305628932], [9.575304570830191, 47.46897914085182], [9.575323321142092, 47.468752962219476], [9.575324695452931, 47.46856260788689], [9.575264193011284, 47.46840583195698], [9.57518667983938, 47.46827546247375], [9.575037672411757, 47.46819523289073], [9.574408281154678, 47.46763094011924], [9.574125612637214, 47.46727787825946], [9.574042378699124, 47.46718766060476], [9.57392364074637, 47.46708791349052], [9.574046874168923, 47.467008845658874], [9.574408396996095, 47.4670963176695], [9.574571374955237, 47.46712607599592], [9.574745625571108, 47.46714908482651], [9.574907291878533, 47.467166000751], [9.575167702493982, 47.467178950968986], [9.575475778727549, 47.467179476377375], [9.577081572715503, 47.46715632792071], [9.576448818387265, 47.46653931204478], [9.576297772679577, 47.46638683781721], [9.576184609446708, 47.46622679781318], [9.576143008412338, 47.466096610892], [9.576075709530839, 47.46542013260581], [9.576077249729137, 47.46538285532547], [9.576032027759492, 47.464972729887016], [9.576063140668287, 47.46484462711544], [9.576114583704593, 47.46468658324033], [9.57613942686966, 47.46457778743205], [9.576248842888246, 47.46444333373324], [9.576343386830487, 47.46437526711832], [9.576569259851828, 47.46427893228022], [9.576494253985237, 47.46398640463491], [9.576570501677299, 47.46391011067898], [9.57658799628961, 47.463521141148355], [9.576626337568056, 47.46288798797844]]]]}}]}