{"type": "FeatureCollection", "features": [{"type": "Feature", "properties": {"bfs_nummer": 3312}, "geometry": {"type": "MultiPolygon", "coordinates": [[[[9.008079069935134, 47.17220274403114], [9.005598462712296, 47.17398741415951], [9.004725044408099, 47.17325981954484], [9.004724540605237, 47.17326018626559], [9.004284021342452, 47.17358088149595], [9.002567112533425, 47.17477947952745], [9.002022321784516, 47.17426905302406], [8.996352825023424, 47.17652257000894], [8.997194451022336, 47.177413243062865], [8.99759662091041, 47.177852581819224], [8.996971788911976, 47.17817153469823], [8.996225042408525, 47.17854070664414], [8.995508176860898, 47.17888059044435], [8.994853083607486, 47.17918067934294], [8.99401162124215, 47.179547078305056], [8.993241280485632, 47.17986850789679], [8.9923253241244, 47.18023355254147], [8.991601709763735, 47.18050620881808], [8.991438595776657, 47.180559960277314], [8.991173537754461, 47.18052008563502], [8.991052217523935, 47.18056356537119], [8.990962195920824, 47.180708011879105], [8.990855855717976, 47.1807766413731], [8.989459266826424, 47.18124937442274], [8.987909851304826, 47.181727566852594], [8.98630984171024, 47.18217195294908], [8.984519408290158, 47.18260268129708], [8.983934501776059, 47.182718693869774], [8.982806269156706, 47.18295237416629], [8.982423431717773, 47.18301527776667], [8.981489246393899, 47.18312282882677], [8.980726816550797, 47.183256130525166], [8.98026499572184, 47.18331711656401], [8.980112015701474, 47.18332483391237], [8.979955015142629, 47.18331209296851], [8.979739000740576, 47.183252092166676], [8.979556077365032, 47.183154843346514], [8.979324437563069, 47.18293671330511], [8.979228827497696, 47.18285215825485], [8.979118716636517, 47.182771755726264], [8.978995131453892, 47.18270548701437], [8.978861476100855, 47.18265013962191], [8.978713200647155, 47.18261496007597], [8.978555578842121, 47.18259888790246], [8.978317884089858, 47.182601978987265], [8.977520246666131, 47.18266230134508], [8.977364901472987, 47.18265655203615], [8.977247691568161, 47.18258658870962], [8.977146982195467, 47.1821356472538], [8.97706505540144, 47.18182337795856], [8.973968108101081, 47.18228674197696], [8.973321061560837, 47.180290730386645], [8.97105194747499, 47.18063186549226], [8.97074377332862, 47.17965151496965], [8.970482264631691, 47.17887242282351], [8.970369357473821, 47.178804662339374], [8.970110184132237, 47.178812772685866], [8.962144823467144, 47.179377640452785], [8.961985539191819, 47.17946017769442], [8.961440494153095, 47.18253612831913], [8.961493716390603, 47.182889433078884], [8.961863817606636, 47.183536864712465], [8.961920044969396, 47.183690229051194], [8.961905388655602, 47.183922944862154], [8.961835550458451, 47.184204899622166], [8.961805369877974, 47.1844045427708], [8.96158769919505, 47.184634718668704], [8.961082093982172, 47.1851116883345], [8.960932174103116, 47.185384787823864], [8.960429035875247, 47.18817999819343], [8.960309148235678, 47.18876225675561], [8.95875538107136, 47.194649379246215], [8.958386644562275, 47.196063461381996], [8.957863431076548, 47.19802983547743], [8.957670248052393, 47.19873003655904], [8.957491499444428, 47.19943996070284], [8.957590030484564, 47.19950253466027], [8.965339403296085, 47.19815993143036], [8.965356245699244, 47.19819506385343], [8.965796208127022, 47.19970207893634], [8.969073447207018, 47.210953398317855], [8.96901262588944, 47.211146711327935], [8.969221822629613, 47.21182778994802], [8.969692484727476, 47.21176318087026], [8.969866812851512, 47.21149215850367], [8.974302870338944, 47.212801050717545], [8.976803548611555, 47.20890867253367], [8.980010151308552, 47.20946075879236], [8.983430263080434, 47.2100598220588], [8.994142939683567, 47.2075005821968], [8.995091289345073, 47.207280737229524], [8.996111136516802, 47.207077828871135], [8.997150638269868, 47.2069294333576], [8.999515920481919, 47.206566828439], [8.999547632726108, 47.20666275048954], [9.000876668451724, 47.20646109430506], [9.001048383206744, 47.206441760458844], [9.001169427180939, 47.20644173680665], [9.001425959242573, 47.20646929207864], [9.001558434576328, 47.2065080584981], [9.001707503715265, 47.206568020024015], [9.00370486987733, 47.20747881596589], [9.003833373444268, 47.20749946995225], [9.003954599162773, 47.207576801531296], [9.004206100501882, 47.20780243112976], [9.004105275200004, 47.207938929295125], [9.004284882546889, 47.208041097546534], [9.005369460986842, 47.20715512337915], [9.005432306955743, 47.207182346057905], [9.005893615279957, 47.20680549250151], [9.00594307720841, 47.206830998937356], [9.006367914578647, 47.20650719752741], [9.006669062614542, 47.20642688679401], [9.00695022710456, 47.20620094236044], [9.007245572961308, 47.206368382109595], [9.007985585575629, 47.206020378934234], [9.008070743392048, 47.20606114145926], [9.00858140166657, 47.205985624709704], [9.008740140247946, 47.20585274073048], [9.008821401854359, 47.20574286487414], [9.00893464562956, 47.20565216501876], [9.009095862670511, 47.205590228936394], [9.010617632899216, 47.20536351824184], [9.011001355479587, 47.205272441770255], [9.014262282883607, 47.20430469395647], [9.014390723053284, 47.204291060335684], [9.014404327092796, 47.20331406207626], [9.014428088420887, 47.20326479583626], [9.014953091412492, 47.203077488321576], [9.01519214127262, 47.20301474745484], [9.015440281971028, 47.202986787842676], [9.016183807127332, 47.2030787820017], [9.016327475252481, 47.2031205358578], [9.016740271822334, 47.20332655581987], [9.016907590172117, 47.20336942410198], [9.016943116546399, 47.20334761528628], [9.016874653641171, 47.20303583536056], [9.016734908215534, 47.20290785091042], [9.016042762223694, 47.202687037029285], [9.016137577671595, 47.20215989169905], [9.017354240317783, 47.20218665450181], [9.0177243742842, 47.202231057916286], [9.018884826193752, 47.20245010247882], [9.019711620002655, 47.20259922812202], [9.020459165218318, 47.203349864272134], [9.021245191403555, 47.20363737483278], [9.021942258997338, 47.203719643171226], [9.021998590177214, 47.20353120991354], [9.022317581853358, 47.20356883542562], [9.022455930440852, 47.20355559580001], [9.024304158944915, 47.2037638795247], [9.025315334008596, 47.20254867467687], [9.025467317676771, 47.202376725061015], [9.026244631485257, 47.20157783796446], [9.027410094049529, 47.20048867666729], [9.029536954868618, 47.20180489237683], [9.031854956470491, 47.2000539136802], [9.031930684522258, 47.20005699480183], [9.03201287684338, 47.20009095251061], [9.032061101256373, 47.20007472086635], [9.030650993601604, 47.19827146189274], [9.03063688155564, 47.19813797736365], [9.03068537594538, 47.198011174937456], [9.031632473750095, 47.19623487168615], [9.034158994326152, 47.196879382482464], [9.035730746633392, 47.196715354852785], [9.035722439061152, 47.19668911014283], [9.03571933817368, 47.19659855775396], [9.035788347330405, 47.19659337200945], [9.035728598384166, 47.19640924076856], [9.035092792334847, 47.19517494403038], [9.034797960393286, 47.194538847015664], [9.034554893201966, 47.19418154568289], [9.033998667924811, 47.19345884486017], [9.03395913617106, 47.193399484742436], [9.032433922689622, 47.1914332863242], [9.03226592096793, 47.19125596951361], [9.031988142933656, 47.19099058460502], [9.030222801942157, 47.18917649460265], [9.030121818435724, 47.18914332640916], [9.030078044300092, 47.18909902996359], [9.030021269688978, 47.18897220792916], [9.029691611130174, 47.18857201104636], [9.02892036067137, 47.1877627977521], [9.028063266373485, 47.18689157304346], [9.025405876701358, 47.184209874675894], [9.024351005432132, 47.18311900977113], [9.024070803823758, 47.182800695252006], [9.026562524543134, 47.180795633902996], [9.026573330845771, 47.180732949540605], [9.025386380727335, 47.179273761375235], [9.02389074306815, 47.176816452544294], [9.023743466587067, 47.1766997360613], [9.017357339746878, 47.173981429371786], [9.0169890341174, 47.17385418858111], [9.016530143075556, 47.173607500388016], [9.016427191780329, 47.17357967366811], [9.016368237027898, 47.17359423729619], [9.016325497444123, 47.17354930088932], [9.016380432047091, 47.1735330829645], [9.01634469961445, 47.173286913873376], [9.015863259617761, 47.17316205792897], [9.015668562144446, 47.173078711015485], [9.01549592323425, 47.173081698367554], [9.013962286001838, 47.17269800930007], [9.013736619989876, 47.17265647652976], [9.013513009360206, 47.17264396508859], [9.013210908461533, 47.17264566248332], [9.01187475742113, 47.172878169543914], [9.01138954984687, 47.17287237092169], [9.01054873444365, 47.17268574985427], [9.009684110982233, 47.172460466313446], [9.008079069935134, 47.17220274403114]]]]}}]}