{"type": "FeatureCollection", "features": [{"type": "Feature", "properties": {"bfs_nummer": 3342}, "geometry": {"type": "MultiPolygon", "coordinates": [[[[8.975006828621186, 47.30711927582834], [8.97505502792761, 47.30721259873583], [8.975135830490157, 47.3073256484648], [8.975274824789876, 47.30755422624189], [8.975313973662457, 47.30765289675998], [8.975310486233752, 47.30775209491278], [8.975354732252251, 47.30777967540341], [8.975391245821188, 47.30781991460831], [8.975442753039157, 47.30786088957599], [8.975456120522715, 47.30792639251514], [8.975528757322342, 47.30799239208373], [8.975586024657296, 47.30803679874887], [8.975670960253717, 47.30814265843164], [8.975719610719365, 47.308224019257274], [8.975825441691077, 47.30828705794512], [8.975863833227637, 47.30834148624116], [8.976044263810433, 47.30853716091245], [8.976107599827039, 47.30859750877518], [8.976201636010801, 47.30862484502794], [8.976287532559304, 47.30870936146619], [8.9763419888385, 47.30882552277727], [8.976394561960692, 47.308916726716554], [8.976483339904208, 47.30902362325175], [8.976539480185235, 47.309124297785175], [8.976618921057481, 47.30922522018864], [8.9766646210748, 47.30930141146755], [8.976690368979268, 47.30935813092855], [8.976700247851634, 47.309362139618194], [8.97682505868909, 47.309477257529096], [8.976976158260356, 47.309649837239576], [8.977042308394948, 47.30979436988882], [8.977151991571155, 47.309975604535126], [8.977247512652886, 47.310065776841654], [8.977286556103595, 47.310117038073294], [8.97733473637947, 47.31014800806318], [8.97735170154554, 47.31018680716526], [8.977521373716014, 47.31042642425145], [8.977540621295345, 47.310457213364664], [8.977551766561723, 47.31048775069554], [8.977600712322378, 47.31051222417359], [8.97763441970421, 47.31058481467633], [8.977631485373674, 47.310641278058476], [8.977676364126362, 47.31071227182145], [8.977743600923816, 47.31080358597225], [8.977755420266886, 47.31085243074098], [8.977744453519717, 47.310993998815796], [8.977763191048197, 47.31102584012505], [8.977971043322583, 47.31118110449887], [8.977988986977, 47.31121619315648], [8.978008674649395, 47.31123883482796], [8.978074156857549, 47.31127388327088], [8.978144459335347, 47.311333867797444], [8.978164662743032, 47.31139361229411], [8.978242703653896, 47.311485214369284], [8.978344151375026, 47.31157477654781], [8.978390281567387, 47.31162123015876], [8.978473479511724, 47.31168984080908], [8.978689215423271, 47.311914099363825], [8.978983981763113, 47.31219994383503], [8.979285087059532, 47.31253569488482], [8.979494895204404, 47.31275600055597], [8.979727899650932, 47.31298247318391], [8.98001675485267, 47.31320073209076], [8.980250067158407, 47.313419910968626], [8.980576927654928, 47.31381388334648], [8.9809222169173, 47.31413545935693], [8.981235502261107, 47.31448967691503], [8.981688678206632, 47.315065110333926], [8.981782321877198, 47.315385729561164], [8.981881614633846, 47.315676595146904], [8.981994418915443, 47.31605994101011], [8.98210877411064, 47.31629977737348], [8.982219103767646, 47.31654677377522], [8.982525443161418, 47.3168934214658], [8.982865394461351, 47.31718042395674], [8.983316809708821, 47.31768965882596], [8.983614231540093, 47.318048039978684], [8.983999524487855, 47.31849312729414], [8.984248117660659, 47.318827423291104], [8.984951207977053, 47.31938705600131], [8.985915443271168, 47.31930391139763], [8.986468057741085, 47.31930875167313], [8.987647924820543, 47.31937066355457], [8.988092146450192, 47.31914812307879], [8.98849680844659, 47.31899291918772], [8.988744174920114, 47.31885876453938], [8.988893915906585, 47.31872306912135], [8.989133906889741, 47.31858148265708], [8.989311823099328, 47.31850443239986], [8.989539274111236, 47.31838434364903], [8.989819903855544, 47.31822643935827], [8.98996321357245, 47.318266390091836], [8.990337376535614, 47.31807543517922], [8.990560929744815, 47.31799748096485], [8.99079955284609, 47.317940095012744], [8.991467806263941, 47.317868756947], [8.991802975751742, 47.317802350853135], [8.992137151650573, 47.31774730062337], [8.992524741621983, 47.3177057261612], [8.992648480072857, 47.317738702512], [8.992699523986756, 47.317589065365055], [8.992767579430735, 47.31750797460214], [8.992995905067447, 47.3172921373319], [8.993192723493472, 47.31705245209706], [8.993287042154538, 47.31699880441881], [8.993407134873554, 47.31682457544279], [8.993628342276342, 47.3166579066099], [8.993890124262867, 47.31643464388049], [8.994061575572095, 47.316349161699925], [8.994216266098913, 47.31624782007697], [8.99428433226635, 47.31613366717505], [8.99436065740666, 47.315982940952466], [8.994658116060677, 47.31567187854633], [8.994918695205794, 47.315445319368344], [8.995197445705102, 47.31516063351385], [8.99537918265968, 47.31508326176994], [8.99544151535989, 47.314997604610646], [8.995612590277297, 47.31485274267343], [8.995747641724327, 47.314700090976], [8.995918241987654, 47.31458024509805], [8.99602877759054, 47.31445968934526], [8.996111037321624, 47.314446308302315], [8.996237942551929, 47.31431149720879], [8.99643369463381, 47.31408227710486], [8.996623849576924, 47.3138698026511], [8.996553490807797, 47.31379325247979], [8.996624519231432, 47.31362494754935], [8.996607251875082, 47.313497947998314], [8.996647802315016, 47.31330837300697], [8.996722700953198, 47.31312501719501], [8.996835183003954, 47.31287928674124], [8.99688128698919, 47.31271551788991], [8.997004185638927, 47.312423371659804], [8.997191247626917, 47.31214290785858], [8.997239536319832, 47.31210876247959], [8.997446730120082, 47.31202309711738], [8.997648186626014, 47.31185560876804], [8.998067521536907, 47.311635011835754], [8.998329164163488, 47.31143282897813], [8.998695215310057, 47.31125574494494], [8.999193945101425, 47.310985382899254], [8.99951762994215, 47.31090080014563], [8.999742425820042, 47.31077279922864], [8.999868452678149, 47.31072840597754], [8.999940358879716, 47.310746117744706], [9.000083278688827, 47.31067466901189], [9.000203364788506, 47.31069031630048], [9.000411755164567, 47.31066435647575], [9.000543268779694, 47.310614472738884], [9.000677504908344, 47.31053742786834], [9.000822887104869, 47.31052346680896], [9.001060316230113, 47.3104151187121], [9.000979233828827, 47.31028821026493], [9.001076526067086, 47.30997588392167], [9.001133788941296, 47.309856753548495], [9.001095933636446, 47.3093830647409], [9.001127328369508, 47.309203569281074], [9.00125296444108, 47.30879327736304], [9.001322866287131, 47.308407942245594], [9.001313062177042, 47.30809574602204], [9.001290624475585, 47.307995293099154], [9.00136836530634, 47.30770423968405], [9.001549265658847, 47.307384053526], [9.001345855450724, 47.30682764338541], [9.00130496186403, 47.30634397912981], [9.001424509741225, 47.30612932943742], [9.001410576250176, 47.30594350404153], [9.001386855440302, 47.30542891023427], [9.001436715254833, 47.30534487454883], [9.001570046180758, 47.30521306188076], [9.001687823145671, 47.30508399593437], [9.001948889712219, 47.30489807478111], [9.002163740014959, 47.304731403261165], [9.002288399366272, 47.304540763106075], [9.002413116568528, 47.304441443915174], [9.002824779641386, 47.304172521965434], [9.00294400739666, 47.30396949563822], [9.003080456190878, 47.30375031199851], [9.003270443083855, 47.30382526253187], [9.003467194123482, 47.30357878694251], [9.003701355724589, 47.30333494248771], [9.003740032389965, 47.303172350519205], [9.00383436205226, 47.303030513428524], [9.003982010937433, 47.30277805447171], [9.00413213432126, 47.30258749893411], [9.00497338302092, 47.302595103841554], [9.006080544836074, 47.30164511379085], [9.006495755383972, 47.301323523712945], [9.007526472050724, 47.30073591793575], [9.008646295159632, 47.29994214938583], [9.00935016333539, 47.299552025164814], [9.010679655139944, 47.2991932217901], [9.012894882084996, 47.2989594911557], [9.015307940584126, 47.2982535686466], [9.01665905289506, 47.29800213238898], [9.018289170630167, 47.298368157890714], [9.018572544706412, 47.29832361212064], [9.018797288208042, 47.29825337526783], [9.018959429990092, 47.29819082387901], [9.019412894206264, 47.298148956955984], [9.019600677257046, 47.298086413246864], [9.01996027463014, 47.298059280468685], [9.02036897670079, 47.298088032581255], [9.021231353490228, 47.29655210890849], [9.022066278311295, 47.2958780705308], [9.02400008267178, 47.294231000369855], [9.024113386121568, 47.293678418162614], [9.024568976946332, 47.29324447111974], [9.025298314380214, 47.29265651104321], [9.026052972139526, 47.292124172289284], [9.026597959645642, 47.29167332416601], [9.026453706966098, 47.2913851079677], [9.026281466518734, 47.29069026617216], [9.026477019793512, 47.29034347000493], [9.026465970936753, 47.29016231035999], [9.026601051431907, 47.289908589494416], [9.02732441009942, 47.28961505223017], [9.027698530055437, 47.289501847154376], [9.028251034568715, 47.28923845838779], [9.02886267892962, 47.28922039691515], [9.029595781370286, 47.28907200631933], [9.030003527383757, 47.28901447107123], [9.030397211901429, 47.28893238773663], [9.030654457545225, 47.288974896133155], [9.030925652242635, 47.288948660267785], [9.031323285152315, 47.28897591449175], [9.031627066575162, 47.28881094942459], [9.031984038902644, 47.28860170670159], [9.03249963251771, 47.28840538220863], [9.032856856995673, 47.28830301114921], [9.033378354079474, 47.288091491576736], [9.034061807318697, 47.287990274720904], [9.03469426212954, 47.2878815638857], [9.03506955386575, 47.287654076865806], [9.035439241613792, 47.28752615818286], [9.035884078903011, 47.287413211618144], [9.036312838055427, 47.28713468295464], [9.036718303107305, 47.28675796338182], [9.037345387740451, 47.286608023412036], [9.038074824839818, 47.28645819570604], [9.038162891972398, 47.286238115984865], [9.038173818704996, 47.285933447033734], [9.038379682361091, 47.28577014620975], [9.038331910846402, 47.28558662340846], [9.03821940518663, 47.28544751502878], [9.038129963331452, 47.285347409839474], [9.038042417093122, 47.28522144900702], [9.037924978860167, 47.28491861862658], [9.038154297445088, 47.28487002493955], [9.038431460903588, 47.28485489040014], [9.038642191090187, 47.28479140153494], [9.038757277793335, 47.284791315830915], [9.038885014603443, 47.28482067997408], [9.039110940888392, 47.28483847859373], [9.039356802170552, 47.28482972230673], [9.039657039781869, 47.284860153593506], [9.039855022730995, 47.284910303081006], [9.039998729439182, 47.28489817774101], [9.040258245883267, 47.284844392258144], [9.040573779923161, 47.28489504858658], [9.041040696630304, 47.285055864308326], [9.041180190927808, 47.285120119980945], [9.04139012439384, 47.28517283382524], [9.041620574955179, 47.28526064596577], [9.042426328797042, 47.2853316207929], [9.043332774479245, 47.285398128516555], [9.04392335089597, 47.285495702951515], [9.044313742271235, 47.28558871352384], [9.044837308453985, 47.28568114461408], [9.045304031744827, 47.285803658115235], [9.045820064892148, 47.28589257239153], [9.046205562893467, 47.28603848777706], [9.046398506312322, 47.286099185887295], [9.047253018075757, 47.28598651357563], [9.047649189993471, 47.28600957488913], [9.047944276187426, 47.28607622016724], [9.047990577768973, 47.28591844070991], [9.048066876401897, 47.28580091594999], [9.048121813328923, 47.2856103581442], [9.048080570792369, 47.28550891423107], [9.048101953600447, 47.28534772346854], [9.048080568053104, 47.28529927912189], [9.048175579992813, 47.28512893548792], [9.048163559168804, 47.2850122395181], [9.048223716777567, 47.28487160313718], [9.048296430755524, 47.284807610362016], [9.048387436756617, 47.284685957673744], [9.048416542008816, 47.284577009325496], [9.048485067969638, 47.284498610893266], [9.048503163025766, 47.28443227948166], [9.048542535368194, 47.28440687238734], [9.048559667632226, 47.28436472778168], [9.04854184381846, 47.284313822980174], [9.04870004133906, 47.28402403283175], [9.04876190112065, 47.28396572665421], [9.0487749303676, 47.283881391419534], [9.048817472478385, 47.283848445903445], [9.048854521887995, 47.28373379945916], [9.048847421742188, 47.283583919077586], [9.048698773311258, 47.28326862664294], [9.048618879559555, 47.28306656653618], [9.048577465654152, 47.28278146323265], [9.048509427431926, 47.282676093869846], [9.048410511510982, 47.282600276605784], [9.048348757107807, 47.28231794913559], [9.04836196767037, 47.28221023031899], [9.048287146015506, 47.28212056413259], [9.048281826717343, 47.28197004735452], [9.048286675889631, 47.281944537586234], [9.048274795311476, 47.28191488027852], [9.048340613340894, 47.28185507036376], [9.048349157920416, 47.28171406693121], [9.048335308940791, 47.28163360732956], [9.048406362454312, 47.281546195530616], [9.048490115379998, 47.281367004961304], [9.04842885824741, 47.28130757519387], [9.048427978427002, 47.28120652154372], [9.048409553573919, 47.2811470426147], [9.048454021228949, 47.28099477800639], [9.048487516632376, 47.28095079476446], [9.048474715048872, 47.28087087815132], [9.048447493496834, 47.28079675881091], [9.048413880690957, 47.28077152555985], [9.048458252940817, 47.280719113580346], [9.04835312048755, 47.28064394107753], [9.048346772859382, 47.28058907959369], [9.048217448226863, 47.28049374193489], [9.048212289352485, 47.28037790409634], [9.048218874275932, 47.28030035302494], [9.048210340384983, 47.28021462851311], [9.048068318910675, 47.280156326411785], [9.04805443322803, 47.28007856625196], [9.047986617163522, 47.28007030077253], [9.047917112435199, 47.27997533329965], [9.047924925836673, 47.27993501018219], [9.047904400552845, 47.27984398288612], [9.047850876089537, 47.279723044611714], [9.047925822373843, 47.279617918691166], [9.047436781424036, 47.27944198283306], [9.047365694715095, 47.27939710225856], [9.047159920243411, 47.27931694598339], [9.046787627895956, 47.27913136269923], [9.046602469783119, 47.27907068291967], [9.046487935677225, 47.27900093871446], [9.046264369690201, 47.27888256931807], [9.046092805247923, 47.27889396721994], [9.046006809653147, 47.27885394492199], [9.045979736209542, 47.27879073580916], [9.045893674299327, 47.27876474869606], [9.045860311524741, 47.27866343763982], [9.045575205746387, 47.27866958950526], [9.04552848359421, 47.2785609794384], [9.045338989197004, 47.27844527319809], [9.045160814702635, 47.278368327340296], [9.045175540965328, 47.27819877375023], [9.045053008339917, 47.27811613110996], [9.04502521924446, 47.278023378608935], [9.044928950553345, 47.277994213301255], [9.044846595867583, 47.27792486506174], [9.04476325374609, 47.27790573042656], [9.04467634969336, 47.27783454728174], [9.044578963992283, 47.27781612996891], [9.044439476475763, 47.27774195474045], [9.044599743681266, 47.277663630022126], [9.044630417003887, 47.277571952043914], [9.044673271697171, 47.277507291555615], [9.04463460698259, 47.277458574846676], [9.044652877915631, 47.27740678898749], [9.044535300347782, 47.27737935079296], [9.044728178201881, 47.2771643840724], [9.044854512635702, 47.27714634002567], [9.044869858776478, 47.27708347513686], [9.04479054873516, 47.27700279400137], [9.04468248574023, 47.276928648981674], [9.044813795832088, 47.276731543270515], [9.04478417232243, 47.276677077940654], [9.044684371897002, 47.276621386401274], [9.044608629407541, 47.27663333631331], [9.044379971811555, 47.27654385892894], [9.044378425418513, 47.276481904173735], [9.044353927114793, 47.27644882392426], [9.044162355622971, 47.27646282776024], [9.043924818522548, 47.276444634716675], [9.043857777648352, 47.27642064835947], [9.043852748314082, 47.27637340632728], [9.04392905917412, 47.27631486562341], [9.0439139530657, 47.27626529882463], [9.04385607269109, 47.27626943355599], [9.043697959144282, 47.27636390231815], [9.043627674678698, 47.276337109046025], [9.043555417645061, 47.27625305416287], [9.043372834326318, 47.27622259747599], [9.043272706042998, 47.276100947739415], [9.043080061952887, 47.27589977122008], [9.04303483808114, 47.27576774873349], [9.042949577356321, 47.27569563277355], [9.042946244417683, 47.27559352504501], [9.04301041529142, 47.27551898720955], [9.04295741690291, 47.275468256480465], [9.042767690279934, 47.27539573222944], [9.042588230540183, 47.2753468152412], [9.04251064846497, 47.27528208622205], [9.04238037359892, 47.27505752248039], [9.042212177113356, 47.274959300886096], [9.042169874621317, 47.2749041927233], [9.04199348580151, 47.27482540919184], [9.041815290317984, 47.27483830585055], [9.041785299348696, 47.27478775814185], [9.041792745362077, 47.274661560978316], [9.041741586520342, 47.274600269376435], [9.04160100302203, 47.27454244362429], [9.041501468532202, 47.274381784428314], [9.041353892469276, 47.27429575289373], [9.041254772621258, 47.27415281993577], [9.041136758181699, 47.27405152384762], [9.041107951541576, 47.27392942892458], [9.041169507365646, 47.27387651991079], [9.041140781345804, 47.27381830773025], [9.041051815888956, 47.27372518140476], [9.041035853867246, 47.273686628422375], [9.040917690824942, 47.27362789620719], [9.040938768318364, 47.27355946376307], [9.04101311651296, 47.2735461050029], [9.041066694311555, 47.27347270510966], [9.041073751411833, 47.27339911536793], [9.04097731152405, 47.27335992732747], [9.041023844669652, 47.273135503702555], [9.041030770689398, 47.27303376601528], [9.041125862818161, 47.272876149385816], [9.041100683588375, 47.27276653651045], [9.041006924836434, 47.272455952892926], [9.0409107003982, 47.2723983373026], [9.040761389761778, 47.272382024256856], [9.040660771788305, 47.27234448648464], [9.040616381450151, 47.27229279844169], [9.040777024602939, 47.272000962173784], [9.040823117612293, 47.27189224768203], [9.040813004309467, 47.27183052902677], [9.040729450595087, 47.27174671050727], [9.040694438139926, 47.27159919743754], [9.040793113358774, 47.27149363851757], [9.040804637970394, 47.271431052271225], [9.040732755888154, 47.27138510822806], [9.040608605806703, 47.271376425209816], [9.040542969667955, 47.271348773891326], [9.040609603941364, 47.27123084936395], [9.040587908048042, 47.27111040116228], [9.040627609251139, 47.271015099210764], [9.040620421185624, 47.27098478226776], [9.040387487456682, 47.27087332475988], [9.04007082859366, 47.27076695258544], [9.039974713742412, 47.27069522832813], [9.039963255159185, 47.27061065044065], [9.04003271728218, 47.27043320266841], [9.040211269800354, 47.270343689943175], [9.040195547027897, 47.27024475007238], [9.039896826457127, 47.26992765740031], [9.039853317488642, 47.26983783026347], [9.039660601279225, 47.26973399911303], [9.039593106571623, 47.26952173998974], [9.039642790402175, 47.26938995422667], [9.039849475812481, 47.26929237755679], [9.039983784174412, 47.26927018844756], [9.040166384359056, 47.269319263237456], [9.040442753073872, 47.26943636076092], [9.040570711253974, 47.26941088560436], [9.040616048534883, 47.26932858597301], [9.040643854139287, 47.2691245208476], [9.040513259345053, 47.26879953274667], [9.040527597407504, 47.26870649949196], [9.040638269660286, 47.26865692027487], [9.041067229121168, 47.26867676686748], [9.041135284181529, 47.26863450905317], [9.041120079751929, 47.26853482434616], [9.040935114383265, 47.268325404812245], [9.040908539182858, 47.268246704856374], [9.041047168644939, 47.268158087947135], [9.041250486347947, 47.268165642409116], [9.04139308987448, 47.268126225093184], [9.0414487932065, 47.26796048317679], [9.041376385125016, 47.2677154743428], [9.04149691470053, 47.267411437499696], [9.041732421993826, 47.26722342021981], [9.042074121639327, 47.26700806023052], [9.042075941184583, 47.26691197122438], [9.042035990727214, 47.266881714368864], [9.041044704211295, 47.266980224145826], [9.040003047729684, 47.26700964801449], [9.03807850240712, 47.26710853175253], [9.035441191422985, 47.267583248595955], [9.033400901578332, 47.267445986341386], [9.032342555469857, 47.267469714251334], [9.027926454982975, 47.267385349418745], [9.025150124278701, 47.26629420400734], [9.022125002620259, 47.26568331544939], [9.020472693093494, 47.264687907372846], [9.018483414882475, 47.2644381107197], [9.01719343197313, 47.26432722641742], [9.016895661885169, 47.26429540845553], [9.016250260945158, 47.2641987167178], [9.015142356054557, 47.263991746999274], [9.014986069625893, 47.26396680566882], [9.013684462623155, 47.26386403636956], [9.012412531630652, 47.26396075831746], [9.010608260744203, 47.264801691427515], [9.009917128060978, 47.26520767311535], [9.009883252487601, 47.265197249416374], [9.009805288634245, 47.265161697062936], [9.00972440277065, 47.26518852930076], [9.009602639771161, 47.265344296460654], [9.00943044523089, 47.265295265577414], [9.009286046006851, 47.265301102158084], [9.008936902678704, 47.265009880455366], [9.00859707770707, 47.264891170647], [9.008415325182579, 47.264917037028866], [9.008379340568359, 47.26484429693191], [9.008455036733052, 47.264640938013315], [9.008267406833417, 47.2645297799434], [9.008170416549701, 47.26429152824721], [9.00807473085959, 47.26415203862236], [9.008097365021012, 47.26409073510993], [9.008111058294274, 47.264030093163996], [9.007899020836481, 47.26389371740624], [9.007876847383494, 47.26375934408397], [9.007993150601527, 47.263620565962874], [9.007997979810396, 47.263569041097156], [9.007801437000387, 47.26334734868034], [9.007382392266669, 47.263307172622746], [9.007339062575312, 47.263258282608355], [9.007470634482518, 47.26313585036811], [9.007448642092706, 47.26296261026936], [9.00731681480638, 47.262888745665435], [9.007212419783258, 47.26288809757448], [9.007023175727811, 47.26284316376257], [9.006809466498755, 47.262815664325935], [9.006705265271153, 47.26275500742749], [9.00671098132265, 47.2626616375492], [9.006609618629474, 47.262567115727094], [9.006355608845997, 47.262445252671476], [9.006316466508784, 47.26236337874434], [9.006183344013792, 47.26233037385006], [9.006001339277754, 47.26219430575984], [9.006005370508811, 47.26211103460795], [9.00580795609155, 47.26206181055787], [9.005679803478667, 47.26204951895368], [9.005589103487463, 47.26190393206369], [9.005290191756275, 47.26180993571865], [9.005207946560596, 47.261871419197554], [9.004991516501217, 47.261827580228186], [9.004912896064386, 47.261661226777605], [9.00480355430403, 47.26161889184637], [9.004732953150386, 47.26150514792529], [9.004513498857396, 47.2615199061677], [9.004319964460642, 47.261368968173535], [9.00408913625614, 47.26114944453856], [9.003990050131561, 47.26110077085438], [9.0039148456731, 47.26084342630437], [9.003847658993092, 47.26079647837717], [9.00355145417599, 47.2606276725728], [9.003305273233918, 47.260564982285885], [9.003371255315782, 47.26035888840085], [9.003467311920767, 47.260259154813], [9.003471500845286, 47.26009545420499], [9.003378905386969, 47.25995250922778], [9.003152857598055, 47.25987325306506], [9.002947175847405, 47.259528345586666], [9.002379175657664, 47.259350721266316], [9.002237493777079, 47.25933194322308], [9.002043964618556, 47.25929804400109], [9.001779084169263, 47.25931360257108], [9.001582569008942, 47.25914155877656], [9.001313014770584, 47.2590967242374], [9.00099797229586, 47.25903775146683], [9.00097195681875, 47.25891188482357], [9.000832227142208, 47.25873844033613], [9.000750717532682, 47.25857662136749], [9.000556722934922, 47.25843180107582], [9.000151179184229, 47.258260249595], [8.999935966691217, 47.2581263226441], [8.999706250535976, 47.258110542598885], [8.999486487513927, 47.258015279550754], [8.998846999378786, 47.257950259860486], [8.998643940773459, 47.25763966606678], [8.998358046275353, 47.25744219820474], [8.997885568709645, 47.2573763519084], [8.997680844888285, 47.25731623735031], [8.997338599667467, 47.25733796042841], [8.997050572560514, 47.25716273899902], [8.99668207639857, 47.25709584152164], [8.996544989894915, 47.25700782169773], [8.996524076288502, 47.256897899049804], [8.996376525112765, 47.25680445150079], [8.996302461641843, 47.2566889502302], [8.996257003522388, 47.25649407387832], [8.996292028229577, 47.25631313365172], [8.996233637810699, 47.25616413376164], [8.995749793946516, 47.255929571502534], [8.995030121467718, 47.255483458449255], [8.994825047139033, 47.25544223610276], [8.994636504759848, 47.25542463962942], [8.994265674212487, 47.25520041124137], [8.993957990128447, 47.25508403207047], [8.993573720962827, 47.25497442529117], [8.992784636692521, 47.254806403777174], [8.992832460896667, 47.254697084840394], [8.992857225813047, 47.254621811434966], [8.992906749632963, 47.25451192811676], [8.992978048665826, 47.254410207677694], [8.99320955024327, 47.25417425999529], [8.993505800904616, 47.25391630505791], [8.993655144301322, 47.25373139437343], [8.99401628348517, 47.25316955705475], [8.99408946330738, 47.25308310400808], [8.994198523443169, 47.25301640820202], [8.994701958596735, 47.25282752356826], [8.994853432239335, 47.25282934608162], [8.994660312132833, 47.252749547868255], [8.994810702517665, 47.25269605766073], [8.994880148182895, 47.25269328442525], [8.99502412346235, 47.25260874409538], [8.995137625048665, 47.25256078054453], [8.99524164888759, 47.25245193178622], [8.995304825974847, 47.25233518735333], [8.995402267739946, 47.252078959590534], [8.99544080688911, 47.25200135818342], [8.995508417844706, 47.25190439960156], [8.995593562930024, 47.2518115582481], [8.995790663007739, 47.251652241063155], [8.995860738271782, 47.251685614903984], [8.996221401336634, 47.25158988569055], [8.996536453819992, 47.251524090731166], [8.996911209177947, 47.251413315347726], [8.997464644755073, 47.25119009548014], [8.997770485580874, 47.25112163271661], [8.998000244156337, 47.25093224326439], [8.99806861252341, 47.25094560401027], [8.998193224377074, 47.250962512508], [8.998256247388094, 47.2509679207694], [8.998319008816269, 47.250966180440074], [8.998408268272902, 47.250950199956634], [8.998483946851582, 47.25092206027754], [8.998547799923209, 47.25088260135134], [8.998596258748144, 47.25083403960908], [8.998344286742416, 47.25072380725436], [8.998125357158413, 47.25069579587339], [8.997987117018932, 47.250667349103374], [8.997515234484833, 47.2503563522598], [8.997445416363902, 47.25025933560537], [8.997344268084518, 47.25024774935072], [8.997258478121555, 47.25018745582799], [8.997148260657616, 47.250060209049124], [8.99713417968284, 47.24996206922353], [8.99676321465973, 47.24987677256055], [8.996626558483133, 47.249775693518046], [8.99667165424254, 47.249727321749276], [8.996704383587517, 47.24959471345883], [8.996570986981403, 47.249510242248284], [8.996540414026214, 47.24944507896159], [8.996371739588653, 47.24921103444467], [8.996180412791368, 47.249156133991235], [8.996184295542767, 47.24908087184766], [8.996022376025685, 47.24891527875093], [8.995861548726658, 47.24884557186966], [8.99511808983177, 47.248645373829206], [8.994556859950789, 47.24854104920719], [8.99411602878421, 47.24863714507441], [8.994031237832978, 47.24876117790934], [8.993376415117169, 47.24875535185219], [8.993247232745315, 47.248896266788776], [8.992794375111844, 47.248770849235605], [8.99255369140208, 47.24875808229784], [8.992295202690244, 47.24866053933647], [8.992093056666905, 47.24852867985985], [8.991797021023777, 47.24851197966804], [8.991232043590234, 47.248405710200245], [8.990934608434895, 47.248195335611356], [8.990830373623286, 47.24808599470184], [8.99071392244865, 47.24776081625464], [8.990705186038964, 47.24766521287365], [8.990470381421046, 47.24746352914615], [8.99046570796202, 47.24739361846051], [8.990375295972534, 47.2472242657574], [8.990222658630318, 47.2471454442892], [8.989846556359199, 47.2471592353327], [8.989577795695721, 47.2470760301871], [8.989402502086579, 47.246853850318665], [8.989221672846286, 47.24674130213996], [8.988971543652516, 47.246471017932826], [8.988566107779338, 47.24634881523178], [8.987871616353441, 47.24616257686983], [8.987616637390012, 47.24608054018446], [8.987178823989204, 47.24591630539269], [8.987064684761215, 47.24570184647607], [8.986696582174119, 47.24563212367486], [8.98601498804026, 47.245516591883444], [8.985819954386411, 47.24561565197244], [8.98557228396424, 47.245598286325134], [8.984956177134178, 47.245422403048515], [8.984699072450995, 47.24538941871227], [8.983862463597566, 47.24515730168271], [8.983722942527477, 47.24506552115575], [8.983645307795813, 47.2449483506581], [8.983459299660423, 47.244829664514825], [8.98340302397317, 47.24457897141487], [8.98351013441845, 47.24417550650771], [8.983447126729239, 47.243983910839695], [8.983171482389075, 47.24378006125252], [8.982682973268851, 47.24365743142788], [8.982480760401685, 47.243640610576286], [8.982277237108246, 47.24348654972915], [8.982131966665493, 47.243414996304715], [8.982101214018698, 47.24326966737013], [8.981829578859712, 47.24290292742633], [8.98163992190338, 47.2428541888617], [8.981356383075546, 47.24268300774084], [8.981296558930689, 47.242422915217766], [8.980901832597198, 47.24208885845417], [8.980876856950394, 47.24175911717872], [8.980725915270733, 47.241554941906536], [8.980622147640995, 47.241236340354845], [8.980512428591805, 47.24106849785256], [8.980534404145173, 47.24104998611418], [8.980388380502703, 47.24100603243569], [8.979735712258572, 47.24086765828964], [8.979208091489758, 47.240765896378385], [8.97875668607619, 47.240663859836], [8.978562431375405, 47.24060509296863], [8.978199949093893, 47.24054906904266], [8.977680115699217, 47.240401926680136], [8.977490863076952, 47.24032183291681], [8.977062232394804, 47.24022509015122], [8.976729756536072, 47.24018246144503], [8.976512746479132, 47.24011317249349], [8.976391842526338, 47.23995136759447], [8.97622163280275, 47.23991180690885], [8.975956619060813, 47.239897099495316], [8.975327628110756, 47.23974975717485], [8.975094646771531, 47.23968536572288], [8.974884553938782, 47.239590045045], [8.974794006107764, 47.23952862923775], [8.974703855651182, 47.23943462341652], [8.974543951549423, 47.239353224802876], [8.974314398837867, 47.239258666336504], [8.97420744808411, 47.23924833403061], [8.974094139149308, 47.239271399733084], [8.97356148825861, 47.239339817726005], [8.973363440802107, 47.23934085535389], [8.9732279290466, 47.2393847186564], [8.972756677398145, 47.23939436952242], [8.972512813042457, 47.239326645355455], [8.97242569613139, 47.23917710820434], [8.972352230842022, 47.239119340490475], [8.971763052090893, 47.239047692362384], [8.971521002565291, 47.23902930483158], [8.971222487660803, 47.23906957710128], [8.970706469640142, 47.239261100073016], [8.970533942504627, 47.23923447143103], [8.970354985111205, 47.239097354442784], [8.97017420879377, 47.2390290021755], [8.969894970636483, 47.23897266425623], [8.969700621214502, 47.23896763690928], [8.969490619533675, 47.23892714679367], [8.968861528620636, 47.238731468826], [8.968438924460294, 47.238610746895084], [8.968095229883863, 47.2385272192974], [8.96783985451073, 47.238542017154835], [8.967506484928393, 47.23843704731114], [8.96728387147937, 47.238325433912934], [8.96705368763622, 47.23825990963614], [8.96663192467132, 47.23819971550913], [8.965970642530046, 47.238072173680834], [8.965608396976636, 47.238031644094505], [8.965367215418048, 47.23799022850629], [8.965210064036349, 47.23794070859254], [8.964959985630568, 47.237880059134284], [8.964874607251847, 47.237803507184715], [8.964202795342489, 47.2376445716988], [8.963952209371687, 47.2376280535757], [8.963836510160125, 47.23765856292815], [8.963792816569516, 47.2376970516344], [8.963519873181708, 47.2376478751335], [8.963403847094014, 47.23761048398093], [8.962501805319112, 47.23743522627721], [8.962403590218996, 47.237227611001046], [8.962310866529135, 47.237058213776805], [8.962122215709895, 47.236800644063436], [8.961913076923876, 47.23651888397639], [8.961710098922264, 47.23630812215473], [8.96142863637065, 47.23604037108913], [8.961345584275778, 47.23594597334029], [8.961350315088602, 47.235880237736296], [8.961116026380635, 47.23583920816025], [8.960691890520785, 47.23572121390722], [8.960261844832724, 47.23564191721226], [8.960103266715077, 47.23563232595423], [8.959794845007814, 47.23572136088146], [8.959378156614463, 47.235826362681834], [8.959316395958055, 47.23585244890462], [8.958857002465589, 47.23525301648398], [8.958739902962858, 47.23510748173019], [8.958251222049617, 47.23511834797173], [8.957849432763284, 47.2352873988819], [8.957614892978343, 47.235485909754], [8.956640143066902, 47.23532229895541], [8.955951975233335, 47.235252820519456], [8.95525979696089, 47.23519182046218], [8.95486641973447, 47.23521963502946], [8.954820594887114, 47.23519387018419], [8.954551169921736, 47.23508776128243], [8.954310315470842, 47.235220981315116], [8.95412503720267, 47.235236239150176], [8.953762188954904, 47.23504438169586], [8.953147992253449, 47.2349747682079], [8.953171674758691, 47.23493002431581], [8.952661211096917, 47.23482145740928], [8.952503902280256, 47.23472878547185], [8.951873070403282, 47.23463638927689], [8.951875096932065, 47.23453396766746], [8.951093406742585, 47.23452380494383], [8.951075115851676, 47.234907474817035], [8.948747642325555, 47.23465750213168], [8.948760436252645, 47.23449093991378], [8.948456906482933, 47.23439591555214], [8.948050562057844, 47.234307338579384], [8.947821580982511, 47.23427402131153], [8.947526921837351, 47.23424933684211], [8.947148704797414, 47.234180566786904], [8.946456605600765, 47.23401991491279], [8.946102082273697, 47.23391538627617], [8.945717172925422, 47.23378058555758], [8.945475717950227, 47.234015785085866], [8.944870123475615, 47.23384380780323], [8.944131602611941, 47.23340961505156], [8.943592682003432, 47.233257388514], [8.943314390313889, 47.233252694035855], [8.942932564562613, 47.2335253656613], [8.94253865733577, 47.233470297933636], [8.942329492694073, 47.23353496823193], [8.941883368849409, 47.23328296849053], [8.94159039134675, 47.2330501008475], [8.94146976081312, 47.23285557483676], [8.94142036000779, 47.2325708408388], [8.941409824432224, 47.231995148555534], [8.941358291783114, 47.23165618544532], [8.941123104076814, 47.2317040643054], [8.940646180251067, 47.23187325253911], [8.940626771017197, 47.231850439292344], [8.93969040822284, 47.23185523431802], [8.93921077428936, 47.231933284161705], [8.938679926502692, 47.23208686529908], [8.938165231248455, 47.232254178052195], [8.937813542204053, 47.232405476345455], [8.937628496544777, 47.232470723746474], [8.937250414971057, 47.23252263159098], [8.93717535072632, 47.23240331937079], [8.935877822054639, 47.23253662427514], [8.935957259200094, 47.23273384200221], [8.935505952450614, 47.23279526043344], [8.935246356106077, 47.23281282117277], [8.935060578371289, 47.232812941120415], [8.934846927030684, 47.23278174709872], [8.934344050720737, 47.23269153360979], [8.93406596262918, 47.23263307086956], [8.933845979234006, 47.23256575641802], [8.93393515770114, 47.23212117303974], [8.933661089875155, 47.23210385061246], [8.933366361057193, 47.232126019632034], [8.933078041562428, 47.232192717077496], [8.93293059226776, 47.23223101093458], [8.932759062126307, 47.23225124667828], [8.932661200939645, 47.232246326685235], [8.932407848087433, 47.232252824461696], [8.93222015348789, 47.23237236250822], [8.93180818363993, 47.232218461404614], [8.932167477477705, 47.23198569469518], [8.932271095341, 47.231724124286444], [8.932062355140216, 47.23169783636305], [8.931754043286114, 47.231565666558865], [8.931168645065492, 47.23133249613593], [8.931097606975477, 47.231500998916346], [8.931037709179124, 47.23157989861393], [8.930702280180526, 47.23157145195925], [8.930603934622344, 47.231443647850234], [8.93041435392792, 47.23113423073523], [8.930303292557946, 47.23087591115709], [8.930195933046535, 47.23091480705498], [8.930154280312536, 47.230869024832074], [8.930148473550496, 47.230845053081325], [8.930059951463734, 47.230819264619086], [8.929748061208745, 47.2308064980941], [8.929277891455762, 47.23075336234186], [8.929279773640777, 47.23074319017006], [8.92866652496258, 47.23073911581753], [8.92808166865305, 47.230657222014024], [8.927949049407141, 47.23061960540993], [8.92794236248493, 47.23062988463292], [8.9277771761762, 47.23057717039115], [8.927501345354877, 47.23052559833486], [8.926909283559054, 47.23047600701545], [8.926375855221076, 47.230502510163205], [8.926205524724743, 47.23055337998525], [8.926207724594905, 47.230528503976764], [8.926044382238986, 47.230567570347475], [8.925614639403047, 47.23063522085139], [8.925444037888234, 47.230631305707206], [8.92513812749359, 47.230575150184194], [8.925130698038629, 47.23059863630297], [8.924802033370549, 47.230485062863664], [8.924411391141943, 47.2303924667999], [8.924269843491155, 47.23030293602622], [8.924195758550901, 47.230287041810186], [8.92355453799724, 47.230333625916366], [8.923539358374951, 47.23044136207112], [8.923357644410025, 47.230450056112495], [8.923068266091665, 47.23042312694096], [8.922960137228156, 47.2304340113616], [8.922859736654912, 47.23043735646566], [8.92285760771622, 47.2304139666525], [8.92257523556065, 47.23032828141874], [8.922418574520279, 47.23021564288345], [8.921987287423256, 47.230141140793556], [8.92119669982034, 47.22999752071887], [8.92079176031593, 47.22982383344448], [8.920449128609231, 47.22968661469849], [8.919846257598168, 47.22959855089589], [8.919380224608657, 47.229425608473804], [8.91879639126115, 47.229267519618155], [8.91873473578746, 47.22927827983156], [8.91870211280648, 47.229309681994366], [8.918548048168045, 47.22926797603775], [8.918503738911832, 47.22926224805394], [8.918376590395907, 47.22923152214449], [8.918355235038788, 47.22921769937197], [8.91809980195879, 47.229206307594886], [8.918055613705363, 47.22921019481334], [8.918027146450456, 47.22919756089205], [8.917961084539606, 47.229190366744525], [8.917874961911302, 47.22916410635707], [8.917839234023155, 47.22916685023809], [8.917785606363855, 47.229135557392766], [8.917716873398351, 47.22910677047015], [8.917673877374593, 47.22924628759115], [8.917543471175657, 47.229466679033905], [8.91749502180476, 47.22973271720746], [8.917150503980832, 47.22998664202287], [8.91646418321975, 47.22990153071355], [8.916408404673238, 47.229918052912225], [8.916170367783621, 47.23074168977181], [8.916033498661136, 47.23117201551478], [8.91646634735837, 47.231957758988564], [8.916429217153905, 47.23203164445569], [8.916409818022995, 47.23209000885036], [8.916394679645265, 47.23209899239022], [8.916283451842995, 47.23210352318574], [8.91622816106936, 47.232121055485685], [8.916181903354447, 47.23214667637842], [8.9161410190517, 47.23222667345602], [8.91611370809771, 47.23223344710233], [8.916078065818034, 47.232224557181524], [8.9160340292494, 47.23223163534586], [8.915980506908873, 47.23222094168903], [8.915909774886135, 47.23221740489374], [8.915857283512853, 47.232227281263256], [8.915852826036051, 47.232251889066895], [8.915876537729206, 47.23229885107067], [8.915835887203293, 47.23232904194329], [8.915740742882473, 47.232332511303994], [8.915700667804893, 47.232339088681144], [8.915690675857869, 47.23235316995534], [8.915710905242161, 47.232396955949824], [8.91481784663911, 47.232431958157534], [8.914525003821998, 47.2324237370929], [8.91410285367293, 47.232380908355715], [8.913058696947406, 47.23210711232695], [8.912317767051327, 47.232030069708074], [8.911802776904583, 47.232045825301846], [8.911822197252222, 47.232280252412], [8.911868664154357, 47.23237230148734], [8.912047618979532, 47.23254732634435], [8.912312745387295, 47.23285556286796], [8.912361253318819, 47.23308096271945], [8.91235756831545, 47.23335821916016], [8.912246928681858, 47.23400570903054], [8.912310119509314, 47.23400344317359], [8.912311610271807, 47.234079522954325], [8.911964655445674, 47.23408890927492], [8.910073302155336, 47.23417915389008], [8.910082649784163, 47.23430562920235], [8.910220632580462, 47.23439856968238], [8.910448811199476, 47.234479409086184], [8.908316091467967, 47.23508535959076], [8.90489598999227, 47.23604783228866], [8.904202212956582, 47.23603341540194], [8.903967294484612, 47.2360866753895], [8.903998169933544, 47.23634116417801], [8.90399080535489, 47.23649835008578], [8.903785872838192, 47.23647953729018], [8.903487300483809, 47.23647213479293], [8.903211552205647, 47.23647821417223], [8.902825059905878, 47.23651985034824], [8.902593136129042, 47.236956793275525], [8.902352696776253, 47.23742682340284], [8.902016790749933, 47.23742471324447], [8.901671311704343, 47.237457943530764], [8.901647354312125, 47.23751595817894], [8.901436701870251, 47.237933505532574], [8.901284620714843, 47.23831114151081], [8.901153149128067, 47.23845298775356], [8.899628113783226, 47.23895659605037], [8.898292144212865, 47.239333465941876], [8.897107481371682, 47.239695304918804], [8.894811083150667, 47.240224112348336], [8.893037067582055, 47.24058257538156], [8.892112906650027, 47.240742181397515], [8.891725926830421, 47.240878047307994], [8.8917180654721, 47.240982879998654], [8.891614815495489, 47.24098859948426], [8.891512513094023, 47.24099953367112], [8.891407585029363, 47.241016411348454], [8.891304962172748, 47.24103888244428], [8.891205261229702, 47.24106679525312], [8.891112020666762, 47.24109911557084], [8.891032184001357, 47.241133722764516], [8.890949969747235, 47.24117708614411], [8.890839821343809, 47.241247834970565], [8.890724786417984, 47.24134050587204], [8.890491578900791, 47.24154945665649], [8.89030769263484, 47.24173983805279], [8.890275834657157, 47.24176430413302], [8.890215332980004, 47.24179929676004], [8.890170755921654, 47.24184523489174], [8.890164790374744, 47.24182014790758], [8.890137623005897, 47.241800410901696], [8.890094415968278, 47.2417932096875], [8.890041571967535, 47.24179547686385], [8.889987889125374, 47.241809170678984], [8.88987122168715, 47.241860803048255], [8.889750476474823, 47.24190578457682], [8.888988939459761, 47.24173600208116], [8.888268251188348, 47.24158371941633], [8.888078961298772, 47.241552815744356], [8.887875746814967, 47.24157152068651], [8.8878111887496, 47.24166203350161], [8.887844807131408, 47.24181297042815], [8.887583935640013, 47.241818717107], [8.887317624576937, 47.24214566446577], [8.887139503212182, 47.24237717032526], [8.886876066613155, 47.24228645492414], [8.886891172532339, 47.24226428765467], [8.886025472046224, 47.24200549195001], [8.8833678516446, 47.24238890355599], [8.883164631418236, 47.24239291825768], [8.883021576503966, 47.24241135476943], [8.882715155743572, 47.242471925626475], [8.882578857329133, 47.242478384035856], [8.881137156893198, 47.24275105312952], [8.880872694621727, 47.24269051046633], [8.880226923549971, 47.24252764041657], [8.87988002550694, 47.242511406638236], [8.879465092503493, 47.24233976075879], [8.87926424635264, 47.24224025706102], [8.879134432534459, 47.24214962586313], [8.878988015763055, 47.24208993235722], [8.878749344147051, 47.24205682355427], [8.878428067245142, 47.24198634148242], [8.878330291087462, 47.24199432822314], [8.878121169823276, 47.24202589080672], [8.877610074207167, 47.24196100896113], [8.877245954532135, 47.24188441167263], [8.877188195916252, 47.2418317320897], [8.877149001266302, 47.24172376447084], [8.877061320152187, 47.24161800361637], [8.877014504051504, 47.24158903598121], [8.876956305035348, 47.24161467298119], [8.87687310595185, 47.24159687381959], [8.8767077814421, 47.241481898444974], [8.876712051225377, 47.24142114871801], [8.876708717233633, 47.241346369554726], [8.876618291222798, 47.241322129186386], [8.876542146969793, 47.24127047045861], [8.876456574550096, 47.241266059926375], [8.876322081058428, 47.24132869613508], [8.876258136125266, 47.24130034690968], [8.876131572222244, 47.24123549001783], [8.875970932233425, 47.241144285928435], [8.875884940255975, 47.24111592354512], [8.875760694188099, 47.24102081056496], [8.875699684345186, 47.241023964642494], [8.875608063844677, 47.24097737415354], [8.875472058626162, 47.240957776855176], [8.875494340624629, 47.24107309893598], [8.875494711729512, 47.241191024231355], [8.875303313942496, 47.24144735349721], [8.875274847781554, 47.2414999488776], [8.875218000385997, 47.24156408938864], [8.875107821772138, 47.24165759248963], [8.874901929719723, 47.241744417322536], [8.87479277721906, 47.241833373287605], [8.874746956188527, 47.24187529063787], [8.874421676554324, 47.242212974768044], [8.874281486695603, 47.24230959491446], [8.874221908252428, 47.242466851539405], [8.874282185490326, 47.24273180914476], [8.874324136968031, 47.24278623446716], [8.874336193851606, 47.24289078980542], [8.87431792283658, 47.24296447068371], [8.874251716772378, 47.2431194349872], [8.873933203917414, 47.24324711166026], [8.873968271501973, 47.24336685433875], [8.874157517480095, 47.24355057169444], [8.874307792026867, 47.243735648043945], [8.874327470534203, 47.24380820849731], [8.870179369671101, 47.24531428751573], [8.87053631147345, 47.245533691648426], [8.870970866087864, 47.24587717367921], [8.870915449912868, 47.24599703370829], [8.870903663750749, 47.246574926990746], [8.870308317589185, 47.246672350602125], [8.870480010984723, 47.24677201640966], [8.870612242728573, 47.24688591932323], [8.87076395683426, 47.246964683437156], [8.870850362478057, 47.246959444238165], [8.871005652862562, 47.24699715030888], [8.871102989415919, 47.246990632433665], [8.871243819727939, 47.24701918927216], [8.871295283803255, 47.247081018007584], [8.871329940980521, 47.24707132999749], [8.871409359352155, 47.247090277677174], [8.871604586243464, 47.247106246743975], [8.871706882090264, 47.247124540731804], [8.87185755682845, 47.24712065144048], [8.871871357481163, 47.24717808149966], [8.871950016662916, 47.24720564755865], [8.872090506575393, 47.24721016093397], [8.8721601208406, 47.24724626866422], [8.872363501415977, 47.2472908503269], [8.872477274801657, 47.247311960567366], [8.872673752081964, 47.2473410014953], [8.87280971387086, 47.247405655237145], [8.872913086623212, 47.24741727760038], [8.87311639355158, 47.24745562455567], [8.873198905739773, 47.2474667419408], [8.873336719292517, 47.24752947382127], [8.873369180521356, 47.24757231367767], [8.873453662671078, 47.247566754581506], [8.873570196078742, 47.24760499401506], [8.873678637349675, 47.2476606785384], [8.87376706842493, 47.247662446756884], [8.873591368604718, 47.24795395928454], [8.873923453477312, 47.248073590665825], [8.87387683217509, 47.2482820557579], [8.873774006855044, 47.24866218772785], [8.873850460443226, 47.248877995921696], [8.873827399133656, 47.248972122080836], [8.873875051996903, 47.24915894309916], [8.873860850765384, 47.24952730226504], [8.873868974731543, 47.24966295246511], [8.873833317814595, 47.249859231824566], [8.873590379323895, 47.250392361619475], [8.873423616810998, 47.25086998727482], [8.873476089251902, 47.25100846714422], [8.873499634927736, 47.25112607660969], [8.873487539274556, 47.251392889495726], [8.873497313742439, 47.25164406608028], [8.873479567358734, 47.25179643822644], [8.87349800371709, 47.25198934811201], [8.874419668237856, 47.25211010924634], [8.874897010564728, 47.25222223600746], [8.87557553935479, 47.25223023057709], [8.876151077552045, 47.25221123127405], [8.876348472472676, 47.25222058960394], [8.877297358537643, 47.252190934872196], [8.878130684838542, 47.25217442823174], [8.87844994517709, 47.25220951883911], [8.878868551350811, 47.252298999803195], [8.878952325552918, 47.25241435480074], [8.879940937479605, 47.25241385022037], [8.880827106868018, 47.2524385668045], [8.881692333484699, 47.252488646808374], [8.882570511381129, 47.252524118965724], [8.882928746233958, 47.25257408263821], [8.883556067987067, 47.252647452773786], [8.88458371099252, 47.25266145091474], [8.884579830334415, 47.25270356540944], [8.884883775839729, 47.25276467579588], [8.885069956664708, 47.25279207102257], [8.885254605013083, 47.25281117278468], [8.885628132345278, 47.25284067706668], [8.886647040839025, 47.25283643244027], [8.886695623820902, 47.252837414175715], [8.886744048376201, 47.252840350028286], [8.886792129120579, 47.25284522434956], [8.886839693373345, 47.2528520033204], [8.886886582651918, 47.25286068894503], [8.887422904246426, 47.25299347598332], [8.887450975949314, 47.2529348458038], [8.887573183060537, 47.25297100303884], [8.887677202589805, 47.25292268032702], [8.887775394131847, 47.252914716145675], [8.887761460986466, 47.253022036514245], [8.88794452010555, 47.25306137742161], [8.889284861182276, 47.25304798378256], [8.890446200323431, 47.25323403360201], [8.890936136991577, 47.25332231802804], [8.891700715374514, 47.253419291798586], [8.891710630426047, 47.25337579605543], [8.892239927807024, 47.253455662886196], [8.892881930645975, 47.253561183569886], [8.893502718124896, 47.25371626672361], [8.894193920442367, 47.25389173181496], [8.894669788257005, 47.254097433709745], [8.894976471620991, 47.25416227902145], [8.89502233710556, 47.25417111831529], [8.895115541464063, 47.25418468489135], [8.895210139863044, 47.254192683079964], [8.89525773194982, 47.25419458234528], [8.895950222043968, 47.25421338987755], [8.896210582461181, 47.25422447233088], [8.896394782871326, 47.25423650872881], [8.896487568108489, 47.25418583731765], [8.897226098552318, 47.25431566034268], [8.89731927772651, 47.25415224235683], [8.897667852542298, 47.25421911413663], [8.897999632892244, 47.25433718754638], [8.898232364867237, 47.25448070549896], [8.898391998290654, 47.25449836605201], [8.898773681565759, 47.2546239376422], [8.89898454708028, 47.254661072844584], [8.89912400791161, 47.254654194909826], [8.899000759640494, 47.25498810554969], [8.899370014031588, 47.25506966310806], [8.899732452845516, 47.255155164202385], [8.900734608604418, 47.25531580788993], [8.901299272534068, 47.25536143117867], [8.902399356990811, 47.255418252785404], [8.903177284024109, 47.25548305414848], [8.904512135548126, 47.255576013358784], [8.905135526951165, 47.255660660174776], [8.905529471117177, 47.25578096165199], [8.9060151548525, 47.25596272414752], [8.906341574796848, 47.25611639518264], [8.906831792748804, 47.25624848356343], [8.908303024026951, 47.25674400818658], [8.908331722307356, 47.256220215013194], [8.908585275306203, 47.255868835835315], [8.908770099018577, 47.25546308777042], [8.908039117400525, 47.25524480059143], [8.908475841157388, 47.25468312049005], [8.908615491101482, 47.254412796500176], [8.909188937414784, 47.25446695078419], [8.909885599327305, 47.254664999445474], [8.910354937272738, 47.25470740646525], [8.911324040907944, 47.254817048589295], [8.911769408377355, 47.25490965598459], [8.912538024010232, 47.255091705933275], [8.913302399409774, 47.25523724441149], [8.913804231043237, 47.255367516989615], [8.914540852441995, 47.25563976238361], [8.915277461210287, 47.25582669244649], [8.916477615989004, 47.256100459940434], [8.916978654237576, 47.256254938030324], [8.91730483945186, 47.25628297525151], [8.917381194658224, 47.25616066167083], [8.918031873452097, 47.25637500067292], [8.918536248770588, 47.256512777652205], [8.919079708144066, 47.256611780474444], [8.91992807126856, 47.25679685073798], [8.920511638763216, 47.25684876379778], [8.920505209238154, 47.25687275884248], [8.920450910703561, 47.25694831573614], [8.920241911961968, 47.25711834498671], [8.92023519088821, 47.25714708453272], [8.920879851195881, 47.25711801240028], [8.921485314793053, 47.25720253210341], [8.922004951754205, 47.25731066209555], [8.922520813418105, 47.25744073489734], [8.922843891814727, 47.25755814824347], [8.923400248055048, 47.25772064802664], [8.923802685186095, 47.257872462896934], [8.924489319847833, 47.25812028011306], [8.924890071529433, 47.258268298229645], [8.92534279339726, 47.25835922978692], [8.925759054796126, 47.258427239748826], [8.92612385769232, 47.25851880870434], [8.926778980302506, 47.25862664297458], [8.927184681173749, 47.25875885636089], [8.927452604174997, 47.258750509729836], [8.927678350431254, 47.25877638071983], [8.927963812786567, 47.25882310701138], [8.928384113655635, 47.25887505205562], [8.928471420552734, 47.259134685117914], [8.928575793883297, 47.25961861334729], [8.928606763306936, 47.2596402174611], [8.928674345037063, 47.259675382107254], [8.928739644715092, 47.25969932201648], [8.928749015040463, 47.259731101204814], [8.928790129189862, 47.25976392714468], [8.928818129312939, 47.25976435660002], [8.928849290186411, 47.25978381709254], [8.928963917461221, 47.25984082747365], [8.92896416810532, 47.25986875712466], [8.929000788598177, 47.25987976254732], [8.929023729098757, 47.259940855562675], [8.929017193748694, 47.259984157594715], [8.929073073567231, 47.26004083009879], [8.929093963875623, 47.260046920137775], [8.929333357559932, 47.25989395691399], [8.92951171044225, 47.25991894347152], [8.929705578015191, 47.25982416244344], [8.929926979458935, 47.25974723217147], [8.930528585633326, 47.25972146739377], [8.931040407414798, 47.25939943321877], [8.931399398134312, 47.259184234535525], [8.931433903306264, 47.259209858330806], [8.931712384050218, 47.259083713672055], [8.932120371168438, 47.259013193545385], [8.933106900419151, 47.258885463547244], [8.93329139891749, 47.25903188488762], [8.933643049168372, 47.25945787033602], [8.934102128332016, 47.25995151247341], [8.934170655277137, 47.25995941218875], [8.93419031737404, 47.25998154856102], [8.934277899270555, 47.25999933092621], [8.934356442631799, 47.26002891651722], [8.934673713348944, 47.26020353453932], [8.93477025477281, 47.260223664919145], [8.934924822882667, 47.26034665110937], [8.935241357789382, 47.26038548843721], [8.935444974834438, 47.26043516680225], [8.935612112336837, 47.2602951021352], [8.935691931583335, 47.26033291971566], [8.93579838930564, 47.26032209971279], [8.935859265212097, 47.260353065480636], [8.936041911911321, 47.260521557385765], [8.936241868328938, 47.260694664012775], [8.936432610022328, 47.26084072165273], [8.936366077585658, 47.260876229684335], [8.936467189267576, 47.26099419655099], [8.936656016713897, 47.261086588401675], [8.93707396936455, 47.26123003232018], [8.937064318804666, 47.26145823207905], [8.937076284765887, 47.26155452508472], [8.936894491466722, 47.261650305230475], [8.936392054704186, 47.26181650043311], [8.935889430121327, 47.2619110505891], [8.93628019032299, 47.262079932126504], [8.936982321741723, 47.26217837444355], [8.937017355004803, 47.26246709221224], [8.936998705755972, 47.262511272012645], [8.937508912348619, 47.26258454146428], [8.937508722310868, 47.2630019762978], [8.93755732503264, 47.2633478434699], [8.93812031633573, 47.263408630301214], [8.938192720344597, 47.26360424734839], [8.93819533292051, 47.26362716259967], [8.937806730424702, 47.26364499254919], [8.937709935820768, 47.26364436234964], [8.937767702807664, 47.2640728885364], [8.937755097170525, 47.26415719480183], [8.937731163861187, 47.264283336581116], [8.93806441407888, 47.264363529492826], [8.938382851656806, 47.26448796931791], [8.938629710643026, 47.26463439948405], [8.93904060714256, 47.264791737854175], [8.939733949626637, 47.26510783994105], [8.940158021675325, 47.265309092819024], [8.940466016199617, 47.26566427944941], [8.940581591014267, 47.26564411528133], [8.940728659017093, 47.26553561184066], [8.940934476971714, 47.265936022505684], [8.940944376628291, 47.26599101309647], [8.940082800940324, 47.26604149081875], [8.940138535966389, 47.26618213052968], [8.940179766828253, 47.26626330613069], [8.940215745678497, 47.266302933810515], [8.940270713434955, 47.26631896888421], [8.940276822713082, 47.26634399766073], [8.940314548148203, 47.26641940744139], [8.940469017841872, 47.26648375943483], [8.940566655734774, 47.26651324512178], [8.940470335556817, 47.26682982027402], [8.940310107286257, 47.26723421598301], [8.940298323296204, 47.26734902701628], [8.940556631500336, 47.26731875314139], [8.940723595986153, 47.2672737281526], [8.940813942673358, 47.26741741787622], [8.941443994192618, 47.26737698924253], [8.941947342317976, 47.26740988299783], [8.942496170665482, 47.267411405071385], [8.942702298566306, 47.26738013452694], [8.942942790903478, 47.2673855244801], [8.942979271028545, 47.26758079572477], [8.943063839588348, 47.26787854504437], [8.943086491000656, 47.2680111875566], [8.943109053129058, 47.26803656819861], [8.94346029792593, 47.26829549848967], [8.943552726222402, 47.26835335974584], [8.944022365184574, 47.26893632036763], [8.944282590197727, 47.26926247134623], [8.944324430579236, 47.26933026049545], [8.944417298690475, 47.26944479360078], [8.944464964037273, 47.269495566850395], [8.94380457341912, 47.26963134336497], [8.943596654327573, 47.26967110431482], [8.94338920144534, 47.26972273359762], [8.943238408856129, 47.269765427452704], [8.942976391269454, 47.26983567070318], [8.942767950842045, 47.269895912360596], [8.942683211347669, 47.26992388951538], [8.94267393409945, 47.269990555354724], [8.942607398652166, 47.27031572601945], [8.942554569543876, 47.270504354495074], [8.942382876205395, 47.270654923481565], [8.941972665633712, 47.27093892087654], [8.941876553922642, 47.27099167677264], [8.941554461636663, 47.271241533748594], [8.941194277794065, 47.27153904188132], [8.9409665421763, 47.27163445400075], [8.940906749165247, 47.27166510012375], [8.940948692982149, 47.271690633496846], [8.940985096365505, 47.27175131508629], [8.940984507006295, 47.27179848072757], [8.941032349144322, 47.27183399478737], [8.941057218214405, 47.27188637052226], [8.941064539242774, 47.27194878949733], [8.941130904453628, 47.27209204315693], [8.941207267922506, 47.27219509748778], [8.941323797118061, 47.27222713415867], [8.941493756702831, 47.27220298576914], [8.941666154758376, 47.272211002502836], [8.941772281690325, 47.27227119742003], [8.941871509953165, 47.27227320497342], [8.941991113737044, 47.27231113845429], [8.942071121702902, 47.27234968714759], [8.942303740003732, 47.27238351919258], [8.942402689062103, 47.272400472737196], [8.942587535785426, 47.27247687681913], [8.942681941850992, 47.27253103432211], [8.942835266195829, 47.27254555060252], [8.942965399004386, 47.27259966464946], [8.943034227822977, 47.27264343267067], [8.94331305130024, 47.27279710110163], [8.943444993379558, 47.2728740954005], [8.943502156368098, 47.27290397208319], [8.943670891731305, 47.272951697953005], [8.943697441681547, 47.27298529390513], [8.943707986894191, 47.273046150502125], [8.943705134158892, 47.27306310964747], [8.943750200445344, 47.273160867617754], [8.943829147145944, 47.27322169446731], [8.943885162654658, 47.27323335079407], [8.943941983209537, 47.27326512102416], [8.943917544403849, 47.27333734688929], [8.944061303418966, 47.2733767621851], [8.944123313151435, 47.27344817367739], [8.944198796549198, 47.27348505286934], [8.944212854783771, 47.27356827323257], [8.944298595211961, 47.273665130940984], [8.944361838832092, 47.27372396950386], [8.944386007738485, 47.273737319033515], [8.944516621346475, 47.27377551097538], [8.94458569413879, 47.273792223108664], [8.944669977456964, 47.27382098949712], [8.944724197545122, 47.27388845419791], [8.944792744029355, 47.273935229369705], [8.944793779533413, 47.27410493977794], [8.944858832966503, 47.27421061354186], [8.945163798685144, 47.274266264142426], [8.945430877991832, 47.274382656745324], [8.945507687302939, 47.27433296542816], [8.945738981946391, 47.27434808669597], [8.945944556003452, 47.27434219611839], [8.946060564893125, 47.27436910714806], [8.946113052851754, 47.27437233420485], [8.946142547959273, 47.27442401840392], [8.946210227609155, 47.27448683533068], [8.946297507359418, 47.27451351903629], [8.946428904241563, 47.27453346324168], [8.94649260624717, 47.27459115028198], [8.946564165162394, 47.274629365676304], [8.94664505085078, 47.274652885132404], [8.946725683971046, 47.27472782114383], [8.946788389790937, 47.27475397131456], [8.946819750160468, 47.274804740360295], [8.946917061851863, 47.27482668642755], [8.94698241851103, 47.27484980615556], [8.947037548618331, 47.27488336937499], [8.94714599770446, 47.27494346633204], [8.947241322759574, 47.27507097254827], [8.94724942542199, 47.27513270647981], [8.9472852813182, 47.27515963971908], [8.947279610270252, 47.275192370078905], [8.947343626579014, 47.275232114282474], [8.947369072300578, 47.27527235398792], [8.947343595240865, 47.27539938984403], [8.947371169114149, 47.2754293283138], [8.947447059995158, 47.27545565655032], [8.947499324116677, 47.2755051714068], [8.947432121303024, 47.275628104454505], [8.947490401855514, 47.27573474720948], [8.947412090700624, 47.27585055507294], [8.947432302259653, 47.275904825406165], [8.947500724046327, 47.27592784152753], [8.94750644958854, 47.27597280168087], [8.94756034315994, 47.276017751913116], [8.947653720266624, 47.27605520423917], [8.947642612047504, 47.27611863790966], [8.947603801910937, 47.27620980978361], [8.94763857264296, 47.276264726253736], [8.947665666298477, 47.27638754761241], [8.947603893263084, 47.27647444108507], [8.947641486072037, 47.27652771030737], [8.947597378995276, 47.27658815765362], [8.947617422069579, 47.276664039096424], [8.947588027531806, 47.27671187003182], [8.947662412635834, 47.276792887566046], [8.947672192097397, 47.27687135939782], [8.947627975217111, 47.27691484123172], [8.947658333028105, 47.27698150170679], [8.947713064416337, 47.277027997077475], [8.947743342112847, 47.277081065247316], [8.947737239189653, 47.27716116648825], [8.947757351111388, 47.27722029612393], [8.947746843551702, 47.27730591556294], [8.947766661365062, 47.27734575230741], [8.947754838030056, 47.27739745528561], [8.947781287402972, 47.2774759516587], [8.947822745101819, 47.27751814096716], [8.947812550520284, 47.27757368205302], [8.947856314279932, 47.277638061508874], [8.947854640960513, 47.277668643606745], [8.947871654609951, 47.27770373991993], [8.947925172441357, 47.27772083370407], [8.947950835144296, 47.27775839875044], [8.947952174648963, 47.27783335560472], [8.947931985139931, 47.27789445241503], [8.94794717793907, 47.27792031539669], [8.947920789300651, 47.27805203255496], [8.94794988996714, 47.278127966297646], [8.947880643926958, 47.27826759458296], [8.947887269582884, 47.2782985537346], [8.947844859033562, 47.27834003288439], [8.947848226907176, 47.278375928593626], [8.947827944524082, 47.27843889770862], [8.947796819005244, 47.27849566654673], [8.94782020936266, 47.27854541558401], [8.947877941355998, 47.27873817703699], [8.947829741503819, 47.27879278546992], [8.94779297678652, 47.27879317699892], [8.947779218083953, 47.27880822786984], [8.947792912118734, 47.278841388430195], [8.94780288660074, 47.27890849570475], [8.947738156724679, 47.279028363074055], [8.947757263947448, 47.279076701761404], [8.94777496362297, 47.27914680234913], [8.947813076301468, 47.27918986307616], [8.947795678914195, 47.27925202075834], [8.947854834572189, 47.2792823732864], [8.947914400606827, 47.27927393783217], [8.948012528980902, 47.27933848730135], [8.94798963977477, 47.27936396749619], [8.94809157330411, 47.27945508667385], [8.948088558885706, 47.279508365626974], [8.94814768317696, 47.2795577001759], [8.948177292908492, 47.27961372769594], [8.948164009926458, 47.27964093505766], [8.948247114106088, 47.27968463898999], [8.94821838977592, 47.27976696156268], [8.948237506451612, 47.279800195073925], [8.948247078948464, 47.27985306645015], [8.94816453000074, 47.27988976361192], [8.948092471401791, 47.28001461186599], [8.948110863231518, 47.280103559122665], [8.948093668851675, 47.28016541720485], [8.94810785822863, 47.28018054299319], [8.948078681202823, 47.280262763645304], [8.948136447635212, 47.2803547399902], [8.948172380753205, 47.28037257681765], [8.94874485485942, 47.28052102149827], [8.948829135123546, 47.280940786307646], [8.948076984208965, 47.281194244047626], [8.947463981888264, 47.281819526059486], [8.947410985108199, 47.28183035841349], [8.945632759120464, 47.28203860185826], [8.944284038279305, 47.28045854583599], [8.94397740128844, 47.28015355080001], [8.94380873145279, 47.27988201870232], [8.9437340434031, 47.279676262001], [8.943649385826975, 47.27959560994446], [8.943486879529624, 47.27956560599392], [8.943251817679714, 47.279525024393564], [8.943073164863092, 47.27950044789815], [8.942810261663363, 47.27952358916787], [8.9425916511759, 47.279540916040766], [8.942284030147777, 47.279599400393735], [8.941972653426841, 47.279661153244525], [8.941631132654168, 47.279786649391305], [8.941444153768337, 47.27986592287674], [8.941262922488072, 47.2799662442104], [8.941211812440953, 47.27999620991304], [8.941190642523207, 47.28010405240579], [8.941265715724601, 47.28025056561785], [8.941271779069908, 47.28034574678966], [8.94138936577933, 47.280539646038946], [8.94155038445851, 47.28049556393069], [8.941655603573356, 47.28047924153516], [8.941634064574512, 47.2806842922533], [8.94169926053728, 47.28086964385588], [8.941732705779877, 47.28097385092166], [8.94171171324843, 47.28104431196195], [8.941774488134932, 47.28117509792075], [8.941765750816973, 47.2812756174094], [8.941839227201202, 47.28143667075707], [8.941830390126125, 47.281555246609756], [8.941895336711466, 47.28161427872408], [8.941908928520492, 47.28173689783613], [8.941943769189509, 47.281830092413145], [8.941799546519814, 47.28192285163231], [8.941810797900741, 47.28195386793159], [8.941812705992328, 47.28199441515407], [8.941944281107837, 47.28206842116093], [8.941957400830722, 47.28212777711131], [8.941823539864274, 47.282282915055944], [8.941724041419269, 47.28227580731692], [8.94178633291845, 47.282347974507374], [8.941808895101502, 47.28249384877972], [8.941717767239256, 47.282675455995715], [8.941461694616299, 47.28284790303864], [8.941324753328402, 47.283108344626676], [8.941223611599087, 47.28314716547788], [8.941169777776803, 47.28320115126629], [8.941180652740961, 47.28344098107618], [8.940903299443347, 47.28364101633391], [8.940431513631411, 47.283657990232314], [8.940543325549255, 47.28399984386123], [8.940577618945007, 47.28423148772102], [8.940577873389163, 47.2843632045398], [8.940282640479023, 47.28449806618542], [8.93994128158728, 47.284645621297535], [8.939161579574368, 47.28502202619241], [8.938463685093032, 47.28528811311109], [8.93839013455243, 47.28525223978006], [8.938327995380972, 47.28530113235883], [8.938076765732319, 47.28546564484573], [8.938053400143541, 47.285523856663126], [8.93792920549485, 47.285683991980015], [8.937863775442857, 47.285788513763016], [8.93779797750255, 47.28583945945684], [8.937784008066703, 47.285863651687045], [8.937691172113073, 47.28590514326968], [8.937669031902878, 47.28597453883935], [8.937612373767251, 47.286040712890596], [8.93761583826475, 47.286083111372506], [8.93756792973096, 47.28614118334217], [8.93739810262685, 47.28624185335338], [8.937385434447274, 47.28629074093527], [8.937299107956202, 47.28636304911132], [8.937231461950821, 47.286395765692134], [8.93692456866796, 47.2865971914849], [8.936873425922622, 47.286679981387366], [8.936635191238363, 47.287051152144706], [8.9366162914159, 47.28708483624004], [8.936618155850745, 47.287113122431926], [8.936587116115112, 47.28715471886214], [8.936524161656934, 47.28719779987978], [8.936312966317796, 47.2872949827176], [8.936150108570619, 47.28738840764757], [8.9360665547507, 47.2874187569395], [8.936011576899897, 47.28741392030594], [8.93592112112104, 47.287446140484185], [8.93586802449106, 47.28749235012882], [8.935723368319179, 47.28753615022816], [8.935692831181132, 47.287595228329934], [8.93549659524701, 47.28766910616561], [8.935422681850383, 47.28766371447736], [8.9353808963373, 47.28768048568347], [8.935351992643017, 47.28770022949366], [8.935334999904013, 47.2877218067677], [8.935299881600109, 47.28774106437289], [8.935229097989541, 47.28776620052471], [8.935157977425717, 47.28777554397341], [8.935047460023787, 47.28776943939002], [8.934804221751076, 47.28777262258879], [8.934708487981279, 47.28775101475276], [8.934661046175782, 47.28775325848066], [8.934566439686336, 47.28776951829658], [8.934473581462909, 47.28777786583768], [8.9343517008565, 47.287811644002865], [8.934214944084651, 47.28787697526653], [8.93413497972388, 47.287961415180796], [8.934041940807365, 47.28803271015338], [8.933896391984845, 47.28814860456731], [8.9338549294456, 47.28818732144583], [8.933810285909512, 47.28823331244717], [8.933723547019381, 47.288305820795614], [8.933881915664202, 47.28832426018508], [8.933998457868634, 47.288401914728716], [8.93426207165055, 47.28846237699782], [8.93439440127641, 47.28846501460545], [8.934589491340214, 47.28858360750252], [8.934680319051795, 47.288610317129034], [8.934788753046108, 47.288615153448966], [8.934848484045583, 47.288654617970685], [8.93498025320033, 47.28879523566325], [8.935047440265171, 47.28884738678968], [8.935228011645883, 47.28893329529835], [8.93532804524656, 47.28908410338935], [8.935409329153119, 47.28912924329], [8.935493142138055, 47.28918676506397], [8.935839298436198, 47.28916732814057], [8.935938417686542, 47.28917848264972], [8.935986278932255, 47.28921377360608], [8.936122498604886, 47.28922492306082], [8.936547411489778, 47.28907713031885], [8.936647699417996, 47.28917938199049], [8.936819976580884, 47.2892588913937], [8.936914115678283, 47.28925182069457], [8.937002662095159, 47.289183523205715], [8.937056514514296, 47.289156680672704], [8.93712584461438, 47.289160745485326], [8.93738914309987, 47.289226188756835], [8.937600372173991, 47.28921291760967], [8.937864189977375, 47.28925210231758], [8.937910579838011, 47.28939498765924], [8.938003801612199, 47.2894597353971], [8.938200166450398, 47.289555041770974], [8.938381431139081, 47.28963758987886], [8.938626012027006, 47.289638124163865], [8.938787298114457, 47.28963267023658], [8.939007461360854, 47.289758900428474], [8.939381457354369, 47.289875508635], [8.939542902529183, 47.28990530747182], [8.939736425585762, 47.28984157907636], [8.939921052689664, 47.289868214969346], [8.940626467701414, 47.29005648476659], [8.940715060988765, 47.29001534303536], [8.940782141658975, 47.29000191061746], [8.940846792913819, 47.29000269663281], [8.940976627237776, 47.290077643292655], [8.941235446020384, 47.29016114683231], [8.941514505865213, 47.29030278852288], [8.941865764802122, 47.290638011796084], [8.942112653809518, 47.290851267101814], [8.942329657976519, 47.29102260254549], [8.942462468308577, 47.291072553373894], [8.942708378380573, 47.29114817884376], [8.942841666590969, 47.29122257427273], [8.942998868227614, 47.29126953455009], [8.943080214340661, 47.291274311662036], [8.943445644473544, 47.291072357061495], [8.943524445206727, 47.29101452733416], [8.943561622127069, 47.29087370256729], [8.94362608757794, 47.290833629026004], [8.943730362890763, 47.29080707875327], [8.943865903769087, 47.290840367325195], [8.943996403422215, 47.29079804616793], [8.944186697311231, 47.29082663427762], [8.94433467624285, 47.29089444899263], [8.944438851976438, 47.29087374696164], [8.944562443861646, 47.29079140161332], [8.944685746060028, 47.29076487194882], [8.94473571110608, 47.29079854860367], [8.944738395842414, 47.290846831791505], [8.94477746370781, 47.2908827738637], [8.944878696875382, 47.29092507373974], [8.944947382478576, 47.290890261190775], [8.945055500219242, 47.29091975938566], [8.945151376990736, 47.290909996649475], [8.945275366199816, 47.290924668591266], [8.945294026962378, 47.29094261495265], [8.945235903481715, 47.29105320835195], [8.945632529977674, 47.291124312515244], [8.945627500487639, 47.29124073434803], [8.945815823470976, 47.29122753158093], [8.945897158807792, 47.29127920379237], [8.945984574086824, 47.291264773883306], [8.946158409944708, 47.291286844723125], [8.946270224454965, 47.291367580564334], [8.946405211706947, 47.29135120582763], [8.946546404875255, 47.29145152863573], [8.946739166469342, 47.29158275326834], [8.947029840361713, 47.29160399669226], [8.947102051614154, 47.291558746062535], [8.947196265132987, 47.291560284383074], [8.947220225233623, 47.29161598986148], [8.947250931874404, 47.29163484884539], [8.947407598849237, 47.29167440623608], [8.947468243349206, 47.29181494214965], [8.947751326825744, 47.29181226312486], [8.947912664868607, 47.29184537130757], [8.947996898788723, 47.29191713764603], [8.948086624770285, 47.29190398025164], [8.94818403529285, 47.29196336598663], [8.948354037150006, 47.29200590503792], [8.94840458156287, 47.29208003717691], [8.948470181087227, 47.29210302704462], [8.948504133913534, 47.2921417247052], [8.94859782452928, 47.29217101275348], [8.948710474573641, 47.292141820412006], [8.948763799227631, 47.29215997796102], [8.948866758652374, 47.29217850206217], [8.948909873095607, 47.29216993973559], [8.948849618510788, 47.292312931537936], [8.948671385154503, 47.29260663411539], [8.948588792582488, 47.29276446455572], [8.948531536542946, 47.29326638849328], [8.948520090475263, 47.29326375853311], [8.948441959259323, 47.29334284097341], [8.948529495929124, 47.2933952396833], [8.948556623821402, 47.29353245343648], [8.948717004068367, 47.29372403150373], [8.94878612577552, 47.293830297281254], [8.948797546058653, 47.29396939015407], [8.949027424589351, 47.29441685241537], [8.949075458696154, 47.29446104203556], [8.950397787565304, 47.29496379196437], [8.950863242927277, 47.29527906031635], [8.951340707199362, 47.2959272178266], [8.95151621425936, 47.2960952589347], [8.951818157926743, 47.29636743636439], [8.951939292114863, 47.2965079864668], [8.951967571654542, 47.29658939008723], [8.951896908873772, 47.29677516069019], [8.951986592589673, 47.297138452576874], [8.951957074869618, 47.297310043287], [8.951940706116735, 47.29738010315093], [8.951905937481852, 47.297494746203235], [8.951935157353015, 47.29753469190723], [8.951937705879562, 47.29759287179925], [8.951863788360836, 47.2977497524087], [8.951898524768103, 47.29782859303278], [8.951981419286646, 47.29789927520771], [8.952159922571145, 47.298141093517415], [8.95211167045931, 47.2982465848024], [8.952143696302224, 47.2983798640057], [8.952248585176974, 47.29852239728188], [8.952307488429723, 47.29869595920844], [8.952409265326287, 47.29886487393593], [8.952471913371012, 47.29888789987019], [8.952555816266042, 47.299028063680595], [8.952871889121962, 47.29883743315368], [8.953104727856875, 47.2988290320654], [8.95375337890101, 47.30003204207163], [8.954356508782318, 47.30107175504417], [8.954616815069615, 47.301455887017454], [8.954834347678387, 47.30180478677726], [8.955066319458728, 47.302285667081115], [8.955315744384947, 47.30303382517291], [8.955321640653407, 47.303064919292424], [8.955776102708395, 47.30356306941276], [8.956279117926364, 47.30401822490287], [8.956530839100736, 47.3042580874112], [8.956973229924579, 47.30447779570187], [8.95760052536415, 47.30476372404453], [8.958647497754837, 47.305087310651665], [8.960073716087855, 47.30542963781133], [8.960786159417475, 47.305695888621166], [8.961639251774626, 47.30586150778833], [8.962380092554545, 47.30596336532694], [8.963165880990477, 47.30605645756969], [8.963584742043718, 47.30613341625906], [8.964390885025983, 47.30634471084634], [8.964902806958243, 47.30618535428217], [8.965408680663046, 47.30603291206529], [8.966293844946488, 47.30592850994579], [8.96704962782458, 47.30576629004524], [8.967414895369055, 47.305822439106855], [8.96842249035885, 47.305972237202134], [8.970393901826618, 47.30632575446271], [8.971331340327403, 47.30648654915409], [8.971944310985664, 47.30662756450809], [8.972204973279402, 47.306630376398694], [8.972420400673506, 47.30662948826097], [8.973324572437074, 47.30672809809661], [8.973879501255885, 47.30679105727491], [8.974369845376401, 47.30693062338965], [8.974810999351003, 47.30700579829518], [8.974872955976004, 47.3070036596031], [8.974964172778957, 47.3070246111007], [8.975006828621186, 47.30711927582834]]]]}}]}