{"type": "FeatureCollection", "features": [{"type": "Feature", "properties": {"bfs_nummer": 337}, "geometry": {"type": "MultiPolygon", "coordinates": [[[[7.790799744769493, 47.23742001842019], [7.790825908196565, 47.237486427361304], [7.790838046274696, 47.23749864112012], [7.790856342965906, 47.237507490058114], [7.790823697386846, 47.23756793513129], [7.7902127601293545, 47.23756690066354], [7.790243232956139, 47.23757367980616], [7.790266049608967, 47.23758705739897], [7.790314069506848, 47.2376514122704], [7.7905050834952565, 47.23802990306065], [7.790574311042726, 47.238133967537564], [7.791237379265812, 47.23896284698786], [7.791605138800805, 47.23945295927385], [7.792076556348397, 47.24006715849667], [7.792304239720966, 47.240347365317255], [7.792481456285528, 47.240547116029774], [7.792525650277296, 47.240609331747386], [7.792558469012651, 47.240674982323235], [7.792577970432479, 47.24076396995532], [7.792631775985779, 47.24075968543921], [7.792675438607447, 47.240957200837244], [7.792686059458417, 47.241055345449794], [7.792688427864115, 47.241233729942536], [7.792700809803291, 47.2413385430855], [7.7927720236978555, 47.24164177838433], [7.79280358749818, 47.24187297987916], [7.792835215336771, 47.24203395075989], [7.792858702260795, 47.24210633087754], [7.792902815323868, 47.24217401547835], [7.793169413572809, 47.24246081128785], [7.793291046404407, 47.24260649340807], [7.793327969066248, 47.24266526818281], [7.793348422024861, 47.24272812314632], [7.793392081804802, 47.243004305621156], [7.7933962927928215, 47.24318732548435], [7.79337573765431, 47.24353563605702], [7.793300966491709, 47.24383679170805], [7.793298041034264, 47.243905627790745], [7.793325957607109, 47.244014440334354], [7.793386706933755, 47.244164590655934], [7.7936337691386575, 47.244061030505144], [7.79385968129553, 47.24388537098723], [7.794003704999484, 47.2438058554131], [7.794268962488838, 47.24369983668142], [7.794282526761152, 47.24374352669566], [7.794625895174323, 47.243657117708956], [7.79496208465239, 47.24369882321587], [7.795006518251254, 47.243718825135105], [7.79537380732628, 47.243375011194296], [7.795443408964162, 47.24333258401632], [7.795535845805008, 47.24332954588022], [7.795740498269714, 47.2434273687396], [7.795964873081, 47.24352346624044], [7.79607794115065, 47.24352830603573], [7.796230332520957, 47.24363633685501], [7.796344635140021, 47.243665773121556], [7.7964220171963365, 47.24369466708364], [7.796480416488497, 47.24374491025806], [7.796287183080961, 47.24388777798736], [7.796210125716635, 47.244018259796015], [7.79625754779685, 47.24441234991855], [7.796307340607781, 47.24442180189242], [7.796262795353541, 47.24454935855977], [7.7963470273856, 47.244680069213], [7.796451276759924, 47.244782042663985], [7.796596130951808, 47.24478743110893], [7.796686497483705, 47.24482600789516], [7.796659084052652, 47.2449278408514], [7.797195421817845, 47.24546096395771], [7.79738337523491, 47.24556253262972], [7.797375836906068, 47.24557690258236], [7.797475459119586, 47.24562253776983], [7.797594351327769, 47.24564230722076], [7.7978811962965455, 47.24562324568065], [7.798088936717641, 47.24561836244913], [7.798231369740099, 47.24565228753572], [7.79835966105969, 47.24572228921675], [7.798513559177329, 47.24577773852706], [7.798708148849846, 47.24575586825951], [7.798881717502044, 47.24575473307175], [7.7992271927170265, 47.24594889287098], [7.799352624949667, 47.24605494412145], [7.79967329670698, 47.246413459209336], [7.799713804278337, 47.2464911724299], [7.799752002252784, 47.24654173801072], [7.799832161557632, 47.24659959293341], [7.800185966912194, 47.246684168523345], [7.800398711555568, 47.24666083519906], [7.800567851024773, 47.24665279440551], [7.800752295413519, 47.24665388001993], [7.800924654346879, 47.246668747065264], [7.801314827198393, 47.246720293672176], [7.801670973707906, 47.246756160282374], [7.801822291540676, 47.24677495095149], [7.802011710733641, 47.246823861760774], [7.802027172540307, 47.246811310468985], [7.802015863981391, 47.24676437579277], [7.802085919804787, 47.246718929973675], [7.802191605890224, 47.24670934158685], [7.802211566892196, 47.24676605324927], [7.802312355048578, 47.246840427651186], [7.802900067115716, 47.2470620568794], [7.803511138991676, 47.24728580387167], [7.804983938748841, 47.247800204072696], [7.805390934501215, 47.247957083150695], [7.8056023425188075, 47.248056252279746], [7.805793768070351, 47.248163489839705], [7.806351596719257, 47.248520728072954], [7.8064427336862385, 47.24857335344164], [7.8065363359687, 47.24861563600335], [7.806821174506938, 47.24872547939971], [7.8074472821013945, 47.24900398882543], [7.80812858884175, 47.24936515929924], [7.808447880212467, 47.24955642529577], [7.808811213645066, 47.249797110009304], [7.809008204602228, 47.24991263552571], [7.81022751304623, 47.25048416896463], [7.8104255317594005, 47.250583318215895], [7.810618927008717, 47.25069947295906], [7.810902559325871, 47.250889497474624], [7.811095101578151, 47.25100805572887], [7.811298565738487, 47.25111090072252], [7.811510239717824, 47.251195576618045], [7.811741154646369, 47.25127168100297], [7.8121592415885495, 47.251377599416855], [7.812395850742067, 47.25144597568977], [7.812700849134118, 47.25156907843032], [7.8134177434373475, 47.251910880774524], [7.813655766631928, 47.252005181290606], [7.813976043098469, 47.252113389219765], [7.814153827222273, 47.25209071990751], [7.814568599331897, 47.25224599373944], [7.814554011921225, 47.252285077771944], [7.815122207137712, 47.25260462528447], [7.8152915395588165, 47.25267602154901], [7.815391747225503, 47.25273505055786], [7.815480317284233, 47.25266486262865], [7.815675668747852, 47.252681008814164], [7.8155440002251915, 47.2523585022932], [7.816907024024327, 47.252823952745175], [7.817417061828275, 47.25296852461826], [7.817646949181031, 47.25302782746528], [7.8181533900443, 47.253106117202414], [7.818497045637385, 47.25309986882859], [7.818801196686855, 47.253111540998894], [7.818936534297521, 47.25315546591882], [7.819092417230751, 47.2531607268684], [7.819291278590326, 47.25316287763045], [7.8194977102991405, 47.25317068771755], [7.819613479848456, 47.25316767921345], [7.8199241892053255, 47.25317266173664], [7.82008041125357, 47.253169878952576], [7.820271031412174, 47.253187148325786], [7.8206918214125904, 47.25319162092432], [7.820887518578763, 47.253179846562155], [7.821132169557147, 47.25313969343567], [7.821456378652834, 47.25310199230614], [7.8217324069991285, 47.253093628980125], [7.822032368886504, 47.25309392836071], [7.822254857968576, 47.25308972620047], [7.82236575302166, 47.25311810461884], [7.822427887046994, 47.2531279540932], [7.822601343346523, 47.253120739218176], [7.822808249567558, 47.253168837914195], [7.82294305766241, 47.25320476367814], [7.823064119936329, 47.25327466298578], [7.823242918784265, 47.25332513023846], [7.823435986378004, 47.253322445046514], [7.823573098204425, 47.25332775339484], [7.823773451349899, 47.25337370445278], [7.824046859969333, 47.2534141495369], [7.824098132884771, 47.25341262917468], [7.824144725634373, 47.253353774243486], [7.824228065846343, 47.253220959292236], [7.824260028933369, 47.25321087737858], [7.824279097748472, 47.25321169514169], [7.824843818962713, 47.25340665559387], [7.824955709887541, 47.253455572128026], [7.825066668741058, 47.253327898396975], [7.825138552585092, 47.253301114390325], [7.825256485185325, 47.2532994511545], [7.82564895129998, 47.25331099834957], [7.825845971144757, 47.25328491862624], [7.825862617735943, 47.25330151194333], [7.8260509410369, 47.25332235030727], [7.826055978614836, 47.25336127131894], [7.826182857069747, 47.25337631623331], [7.82634406848341, 47.25341301283828], [7.826414456879954, 47.253480731191466], [7.82646995540751, 47.25351177427151], [7.826591443830167, 47.253537675455796], [7.826764353263127, 47.25354420000969], [7.826824248093584, 47.25351653782643], [7.826844653477924, 47.25349033960092], [7.826978650864907, 47.25345956786105], [7.827166662807341, 47.25340099144747], [7.827430210072694, 47.253332922926724], [7.8274992194829975, 47.25332705077686], [7.827746108936928, 47.253359139294474], [7.827729549052686, 47.25326554234962], [7.827717328353082, 47.253134594120965], [7.827637980313152, 47.252855855402586], [7.8276225334880065, 47.252829903820114], [7.8275474774556555, 47.252739859247775], [7.82746525788785, 47.25268024050655], [7.827391966951937, 47.252620340068525], [7.8272904337813385, 47.252580682591635], [7.827146256389476, 47.252551800315565], [7.826986146826155, 47.252584729042404], [7.826839898879468, 47.252596365430826], [7.826614055825925, 47.2526423679185], [7.826521049335619, 47.2526526734303], [7.826491638703284, 47.252653932566645], [7.826420612462528, 47.25260926076031], [7.82638439214109, 47.252545835024456], [7.826325286177704, 47.25245980158802], [7.8260212039522905, 47.251935452146874], [7.826000835878316, 47.25178062317613], [7.8260748005445135, 47.251658424979745], [7.8261806580095366, 47.251571387880226], [7.826373816124744, 47.25142346922854], [7.82664505360553, 47.25118925374642], [7.826790569476014, 47.251044435680896], [7.826906035160019, 47.250974725402365], [7.827034887677488, 47.250933069209026], [7.827215118052038, 47.25089197757103], [7.827346506966006, 47.25085401839769], [7.82743739724469, 47.250816546256765], [7.827652844886694, 47.2506428075365], [7.827945595758595, 47.250423672367255], [7.828019283871198, 47.250362367871354], [7.828069570673854, 47.25025843548094], [7.828075847275179, 47.25008624698455], [7.828097578359111, 47.24997383888742], [7.828130668783294, 47.24989576133189], [7.82808964048643, 47.249823348539714], [7.828040807910055, 47.249796664195394], [7.82771244458133, 47.24971564109974], [7.827564928384589, 47.24969709635672], [7.827503734188041, 47.249672549209876], [7.827435763914059, 47.24963534230531], [7.827390948722044, 47.24958881975896], [7.827319909081741, 47.24953275225053], [7.827160890440999, 47.249379901185776], [7.826635559856267, 47.24900708453652], [7.826569968075156, 47.248980716720425], [7.826213267431896, 47.248923854206545], [7.825993545182822, 47.24883883663469], [7.825852420432737, 47.24879220491404], [7.825765750986815, 47.24874814281321], [7.82574365521615, 47.248717616981004], [7.825754339699917, 47.24867715904785], [7.825783920281139, 47.248641260965776], [7.825832733098112, 47.248618043817345], [7.825985874289979, 47.24855830897483], [7.82609629440359, 47.2484910898496], [7.826257047154987, 47.24841544437134], [7.826378870646071, 47.2483725173205], [7.826429080353608, 47.24832885929269], [7.826490183441654, 47.24826455780571], [7.826501939711051, 47.248228080907204], [7.826489329729386, 47.24814856528273], [7.826446035624069, 47.248087438973336], [7.826348028688201, 47.248019075501], [7.826316312709433, 47.24797160026315], [7.826293938664435, 47.24791724849306], [7.826283482769185, 47.247876106008796], [7.826309479104905, 47.24771934904153], [7.826353354101299, 47.247620044075674], [7.826396319308479, 47.247564735279425], [7.826465603934347, 47.24749759103445], [7.826560550949965, 47.24739542507036], [7.826616299838665, 47.247310633563195], [7.826609382550799, 47.24724199128507], [7.8265853481382335, 47.247219162587484], [7.826546351207905, 47.24719133814521], [7.826495672463489, 47.247173761924664], [7.826276366605947, 47.24707418993181], [7.8262363939323185, 47.24703744594423], [7.8261167661888305, 47.246992811162805], [7.826079522596462, 47.24695350344033], [7.826079102671365, 47.246902792789555], [7.8260949079859685, 47.24686183186739], [7.826196147727638, 47.24677868683304], [7.826340652306233, 47.24671455506629], [7.826525850638054, 47.246604467393695], [7.826646757532301, 47.246499488604364], [7.826686899783253, 47.24640842628465], [7.826724450007572, 47.246251387505694], [7.826721508869346, 47.24620281704214], [7.82674592115262, 47.24614301915211], [7.826767767854769, 47.2460208697425], [7.8267571109323475, 47.24587005546725], [7.826765876377564, 47.245820159393176], [7.826835606990004, 47.24569105778672], [7.826876860298265, 47.24565131541525], [7.826934611239877, 47.24561339734208], [7.827005407328758, 47.24558024753738], [7.827178600381112, 47.2454583531271], [7.827312517161439, 47.24529925363898], [7.82738381076638, 47.24519466600153], [7.82739806526875, 47.24512042978108], [7.827438240202561, 47.24504145594761], [7.827493315188302, 47.24497352226091], [7.827628910307896, 47.244851169205816], [7.827684302417096, 47.244808752310284], [7.827768131861697, 47.244768056624096], [7.827849299897732, 47.24468655164996], [7.827850435591659, 47.24465382509889], [7.8279103434953194, 47.24461849885115], [7.828123717847866, 47.24457732983027], [7.82837055784145, 47.24450472788704], [7.828430068157843, 47.24445842004772], [7.82846918110129, 47.24438082543353], [7.82847390261243, 47.24402441248841], [7.8284595735550235, 47.24389411864436], [7.828433332430284, 47.24380033852115], [7.828392334474933, 47.24375869666489], [7.828329160282544, 47.24370624587951], [7.8282101556621475, 47.24365025093854], [7.8281391379875656, 47.24359806040762], [7.828103385274411, 47.24350394362348], [7.828099877737437, 47.243426673191564], [7.8281302226843925, 47.243334896701064], [7.828179065475567, 47.24324946198336], [7.828218046929142, 47.243137526253214], [7.8282561432961115, 47.243002018249484], [7.828300858222035, 47.242930197551516], [7.828365202447802, 47.24288408926756], [7.828441703955944, 47.24286057050299], [7.828511967202106, 47.24287637977447], [7.828884508923107, 47.24301154329846], [7.829007747239747, 47.24308851699077], [7.829320965857535, 47.243352846004356], [7.8294322388944035, 47.24339906184646], [7.829525096147575, 47.243414020413226], [7.829609149318699, 47.24339541347824], [7.829804971290809, 47.243311899677224], [7.830009366863445, 47.24318712479489], [7.830284291004502, 47.24298085226554], [7.830440142357903, 47.24284496187379], [7.8305420913790496, 47.24271634218812], [7.8305771889570615, 47.24263029650106], [7.8305249968983475, 47.24253011958352], [7.830483843548978, 47.242355492205924], [7.830464798966468, 47.24220411299673], [7.830485928923548, 47.24204859470723], [7.830505766833719, 47.24194933370191], [7.830548019888365, 47.24182864309124], [7.830566489355855, 47.24179504809172], [7.83057381386708, 47.241770800514644], [7.830819210282874, 47.24144934136465], [7.83090601256965, 47.24139543784242], [7.830941921002114, 47.241348129568316], [7.831110166804719, 47.241224680862075], [7.831250096420579, 47.24105283793917], [7.831292871772504, 47.24089746149502], [7.831319883119395, 47.240832913385226], [7.831333371450813, 47.24078295599631], [7.831395519864976, 47.2407082952782], [7.831480446641672, 47.24061863475623], [7.831551666620641, 47.24051137320679], [7.831624929354323, 47.24046291209061], [7.831665847910153, 47.240407383445195], [7.831750323965995, 47.240339194698926], [7.831773412710363, 47.240337676984154], [7.831814703337931, 47.24034543367499], [7.831898429855943, 47.24030291807773], [7.831938617168752, 47.24030790815688], [7.832002001017731, 47.24027394398532], [7.832079048914294, 47.24027876326863], [7.832148547571866, 47.24021604007571], [7.832251488550753, 47.240193022265174], [7.832308514608158, 47.24010455359976], [7.832309590006549, 47.23996882881851], [7.832280932030922, 47.239825442787335], [7.832300487039492, 47.2397188067323], [7.832342872311185, 47.23965997161198], [7.83244397159607, 47.23963092446525], [7.832549062299407, 47.23965610185985], [7.832674492004819, 47.239708157770615], [7.832750345977241, 47.239730286651074], [7.832909275078295, 47.239763321167985], [7.832995804265588, 47.23976801749697], [7.8333122137387585, 47.2396267980919], [7.833401946894425, 47.23957526627071], [7.833476983446009, 47.23951522168619], [7.833494511522981, 47.23943494674724], [7.833485796806047, 47.23928841666041], [7.8334408433051985, 47.23917074869851], [7.833346520313623, 47.23903319130784], [7.833331048720169, 47.23895356898077], [7.833367493900023, 47.23890792208887], [7.833512129924948, 47.238856697105064], [7.83360779700953, 47.238814859023485], [7.833836137809377, 47.23870266875062], [7.8339136489940016, 47.23860955072072], [7.833988592775798, 47.23847641500137], [7.83406247366293, 47.23839967975], [7.834120380611253, 47.23838282319092], [7.834167988357363, 47.23829837048225], [7.834251995696763, 47.238181951667585], [7.83424043991982, 47.2381140811971], [7.8342637277780165, 47.23807176205412], [7.834206747094263, 47.23795833614791], [7.834172076222349, 47.237836414651916], [7.834160744976732, 47.23775244278969], [7.834215809114722, 47.2376762755873], [7.8343905831107215, 47.237591683700934], [7.834557248877149, 47.23755370285329], [7.8346884800196, 47.23753168320324], [7.834833656268839, 47.2375237911645], [7.835011913679554, 47.23749069905028], [7.835177312425127, 47.23743152126905], [7.83569553326451, 47.23717186050973], [7.835907913354946, 47.2370851669607], [7.8361174747062, 47.23701558166817], [7.8361820911719855, 47.23701864230332], [7.836312029139739, 47.23700060078487], [7.836445076499737, 47.236995788698344], [7.836513093244349, 47.23703344900927], [7.8366495877093865, 47.237044626511754], [7.836750196922212, 47.23701991271589], [7.836807873396912, 47.236988367187216], [7.836891376959604, 47.23689403914894], [7.8369332609208735, 47.23682383464481], [7.836859112519613, 47.236751934878434], [7.836787127137753, 47.2366636392734], [7.836782480359468, 47.23660531543865], [7.836863453678131, 47.23637864781944], [7.836930289443093, 47.2362913842146], [7.837056579382529, 47.236156099228324], [7.837122700134051, 47.23602785805285], [7.837184192932799, 47.23593615126991], [7.837294843354328, 47.2358307735496], [7.837442936675855, 47.23574890442712], [7.837574534454096, 47.23570063359606], [7.837698702720473, 47.2356425210949], [7.837781675351909, 47.23558375032334], [7.837881181798896, 47.23549837893836], [7.837933297140454, 47.235428030714345], [7.838072547056936, 47.2352692055437], [7.8380888080518165, 47.235229059763476], [7.838299416837776, 47.23501457968651], [7.838388195396988, 47.23494654183158], [7.838459813117844, 47.23490599736519], [7.838514869276502, 47.234891828888486], [7.838546943455581, 47.2348736655613], [7.838672838504669, 47.234820825868916], [7.838727156827791, 47.23480518424428], [7.8388475262427075, 47.23473576813776], [7.838927239659374, 47.23460526627753], [7.8389458946737935, 47.23455161091093], [7.838932942320051, 47.23448313372724], [7.838837951454911, 47.234444264191346], [7.83864993773661, 47.234382420709004], [7.838595464452361, 47.23434371638344], [7.838310633917367, 47.2342299575777], [7.838247929177404, 47.23417649422246], [7.838213001792445, 47.234114875417525], [7.8379719525250335, 47.2338615097595], [7.837881098641328, 47.23378214883755], [7.837842816029011, 47.23369906210489], [7.8378229806462825, 47.233612259572006], [7.838047256829728, 47.233313460963814], [7.838077687690381, 47.23328755885056], [7.838110953446457, 47.23322215993416], [7.8381453467939775, 47.23317515132545], [7.838192159403035, 47.23304224506261], [7.8381234728977445, 47.23297801761604], [7.837964384989218, 47.23294619628444], [7.837875441413139, 47.232952782397454], [7.83781957362556, 47.23300129539421], [7.837738369652092, 47.23303108783496], [7.837562926461807, 47.233007202054914], [7.837520930546685, 47.232992766693755], [7.837489039361549, 47.23293078634634], [7.837454886909272, 47.23288434754547], [7.837467693844037, 47.23282550486762], [7.837441942702826, 47.232797125414834], [7.837448013241664, 47.23258565620862], [7.837429143536876, 47.232498931257226], [7.837387958228457, 47.232426611969906], [7.837429000324919, 47.232323705456544], [7.8374835969701975, 47.23226061642755], [7.837626652269685, 47.23216148554061], [7.837710404134056, 47.2321282391597], [7.8380676464533, 47.232010881217796], [7.838081412417029, 47.23199221442522], [7.838218014272234, 47.23192570208007], [7.838269979943225, 47.231885360576186], [7.838335095691125, 47.23179518756018], [7.8383189688948, 47.23176471522014], [7.8382728925207585, 47.23171833596276], [7.838208006318313, 47.2316747383717], [7.838034294920597, 47.2315832966962], [7.837988084449594, 47.23155074277299], [7.837914302267942, 47.23148642497074], [7.837844857606417, 47.23144240213654], [7.837821080383425, 47.231414798587174], [7.83767689892016, 47.231312928312974], [7.837584464924072, 47.231267203851964], [7.837561450562347, 47.23124446392322], [7.837495075207435, 47.231211772491214], [7.837411599924799, 47.23117915828981], [7.837303896415258, 47.231083133915305], [7.837249152130621, 47.23100922447153], [7.837195874196889, 47.23096198822039], [7.8371669658479295, 47.23090668949319], [7.837158457586733, 47.2308050243557], [7.837197125922504, 47.2306512336455], [7.837221622171196, 47.23059637106625], [7.837363272214525, 47.23046866898451], [7.837563978116742, 47.23031134987084], [7.837639665927177, 47.230229433952026], [7.837694206066476, 47.230182086049375], [7.837722056438746, 47.23007419670092], [7.83759977684084, 47.229864853090454], [7.837498391573087, 47.229820769592905], [7.837400445128738, 47.22979513139535], [7.837312178481516, 47.22975183894711], [7.837207869602191, 47.22971051774624], [7.837128869658724, 47.22966322644477], [7.8370607376314405, 47.229635488047435], [7.836929169577259, 47.2295686616742], [7.836866012891916, 47.22951920172951], [7.836763985807044, 47.22940817199703], [7.83671631382294, 47.229324325621334], [7.836677240234052, 47.22918036467005], [7.836741289897191, 47.22911558847651], [7.836793979724444, 47.22907162034107], [7.836824368063189, 47.229004765343], [7.836926532226216, 47.228944381913735], [7.836979604359318, 47.228882629730336], [7.836937388689293, 47.22878319446206], [7.8369096246841226, 47.228611733568165], [7.836870471538571, 47.22858488449323], [7.836897638495825, 47.228573160510216], [7.83691158062913, 47.22847706649459], [7.836961380219733, 47.22841742158081], [7.836966415267064, 47.22833280847321], [7.836949142283869, 47.228222556697034], [7.83667319630755, 47.227924307660935], [7.836552139421332, 47.22780362001803], [7.836484195073104, 47.22769061047301], [7.836488431472334, 47.22764767293688], [7.8365329168530256, 47.227589053662996], [7.836602468077843, 47.22754343526429], [7.836682132524241, 47.22754028215166], [7.836765837081365, 47.22755837866644], [7.836900028931733, 47.22757389921407], [7.8370070243268986, 47.227572261532046], [7.837173583050818, 47.2275367507406], [7.83730440544734, 47.22750226301277], [7.837379684430611, 47.227449275565384], [7.8374493660073705, 47.22735924902878], [7.837498687593046, 47.227276470599456], [7.837539663000494, 47.227179365583616], [7.837543669881489, 47.22715359077252], [7.837504342645115, 47.22706782693691], [7.837424043147674, 47.22700512328752], [7.837309637808212, 47.22696727305089], [7.837163362698088, 47.22697442551112], [7.836979082890213, 47.22702906641941], [7.836884954940992, 47.22704564490874], [7.836736018714708, 47.22704655465769], [7.83666856866492, 47.22702835723973], [7.836634416768347, 47.22700447698522], [7.836624074814259, 47.22693655741525], [7.836602619688259, 47.22689769316943], [7.836584114272549, 47.226887952657115], [7.836736545106046, 47.22678527357521], [7.8368261128557055, 47.226760975764044], [7.836928735047883, 47.22671127635412], [7.836940507855935, 47.22668042843087], [7.837028581257104, 47.226627487161814], [7.837148220657519, 47.2262386894627], [7.837171854818419, 47.22611794331588], [7.837172202776142, 47.22599796107616], [7.837159266765101, 47.2258760819193], [7.837189794675604, 47.22576440567275], [7.837204096114019, 47.225654674203476], [7.837234544568656, 47.225488013353235], [7.837238834833904, 47.225411633019384], [7.8371774376793475, 47.225310528721096], [7.837170814271229, 47.22525438871224], [7.837291124105965, 47.2250341950996], [7.837378419725413, 47.22481337849089], [7.837354373839868, 47.224733353923206], [7.837271523350282, 47.224668005640325], [7.837153265415715, 47.22462809953288], [7.8370451968859225, 47.22461957706423], [7.836942513520847, 47.22464097040656], [7.836850065848441, 47.22466633086233], [7.836725130735809, 47.22467126842938], [7.8366573582332135, 47.22465192966755], [7.83659473652498, 47.22462210332423], [7.836507246816246, 47.22456484778051], [7.836419787210606, 47.22446188942677], [7.836423798441711, 47.224386895342796], [7.836542787142938, 47.22425526049629], [7.836603718296854, 47.2242086735386], [7.836660079099162, 47.224096143591424], [7.836635413502891, 47.22401246045983], [7.836632730352218, 47.22389307334961], [7.836652404718737, 47.22380622408156], [7.836711991933853, 47.2237618901979], [7.836774685398617, 47.223751770602796], [7.836824494883446, 47.22375086113829], [7.836981568459596, 47.22371801874723], [7.837047952210419, 47.22369813606371], [7.837208284715233, 47.22360826440711], [7.837248497890279, 47.22358110526801], [7.837303442324725, 47.22351445322531], [7.837295627173525, 47.22340647988862], [7.8372400875864106, 47.223251278572185], [7.837176169937283, 47.223219244162436], [7.837142838862243, 47.22318117646037], [7.837173727535515, 47.22311286245299], [7.83721300665466, 47.22308798217342], [7.837399485521213, 47.22302907879968], [7.837595733862846, 47.222945306830525], [7.837669880802818, 47.22288304053058], [7.837732268484568, 47.22284979572174], [7.837999423063035, 47.22290499851724], [7.83830167053713, 47.222961743213446], [7.8384199230776455, 47.22301192902486], [7.83858201455113, 47.22305560341656], [7.8385836623261405, 47.22276536408172], [7.8385541660621, 47.22276529542521], [7.838337128556587, 47.22278410011684], [7.837709499120368, 47.22272652127695], [7.837407105656208, 47.22265521317692], [7.837366229714861, 47.222637589826164], [7.837340379937152, 47.22261833147274], [7.837055281499752, 47.22237978785237], [7.83722884939366, 47.22214408307593], [7.837311201711945, 47.22212539445732], [7.83746148586131, 47.22178087036838], [7.837452576504061, 47.221557831619656], [7.837582289993551, 47.221417396675754], [7.837933181542148, 47.22060314690972], [7.838091808343955, 47.22029492307688], [7.838117800270608, 47.220200586370886], [7.838066683238183, 47.220078839627696], [7.837926281625226, 47.21991146580953], [7.837848130447303, 47.21971054143988], [7.837735346779324, 47.219622522119785], [7.837665235807287, 47.21961808744406], [7.83761683468195, 47.21952212877917], [7.837402403987812, 47.219334304663015], [7.837170813768812, 47.21903680280274], [7.837127279112867, 47.21905180372844], [7.837059756659111, 47.21898706771242], [7.8368738717149125, 47.219051069935574], [7.836688673967114, 47.21891286618357], [7.836059478859338, 47.21868602007501], [7.836320558117151, 47.218555648442276], [7.8362660149050845, 47.21823318461556], [7.836284166046978, 47.218033923350156], [7.836389030583067, 47.21796133315037], [7.836378547419745, 47.217872383769134], [7.836485164211182, 47.2176110321599], [7.836560756515875, 47.217500729162104], [7.8365271706063915, 47.21737096949904], [7.836482053592269, 47.21731146269514], [7.835517248085384, 47.216961193828446], [7.8342553296969095, 47.216511168073886], [7.834281472522816, 47.21647058390852], [7.834148109223168, 47.21628811450248], [7.834027563065108, 47.216085668458476], [7.833847054289368, 47.21593112717161], [7.833147943007508, 47.21565643628515], [7.8330532667492845, 47.21562289475994], [7.832512308321887, 47.21583901724477], [7.832245409897541, 47.21585793612985], [7.831834105446052, 47.21573719921269], [7.831407809511756, 47.21601467449002], [7.830826959919253, 47.216081377385976], [7.830232592051014, 47.216058013665325], [7.829678633402139, 47.215933282801565], [7.829354834917478, 47.2160046113573], [7.828760496330158, 47.21641631698908], [7.828662338335372, 47.216689361401286], [7.828424558408684, 47.21686082296946], [7.828074994222504, 47.217169660947825], [7.828073118342165, 47.21756520327551], [7.827827085605016, 47.21812587755888], [7.827451250513856, 47.218476430428936], [7.827214128735923, 47.218738356873935], [7.827138770780702, 47.219127634882334], [7.827063539147284, 47.219310662086336], [7.82689605900608, 47.2194458329822], [7.826427874704104, 47.21968389827972], [7.8260446339703496, 47.219827599864836], [7.825619894994896, 47.22003147903995], [7.82539342048772, 47.220106435882485], [7.825130493321392, 47.21999664514757], [7.824951918008507, 47.21996201908033], [7.824590014788453, 47.219813827164465], [7.8243854610530015, 47.2197923660817], [7.823928489562965, 47.21984035972072], [7.823609046686723, 47.21970656749229], [7.823383033727021, 47.2199819131942], [7.822891444115018, 47.220258206049216], [7.822591423983819, 47.2208759387114], [7.822603815828001, 47.221773753093174], [7.822774050510156, 47.222012626497396], [7.822738056605292, 47.22224969483609], [7.822524760137658, 47.22265265886185], [7.822349338487846, 47.22289874512252], [7.822047779598636, 47.223156988212445], [7.821970762409017, 47.22344980730545], [7.822273410364844, 47.22378006876458], [7.822393162164313, 47.22417028517902], [7.822406881643404, 47.22445965450914], [7.822497932279088, 47.22466950479958], [7.822784894143195, 47.225011204402925], [7.822874860298527, 47.225192868473776], [7.82286976734773, 47.22542154963277], [7.8228032814049655, 47.225671096517736], [7.8221683652374585, 47.22637926883402], [7.822062417018281, 47.22647338214463], [7.822029295211621, 47.22652043605328], [7.818954602786979, 47.226001199298096], [7.818911760033115, 47.226059374592914], [7.818796794586459, 47.226297565195175], [7.818821673971783, 47.226463490270454], [7.818730840082316, 47.226834975568664], [7.81868597707498, 47.2271722734702], [7.818674498827497, 47.22730567624369], [7.81861633654306, 47.22748272257593], [7.818608019178492, 47.22775455294274], [7.818570653942719, 47.227840548947256], [7.818492292648385, 47.227940090980816], [7.818390773592165, 47.22805681715284], [7.818299896860648, 47.228188439480846], [7.817673254144694, 47.22850171808958], [7.8172134676176785, 47.22868016333063], [7.816834482187387, 47.2288668061618], [7.816133068511685, 47.22890809605651], [7.815254029766161, 47.2289893949285], [7.814325645888518, 47.22932326743718], [7.813875449114405, 47.22947273183919], [7.81337563591201, 47.22967448037783], [7.8128530627962816, 47.22983975472513], [7.812352097829857, 47.23001566044356], [7.812095498258981, 47.23011941803938], [7.811649006442776, 47.23025287792975], [7.811172544106456, 47.230474537151245], [7.811063038024028, 47.23053375258715], [7.810661193261229, 47.230671859996455], [7.810566109461785, 47.23075441429187], [7.810479121981391, 47.230882905177076], [7.810210718717938, 47.231241406188744], [7.810103187090647, 47.231330673467156], [7.809963726474474, 47.23152302363673], [7.809933721017652, 47.231650215017325], [7.809766871882414, 47.23189413858913], [7.809660921175985, 47.23206893101358], [7.80947883981542, 47.232199759099764], [7.809102620127151, 47.23231281602208], [7.808944896732269, 47.23239532651508], [7.808552646238058, 47.23248015382387], [7.808367685720239, 47.23255608543629], [7.808008302746157, 47.23266210521977], [7.807802114766888, 47.23281386720054], [7.807691999979543, 47.23293167232132], [7.807512394598311, 47.23305492535321], [7.807345813647244, 47.233213368579044], [7.807082397085672, 47.23328202964835], [7.806871706146207, 47.233517122245125], [7.8066494629847805, 47.23361267108115], [7.806401518534643, 47.23377712008354], [7.806185668495874, 47.23405203848898], [7.805808587913355, 47.233859447704496], [7.805117909703148, 47.23369730965977], [7.804134623889864, 47.23343278131388], [7.803813523527808, 47.233316110969], [7.803399815068409, 47.23309695891857], [7.803282826454963, 47.23300583440323], [7.803238420781741, 47.23292315135362], [7.8028634703767, 47.23271678216312], [7.802343983094212, 47.23252122929116], [7.801893345999434, 47.23242004585806], [7.801133240994314, 47.23220179552063], [7.800432662006753, 47.23198990159995], [7.799717493892496, 47.23159349563484], [7.7995081964650215, 47.23161395671957], [7.79948852210482, 47.23164553565103], [7.799414797833412, 47.231729929623846], [7.799380219693948, 47.23178381712954], [7.799365647276719, 47.23182982567957], [7.79936183396148, 47.23189495933575], [7.7994031888074975, 47.2321726318932], [7.79940473697975, 47.23228089640544], [7.799373133948599, 47.23261962819246], [7.79938782349265, 47.23272621459207], [7.7994317783966, 47.232803665590104], [7.799506115036945, 47.232862825281344], [7.79967925687891, 47.232976948360225], [7.799513413131641, 47.233024770243695], [7.79825371638139, 47.233414071302256], [7.798342667598578, 47.23359848255731], [7.798240435579149, 47.23374894983234], [7.79830973552997, 47.23393314344329], [7.798356026022716, 47.23413620764763], [7.797936018841078, 47.23414305620835], [7.796043552734253, 47.234199031921264], [7.795912746416968, 47.23414926448457], [7.795670002329533, 47.23419579865936], [7.794628442319369, 47.2342994239465], [7.794157936449823, 47.23436024860846], [7.793055795132249, 47.234751229339814], [7.792854021835517, 47.23491114532129], [7.7919902967884935, 47.23510795289423], [7.791829193523126, 47.23516974488058], [7.791846190614165, 47.23519188283928], [7.791430073290628, 47.236227357381146], [7.790855686716408, 47.23736153527815], [7.790840899757557, 47.237414424233364], [7.790799744769493, 47.23742001842019]]]]}}]}