{"type": "FeatureCollection", "features": [{"type": "Feature", "properties": {"bfs_nummer": 339}, "geometry": {"type": "MultiPolygon", "coordinates": [[[[7.7856437400615475, 47.12981027793333], [7.786007358283946, 47.129802930196966], [7.786828865975671, 47.12966954592577], [7.787113585966612, 47.1297412282458], [7.78723826836827, 47.129753209754746], [7.787521089582436, 47.129804307694194], [7.787684687549648, 47.12990862971919], [7.787866141648299, 47.12996985671953], [7.7881071181492025, 47.13000085013106], [7.788300823745012, 47.12990546300737], [7.788687064350784, 47.12972133946959], [7.788940259000439, 47.129595115496315], [7.789109187741857, 47.12961734911086], [7.789196243966371, 47.129563114976854], [7.789851851727966, 47.129597587708446], [7.789879095216621, 47.12986928778645], [7.790505175585224, 47.13007551383312], [7.790991996010317, 47.13003272231458], [7.791125127032172, 47.129994275614344], [7.791056901533138, 47.12941592760902], [7.791558133913178, 47.12951927566249], [7.791804236524854, 47.12952387422935], [7.791988396978096, 47.129569139320665], [7.792323880492432, 47.129598818446254], [7.792571530379684, 47.12958425951292], [7.792622343625367, 47.12958687379059], [7.792775910081342, 47.12945990588059], [7.792976765817404, 47.1293788642867], [7.793210058082421, 47.12932192786672], [7.79363379082202, 47.129265581565015], [7.793901583801043, 47.129238031550045], [7.794010565319948, 47.12924548434613], [7.7941779549649395, 47.12926795855178], [7.794459750395317, 47.12927508399942], [7.794507719408037, 47.12916686153017], [7.7948574877542836, 47.12889306805615], [7.795068604330464, 47.12875458314221], [7.79532208151679, 47.12863017913265], [7.795221622832737, 47.128572275871164], [7.795022102940518, 47.128468427237166], [7.795118779266353, 47.12836954419608], [7.795225613172582, 47.12821252303233], [7.795313012940844, 47.128096120286216], [7.795721569986619, 47.12759643154432], [7.795760288219408, 47.12747316171683], [7.795765015821261, 47.12728070757288], [7.795729534991372, 47.12708062471425], [7.7955829314600225, 47.126849629666324], [7.795414322297616, 47.12657132740835], [7.795357938677448, 47.12646176527097], [7.795331671483307, 47.126372303092154], [7.795319254159306, 47.126308433035206], [7.795686104759109, 47.12628552844358], [7.795890359702553, 47.126248339487894], [7.796144557668338, 47.126222166380984], [7.796461280240118, 47.12620231963289], [7.796587232056342, 47.126168448658774], [7.796723191240371, 47.12611947965938], [7.79699194728119, 47.12603753508296], [7.797134455219373, 47.12598453344627], [7.797631020077424, 47.12573465082098], [7.797833034795639, 47.125568295997255], [7.797910431627835, 47.1255185638123], [7.798019198278589, 47.125398466048054], [7.798222631052964, 47.12540449647765], [7.798393333919653, 47.12537616017257], [7.798590209695761, 47.12505874523743], [7.7986977896345415, 47.12506856432093], [7.798857918727829, 47.12514583371819], [7.79934514946445, 47.1254012669502], [7.799601323767094, 47.1255070365078], [7.8000131389834255, 47.12563931198994], [7.800214137616028, 47.12567900564643], [7.800289955825567, 47.12551836186729], [7.800357523287003, 47.12519730184671], [7.800396900260143, 47.1249603516274], [7.800441544919337, 47.1248793471977], [7.800491266910141, 47.12456814732523], [7.801047484134034, 47.124619557753334], [7.801439885054386, 47.12464899375902], [7.8014663190475195, 47.12471091293056], [7.801669925784354, 47.12473918922332], [7.8019205666515, 47.12475362633184], [7.80218758572344, 47.12478703542627], [7.802529338508405, 47.12474217587149], [7.8028757727622535, 47.12466866999622], [7.803153677566566, 47.12460111960247], [7.803464254008566, 47.124491224729425], [7.803616365826982, 47.12451088224392], [7.803797792226584, 47.12450805763328], [7.80400989835654, 47.12451680147822], [7.804213249547793, 47.124519158940615], [7.804648919368014, 47.12447962322507], [7.80493739653039, 47.124440124965325], [7.805085962030466, 47.124590731543805], [7.805172632566877, 47.12483087281752], [7.8052221649688605, 47.1249339683668], [7.805700270354668, 47.12483382437786], [7.806071433839612, 47.12476339814808], [7.806702308535394, 47.12447522838039], [7.8067770957144464, 47.12449212472733], [7.807093564261816, 47.124766955140814], [7.807411227399829, 47.12520551601338], [7.807501960085894, 47.12529863010323], [7.807574757130235, 47.125355479574864], [7.807697910223409, 47.12538530880848], [7.807999556404373, 47.12542972311795], [7.808131243541144, 47.12543567871598], [7.809129194382474, 47.12540742569906], [7.8093172315634645, 47.12538424379441], [7.809581228479606, 47.12529191493333], [7.809934750130071, 47.12503396993257], [7.810119862213422, 47.124975004747284], [7.811191244315088, 47.12485343074555], [7.811457521751416, 47.12485301892783], [7.811770491833009, 47.124873422337394], [7.812651571518244, 47.12434794178355], [7.8129254013436285, 47.124296897537135], [7.813138953808642, 47.124280265342826], [7.8133175570205236, 47.12424495554051], [7.813732640846215, 47.124213526177115], [7.81398757315729, 47.12422513561588], [7.814247297415916, 47.12422096048182], [7.814483537286457, 47.12420362999733], [7.814824480491044, 47.12421421935548], [7.81507436783259, 47.12421109142727], [7.815320022934614, 47.12423588787239], [7.815674889004665, 47.12423040914535], [7.815987997185629, 47.124197640503525], [7.81703624655184, 47.1240720044935], [7.817292002340006, 47.12410690986436], [7.818563806188129, 47.12472686347173], [7.818886731547823, 47.124758916557575], [7.819274626710696, 47.12473674810164], [7.81943820704737, 47.12468718445883], [7.819492774407235, 47.12448398724528], [7.819521683627797, 47.124230862912626], [7.819661415301244, 47.124035659365035], [7.819826790173153, 47.12390324610827], [7.819910034661017, 47.123807902951015], [7.819980084682662, 47.12374005590368], [7.820071423165348, 47.123580272561156], [7.820191987563215, 47.12334776646393], [7.820337955666174, 47.12321109831897], [7.820513497310025, 47.12302647927164], [7.8207729444373335, 47.122669777332966], [7.820853246899448, 47.12249491896998], [7.821008550925988, 47.12236877974823], [7.821186028906726, 47.12231229524472], [7.821411149005169, 47.12219341602896], [7.821611372433437, 47.12219430573155], [7.8218040499989785, 47.122227305214125], [7.822076404584471, 47.12228072724141], [7.822248735593096, 47.12230821686606], [7.822353810848708, 47.12233655121449], [7.822507175045848, 47.122387579655886], [7.822649294435316, 47.122292442788606], [7.822704376747125, 47.12222942039642], [7.822802882939708, 47.12208023320682], [7.822992087140297, 47.12197605968737], [7.823165286022118, 47.121848974919295], [7.823307813986581, 47.12179105615746], [7.82349035987167, 47.12174370666018], [7.823680376148733, 47.12165025087372], [7.823844690014358, 47.1215873203245], [7.824000104386753, 47.12153305418826], [7.824161274502412, 47.12153894466145], [7.82439132507935, 47.12156121680263], [7.824720729596317, 47.121582085979476], [7.824770038668985, 47.12140946039487], [7.824823031962287, 47.12125257261875], [7.824916737327156, 47.12107815192205], [7.8247783728737845, 47.12088089908022], [7.824630068323591, 47.120682879562956], [7.824490185741297, 47.12045557101132], [7.82433289246435, 47.12022771780747], [7.823953668572933, 47.11964648714766], [7.823603763458928, 47.11958596175926], [7.823338850137267, 47.11953217605628], [7.823098281562636, 47.119477274016084], [7.822599693419892, 47.119335414601345], [7.822278790351729, 47.11923173867558], [7.821914310928947, 47.1191021054058], [7.8216668157662665, 47.1190361789498], [7.821562549988045, 47.11890247381429], [7.821511994130863, 47.11867989935281], [7.821433887304272, 47.1180032340773], [7.821409012440478, 47.11774513439721], [7.821411532534407, 47.11762551103863], [7.821592214643093, 47.11737401331739], [7.821433144571391, 47.11722305822408], [7.821319686891883, 47.11714869619271], [7.820448636338397, 47.116738125667574], [7.820410367530694, 47.11669142455508], [7.820125787268642, 47.11651561641524], [7.819902903822079, 47.11633996294492], [7.819718401833842, 47.11620636891535], [7.819494806499688, 47.116004272108036], [7.819383873371163, 47.11585042014502], [7.819292660493065, 47.11566045990851], [7.819231524612491, 47.11549568499687], [7.819236670852584, 47.11528122777669], [7.819333344453815, 47.11510243071639], [7.819505843683367, 47.11486922356456], [7.819647720494418, 47.11474199683306], [7.819765078601628, 47.11460220453155], [7.819910943555724, 47.11444306774602], [7.819950060758411, 47.11435174692842], [7.819973667364881, 47.114241597166405], [7.819971074128828, 47.1140138710953], [7.819855597926572, 47.11383772732782], [7.819689162106082, 47.113632608391605], [7.819476586302781, 47.113531677677464], [7.819206179102245, 47.11345273254615], [7.819006363993159, 47.11330040641395], [7.81890592631616, 47.11314845319838], [7.818797263617571, 47.11302014786214], [7.818758129698322, 47.11295302163256], [7.8188434470859, 47.112867872264694], [7.818816945339304, 47.11264962434462], [7.818786561419909, 47.112452437786715], [7.81869499800652, 47.11225834966064], [7.818663703237965, 47.112090588693725], [7.818678120947778, 47.11194596465455], [7.818514132097089, 47.111522950385016], [7.818774730970176, 47.11145938621529], [7.8184875279953365, 47.11116519990759], [7.818023347957384, 47.11080667021646], [7.817568747979309, 47.110561255425914], [7.81696303415443, 47.11016864696779], [7.8168429836387965, 47.11004383101538], [7.816566318859667, 47.109819756954145], [7.816372758047579, 47.10961152819931], [7.8160616390728075, 47.109435347671436], [7.81577189688704, 47.10925237669701], [7.815522911270989, 47.10907749310079], [7.815292318758039, 47.108879953488874], [7.815095138397522, 47.108719804256495], [7.814845571601379, 47.10858349173418], [7.814579802376587, 47.108428593768416], [7.814292549804182, 47.10819701090452], [7.813985364786944, 47.10776742262515], [7.813867623350548, 47.10758483892882], [7.813851294213008, 47.10740692591455], [7.813762645142133, 47.107077583700175], [7.813780793718522, 47.10687884309823], [7.813717538354405, 47.10667837093805], [7.813616174288918, 47.10652574058817], [7.8135034131263765, 47.10645584712676], [7.813354933562845, 47.10631767125753], [7.813336724533208, 47.10619665747135], [7.8133911618026435, 47.10590444790134], [7.8134181422951885, 47.105849697334776], [7.813333119033696, 47.10561437650573], [7.813140155025365, 47.105489577807305], [7.8128798212154145, 47.10534046852782], [7.812745834031744, 47.105209172113966], [7.812130519329708, 47.10475216411961], [7.811580734091552, 47.10440204438007], [7.811389465991096, 47.1042261461641], [7.811499042875914, 47.10416884357296], [7.811455487895151, 47.10396373637058], [7.811356329485817, 47.10369632163439], [7.811301194727909, 47.10348335533683], [7.811314773784526, 47.103238144054004], [7.811311438180612, 47.10292279932931], [7.81123556047827, 47.10257388613808], [7.811111486110489, 47.10232042177858], [7.810947415844413, 47.102184300356164], [7.810775026834444, 47.102083241082944], [7.810600022738339, 47.10200201502787], [7.810290576854759, 47.10190616526036], [7.81003961463025, 47.10184171638902], [7.809738645095358, 47.101706457478045], [7.8094792698775075, 47.1015966996556], [7.809303353679881, 47.10147443939093], [7.808950692307238, 47.101191529920506], [7.808299748745623, 47.10071621934131], [7.808298345220523, 47.10069031816415], [7.808061087326811, 47.10065207787181], [7.8076743195688305, 47.1004150496343], [7.807462001992371, 47.100239167141744], [7.80715035614124, 47.099914528567176], [7.807237292442846, 47.0998851960513], [7.807228327587001, 47.09967693653447], [7.807209410987458, 47.099471533686504], [7.807170039233411, 47.099348923079674], [7.8076083687310565, 47.09930451231855], [7.807759018990223, 47.099257848442015], [7.807885546813544, 47.09918200996428], [7.808817053774974, 47.09902868911831], [7.808548459153991, 47.09885389791032], [7.808290042671574, 47.09866866628548], [7.807810364627651, 47.09829488872168], [7.808105284004225, 47.09801822368493], [7.808370858935894, 47.0978055262822], [7.80850570447602, 47.09771412465695], [7.808998339782685, 47.09726882142423], [7.809062539766971, 47.09730685262721], [7.809506947449118, 47.09697605956284], [7.809282846484795, 47.09675599890305], [7.80898272471104, 47.09649484083556], [7.808819587011168, 47.09648291653867], [7.808673302619544, 47.09648528488079], [7.808551693013314, 47.096511131703025], [7.808496821942286, 47.09650204319722], [7.808436197254, 47.096479939328134], [7.808367297772114, 47.09637901173408], [7.80838115696027, 47.096276082309075], [7.808378294907205, 47.09618754484606], [7.8083699374441204, 47.09615983996111], [7.808336674954837, 47.09612299522044], [7.808260348677612, 47.09608158439411], [7.808124241068456, 47.096037136292516], [7.807992080221176, 47.096020658993595], [7.8078445745556815, 47.096017660010084], [7.807679739811779, 47.096019205081404], [7.807593710454523, 47.09601475856054], [7.807473751350821, 47.09598169054879], [7.80739291895681, 47.0959533723753], [7.80707675106739, 47.09594880795338], [7.806975293130387, 47.09595712934428], [7.806771715375308, 47.09600598485762], [7.806443308757073, 47.09598768651901], [7.806336700364129, 47.095946002478755], [7.806206937219099, 47.0958371634559], [7.806059758480673, 47.095783672327876], [7.8059322422551105, 47.09570853029746], [7.805849625983887, 47.095632992866385], [7.805667409462573, 47.09574290008271], [7.805605521695782, 47.095828568319256], [7.805561432952662, 47.09583201005521], [7.80532097263127, 47.095772770567386], [7.8050555003602495, 47.095721345921916], [7.804896156007181, 47.09569348279674], [7.804850646319426, 47.09588432287908], [7.804819100608383, 47.096004093361984], [7.804777386197975, 47.09618561154576], [7.804446212834399, 47.096153742822324], [7.804290862743912, 47.09612264573583], [7.80419558851956, 47.09612423477225], [7.80401325999684, 47.09615265369075], [7.803845169949608, 47.09611337491533], [7.80361984982129, 47.09608392941974], [7.803445353254206, 47.09605541093494], [7.803247339920475, 47.096035799925325], [7.803101261602213, 47.096029579181895], [7.8028842351764, 47.09602844943795], [7.802735185796642, 47.09606963275217], [7.802618081770999, 47.09612305588396], [7.802471810264512, 47.09612915819237], [7.802330113927801, 47.096262211289165], [7.802328122584221, 47.09640373650062], [7.8022991287342345, 47.096549125155654], [7.802183078163966, 47.096709648502504], [7.802139738065576, 47.09685092690328], [7.802077726949976, 47.096973851100344], [7.802074491148343, 47.09706007887398], [7.802016867134098, 47.09726292808228], [7.801970428955898, 47.09747007798198], [7.801940152175832, 47.09771993040076], [7.801932908825624, 47.097897146816806], [7.8019264761175755, 47.098145439680486], [7.8019698531910855, 47.09836721998447], [7.802027610325578, 47.098681649008064], [7.802056256475493, 47.09892017091411], [7.802053299887349, 47.098991223333435], [7.802046613419261, 47.099050323962224], [7.8020224827758895, 47.09917110483836], [7.801899520348727, 47.099391484894106], [7.801804236398552, 47.09958317359629], [7.801712233995986, 47.09981223470338], [7.8014038602406846, 47.09978300217345], [7.80108862495534, 47.09973833693786], [7.800748185612739, 47.099669472617016], [7.800226791934694, 47.0995690546062], [7.7996548130443575, 47.09945429309632], [7.799399877596327, 47.09942413182357], [7.79910645279924, 47.09939801239197], [7.798635686103564, 47.09935043629877], [7.79810773793903, 47.09919666181273], [7.797657317767732, 47.09906128964432], [7.797331364290589, 47.09894914881462], [7.79706666929857, 47.09885156805482], [7.796747675598249, 47.09877724609306], [7.79651821405581, 47.09871844892247], [7.796323071355193, 47.09870372833973], [7.796009261864706, 47.0987053694747], [7.795685557293279, 47.09871850909406], [7.7955143363196395, 47.09876912539835], [7.795348832605045, 47.098778336690394], [7.795241308017199, 47.09876667174706], [7.795161315313629, 47.09876128873405], [7.795031822655892, 47.09874433843728], [7.794745744878101, 47.09868311334346], [7.7943687897389164, 47.09862370636553], [7.794177529766376, 47.0985765966626], [7.793883756368307, 47.0985186402587], [7.793648070805237, 47.0984641919236], [7.793410000631246, 47.09836375907455], [7.793255900456283, 47.09830247435027], [7.7930538377794365, 47.09820891910803], [7.792877865092153, 47.09811459953074], [7.792691467536871, 47.098031330563835], [7.792500287215102, 47.09795578467658], [7.792305117771696, 47.097884469393186], [7.792100094149695, 47.097826865530244], [7.791894042304008, 47.097777081116156], [7.791469107226026, 47.09768109453834], [7.791158628792995, 47.097637556559654], [7.790839392100348, 47.09758009315159], [7.790537901559616, 47.09752302428963], [7.789874213727994, 47.097411093962876], [7.789658303629015, 47.09737198575367], [7.789418860917934, 47.09738212454781], [7.789129173261094, 47.097409452416485], [7.78882349930743, 47.09744967294951], [7.788557174356004, 47.09749459423369], [7.788247877335316, 47.09757328676017], [7.787951983238167, 47.09767744765516], [7.78760834438853, 47.09780072307388], [7.786869909999757, 47.098081174973146], [7.786856220586979, 47.09811315752938], [7.786845263162808, 47.0982881341983], [7.786797938109784, 47.09879241050841], [7.78680326108256, 47.0989165252025], [7.7868340649334495, 47.099051590660345], [7.786906877031308, 47.09929031336533], [7.786968621171436, 47.09945943943961], [7.787037061857153, 47.099623157216584], [7.787077305081274, 47.09969428481452], [7.787087480395447, 47.099691150713646], [7.787269825955559, 47.09986696349849], [7.788054730763372, 47.100602479968806], [7.788242661748469, 47.10083602189208], [7.788228640387566, 47.10106988901465], [7.78819694694293, 47.10130471839111], [7.788107800859425, 47.10150448892531], [7.787889762472959, 47.10195457620839], [7.787833500962445, 47.102104657475095], [7.7879086993733155, 47.102364618395065], [7.78799751263547, 47.102560709608184], [7.788079495938356, 47.10273350643159], [7.7882056145688825, 47.10291294221588], [7.788247343211725, 47.103096268036914], [7.788283559606272, 47.103307000243866], [7.788293741934541, 47.10370130008572], [7.787966949401546, 47.10367610782175], [7.787414181480963, 47.103619370225594], [7.787078444749394, 47.10360841407411], [7.7871021616235225, 47.10365371303664], [7.787021798337324, 47.103837867524085], [7.786901792161286, 47.10395056883029], [7.786725496420323, 47.104065688976156], [7.786564300177517, 47.10416298912366], [7.786382228161004, 47.104257050895285], [7.78610873138179, 47.10437591760709], [7.785842572102555, 47.10451526129809], [7.7861982434326364, 47.10483708142773], [7.786692136320215, 47.10504035111131], [7.7870529258372825, 47.10516908446743], [7.787318008330155, 47.10523306392551], [7.787403084489906, 47.105234776189526], [7.787683999976376, 47.10551308395587], [7.7880587657958555, 47.10582894832983], [7.788930667759614, 47.10664947421575], [7.789097900947541, 47.10688311340621], [7.789415675559709, 47.107367946010136], [7.790052260238217, 47.108169191904246], [7.790642504391614, 47.1087681874444], [7.791066318194148, 47.109184022544994], [7.791184871931128, 47.10927300651825], [7.790946909210954, 47.10960124882066], [7.7908321015718345, 47.10966361122627], [7.7904655554979145, 47.11014221040474], [7.790683808338997, 47.11058317488469], [7.790546636579694, 47.11078794010996], [7.79005420638312, 47.11094331997382], [7.790301302353484, 47.11125135473563], [7.790358282352139, 47.11146775340609], [7.790416747652416, 47.111729778960274], [7.79064267513324, 47.11199956766573], [7.791031270795108, 47.11228695659426], [7.791264399550195, 47.11230035613019], [7.791484891549866, 47.112546052947714], [7.79147831680682, 47.112634268514725], [7.791196076935719, 47.11311998744438], [7.791080532179346, 47.11333604045677], [7.790955142218591, 47.11363611860337], [7.79087559089324, 47.11387992824099], [7.790811929345055, 47.11404742091599], [7.790716760322304, 47.11423058025813], [7.791094101938913, 47.114443047773385], [7.791458937248048, 47.11465479654079], [7.791302702623951, 47.114798834925864], [7.792364972638137, 47.11533847679671], [7.792244549812478, 47.115696001670074], [7.792157580181471, 47.1158293947251], [7.791958524893531, 47.11597610311631], [7.791785644625216, 47.11605577265208], [7.791582530037357, 47.116142568020436], [7.791859962336342, 47.116328092841314], [7.792017038315616, 47.1164894572896], [7.792130356493345, 47.11665907832992], [7.792172838939874, 47.116739102086086], [7.792209849827678, 47.11682663539037], [7.7921094267683335, 47.11713043400649], [7.792109017412497, 47.11719232058906], [7.792098978802373, 47.11725068373638], [7.792151809628439, 47.11738532010101], [7.792255159588895, 47.11750166717667], [7.791512380849795, 47.11786259232031], [7.7914037060471095, 47.11785217635517], [7.791037408401397, 47.11801898505824], [7.790963933047989, 47.11844466202607], [7.790958493219082, 47.118587572234134], [7.790893210507242, 47.118761932133815], [7.790828105440583, 47.11909407970562], [7.790796928165838, 47.1193091535171], [7.790800080348946, 47.11940399528718], [7.7908553893086, 47.11980597242342], [7.790829902193917, 47.11980975630693], [7.790824963992571, 47.12005724066803], [7.790823333071784, 47.12081656486513], [7.790306358801236, 47.12080363704921], [7.790109062437357, 47.1207960721158], [7.790156798429709, 47.12099810591261], [7.790228379253323, 47.12142423896494], [7.790272437448726, 47.121730544218174], [7.7902838649789565, 47.12189780612875], [7.790309475681477, 47.122190234554054], [7.790342971439243, 47.12233247735418], [7.7903766283331795, 47.12245303284556], [7.79040663073129, 47.1224784688038], [7.7907873967658, 47.122766286484925], [7.791230947103182, 47.122985612030206], [7.791424256377083, 47.123074978668996], [7.7915354587842405, 47.123153487847055], [7.791612832004563, 47.12323396251417], [7.791658008555765, 47.123326193240096], [7.7916967222090845, 47.12348568096696], [7.791684365872895, 47.12386502681403], [7.791652718365703, 47.12403244785903], [7.791636691453886, 47.124062252270065], [7.791523975512301, 47.12421078045994], [7.791509660100336, 47.12422430774916], [7.790985002551858, 47.12461593492192], [7.790640548028051, 47.124784842894464], [7.7903306252260585, 47.124896220619306], [7.7901473152218115, 47.124990102713156], [7.789925058721068, 47.12511790623467], [7.789675288229338, 47.12527262519032], [7.789218539530781, 47.12554230884538], [7.789062665447676, 47.12558389907374], [7.788622490133486, 47.125661631446704], [7.788248273388403, 47.12577551053607], [7.787898799260792, 47.125908670527146], [7.787785085584054, 47.12593847361866], [7.7875709540408256, 47.12596339056804], [7.78731037379709, 47.12598755699492], [7.787120069552119, 47.126000275628265], [7.786851181892558, 47.125995376460764], [7.786647110212604, 47.12598242850617], [7.786425995206683, 47.125960905658516], [7.7863873236663705, 47.1261331943372], [7.7863515953883065, 47.12624518092961], [7.786321419900008, 47.126363968819355], [7.78627463642455, 47.126533340171704], [7.786212508291848, 47.12678762492651], [7.786196195292635, 47.12688375784134], [7.786171218165505, 47.126930246907435], [7.785769990004269, 47.127342758668654], [7.78568266815013, 47.12744959377612], [7.785631835284604, 47.1275454800184], [7.785604726584079, 47.1276211550865], [7.785582204737525, 47.127756011964905], [7.785635009168663, 47.12806484664273], [7.785684910686245, 47.12839143676267], [7.7857247211938425, 47.128946861409474], [7.785726048331196, 47.129227391530755], [7.785699395935326, 47.12948371082039], [7.7856437400615475, 47.12981027793333]]]]}}]}