{"type": "FeatureCollection", "features": [{"type": "Feature", "properties": {"bfs_nummer": 358}, "geometry": {"type": "MultiPolygon", "coordinates": [[[[7.512893201367415, 46.94682525350811], [7.512929916375478, 46.94708701610092], [7.513014962458569, 46.947564856530775], [7.513278031812233, 46.94820365949261], [7.512965010180697, 46.94821011191439], [7.5129803371421495, 46.948718221109566], [7.512923922478556, 46.94921043756002], [7.512800904140606, 46.949430357638164], [7.512736908056076, 46.94959579157576], [7.512769096862635, 46.94970642052122], [7.5127860291220285, 46.94987003261041], [7.512752064973354, 46.95024929174001], [7.511615006073499, 46.950508803349884], [7.510905603035659, 46.95068447669462], [7.5101880723800924, 46.95085578017665], [7.510375055126194, 46.95129749800328], [7.510535054135096, 46.95188480976964], [7.51066867558032, 46.95211235823652], [7.51100785156047, 46.95254329397126], [7.511103308174192, 46.952765666589535], [7.5110979529362485, 46.95305534086495], [7.511304343461336, 46.95377463565149], [7.5117044015593475, 46.954481808756654], [7.5121994202678835, 46.95527271898935], [7.512320968370459, 46.95555651985076], [7.5123016631061885, 46.95566807199866], [7.512216582928325, 46.95585032266674], [7.5121670958278655, 46.9561332963035], [7.512377526178544, 46.95692536610178], [7.512389083202176, 46.957397199899034], [7.512487468242758, 46.95745306920015], [7.5122869283583915, 46.95766187550453], [7.513255641673067, 46.9581233733773], [7.513127626650055, 46.95826736028113], [7.513019760701876, 46.95839894780086], [7.5128751329496755, 46.958625835481065], [7.512780629616199, 46.95879789240935], [7.5124159447439345, 46.959592028962284], [7.512285664855209, 46.95985290846057], [7.512199932074315, 46.960004198502105], [7.512093430811895, 46.96014850342622], [7.512019283086458, 46.96023991418198], [7.511966418801302, 46.96029196663266], [7.511943753623537, 46.960281105848374], [7.5119177519507785, 46.96029024336986], [7.512151844688553, 46.96064473842359], [7.512906092388154, 46.961689001187644], [7.5129235669152985, 46.96188120779909], [7.512693472006315, 46.9621639741313], [7.512354669364891, 46.96224817706756], [7.5120236108855964, 46.962385553965454], [7.511796125062294, 46.9624741739851], [7.511294063614857, 46.96271228537977], [7.511029353532919, 46.96291013769174], [7.510620642455546, 46.96311207229901], [7.509640614728481, 46.96360712178446], [7.509220678932118, 46.963814203513486], [7.50883195599937, 46.96405982701828], [7.5086576445282285, 46.964188248233306], [7.508231872238894, 46.964574171978846], [7.5080964990793335, 46.96470963945394], [7.507809991799891, 46.965296781970586], [7.507825110270717, 46.96537526482643], [7.5080907488389785, 46.96597790850146], [7.508136883309956, 46.96608124438249], [7.508146857882162, 46.96639092355976], [7.5078824782989475, 46.96699582568447], [7.507869041650132, 46.96717543149404], [7.5080921419255775, 46.967232904031306], [7.50830416723845, 46.96730178888446], [7.508579582425588, 46.96748417203516], [7.5080725862133155, 46.96788776537776], [7.507800897459103, 46.96809338608237], [7.5087413265722125, 46.96879839679509], [7.5089740572561965, 46.96900116041232], [7.510324572166514, 46.969839281654814], [7.510671619234249, 46.96968109405403], [7.510789154633573, 46.96959597172461], [7.510861835907507, 46.969507270133136], [7.510950016235587, 46.96926547920434], [7.51105063886926, 46.96909196272897], [7.511399539159285, 46.96871373188758], [7.5115152828696266, 46.96852960927313], [7.511656511875394, 46.9682333816952], [7.511978254152419, 46.96778665002365], [7.512064870886762, 46.96765759567386], [7.512122985574171, 46.967547512088004], [7.512155991726909, 46.96729355786749], [7.512425242734122, 46.96734012552012], [7.512668777550104, 46.9673757712405], [7.512840678229598, 46.96714615881471], [7.513002602031635, 46.966895692901566], [7.513149982359072, 46.966609866951856], [7.513240473407307, 46.966329654621546], [7.513356201238512, 46.96588418495589], [7.51345869373503, 46.96556136387323], [7.513498984824157, 46.96552670658042], [7.513649552179028, 46.965222033338534], [7.51423262635941, 46.96545176993556], [7.514367610485213, 46.96506582521288], [7.514544495531392, 46.9643795677762], [7.51487918413689, 46.964436927125156], [7.5151479001737895, 46.9639718805391], [7.515166257423392, 46.963973064789386], [7.515479028415936, 46.96418885046617], [7.51577288254477, 46.964516538828505], [7.516124121091701, 46.96491813775806], [7.516214461830592, 46.96507889332127], [7.516251426520052, 46.96543001361404], [7.516277522688869, 46.96550403551466], [7.515995687877519, 46.96555743092314], [7.515854156881476, 46.96561933151241], [7.51552864143907, 46.965837438385485], [7.515388364649102, 46.96596050412542], [7.5153075783587795, 46.966060862441765], [7.515779153018979, 46.966374043569], [7.515464518284284, 46.96716353220047], [7.51519379639685, 46.96782604548772], [7.515860260723059, 46.96809835354939], [7.516049800684938, 46.968202975505065], [7.516183779678844, 46.968313831843886], [7.516941388736566, 46.96851504102603], [7.51736430422786, 46.96806518604428], [7.517549174313451, 46.96814605297806], [7.517674061295216, 46.9680658301114], [7.51807043313902, 46.967846967872326], [7.51826277515438, 46.967763100065426], [7.518339896972281, 46.967737545815325], [7.518517526625128, 46.96769312243773], [7.518783503229535, 46.96764372637309], [7.5191422507569055, 46.96761325411479], [7.5194638383304975, 46.96755696337809], [7.519640199029251, 46.96749975696804], [7.519856971628641, 46.96739412799573], [7.5208507047125055, 46.96669035670442], [7.521223733339579, 46.96643906347155], [7.52078587578987, 46.96636279902655], [7.520925789057492, 46.96606816210399], [7.521079807642289, 46.96582196296463], [7.521206642297965, 46.9655434454894], [7.521332954318209, 46.965215940676984], [7.521411657405405, 46.964955438668184], [7.521437067564329, 46.96465287726745], [7.521369969945019, 46.96438937578793], [7.521306159662188, 46.96402369558823], [7.521356661959497, 46.96363255841194], [7.521458853505583, 46.96325910478002], [7.521624442243126, 46.96283585360442], [7.521828844673082, 46.962552350173794], [7.522394009049493, 46.96202872971706], [7.522554477086877, 46.96193776228697], [7.522626752530602, 46.96192016026637], [7.5229143421046425, 46.961984545556156], [7.523793103760192, 46.96172505712192], [7.524144708723786, 46.96163306502252], [7.524534943067956, 46.96158450752258], [7.52448449394127, 46.962008894777725], [7.524458803940431, 46.96213936201014], [7.5244488949729265, 46.962270600340936], [7.524657670267721, 46.96281618331553], [7.525350952262494, 46.96301516986894], [7.525763975920379, 46.96301341224446], [7.526302536903187, 46.963000321689144], [7.526446304613788, 46.963130624032566], [7.526693825121972, 46.96349149133572], [7.526699545947009, 46.96354324529314], [7.5266520974316125, 46.96363043566855], [7.526656704528335, 46.9636760467206], [7.526648918340026, 46.96371980519508], [7.526610584895539, 46.9637644953427], [7.526577876977991, 46.963818428436795], [7.526576648304463, 46.963870961237106], [7.526564931839845, 46.96392993361409], [7.526510602714581, 46.96401207384473], [7.526539781890568, 46.96411539736004], [7.526577813860962, 46.96414385624175], [7.526604091052461, 46.96420762131263], [7.5266478862765895, 46.964233062242705], [7.526665056852078, 46.964288144600914], [7.526639042733687, 46.96432971313166], [7.526697465748283, 46.9644218605433], [7.526751764289789, 46.96444199556581], [7.526773000830173, 46.96449249629919], [7.526854783653547, 46.964542825058345], [7.52689164840886, 46.96460463879666], [7.527055965021202, 46.964633603955164], [7.527195617044898, 46.96470960548999], [7.52723232306028, 46.96472223360247], [7.527317373130035, 46.96473715467034], [7.527437313987736, 46.964779511053734], [7.5275047757900415, 46.964596140591254], [7.527376070573325, 46.96457741234793], [7.52732371796978, 46.96452622468421], [7.527235849917172, 46.964330260413945], [7.527225271249854, 46.96411218073919], [7.527241433690532, 46.96405649740439], [7.527225606675844, 46.963826952584796], [7.527367339048236, 46.96357768669671], [7.52749410457276, 46.963440548083916], [7.527699102725589, 46.96328121204778], [7.527888983279711, 46.963149898232935], [7.527900950838012, 46.963036936488976], [7.52777375063971, 46.96273308663512], [7.527465433639223, 46.9622298086172], [7.527912065676921, 46.96195169538526], [7.528214660535718, 46.961757742282195], [7.5284993285453625, 46.961538326998195], [7.528696513221821, 46.961395600014576], [7.5291532074457415, 46.961085333383835], [7.529594519992519, 46.960944672183565], [7.530155917060191, 46.96085933285108], [7.530755676116603, 46.96075017754504], [7.531080606992786, 46.96070545550345], [7.531749200124694, 46.96066086956283], [7.531897528333425, 46.96093242311146], [7.53192056099854, 46.96135962309461], [7.532000912116021, 46.96219449326421], [7.532055825450818, 46.96214471451419], [7.5321387216090745, 46.962093338946644], [7.532278296227214, 46.96204073894942], [7.53239138887663, 46.962014444184035], [7.532527757198122, 46.96199976116465], [7.532690258140063, 46.96200757166113], [7.53282757905029, 46.96202696126175], [7.533028203238443, 46.962069245628356], [7.533283338100436, 46.962132587719786], [7.533543273319934, 46.96219828197653], [7.533639874149126, 46.96223055826897], [7.533725920838986, 46.96232061012226], [7.533717750432794, 46.9623441752559], [7.533822214203577, 46.962454361173], [7.533957878086741, 46.962546593915505], [7.5340896884487085, 46.962673569330164], [7.534886597316818, 46.96388758406768], [7.535859126232989, 46.96347750854241], [7.536110298623093, 46.963355601602], [7.537137586771835, 46.96399195452593], [7.537450310153933, 46.96429063608573], [7.537979913035107, 46.963936250342094], [7.538169149942795, 46.96377462409081], [7.538442741106477, 46.9636209397763], [7.538779854006364, 46.96346476219454], [7.539119116433707, 46.96339864194088], [7.539694808098503, 46.96326453570319], [7.539525443568484, 46.9629685959437], [7.539379985364682, 46.962682107328305], [7.539110712959195, 46.96208761249578], [7.5376435251167715, 46.96246809573763], [7.537503969802865, 46.96223456406645], [7.537411829984733, 46.96206370648818], [7.536627728285893, 46.96230910462152], [7.535856038445245, 46.96256331127301], [7.535828945467298, 46.96243868757739], [7.535778858516758, 46.96229883632657], [7.535741795044915, 46.96222630327957], [7.534983829021854, 46.96233071425074], [7.534449018486558, 46.96235739734895], [7.5343455904097585, 46.96171165492233], [7.53443727073927, 46.96169584637342], [7.534989722435547, 46.96158203000441], [7.535526967344372, 46.961466415965766], [7.535074462448456, 46.960539066825014], [7.534858632242637, 46.96012248982711], [7.535343695715741, 46.959708378076364], [7.536486579798976, 46.95941123195767], [7.536477543033675, 46.959332648323795], [7.536507890870862, 46.95911404811128], [7.536524172536689, 46.95894166834238], [7.53640284483656, 46.95848475169854], [7.536407255781541, 46.95787158200179], [7.536421071827456, 46.957330204436595], [7.535815804279113, 46.957394715531166], [7.536175564050018, 46.95651765252174], [7.535772513293861, 46.95650682832066], [7.53561819030244, 46.95646450910474], [7.5352090381758225, 46.95632556813587], [7.534667481430819, 46.956137702503824], [7.534598145805297, 46.95610251696406], [7.534925219740504, 46.955780550849894], [7.5361621910707495, 46.95460725464495], [7.535901791568842, 46.95451381464595], [7.535736946090269, 46.954417101700756], [7.535103006207077, 46.954083487256845], [7.535238470345078, 46.95395638022569], [7.535218443123024, 46.95394524296065], [7.537229495318543, 46.95247202501327], [7.533696343184612, 46.95089457620096], [7.533597436272289, 46.951011540837364], [7.533101495984306, 46.95076982541554], [7.532013265428907, 46.95021830161498], [7.53139867952392, 46.94995797585426], [7.531568559709339, 46.949724567500084], [7.531642786935255, 46.949523537531476], [7.531679272574961, 46.94929040757274], [7.53175107888638, 46.94900340373771], [7.530455601123844, 46.94855388261798], [7.5304675226506586, 46.94851156043495], [7.530624783692252, 46.94835794254107], [7.530761460703906, 46.948204394739854], [7.5308007271213295, 46.94814524717275], [7.53087585255968, 46.94785371718573], [7.530760085763022, 46.947819242265616], [7.529983287273297, 46.94751270327299], [7.529686503992628, 46.94785381895175], [7.5292775682072115, 46.948298223086375], [7.5289962378243525, 46.94812700506718], [7.528197276988359, 46.948684553244405], [7.528166003869314, 46.948670158288316], [7.526595861912812, 46.94966839632015], [7.526037791563226, 46.94903279105602], [7.525897260642344, 46.94888996411928], [7.526209133102045, 46.948698905139295], [7.526525240889572, 46.948512771362076], [7.526196813444059, 46.948161678900476], [7.525911056614572, 46.947804148726895], [7.5258078497928915, 46.94754064106092], [7.525922534438474, 46.94735313112406], [7.526085083888675, 46.94719074440387], [7.526256664385971, 46.947033504688754], [7.52641666087436, 46.946942612886524], [7.5265871509273055, 46.946859322787134], [7.526710986455424, 46.946728492590765], [7.526509102452187, 46.94668904939665], [7.525602632837527, 46.9465290445811], [7.525062079694804, 46.94645798293104], [7.524683474432772, 46.94638210268042], [7.524210468427149, 46.94635584510617], [7.523744666968971, 46.94632520841508], [7.523264559423357, 46.946276265548725], [7.5227846295880445, 46.94622260740729], [7.52279377810471, 46.94580309232416], [7.522751695071186, 46.94579525210516], [7.522811431038669, 46.94570118212277], [7.522896150514091, 46.945455534211575], [7.52293951767645, 46.945173773677645], [7.522974604578921, 46.94478723437724], [7.522984306994718, 46.944369905405544], [7.523036463057289, 46.9441662348125], [7.523122359903329, 46.94391131180152], [7.523214951616633, 46.943705389155895], [7.523688947900771, 46.94320550275591], [7.523871059242015, 46.94306686985408], [7.5241890798449775, 46.942868767975874], [7.5242182987931026, 46.94282428312592], [7.524218413508064, 46.94277210187654], [7.524129609047571, 46.94256060037841], [7.524093194402306, 46.94249774177351], [7.52403553727388, 46.94249853991851], [7.523643245871851, 46.94259655229506], [7.523221631413677, 46.942707321980706], [7.522856101265901, 46.94279494056712], [7.522018315414565, 46.94302547257554], [7.521523561837597, 46.94315264184985], [7.521332278256686, 46.94319757463754], [7.521668905534139, 46.944234140423966], [7.521570426206769, 46.94429615192498], [7.52122404352664, 46.94462403127143], [7.521082767764296, 46.94478794354601], [7.520954098293967, 46.94509777567488], [7.52102425191211, 46.94509002591112], [7.520947561505925, 46.94525654550021], [7.521230912692449, 46.94539234185906], [7.52137508908989, 46.945450482468054], [7.521625523811058, 46.94550738594802], [7.521482386183924, 46.945915464937755], [7.521383936165275, 46.94621462484703], [7.520851529900247, 46.946148188809985], [7.520629949715387, 46.94694449052737], [7.520050798408523, 46.9473058027197], [7.51894817634679, 46.94735850208501], [7.518564849291544, 46.947383872787], [7.517828605746024, 46.94722098050602], [7.517582683078724, 46.9471626977251], [7.516471379396073, 46.94709621112035], [7.515316437557219, 46.947034923549346], [7.514949918721426, 46.94694440364188], [7.514612072175476, 46.946870774459214], [7.514217451953773, 46.94682214274476], [7.513793364612456, 46.94677878193443], [7.513361848471149, 46.94679642060313], [7.512893201367415, 46.94682525350811]]]]}}]}