{"type": "FeatureCollection", "features": [{"type": "Feature", "properties": {"bfs_nummer": 3581}, "geometry": {"type": "MultiPolygon", "coordinates": [[[[9.307574965074247, 46.80736623095733], [9.307311325189694, 46.80721748920501], [9.306152043042399, 46.80656341143135], [9.305296675900253, 46.80646041951056], [9.305269657916012, 46.80647148757238], [9.303603956356538, 46.80715392295252], [9.302102813488906, 46.80656656272487], [9.30160897752708, 46.80619899955316], [9.301120932157499, 46.80583573997205], [9.300761825622644, 46.80515067201274], [9.300391417555462, 46.80444394897914], [9.299740149577993, 46.803419792810274], [9.299583169192351, 46.80228860432936], [9.301079563053397, 46.79970876056764], [9.301194906494722, 46.798765985035914], [9.301273695268545, 46.798121933421875], [9.300827652565351, 46.79696846569387], [9.299838650812909, 46.79591981770183], [9.299331664774874, 46.79538220171777], [9.298728193599816, 46.79460020586699], [9.298278421695763, 46.794271008230965], [9.298271190742692, 46.79426572722082], [9.297400457145413, 46.79409094609682], [9.296628212095706, 46.79411251045299], [9.29426018401267, 46.795111358485315], [9.292456911073646, 46.79587193968101], [9.291480061264783, 46.79604076524015], [9.288491601418409, 46.796176326491675], [9.288392782903964, 46.796180806363175], [9.286974704111522, 46.79570888163783], [9.286255092024895, 46.79573852109678], [9.284616407249993, 46.79647537517373], [9.283867990364909, 46.79681188775352], [9.282772023683538, 46.79694657076754], [9.28215490131988, 46.79686278473725], [9.281824266098884, 46.79681789500053], [9.280786872124912, 46.79636673392016], [9.279783567448987, 46.7957620592898], [9.277942760409688, 46.793650218786794], [9.277340596512456, 46.79328325562399], [9.276240623926224, 46.79261289346192], [9.275088802127351, 46.79217549078348], [9.272452997302693, 46.791064861104815], [9.271632993897757, 46.79071931743331], [9.270037408493007, 46.79029697697744], [9.269293143910328, 46.79009997140389], [9.268388417173519, 46.789691563402876], [9.267221530265443, 46.78889143248485], [9.266174978481933, 46.78854824529267], [9.264890320161642, 46.7885237994591], [9.264055405147216, 46.78825786498197], [9.264029528241485, 46.78824961370387], [9.26308744473014, 46.78750883310816], [9.262201121866822, 46.7864792148714], [9.262200184088611, 46.78647859999914], [9.26099481559956, 46.78567065434721], [9.260348129240073, 46.78514108549759], [9.25955111916888, 46.78365113380673], [9.259214708738313, 46.78338656328889], [9.258668443558248, 46.78316918342535], [9.256135819140784, 46.78279743345731], [9.253383465108369, 46.782186116796105], [9.25136903401075, 46.782615657010275], [9.248604609826156, 46.78300817541097], [9.243942577034138, 46.784852952586206], [9.24250206855098, 46.788983120601785], [9.242301815828977, 46.78994174905697], [9.241797367759595, 46.791300756639494], [9.24296663015574, 46.79266416900071], [9.243700650881369, 46.792936314454394], [9.248422082093136, 46.793372535693955], [9.249238099120255, 46.793535084151], [9.249251711359184, 46.793529244574366], [9.249655886400229, 46.793595231355205], [9.250028395635313, 46.79355479888636], [9.250459680325475, 46.793563912037655], [9.2506703150018, 46.793547739858894], [9.250912594376679, 46.79361973844789], [9.251023201525651, 46.793772909616344], [9.251198722303942, 46.79393220339593], [9.251432571419983, 46.79410945578064], [9.25241065256308, 46.79461932175146], [9.252563713475745, 46.79461612529671], [9.252958505164893, 46.79480338782738], [9.253291554063308, 46.794999251798515], [9.253366413138323, 46.79506797581718], [9.253510952464246, 46.79514347488683], [9.253496150264679, 46.795185154239356], [9.254550253250242, 46.79573459857961], [9.25616262393136, 46.79632034944479], [9.258210525230139, 46.79660670564978], [9.261246164308671, 46.797329866414096], [9.260413485377317, 46.79997958758506], [9.265326256357767, 46.80247894088409], [9.273079477936772, 46.80386704233592], [9.279814041309448, 46.80569421873588], [9.293264405508994, 46.815421267646414], [9.294256383547593, 46.81526948108532], [9.295023074011779, 46.81514607166349], [9.295985666470388, 46.81501321791668], [9.297513584008717, 46.814515694748124], [9.300565274920196, 46.81375146943647], [9.307574965074247, 46.80736623095733]]]]}}]}