{"type": "FeatureCollection", "features": [{"type": "Feature", "properties": {"bfs_nummer": 3582}, "geometry": {"type": "MultiPolygon", "coordinates": [[[[9.206171926641368, 46.80913761922252], [9.206178953154843, 46.80897239419964], [9.207010704186573, 46.80836160551023], [9.208531077736563, 46.80757189237369], [9.209299371293795, 46.807344940189026], [9.20983755994969, 46.80665545119846], [9.210089816923883, 46.80651567326735], [9.210238046274258, 46.80628211466889], [9.210313415390821, 46.805984003300395], [9.210464784887659, 46.805805309565564], [9.211205428473551, 46.80561477265215], [9.2116043038033, 46.805272994082365], [9.211971248249412, 46.80459877669168], [9.212765910116389, 46.80414017583799], [9.213069157555339, 46.80387903799128], [9.213384208153625, 46.80369779633483], [9.21399315573574, 46.80297213735003], [9.214906568007917, 46.8026191867659], [9.215134977813914, 46.802445837349495], [9.215631670539214, 46.802261242845915], [9.218228702729899, 46.799164597464035], [9.220441358332879, 46.797317658782546], [9.220770695557142, 46.797330928452574], [9.221403041633657, 46.79695468711711], [9.222245222028445, 46.79572348691133], [9.222630880456077, 46.794934530950734], [9.223113247172193, 46.79388399932086], [9.223842726839777, 46.79361785124521], [9.224080883158283, 46.79351960544665], [9.224773682259567, 46.79343310113084], [9.225636911136272, 46.793160287948574], [9.226065382459058, 46.793481292392855], [9.226039011978685, 46.79390254203488], [9.226279191885196, 46.79402437439258], [9.226758219933528, 46.79368599233971], [9.22712870855997, 46.7934903206832], [9.227473959020154, 46.793395565608044], [9.227477068260834, 46.79312474473555], [9.228513659221868, 46.793098723098936], [9.22854500959691, 46.79307506234732], [9.229113026116906, 46.79323144698752], [9.229078366668835, 46.79330019384166], [9.229295713035492, 46.79335891563421], [9.229820823034457, 46.793487537110195], [9.229859090940959, 46.79344025620787], [9.230891645498968, 46.793710940711264], [9.231672040034704, 46.79379509347379], [9.23213141014721, 46.79396833046245], [9.2325941759506, 46.793996026458025], [9.233174658371325, 46.79405434727784], [9.23357206130153, 46.793630252900265], [9.23425394536123, 46.79357742529208], [9.234407998011916, 46.7937929946234], [9.235830352150955, 46.79352430679595], [9.237127769892838, 46.79332494413966], [9.23834208129319, 46.793272299049534], [9.240534880009895, 46.79318632549987], [9.241633783993622, 46.79318159726883], [9.24296663015574, 46.79266416900071], [9.241797367759595, 46.791300756639494], [9.242301815828977, 46.78994174905697], [9.24250206855098, 46.788983120601785], [9.243942577034138, 46.784852952586206], [9.241272947251126, 46.785610019348724], [9.238209211436288, 46.784366875741384], [9.234817699783155, 46.78079972798542], [9.229142613303447, 46.77933417791632], [9.22747258674585, 46.778276909228964], [9.225077047078345, 46.77760961422002], [9.218194715983184, 46.77775603557962], [9.216595101907936, 46.77770411618822], [9.214768699126823, 46.77745863481076], [9.213229591998749, 46.77700774931198], [9.212314841052079, 46.776927307848965], [9.210005216162727, 46.776710320599804], [9.209908809333546, 46.777001948321946], [9.209837452290827, 46.77720340812858], [9.209813458063934, 46.77725758665329], [9.209778548368103, 46.77731436465554], [9.209180892620685, 46.778173525358135], [9.20757423356034, 46.779415721436806], [9.206934332076973, 46.779834880929414], [9.2062743281052, 46.78025845816807], [9.20585426104996, 46.78023426912823], [9.204995973925802, 46.78031053311515], [9.204815974514444, 46.78051190161523], [9.205439154115238, 46.78077620546954], [9.208042596035016, 46.78127376571096], [9.20830690061248, 46.78120001633541], [9.208293560721113, 46.781268425630316], [9.20817480221515, 46.78140406235881], [9.208061125294963, 46.78150540191679], [9.207934389698046, 46.781580436352094], [9.207879196736616, 46.78162598329803], [9.207860351744717, 46.78168710889933], [9.20787909466146, 46.781740939785706], [9.20790788943928, 46.78179972560737], [9.207996187475509, 46.7818827830235], [9.208125099800796, 46.781954962636405], [9.20824897108581, 46.78200604864733], [9.208339824449448, 46.782034081277544], [9.208422675034159, 46.782069696905936], [9.208495070251844, 46.78212316398096], [9.20854669639982, 46.782181559680716], [9.208596027735586, 46.78226299808547], [9.208662166860856, 46.78233932628052], [9.20880917044384, 46.78238640013619], [9.209094317069093, 46.78243171009076], [9.209369514813153, 46.782470407360115], [9.209500674367098, 46.7825156115101], [9.209767082879644, 46.782658682385836], [9.210063406857596, 46.78281082634002], [9.210128505884036, 46.78286659204466], [9.210203977520047, 46.78295099830785], [9.21048115005605, 46.783118554163686], [9.210710761356705, 46.783245818041884], [9.21090492674478, 46.78333080252238], [9.211121819160047, 46.78344566599192], [9.211215001277218, 46.78350694252743], [9.21130631911532, 46.78355096333411], [9.211507683699958, 46.78363574458967], [9.211614074627995, 46.783696365798434], [9.21175296201435, 46.783813059912674], [9.211875773281557, 46.78393479021104], [9.212032548025109, 46.78407635471525], [9.211990328121747, 46.78499388961755], [9.211380140780296, 46.78552381865406], [9.210906277535797, 46.78577258292541], [9.210204144390433, 46.786047290632595], [9.210639228510145, 46.78631191194578], [9.21098958983787, 46.78653314491959], [9.212142500012948, 46.7866803604806], [9.212673908074771, 46.786985675377956], [9.212668838201276, 46.78712207101344], [9.213209543630976, 46.78751056716992], [9.213400768637445, 46.787752243592344], [9.21324054158545, 46.78796240282334], [9.21309646438047, 46.78863902331485], [9.212945498222064, 46.78909503728982], [9.213273496010114, 46.78953523915951], [9.212936462093493, 46.78995446622395], [9.213268315279972, 46.79021330386795], [9.213183231817357, 46.79057355864102], [9.2131816471049, 46.79092665592943], [9.21305711155334, 46.790999675450216], [9.21353465414131, 46.7916801482173], [9.213076635617046, 46.79211293189897], [9.211416957425161, 46.79378420586303], [9.210563656743634, 46.79477291505347], [9.210786443624395, 46.795610047062205], [9.210108678422703, 46.796026439873074], [9.209181099543732, 46.7970829065255], [9.208637709395576, 46.79807079279656], [9.207234047819536, 46.79982035557976], [9.207173880061518, 46.800706984104366], [9.20737615368246, 46.801628858936475], [9.206904816901728, 46.80313152927687], [9.20697074296243, 46.80347961906709], [9.206941567711231, 46.804066433125854], [9.206875735058754, 46.80407478610042], [9.206911148108983, 46.804190352676336], [9.207089872279965, 46.80457839874522], [9.207148266554587, 46.80493371162414], [9.20715642788344, 46.80506613855623], [9.20717629736969, 46.80520035474265], [9.207182724286909, 46.80535777700406], [9.20713505527021, 46.80559492815428], [9.207063282625432, 46.80572496661103], [9.206827527333955, 46.80595364700685], [9.206606371570269, 46.806091017718956], [9.206488281410051, 46.806232866488344], [9.206421022164562, 46.80639589179546], [9.20633097017023, 46.80673087295048], [9.206390918251747, 46.80697510407508], [9.206404604095248, 46.80707107707925], [9.206392984595261, 46.80714745793167], [9.206343537687697, 46.80727030311064], [9.206317698423764, 46.807389363880525], [9.206312696195624, 46.80750047225121], [9.20628086862786, 46.807554068853676], [9.206189464385515, 46.807664255506054], [9.206186905502333, 46.807732830090465], [9.206222637749397, 46.80782655446353], [9.206225577929269, 46.8079161434303], [9.206184868424828, 46.80822659793992], [9.20617003393046, 46.8085073108563], [9.206150633793895, 46.808617364149065], [9.206099175974273, 46.808709342290435], [9.205971680931201, 46.80885472815479], [9.205926913237414, 46.80896449031209], [9.205981275362834, 46.80907441057753], [9.206171926641368, 46.80913761922252]]]]}}]}