{"type": "FeatureCollection", "features": [{"type": "Feature", "properties": {"bfs_nummer": 361}, "geometry": {"type": "MultiPolygon", "coordinates": [[[[7.439601590637466, 47.00774817550207], [7.440857811556311, 47.00726905407888], [7.441282515786182, 47.007326734921826], [7.441803141607892, 47.00751218738423], [7.441944243183629, 47.00757383681082], [7.442496841772105, 47.007780467841094], [7.443050142527181, 47.00799923077718], [7.443628850956735, 47.008360768326966], [7.4439338456122375, 47.00872473394636], [7.444144412550324, 47.008945770287625], [7.444440834914579, 47.00911549431811], [7.444949188679166, 47.00846526333391], [7.445068736256729, 47.008075725460245], [7.445241827726057, 47.007549999466704], [7.4459994886780425, 47.00634145281163], [7.446085997141699, 47.006208374526786], [7.446500784756353, 47.00597601572674], [7.446476358421104, 47.00591695549167], [7.446536095635679, 47.005806636142566], [7.446583894645158, 47.00570966624902], [7.446664689675449, 47.00564482461422], [7.447684030491394, 47.005073461705344], [7.447499845377264, 47.004250623519766], [7.447201403574614, 47.00427937432398], [7.447127977171816, 47.00371049344856], [7.447592816583327, 47.00350567065379], [7.44781130206978, 47.00334986924942], [7.448115727033034, 47.00310920140876], [7.4481158560561855, 47.00309372085179], [7.448247550340993, 47.0029829545552], [7.448272574926773, 47.00299754268499], [7.448374361337573, 47.00292493561941], [7.44881773735342, 47.00283644303925], [7.448815106590348, 47.00283058745522], [7.449939209692504, 47.002624467748625], [7.450177215598617, 47.00255987940261], [7.450666452524478, 47.002490778107216], [7.45149098627396, 47.00233344308586], [7.451957346620367, 47.00228833796742], [7.452814149841393, 47.00216832915622], [7.45338207586365, 47.00205599415262], [7.453885470069402, 47.0019101391042], [7.454263577073192, 47.00179242588563], [7.45453031659407, 47.00172804937239], [7.455055609600248, 47.001853586445115], [7.455897370797723, 47.00203911936507], [7.456088146879778, 47.002048995638944], [7.456506586471173, 47.00196098053449], [7.456528062196457, 47.00197394827198], [7.456741734589066, 47.00175201663817], [7.4572854440034755, 47.001328246934165], [7.457644827267518, 47.00112543237539], [7.458095619919624, 47.0008228822614], [7.458243170369616, 47.000785762530185], [7.4583096653870715, 47.000835125752445], [7.458976362070684, 47.00123114985781], [7.459557384160032, 47.00089833936803], [7.459919192653711, 47.000740951708735], [7.460283672416065, 47.00062851102805], [7.460677406278927, 47.00051909463778], [7.461066368467008, 47.0004159476684], [7.4611159260134, 47.00042070584952], [7.461228968022584, 47.000633103733314], [7.461487778288749, 47.00056863175346], [7.461547977833697, 47.00068176950125], [7.461837143324624, 47.00060973391349], [7.461779377264339, 47.00050038281382], [7.462731235870642, 47.00060600372104], [7.463917729423471, 47.00070992242123], [7.464295118759363, 47.00064042671544], [7.464809331765564, 47.00057982267885], [7.465049873593774, 47.00054088378156], [7.465851518510672, 47.000373709095676], [7.465869469524465, 47.00040810224268], [7.466032332107394, 47.00037284006976], [7.466156633094106, 47.000342102148686], [7.466296917971748, 47.000302967990905], [7.466713126967094, 47.00017958372525], [7.466799460466922, 47.00015919833064], [7.467204520659462, 47.00080793544301], [7.467510407017101, 47.000740128532975], [7.468133646874046, 47.000587445889316], [7.468454016794341, 47.00046550866465], [7.468640200402378, 47.001813921183896], [7.469263854459303, 47.001894861130616], [7.46950619629443, 47.001919606514704], [7.469759969783317, 47.00193043297138], [7.470026809074321, 47.00193421226031], [7.469868531684678, 47.00072956205895], [7.469954347124781, 47.00070030534894], [7.470724458742963, 47.000775881872286], [7.471209860017122, 47.00080824800848], [7.4713779103438736, 47.00081148470472], [7.47151003269547, 46.99987426834986], [7.471592457554656, 46.99925416172893], [7.472310700114872, 46.99903441652044], [7.47271819252982, 46.99890677680923], [7.473307583982574, 46.99880182188126], [7.4732638273826915, 46.998423546269635], [7.473271669582009, 46.99826577907919], [7.4732475952433655, 46.99805450060252], [7.473074249558618, 46.99751719248529], [7.473069871044356, 46.997411447237084], [7.4731140751654195, 46.997310113460244], [7.47349377349195, 46.99681122363423], [7.473907127666417, 46.996054963444784], [7.47394705217283, 46.99594686660439], [7.4737977611235165, 46.99569025448098], [7.473509138991669, 46.995370294779434], [7.4734626241803825, 46.995389836851324], [7.47324532006535, 46.99518377818787], [7.472968801113501, 46.994930790817016], [7.4727632763395855, 46.994526611049174], [7.472675742124254, 46.99445743724699], [7.4725627285434495, 46.99440793375178], [7.471525109292843, 46.99427530668273], [7.471347591782054, 46.994234887060976], [7.47128537790925, 46.994117329304466], [7.471020512013638, 46.993311295648155], [7.470547661444064, 46.992926829465254], [7.470370513643096, 46.992605985267595], [7.470184677406314, 46.99223779259421], [7.469306870705775, 46.9917971448885], [7.469776216067832, 46.991383265170924], [7.470375809835322, 46.990864915954056], [7.47090922821143, 46.990411805222934], [7.471124700111686, 46.99029991883588], [7.470720285684398, 46.99000769648336], [7.469778400329691, 46.98938110410634], [7.469707824220866, 46.98933804504801], [7.469986950653964, 46.98914334454598], [7.470101551864494, 46.98907245080596], [7.470232480308451, 46.98900321667102], [7.470479380706452, 46.988894507761664], [7.470122270780806, 46.988636290677384], [7.469846569653747, 46.98834905978899], [7.469738436874395, 46.988185476127654], [7.4694059994660975, 46.9877690979929], [7.468399947657816, 46.98737078984353], [7.466750794079304, 46.98709720117674], [7.46581781407616, 46.986900694443264], [7.465749997638121, 46.98692373738914], [7.465460696582768, 46.986962661074834], [7.465327181152967, 46.986984702127465], [7.465157254087267, 46.986620608783966], [7.464436490828527, 46.98535946254573], [7.464296692425615, 46.985088757598476], [7.464179527830768, 46.98481323519792], [7.464083439894796, 46.98452011372913], [7.464034173339532, 46.98431477452648], [7.463924141490009, 46.983733047290315], [7.463891492975067, 46.98359146189402], [7.463847386390683, 46.98345712010916], [7.463785923982629, 46.983309649063955], [7.463742327459599, 46.983226921121634], [7.463688095487703, 46.983139454995644], [7.4636133899087485, 46.983032815444375], [7.4635653092605265, 46.982973880424645], [7.463413635125865, 46.982811900788946], [7.463333806908715, 46.98274043309623], [7.463235547837204, 46.98266131429038], [7.4631416969355096, 46.98259291666156], [7.463032703591696, 46.982522210318585], [7.462948665927197, 46.982470892286955], [7.462816500006665, 46.982398841195014], [7.462608351313356, 46.98229849760519], [7.462354977268788, 46.98220175161515], [7.462218973598663, 46.98215786434685], [7.462080067190999, 46.98211837604179], [7.461811436110723, 46.98205570539013], [7.461793256840821, 46.98205204788228], [7.461777402342167, 46.98207626573061], [7.461209380365599, 46.981970168782915], [7.460839775296984, 46.98189214218791], [7.460592304603735, 46.98182054162376], [7.460359691781728, 46.9817277542757], [7.460239834570536, 46.98169257788005], [7.4599835662893925, 46.98157006514818], [7.459869875994255, 46.981505131520834], [7.459685771977781, 46.98142973075244], [7.45928169717184, 46.981637884851835], [7.457652523914162, 46.982150417557676], [7.457469298976004, 46.98222490802524], [7.457436089044738, 46.982553711962595], [7.457420838771325, 46.98258290351098], [7.457397543339862, 46.98260875012218], [7.457365335378193, 46.98263159376224], [7.457325384180213, 46.982650048931724], [7.457123918328274, 46.98269997573787], [7.4570807142804565, 46.98269947859933], [7.4570389125577625, 46.98268648700227], [7.457016129199497, 46.98267096488012], [7.457000257849938, 46.98265029649455], [7.4569148473783144, 46.9824417844014], [7.456710873741104, 46.98249812471178], [7.456594296180312, 46.98252520765403], [7.4562548755508615, 46.98259211507048], [7.456123644238266, 46.98262477712231], [7.45608333173241, 46.982623955263094], [7.456044948076938, 46.982612536797795], [7.455962439401823, 46.982554745565544], [7.455915405282087, 46.98253646527338], [7.455742301226936, 46.98249337607091], [7.454100977000854, 46.98306621442633], [7.453938209053491, 46.98309161908913], [7.453694063265361, 46.9831045391753], [7.452939101892214, 46.983164176980864], [7.452782395063139, 46.98357392283615], [7.45238981375756, 46.989051560197204], [7.452212511983938, 46.98968123753393], [7.451463351441964, 46.99012206897025], [7.450674630321484, 46.99015363089113], [7.448492350936294, 46.98926330552816], [7.44763772192618, 46.98810750606804], [7.44726948255415, 46.98698314237063], [7.44713781694194, 46.98544498659816], [7.446625051434115, 46.984365604972275], [7.444929282385522, 46.98251269305492], [7.443027861902157, 46.98133296598758], [7.442746791450428, 46.98205473473593], [7.442578611609245, 46.982399577454856], [7.44248000958922, 46.98292872751096], [7.442017528361008, 46.98380738183612], [7.441584844065775, 46.98400411353784], [7.440721366703746, 46.98414704016927], [7.440764600737181, 46.98426765534465], [7.440791956542051, 46.98438266669306], [7.4408499484990775, 46.98490766633619], [7.4408731386751334, 46.98504986992515], [7.440910749040698, 46.985215136833006], [7.440958533464658, 46.98537916227836], [7.441016439439102, 46.9855416493939], [7.441085729047517, 46.985706412088796], [7.441165442736737, 46.98586939357423], [7.441258498829781, 46.98603496538566], [7.441357693767197, 46.98619093923945], [7.441466458566868, 46.98634404341134], [7.4415845566698, 46.98649396304173], [7.4422471312272815, 46.9872486218981], [7.4422621695203794, 46.987257202903166], [7.4425346953963984, 46.98756805865509], [7.4426385211746915, 46.98767481901365], [7.442691656366308, 46.98772138539421], [7.442618822334015, 46.98777268649404], [7.442369848992684, 46.987915841920746], [7.442309785717128, 46.98785316549416], [7.442063967726156, 46.98802409767993], [7.441839650271834, 46.98811701406431], [7.441546146994311, 46.988154566616764], [7.441169116081014, 46.988105118869754], [7.440926744740139, 46.9880565045116], [7.4407082072167015, 46.988078905412486], [7.440311880870039, 46.988011996365536], [7.440113703200426, 46.987873302062496], [7.4399845257058175, 46.9877976630377], [7.439803135979281, 46.987618670319655], [7.439634221880168, 46.98735798350523], [7.438483114315858, 46.98797044601145], [7.438145765599859, 46.98767219201524], [7.4375640234652485, 46.987170140044185], [7.435854249847421, 46.985814679837894], [7.435768172119111, 46.98572466290234], [7.436277221236221, 46.98827032796119], [7.436287300726558, 46.98874254434349], [7.436322400369906, 46.98893251306072], [7.436449163083083, 46.989353496791885], [7.436697495489756, 46.99007405687617], [7.436757109383731, 46.99035828595371], [7.4367342825399305, 46.99046843948661], [7.4366245028593845, 46.9906945646038], [7.435952731449136, 46.99215453182877], [7.435793596890745, 46.992528795079345], [7.435778755023323, 46.992525286527275], [7.4355587167724915, 46.992998439527355], [7.435428902415517, 46.993259490936204], [7.435221942289717, 46.993695422475945], [7.434919916115037, 46.99412380312635], [7.43458161790749, 46.99449642905797], [7.434347616147425, 46.99478875868612], [7.434077961956132, 46.995160476161594], [7.433983719039048, 46.99521574638947], [7.4339049764647855, 46.99526822882493], [7.433615463425902, 46.995422038895214], [7.433403805570049, 46.995573765556045], [7.433069052430024, 46.99592099225905], [7.433060515992064, 46.99595323913353], [7.433019678080844, 46.99597715467599], [7.433070868808967, 46.996010853173544], [7.433119644814511, 46.99600943472328], [7.433300131445453, 46.995982872996436], [7.4337331681267225, 46.99588877102577], [7.433725090233865, 46.99594084339074], [7.4337049077750725, 46.99620051356749], [7.433703497000728, 46.99623777127036], [7.433710172310906, 46.9962697492486], [7.433551951204269, 46.9963405415715], [7.433289000488203, 46.99651013913872], [7.433100032752595, 46.996639739148115], [7.432554051740687, 46.997052519780965], [7.432475367798578, 46.99712889241457], [7.4324339059781765, 46.997189831674234], [7.433375008299209, 46.99744156972575], [7.4335905931263175, 46.99750942241291], [7.433768406200883, 46.99757215448022], [7.434171566592352, 46.99778364039339], [7.4343882606461165, 46.997825459719714], [7.434922824325284, 46.99786616790782], [7.435313854969997, 46.997928114836505], [7.434739556507294, 46.99850046872822], [7.434428183848135, 46.99886204948605], [7.434572201337568, 46.99890339748663], [7.43386552433383, 46.99983597564329], [7.434223206274117, 47.000079112425105], [7.434626829540762, 47.000338117151685], [7.433348437650052, 47.001309426277764], [7.434394436719407, 47.00154721779352], [7.43545018752961, 47.001793635479736], [7.436622618313499, 47.00223187600186], [7.437902098203315, 47.00270344208362], [7.437446620933528, 47.003144302094384], [7.437133002959092, 47.003537822641455], [7.438723916043247, 47.00405372478364], [7.441034818890319, 47.004204041990555], [7.441467447214654, 47.00448588607313], [7.441530367827292, 47.00454097048182], [7.441263588084355, 47.00469135442711], [7.44092576602948, 47.00502959203049], [7.440605241980748, 47.00519859618522], [7.440377709721337, 47.0055077858738], [7.4401648879680105, 47.005693328836166], [7.440135775949329, 47.005790997520805], [7.440220083147433, 47.00626477700691], [7.440007877581789, 47.00671693325404], [7.439397346693569, 47.00714669210076], [7.439052108103742, 47.00740170173809], [7.439601590637466, 47.00774817550207]]]]}}]}