{"type": "FeatureCollection", "features": [{"type": "Feature", "properties": {"bfs_nummer": 3661}, "geometry": {"type": "MultiPolygon", "coordinates": [[[[9.415351699160762, 46.706697502761735], [9.407310934520618, 46.70746705900342], [9.404579706552239, 46.70749756464016], [9.403429871150383, 46.70736572295122], [9.402156326341363, 46.707343840469534], [9.401122461827644, 46.70769527594042], [9.399915815359504, 46.70828372527388], [9.397111789104827, 46.70918072174656], [9.396763986167713, 46.70900844196215], [9.39618184429245, 46.70879168434909], [9.395624935487316, 46.708804504832564], [9.395290701661548, 46.708660672483646], [9.394948410490034, 46.708534821933505], [9.394743634347646, 46.708371238384274], [9.394576952937099, 46.70818604405547], [9.393972919479358, 46.70789892479265], [9.393635280968708, 46.707814993825664], [9.392516743631077, 46.70766358232716], [9.392329263324589, 46.70769558994798], [9.392063544106987, 46.70770115202995], [9.391798456266942, 46.70759085751908], [9.391587690987034, 46.70743852869228], [9.391280814010928, 46.70736982006749], [9.390937618746536, 46.70736815795388], [9.39071978318026, 46.70734389515851], [9.390531290041835, 46.70729691267693], [9.390368773987655, 46.70724120670347], [9.390182806678675, 46.70722063546722], [9.389838529156929, 46.70705808155485], [9.389492322326863, 46.70705230898673], [9.38913204115437, 46.707022301035884], [9.388881449108787, 46.70697979842762], [9.388766300093712, 46.70715642427546], [9.388698843426265, 46.70720059018621], [9.388590882522232, 46.70733724025488], [9.388475482914355, 46.707520709671584], [9.388385815667045, 46.70770787826806], [9.388129900390748, 46.70786927584152], [9.387974420812304, 46.70798659009679], [9.387870222742249, 46.70812936583324], [9.387701041048496, 46.70823312921298], [9.387473246390158, 46.70835148169011], [9.387255683888933, 46.70842682752336], [9.387072223283086, 46.70850834732344], [9.38667949734349, 46.708532794870585], [9.386379125258763, 46.70851057209535], [9.38618283888938, 46.70848324188206], [9.385729611534591, 46.70854569411045], [9.38553022897848, 46.70861019723433], [9.384437916835541, 46.708685544659595], [9.384245691983324, 46.708742184926656], [9.384108476529066, 46.70875721386197], [9.383799255689707, 46.70875403248746], [9.383599096907934, 46.70869185030604], [9.38323202386966, 46.708811130134094], [9.383052941953784, 46.70885863613641], [9.382918572804536, 46.7089377728822], [9.38271956496379, 46.708885737610494], [9.38258066361347, 46.70883546673895], [9.38249617947652, 46.70891952036806], [9.382372836759851, 46.70896706466468], [9.382220513068592, 46.70904893641395], [9.382075785889244, 46.70921823158543], [9.381983484101015, 46.709307178261064], [9.381879535355793, 46.709381116264915], [9.381744604177925, 46.70945198321769], [9.381607097469397, 46.709502215215466], [9.381147277280089, 46.709599934754934], [9.38065478068428, 46.70976058500769], [9.380554497518197, 46.70983103998766], [9.380396910500156, 46.70986494828857], [9.380124211754524, 46.70998621924215], [9.379858134343724, 46.7102122872606], [9.376394446398518, 46.70964512984523], [9.373966598673087, 46.70795159526577], [9.373557588214592, 46.70820077043337], [9.373282920371008, 46.70835850127409], [9.372892821446582, 46.708653334713404], [9.372630404176382, 46.708831812582055], [9.372310903093139, 46.709001999130535], [9.371608964626242, 46.708822873291965], [9.371501785517205, 46.708804084709776], [9.37141191151995, 46.70881118746089], [9.37108753062036, 46.70889236139916], [9.37072648935337, 46.70906395765646], [9.370586024625249, 46.70910125040279], [9.370274145036026, 46.70931647250348], [9.370209871025114, 46.70939558509981], [9.370159872916755, 46.70948870888932], [9.35637333589953, 46.70575317355045], [9.356931523340881, 46.70601207569468], [9.357242589383784, 46.706299451979056], [9.357861053599514, 46.706547199351604], [9.359238122495162, 46.70765768043438], [9.358763080371975, 46.709125928022786], [9.358702217126774, 46.710650351954186], [9.359022348956197, 46.71126494112672], [9.358921678020788, 46.71181822445329], [9.35831807257731, 46.71338420636883], [9.358169636528025, 46.71421273835206], [9.358341745290288, 46.71474794067396], [9.358047103910065, 46.71551234946757], [9.357692752033184, 46.716069914215225], [9.357029715951445, 46.71644549744387], [9.356652618605052, 46.71684146373659], [9.355974710684325, 46.7185292409998], [9.356026889079368, 46.71878986052005], [9.3562186842493, 46.7189147778643], [9.356448029620614, 46.718888425635456], [9.35655273386234, 46.71892625634589], [9.356756742453253, 46.719217965044386], [9.356770475499067, 46.71942019291788], [9.356801296193325, 46.7195510479855], [9.356774611588635, 46.71964687745764], [9.3570835685663, 46.72013028817132], [9.357062670801433, 46.720351996086016], [9.357218092536103, 46.720748898943356], [9.35730351397802, 46.721164085690084], [9.357658224074063, 46.72138847076686], [9.357411237770346, 46.72165447244992], [9.357418108165836, 46.72177403290342], [9.357767106557064, 46.72220549006457], [9.357894705896797, 46.722408501257924], [9.358454379587789, 46.72280308906907], [9.358551032424188, 46.722908548673594], [9.358729808470105, 46.72322588099164], [9.358827509228085, 46.72328722305529], [9.35942922947043, 46.723429156265055], [9.359513982981001, 46.72349431534003], [9.359891359587687, 46.72391357100154], [9.360133695381876, 46.724508775496886], [9.360458042254782, 46.72476065894586], [9.360826005653688, 46.72513597970243], [9.361117716930215, 46.72539021906975], [9.361642140620399, 46.72596895967272], [9.361643341586628, 46.726223587327574], [9.361605643365484, 46.726340308369245], [9.361420608729887, 46.72665567556342], [9.36140641044184, 46.726807975257586], [9.361491929473537, 46.727004493524234], [9.36159752582561, 46.72710349271957], [9.362188252010029, 46.72752276046766], [9.362477809764965, 46.7278265134468], [9.36258815973266, 46.72791193461485], [9.362833451319766, 46.72807516254724], [9.363024306195646, 46.728289698073205], [9.363618982466958, 46.72870888618209], [9.363837302054026, 46.72917940607311], [9.364139004805331, 46.729639528182275], [9.36426996549704, 46.729715601981354], [9.364936487542465, 46.729947298887545], [9.36508628144918, 46.730034030451776], [9.365256593645693, 46.73029911897955], [9.365306021999613, 46.73043687462454], [9.365398305854066, 46.73049289505208], [9.365587524471344, 46.730478008598624], [9.365597113447143, 46.73047425623367], [9.365815958636977, 46.73038866530925], [9.365816455607009, 46.73038865690258], [9.365988636634196, 46.730386636489946], [9.36632590911274, 46.73048621488016], [9.366805123054256, 46.730603196205536], [9.366932862023152, 46.73077200228948], [9.367056916980097, 46.730837391527665], [9.367145582827574, 46.73090157934841], [9.367450548839512, 46.73104939196798], [9.367666239601515, 46.731225717264536], [9.367676382014418, 46.73132632583462], [9.367586290507761, 46.73151501155221], [9.36762332999018, 46.73163586102587], [9.367645660546817, 46.73174796019635], [9.367798726350413, 46.7318929421583], [9.367715002360908, 46.73204012912591], [9.367945652447979, 46.73219549631564], [9.368004272214867, 46.732261091334806], [9.368020665472438, 46.732353504589724], [9.3679864805464, 46.73249535489757], [9.368211707949188, 46.732645413584244], [9.36819352933817, 46.732868875569366], [9.368404277718264, 46.73312625728051], [9.368420955134052, 46.73340941902272], [9.368745101133161, 46.733982528252305], [9.368955531820651, 46.73412113900879], [9.369047573834276, 46.7342428570396], [9.369090333282049, 46.734377106762686], [9.369336912626245, 46.73442872137427], [9.369571847552608, 46.734666813131824], [9.369688694903706, 46.7349329807473], [9.369978947748024, 46.735362671762374], [9.370057392660286, 46.735543116562994], [9.370211363825439, 46.73571328298608], [9.370467660837326, 46.735852913346754], [9.370819926614296, 46.73626086395704], [9.370991730630372, 46.73638032898505], [9.371147293465404, 46.73659365871702], [9.371454757413815, 46.73673691980711], [9.371515145837245, 46.73681508082785], [9.371626808369127, 46.73708223503782], [9.371723029486281, 46.73717418606818], [9.37192936320036, 46.73730746254213], [9.372095675902836, 46.73756559258837], [9.372649482611381, 46.73786215462034], [9.373754551362508, 46.739310504782694], [9.37415254998139, 46.73999176244271], [9.375011929599642, 46.740413590011634], [9.375647560699086, 46.74134761217328], [9.376302454118152, 46.741723414530085], [9.376784297707232, 46.74253810427218], [9.377418600078517, 46.74330423934159], [9.377524569294803, 46.74527998246124], [9.38019273497595, 46.74752999070202], [9.379546158504317, 46.74834759535681], [9.378928744017689, 46.748956950307964], [9.377730904201659, 46.750296365532286], [9.3776883918344, 46.75038103174086], [9.376836490497405, 46.75207763435849], [9.37878462976725, 46.753428653471865], [9.379556717083421, 46.75601021650253], [9.379647884689753, 46.75631501835951], [9.380247886054319, 46.758436333674396], [9.379787183466075, 46.75964481161286], [9.379419115629618, 46.76032783629615], [9.378743944709639, 46.76158080561574], [9.379847396920262, 46.761692851706485], [9.380243855790056, 46.7617330998661], [9.380255880253047, 46.76210687787167], [9.381309586273531, 46.76189358033909], [9.38343452214981, 46.761829935598854], [9.386969211359656, 46.7624217820751], [9.387995902894883, 46.762576545492685], [9.390530997928888, 46.763348150035604], [9.392649108239961, 46.76385152160484], [9.394640070234592, 46.764798292849036], [9.395471491627397, 46.76517024855928], [9.395989355500152, 46.76545010243519], [9.397325827212729, 46.76631299562227], [9.39812145613382, 46.76676860766175], [9.39855914568874, 46.7669503059032], [9.399632180969393, 46.7675630532813], [9.400347895424728, 46.767847172147775], [9.401288786384159, 46.76808753334698], [9.400950500437766, 46.768248667509226], [9.400638240097722, 46.76858228995495], [9.400428515005833, 46.76891552586249], [9.400659056668422, 46.76912211179323], [9.400073005950722, 46.76934169686031], [9.399118058572272, 46.769363165923366], [9.398772784604551, 46.769541770464905], [9.398563062306064, 46.769576244271], [9.397964270656516, 46.769823993412935], [9.397752813319062, 46.76992246362493], [9.397842114152185, 46.77054624814522], [9.398213967809994, 46.770550564644196], [9.398977149593298, 46.770483650295], [9.399607178134527, 46.7703749091138], [9.399952536145147, 46.77046158624217], [9.400377159537475, 46.77059951282757], [9.40099882254044, 46.770688996842296], [9.401772342034093, 46.77073366288564], [9.402101088903963, 46.77076293846036], [9.403549030205609, 46.77068104666556], [9.403849422416773, 46.77070523545679], [9.404220847020621, 46.77055850082368], [9.404692258897581, 46.770510095257], [9.405554795215332, 46.77054620885556], [9.406296973175879, 46.770557020011175], [9.406969215041835, 46.77074707026523], [9.407356249738935, 46.770901976018095], [9.407718039914315, 46.77099353587855], [9.408012704535942, 46.7709755743551], [9.408869871688958, 46.77085005803207], [9.408913460473293, 46.77056290016124], [9.409081272278184, 46.77018029457273], [9.409137410516976, 46.76998928147781], [9.4091593082871, 46.76984321159346], [9.40989880054836, 46.76981713751843], [9.410723499289006, 46.76981807272965], [9.411923475696407, 46.769845454478464], [9.413171012805002, 46.76985967836027], [9.414209972081087, 46.769878753051145], [9.415095308835076, 46.76974724121192], [9.41556825308016, 46.769884260011835], [9.416057586742525, 46.769896097211394], [9.417255340810756, 46.76989921765867], [9.418085045547157, 46.76993652759779], [9.418774826397774, 46.76995080503193], [9.420070108196406, 46.76997071865082], [9.420129475017339, 46.766710775833545], [9.420435698088466, 46.765422752015404], [9.42096194892776, 46.76426000428139], [9.422482354099365, 46.76131686721829], [9.422970558824598, 46.76039018337494], [9.424790568347602, 46.75693224359012], [9.426375389450584, 46.754001799012784], [9.428184629764935, 46.75058727345615], [9.429125250242024, 46.74880414377951], [9.430709032597962, 46.74589344233701], [9.433196530682084, 46.74084327925691], [9.43492112462183, 46.7372378830133], [9.437584058534709, 46.73189315819186], [9.44013684388445, 46.72669923318595], [9.444979226230016, 46.71641539422408], [9.44559315218837, 46.715867375799256], [9.441938706211337, 46.7146757467655], [9.44129419715527, 46.714459786481896], [9.44026503756398, 46.71409543399134], [9.440081339750556, 46.714038189580165], [9.437456218633876, 46.71310540993293], [9.435923929028244, 46.71257078824589], [9.435302510575886, 46.71236229188391], [9.434869460095584, 46.712237777644724], [9.434473618968509, 46.71213592583045], [9.434180304651411, 46.71208607962171], [9.433833883191273, 46.71204346096265], [9.43369800537155, 46.71203054139022], [9.43267242133123, 46.711957337809245], [9.431495595067863, 46.711876960405164], [9.43235034209161, 46.71055695686095], [9.433424650472752, 46.71019942326754], [9.43368220531466, 46.70971130761327], [9.433981247955666, 46.70938833198247], [9.434328241953327, 46.70911236013036], [9.434690732204281, 46.708782962018105], [9.434942551207719, 46.708457462533715], [9.435573892079438, 46.70791775140396], [9.435776274749763, 46.707674021651286], [9.436042054424286, 46.707412497581515], [9.436481269521611, 46.70759401551569], [9.436739828716853, 46.707211118874675], [9.437081291910669, 46.706854358434775], [9.437424994730607, 46.706404234795045], [9.437753587565695, 46.70605163928028], [9.438112521862893, 46.70561325880898], [9.438293442390425, 46.70540933134409], [9.436181466770686, 46.704679907113515], [9.43444273457891, 46.70415531870026], [9.434300565606003, 46.70706262466122], [9.433201618581942, 46.70818010167601], [9.432202216158304, 46.70918032684396], [9.432104086337329, 46.70991093699508], [9.430582763993273, 46.70967720225371], [9.430515144857948, 46.70981679629571], [9.430405393849963, 46.70998024337288], [9.43031561641821, 46.710169877465056], [9.43022694836153, 46.71023081559067], [9.430173309802038, 46.710337033392946], [9.43010960990758, 46.71059595840482], [9.43009082806939, 46.71076050633713], [9.43004660614422, 46.711003513631205], [9.430055615481614, 46.71106438237429], [9.429977132077205, 46.711135490097], [9.430061942187567, 46.71127123387489], [9.430095805205864, 46.71139121150192], [9.430119929792502, 46.71151317640297], [9.430204400820251, 46.711568831574915], [9.430246026223148, 46.71172152660344], [9.429877861000612, 46.71181975902148], [9.429598380717605, 46.71191417381771], [9.429486675458804, 46.71196066702568], [9.42933549721026, 46.71203260274196], [9.429188216279728, 46.71208961438328], [9.429042513771012, 46.712218135396476], [9.428823849671655, 46.712390222512454], [9.428610007019298, 46.71244480492557], [9.42822408902969, 46.712586515965576], [9.427997000039253, 46.71262604019529], [9.427817307925762, 46.71270566165352], [9.427720757071711, 46.712737490711206], [9.427266956407822, 46.71286552594996], [9.427011419459193, 46.712853803494504], [9.426509142954538, 46.71287381023513], [9.425964092415578, 46.712815825029125], [9.425445273258207, 46.71290136258249], [9.42513308775928, 46.712807821504995], [9.423999077908642, 46.713097534351206], [9.423471736043696, 46.71316522555736], [9.422882041564812, 46.71338696023168], [9.422565334907409, 46.713419466865595], [9.422112615752223, 46.713404399957994], [9.421675641574689, 46.7134169595178], [9.421072999079437, 46.71357141342897], [9.420219124571496, 46.71365375410185], [9.41945090440427, 46.71375260732763], [9.419063967293079, 46.713713825415844], [9.418962411855535, 46.712862199506155], [9.417641557500207, 46.71052954324604], [9.41575902501587, 46.708719520808955], [9.415345262045818, 46.707762876842736], [9.415351699160762, 46.706697502761735]]]]}}]}