{"type": "FeatureCollection", "features": [{"type": "Feature", "properties": {"bfs_nummer": 3695}, "geometry": {"type": "MultiPolygon", "coordinates": [[[[9.362380940734681, 46.50950523921888], [9.362492760584088, 46.509643528074655], [9.362606073840311, 46.509985698843856], [9.362896646121854, 46.510473364428854], [9.363213456263084, 46.51091689050177], [9.363438133814652, 46.510974210907804], [9.363523840979068, 46.51117888930056], [9.363660354445491, 46.511892762057535], [9.363641573057315, 46.51214282763057], [9.363599102176998, 46.51222913938821], [9.363316313360707, 46.51253086918302], [9.36317766393834, 46.51275854963417], [9.363120635968796, 46.51295634796196], [9.363175578363187, 46.51314855197743], [9.36288759585593, 46.51335386103186], [9.363336678230171, 46.5135389262763], [9.363422913449124, 46.513727131138644], [9.363691382926094, 46.51398065696289], [9.36363174820989, 46.514216367407464], [9.363764256008615, 46.514397314719275], [9.363855660825449, 46.514631554609586], [9.363988059236949, 46.51481706597745], [9.363993426222487, 46.515249020539294], [9.364162690590964, 46.515531359378976], [9.364226581869247, 46.515718926283235], [9.364346552238542, 46.515902829779854], [9.364031392819367, 46.516349331383864], [9.36389055588915, 46.5167290312987], [9.363893759720703, 46.51703748057674], [9.363860874659157, 46.51717495767814], [9.363558187481722, 46.5176084793305], [9.363456506224734, 46.517920660309414], [9.363192411556208, 46.51808763693721], [9.363060055123977, 46.51842176360109], [9.36298214285678, 46.51866086287507], [9.362773057082716, 46.519000094558706], [9.362548433830517, 46.5191750467178], [9.362175950212865, 46.51954398144424], [9.361855277675199, 46.51976798346956], [9.36183162336176, 46.51988368934225], [9.361621986785307, 46.51998153529466], [9.3614779708034, 46.52008608701523], [9.361250129796975, 46.52032184101766], [9.361016050725175, 46.520503623878795], [9.36100807231555, 46.52065117002781], [9.36087027240584, 46.52071793092574], [9.360336035053185, 46.521313787297714], [9.360257073735074, 46.521363641185935], [9.359922724198206, 46.52144653262595], [9.359480784121066, 46.52152432025054], [9.358877647698483, 46.52159723179193], [9.35858643575394, 46.52171691763194], [9.358179811307213, 46.52180051383561], [9.358098861097417, 46.52215822749351], [9.358403558946216, 46.52240112635454], [9.35856778203367, 46.52267958171549], [9.35897670639348, 46.52279317988345], [9.359041179180288, 46.52303237006525], [9.359517891458669, 46.523140374364644], [9.359689343291414, 46.523316370283666], [9.360152000106504, 46.52346164720632], [9.360252123179503, 46.523544069265895], [9.360419157097793, 46.52374756488232], [9.360570581517857, 46.52397840117352], [9.360695380744795, 46.52409376269067], [9.360837136761063, 46.524286131908184], [9.360974933090027, 46.524406591193134], [9.361078110935399, 46.52460397644964], [9.361388311236327, 46.52485899377222], [9.361416725263975, 46.525089072857], [9.361599233585748, 46.525311329729654], [9.361891520512772, 46.52563129885386], [9.361764453853148, 46.525687590031566], [9.361783001004387, 46.52608424315501], [9.361981092669984, 46.526305311514456], [9.36201692647617, 46.526437945372535], [9.362022183276235, 46.52667364637251], [9.362282392601042, 46.526945237450846], [9.362336718946795, 46.52724564735644], [9.362618509812776, 46.527337431060204], [9.36286510391125, 46.527349029906304], [9.363185229932432, 46.52739509926233], [9.363754044024363, 46.527529609540544], [9.363881343812276, 46.52753559599191], [9.36414456091078, 46.52750063177866], [9.364434907795387, 46.52762321849958], [9.364704198415719, 46.527585682669525], [9.365048502662919, 46.52766887752866], [9.36544819227628, 46.52772133935473], [9.366055835809526, 46.528114822315054], [9.366319513534469, 46.52823072218314], [9.366438713528591, 46.528409718845445], [9.366732748447015, 46.528379541781334], [9.36675976047267, 46.52862883817113], [9.366829886917523, 46.528958305230475], [9.36684911668317, 46.529228123435985], [9.366786621251132, 46.52940224643157], [9.36666195692111, 46.52957034416215], [9.366652702202877, 46.5297062050517], [9.36660249720284, 46.52985050904054], [9.366499315060796, 46.52998516630033], [9.366474131264829, 46.530100610988754], [9.366731092879286, 46.530272582893936], [9.366844011252697, 46.5306037053132], [9.367024938709143, 46.53084267189244], [9.367044046477528, 46.531003456586944], [9.366946697509782, 46.53120825389636], [9.367048321481214, 46.53154271349743], [9.367108518912875, 46.53161222171217], [9.367550967358143, 46.53183079029993], [9.36709353454507, 46.53213376199967], [9.366915904111762, 46.53212104814928], [9.366521415925144, 46.53234434986279], [9.366422739720182, 46.53248750259186], [9.366255525494873, 46.53262485708706], [9.365789961279914, 46.53284236225043], [9.365551758696375, 46.53332790458197], [9.365619897602759, 46.533738713794094], [9.365778254023093, 46.53397454822966], [9.36598973813845, 46.5341428993465], [9.366144325820272, 46.53434100145572], [9.366407394598307, 46.534448531938715], [9.366495677168974, 46.534560474898655], [9.36650386178631, 46.534612706668014], [9.366370953545067, 46.53478658488389], [9.366383019622672, 46.53494782746858], [9.366439871455727, 46.535064677295594], [9.366547582956601, 46.535129751335724], [9.367124512602933, 46.53520671345286], [9.36728436819141, 46.5352830608358], [9.367625158486405, 46.53536143474587], [9.367975892605937, 46.53552584738167], [9.368269873702264, 46.535731758521], [9.368374841647052, 46.53595687282626], [9.368948267009873, 46.53637474988119], [9.368950237642899, 46.53642999358884], [9.368737398169465, 46.5367300790292], [9.368670108976616, 46.53703168195749], [9.368436417591013, 46.53727067453284], [9.368456792283474, 46.53754667378742], [9.368335834687787, 46.537676502479705], [9.368296360566498, 46.53783593713556], [9.368393405070515, 46.5380155614685], [9.368508087385843, 46.53817743968449], [9.368639487002785, 46.538262572791375], [9.36870538007501, 46.538489337276424], [9.368475527403692, 46.53889395043072], [9.36826557894836, 46.5395149240347], [9.368334837965907, 46.53974356608086], [9.368542843016035, 46.5399238354599], [9.368597024860362, 46.540062013051156], [9.369212146971991, 46.54028864441521], [9.369404455152695, 46.54042065005147], [9.369677888326931, 46.540667461397966], [9.370076976646429, 46.54093890029822], [9.370498560900197, 46.541305299395745], [9.370691472699352, 46.54139592788778], [9.371260061593318, 46.54204053276457], [9.371403725216322, 46.54210166422607], [9.371750818339004, 46.542332698474944], [9.372383407434947, 46.542694443341546], [9.372976893553872, 46.54318453811175], [9.373253281908434, 46.543636006777646], [9.373309179085535, 46.543811592077404], [9.373318279482103, 46.54400778966791], [9.373125076102816, 46.54421435955137], [9.372985109415652, 46.54441779825441], [9.372986749726714, 46.54464030707823], [9.372901466147656, 46.54479011367447], [9.37251843826173, 46.54516170760693], [9.372487289814611, 46.54555861453787], [9.372537998433488, 46.54589887630237], [9.372626700774028, 46.54611467788849], [9.372766350087744, 46.54631857174349], [9.372433951301742, 46.54634300514105], [9.372199853811328, 46.54631060723005], [9.372069605637487, 46.54647488259556], [9.371962321460142, 46.54675295757991], [9.363694941400698, 46.55156945652369], [9.363502021801354, 46.551716541001824], [9.363448625663551, 46.55187432825153], [9.36332330234777, 46.55201136905052], [9.36317127042676, 46.552308085719915], [9.362859573458277, 46.552753357319176], [9.362786981204016, 46.5529549673139], [9.362803795321517, 46.553006359659165], [9.36287536150628, 46.553069746541944], [9.362901568268938, 46.553122292952295], [9.362860851790417, 46.553188865992496], [9.362663335465925, 46.55330521628809], [9.362582889697608, 46.553377690079536], [9.362494376415375, 46.55362725754729], [9.362281033785287, 46.553789783990645], [9.362131557572077, 46.554062994672826], [9.36194319008703, 46.55434849792086], [9.361769769937222, 46.55469311870677], [9.36149863969442, 46.554956690007394], [9.36146318501635, 46.555061659474745], [9.361500564404245, 46.555285135988385], [9.361499017979177, 46.555563979524294], [9.361437583118448, 46.55584859647571], [9.361404661270498, 46.556225718387594], [9.361365680757261, 46.55642202534672], [9.361307178088873, 46.55657844991328], [9.361114478027634, 46.55679996807268], [9.361144503777206, 46.5572265699538], [9.360931230309207, 46.55765194714152], [9.360883951996435, 46.55781082680568], [9.360782587152794, 46.55794904311941], [9.360824431909542, 46.55807237607083], [9.360647453891684, 46.55836285152719], [9.36057534324194, 46.558532544282386], [9.35940480548312, 46.56013345764515], [9.358268901698619, 46.56138986122441], [9.35717863279838, 46.56221539687858], [9.355968456217909, 46.56277309215763], [9.355084357061166, 46.563576962491766], [9.353698273524934, 46.56507991997767], [9.353196888868831, 46.56533743668266], [9.352560135514198, 46.565500679065785], [9.352250306106399, 46.5658523292024], [9.352087248682183, 46.565983155426856], [9.351733154158708, 46.56611702496343], [9.351490104554419, 46.56614892802984], [9.351414893297136, 46.5661770172127], [9.351296193844172, 46.56644995356344], [9.35122723541279, 46.56654680079669], [9.350934335098028, 46.566737074780704], [9.350645018410562, 46.5670140222435], [9.350491151140805, 46.56732938182026], [9.350418919627032, 46.56761234295519], [9.350326627932828, 46.56779363568432], [9.350133534504538, 46.568057959207174], [9.349782171438056, 46.568426182922096], [9.349695440643613, 46.56854710182795], [9.349675359853585, 46.56868995484275], [9.34971907502812, 46.569071524784704], [9.349671233562063, 46.56922553554546], [9.349461841472989, 46.569442668726], [9.349333787892009, 46.56962974296823], [9.349017736125992, 46.56989213670543], [9.348954544236186, 46.57001023083092], [9.34892932627759, 46.57017098655675], [9.34879834889916, 46.57039795637974], [9.34855797792824, 46.57054174745043], [9.348449000151987, 46.57076993977233], [9.347924513200892, 46.57115679710832], [9.347684045020923, 46.57130833569921], [9.347455997025095, 46.571374821362824], [9.346948691512964, 46.571467232089006], [9.346830690468979, 46.57150463947617], [9.34675562320463, 46.5715980613302], [9.346631033970175, 46.57185359431342], [9.346522855946938, 46.57194312561676], [9.346254643295065, 46.5720137193414], [9.346145679826902, 46.57209060370601], [9.346005474465219, 46.572138883723085], [9.344789672996141, 46.572380474826375], [9.344530094100703, 46.57254622960459], [9.344120062022327, 46.57273617411065], [9.343637610778528, 46.57291314976839], [9.343456558961533, 46.57302285036058], [9.34333370860889, 46.57313241193754], [9.343016855109399, 46.57325184743689], [9.342876691226662, 46.57344373652852], [9.342670858853664, 46.57353864391408], [9.342576645738763, 46.5736563189855], [9.34217511093781, 46.57391828152867], [9.341866773507654, 46.57407895388681], [9.341677499234375, 46.5742088371043], [9.341372439503582, 46.574477238977146], [9.341397454068844, 46.57454836931615], [9.33704617355921, 46.57590003064476], [9.336493604365176, 46.576061303908986], [9.334971613256599, 46.57582340514588], [9.333378234868478, 46.57532338520131], [9.332165757063015, 46.574961232904066], [9.331390224942599, 46.57426517927644], [9.330668663754464, 46.57402379909838], [9.329986035919568, 46.57388555958983], [9.329467362992203, 46.57391449583294], [9.328872878708141, 46.5739009635867], [9.328445989317027, 46.573949484779746], [9.327230206717388, 46.57412955385367], [9.326931949316885, 46.57401409294113], [9.32674603971972, 46.573896758248885], [9.326481789214967, 46.573811673667514], [9.326325000394235, 46.57380034994571], [9.325565035731177, 46.57390403392043], [9.325393796308862, 46.5738780006207], [9.325131461623323, 46.573866013059465], [9.32488181769897, 46.57389277687369], [9.324473719467615, 46.57397244874875], [9.323877768426994, 46.574036422235515], [9.32349868840838, 46.57406781175612], [9.322854117395108, 46.57400409919638], [9.322461697432212, 46.57403611125924], [9.322006340540563, 46.5740964302512], [9.321613371641869, 46.57426400173926], [9.320836969255835, 46.57429335735088], [9.320719309521701, 46.5742760476811], [9.32066423646837, 46.57423983963569], [9.320626598141038, 46.574173212092404], [9.320396107522583, 46.57421877906949], [9.320244588916191, 46.57452421743826], [9.319991531705051, 46.574813785867825], [9.319734362422631, 46.57506592398897], [9.318812750158967, 46.57550159545472], [9.318549185839789, 46.575854457873625], [9.318752799571383, 46.57598287077214], [9.31901088840467, 46.57633115935003], [9.318512893079019, 46.57700747242099], [9.31798362557002, 46.578436497287974], [9.317822949968336, 46.57863216372387], [9.317673764912808, 46.57874514183779], [9.317532765874935, 46.57881840289867], [9.317241834832188, 46.57891393040267], [9.31695009999693, 46.578986388419494], [9.316773505515975, 46.57899920526109], [9.316607148089679, 46.578969775997386], [9.31608013660035, 46.5792861286856], [9.316157232415542, 46.57943991867683], [9.316188860122644, 46.579592813870086], [9.316171408444198, 46.57974123604091], [9.316098158218784, 46.58002840482708], [9.316279380030277, 46.58027095156963], [9.316280750990932, 46.58058599783333], [9.31618494841082, 46.58127215456009], [9.316256246161887, 46.582084261379386], [9.31654598671712, 46.582435804564184], [9.316620429153883, 46.582787585123846], [9.316459308907291, 46.58338648760135], [9.31610529624947, 46.5840052583009], [9.314359525930353, 46.58471696949961], [9.312087001648072, 46.58500513491931], [9.311696974466107, 46.58496215758416], [9.311185575116713, 46.584949119328456], [9.309802820001384, 46.58511075510814], [9.309416907929352, 46.58535096255594], [9.308108904294196, 46.586046806334885], [9.307553603616952, 46.58628862147236], [9.307101354051282, 46.586781818833224], [9.307097784205185, 46.5869497277838], [9.307142336183547, 46.58725104315022], [9.307303994510388, 46.587448702851425], [9.307672820205003, 46.58771439210407], [9.307720344634404, 46.58794454501212], [9.307785257971704, 46.588061839173896], [9.307912135264209, 46.58811590275247], [9.30814301206725, 46.5881613742298], [9.30833410288434, 46.588326416386714], [9.308502238362601, 46.58844582821147], [9.308786528792366, 46.58858278467867], [9.308686767873759, 46.58914107384877], [9.308712077566684, 46.589383900513326], [9.308870692551963, 46.58968387752545], [9.309343940680987, 46.590443868403824], [9.308709162464128, 46.59269592414347], [9.308707762764207, 46.59281245479836], [9.30873879796843, 46.59292291814927], [9.309005728567211, 46.59326746807512], [9.30936422796806, 46.59350671870973], [9.309251800202155, 46.59362964565606], [9.309271116595163, 46.59370692803919], [9.309629484365898, 46.593950518509715], [9.309999381047158, 46.5941703257826], [9.309984598915516, 46.594568772809886], [9.309697410584038, 46.59556118447208], [9.309631709162764, 46.595916557155725], [9.309803006865828, 46.595925570164475], [9.309888850000183, 46.59596527053384], [9.310201098673852, 46.59639007580267], [9.31058535147765, 46.59705974737826], [9.311061387864315, 46.59739347755615], [9.311268122564709, 46.59760703461902], [9.31139441839807, 46.597792766069325], [9.311422920199565, 46.597859620638445], [9.311415839530525, 46.597930335673475], [9.311210018594531, 46.59824653659167], [9.311328772564138, 46.59830533811892], [9.311403144050285, 46.59838756252117], [9.31146179437687, 46.59851638632599], [9.311472244994896, 46.59879386396816], [9.311667326011909, 46.598856753054925], [9.31187668956978, 46.59889100931717], [9.312031709894569, 46.59893171171171], [9.312184208940147, 46.59909024172466], [9.312316115744194, 46.59912430570974], [9.312346605471006, 46.59921605290893], [9.31244083354589, 46.59928950258342], [9.312523315421986, 46.59930091327051], [9.313265532742692, 46.59926577293395], [9.313450248082765, 46.599379697532946], [9.31352859132573, 46.599463762675086], [9.313658354589757, 46.59945590272508], [9.313884266519734, 46.59938489322612], [9.31441713151136, 46.599349706001945], [9.314870376649514, 46.59926492378347], [9.31504011199241, 46.59926460020498], [9.315171864629136, 46.59911026841864], [9.315391378687188, 46.598996835728975], [9.315627031453412, 46.59894369391893], [9.315841246799591, 46.59892849848611], [9.31602157376723, 46.59900954843769], [9.316166603856065, 46.59904968058801], [9.317051363230982, 46.5987846806307], [9.317465636758367, 46.59874924609967], [9.317719086560844, 46.59870575580832], [9.317912497403498, 46.5987204474823], [9.31823313766239, 46.598593990414706], [9.318995805852493, 46.59853151619956], [9.319294873404932, 46.598470587661446], [9.31968332568191, 46.598265867923786], [9.31996649264653, 46.59818288373326], [9.320131014438582, 46.59817879507358], [9.32045402800399, 46.598249714120456], [9.320592243540746, 46.59834260418302], [9.32077909602482, 46.598343932986104], [9.321021398114008, 46.59831104965623], [9.321364458070583, 46.59821314181054], [9.321566572041872, 46.5980990761623], [9.321944986077296, 46.59809689778933], [9.322142270765719, 46.59807178291865], [9.322288465221584, 46.598017901356855], [9.322603909588308, 46.597786185536194], [9.323056782512031, 46.59764619673434], [9.32325996808221, 46.59761960734268], [9.323506099942383, 46.5976319251376], [9.32390806586195, 46.597623897880695], [9.324209345344316, 46.59756903840947], [9.324582510943337, 46.59758745646692], [9.324890267545497, 46.597615226541215], [9.325048217295176, 46.59758860802582], [9.32518548590259, 46.597534924882325], [9.32548525261326, 46.59752624462429], [9.326171678569006, 46.59741898611685], [9.326395571311286, 46.59732636193569], [9.326540057593169, 46.597354197793656], [9.326902904908094, 46.59734153433263], [9.326996383330101, 46.59731383496465], [9.32719287834045, 46.59720979352106], [9.327845094665603, 46.596707631478054], [9.328129956110143, 46.596661682601145], [9.328321824770642, 46.596513965098374], [9.328476262453167, 46.59648553096532], [9.328572614463551, 46.596336980963585], [9.328839309372896, 46.5962397090346], [9.328906365315829, 46.59599809260197], [9.329123251079986, 46.59591673464864], [9.32952583068881, 46.595659725483856], [9.3297144731873, 46.59559752754966], [9.330104754415439, 46.59563252675471], [9.3303563103306, 46.59559300883263], [9.330505173448023, 46.59548672977072], [9.330785808352653, 46.59535230321792], [9.330990840530353, 46.5953229400582], [9.331258007437778, 46.5952003481502], [9.331480300896715, 46.59515430443745], [9.33164666832948, 46.5951692455052], [9.33173373278522, 46.595148719444666], [9.33191636843719, 46.59498860681002], [9.331964108668513, 46.5948239121385], [9.33208102956285, 46.594768014929066], [9.332202248144517, 46.59476106718352], [9.33239138580666, 46.5948038261095], [9.33258916826597, 46.5947363402249], [9.332858893025156, 46.59480014670549], [9.333023125669111, 46.59490669558168], [9.33320771063699, 46.594915905446875], [9.33340994132811, 46.594940385356466], [9.333605362590177, 46.59493299719867], [9.333810989478541, 46.5948851429114], [9.360953680740646, 46.58929320895638], [9.36505631249014, 46.588152491764], [9.365435883082522, 46.58810916992841], [9.369261637577084, 46.587645600190534], [9.375716162831198, 46.58585041688121], [9.383464844648573, 46.5819746869113], [9.390222448407265, 46.579902993426124], [9.397236286462471, 46.57574209560832], [9.401772284902044, 46.57347471578971], [9.402156539820869, 46.572413491425074], [9.402902269706303, 46.57052538654329], [9.405080443610544, 46.57003688512094], [9.4096888080279, 46.5682559801605], [9.409221412689526, 46.56716394132053], [9.409192786715701, 46.566235787951875], [9.409512766364752, 46.56588740868999], [9.409578579491955, 46.56500892261185], [9.40905444082996, 46.56426665142393], [9.408719863815609, 46.563642551653764], [9.409033883635438, 46.56116341705505], [9.40956657609876, 46.55867152164854], [9.408978222885972, 46.55491494096816], [9.411835248589048, 46.55251245656189], [9.410313837265818, 46.54951425985714], [9.409712724180622, 46.5478743452483], [9.407350503748491, 46.5463945535983], [9.406678248986674, 46.54583929242971], [9.40522232427254, 46.54453270379611], [9.403951532827547, 46.542934969813615], [9.403534126751044, 46.541853373330696], [9.403853386164025, 46.54166788458103], [9.403757538386378, 46.54138887275604], [9.403787590076712, 46.54076256297068], [9.403876854286231, 46.5397772505933], [9.404153798222016, 46.53967319406337], [9.40449978130676, 46.539465830247224], [9.404655437760164, 46.539243750156814], [9.404803731511848, 46.539080727267944], [9.404861966914305, 46.538789110359886], [9.404836257500474, 46.53834259098445], [9.404929982120327, 46.538048712621006], [9.405046572820632, 46.53786168945624], [9.40488066005004, 46.53734308812026], [9.404027022884597, 46.53644017224871], [9.404008460675744, 46.536386467069256], [9.403791092771456, 46.53628052739348], [9.403685138963867, 46.53597537869998], [9.403521855312604, 46.535725248552076], [9.403090736554493, 46.53450065263004], [9.403013840627612, 46.53434315992348], [9.403037977097538, 46.53415855288382], [9.402970662506219, 46.53393704978259], [9.402889109038673, 46.53371661112886], [9.402896036182584, 46.53358059476358], [9.402663818860997, 46.53325202305208], [9.40247939226852, 46.53288540673384], [9.402243482610665, 46.532725759038144], [9.40214438626842, 46.53260958326878], [9.4020253497683, 46.532401257256694], [9.40185002429267, 46.532276573974876], [9.401626696593537, 46.53200536909629], [9.401664919497918, 46.53188191530603], [9.40163673729493, 46.53182427911698], [9.401503127761075, 46.531738179043366], [9.401336305449158, 46.53145454327688], [9.401442918620333, 46.53132008097419], [9.401453663647558, 46.53122411622053], [9.40135157522849, 46.53102531343484], [9.401342157387514, 46.53089612312239], [9.40140367729621, 46.53069531217114], [9.401332718959528, 46.530504978777316], [9.40137750565655, 46.53036586269613], [9.401229920635494, 46.5302210557404], [9.400872912028625, 46.529925977060316], [9.400672104780503, 46.529818100583405], [9.400614460072406, 46.52973233485283], [9.400593471365724, 46.52961153351384], [9.400643608291649, 46.52916205203798], [9.40061925465735, 46.52881701774392], [9.400471540176895, 46.52853714631989], [9.400266705242991, 46.52831800836694], [9.400154058591612, 46.52815458965671], [9.400056724028243, 46.52789020538504], [9.400099276083088, 46.527755223019305], [9.400281044535655, 46.52759981360897], [9.400529262107822, 46.52757671352648], [9.400599084592226, 46.52753947907221], [9.400682409725581, 46.52741689493226], [9.400688218273466, 46.52711881484466], [9.400865496009054, 46.52697123075263], [9.400664057589681, 46.52692882515255], [9.400564634456805, 46.52621892002745], [9.400465209807713, 46.526072457401796], [9.400328459888168, 46.52594102961368], [9.40026043664851, 46.525824233708704], [9.400125667934534, 46.525439500330904], [9.400130627675525, 46.52520621776644], [9.400001100031698, 46.52488584024775], [9.399866082676398, 46.52474315031821], [9.399665353777149, 46.52470204612231], [9.399605496798587, 46.52466732912235], [9.399497087836442, 46.52446552988979], [9.399305053904957, 46.524272831696464], [9.39915571134092, 46.52415991458648], [9.398799689898452, 46.52376189381341], [9.398237190137742, 46.52290626742984], [9.398213634716939, 46.522557028007505], [9.398160215339987, 46.52237131128188], [9.398079582936816, 46.522249134448614], [9.39806164490477, 46.52215081150286], [9.398077859796558, 46.52166567581709], [9.398237925211744, 46.521355510466634], [9.398194750447743, 46.52110881616789], [9.39806300673642, 46.52087352104217], [9.397995470713004, 46.520699226587254], [9.397960738729843, 46.52045666193592], [9.398016231511225, 46.520096795152206], [9.39834117518963, 46.51954227149035], [9.39833192343814, 46.51940623114913], [9.398364090086991, 46.5192285601814], [9.39810305649804, 46.51900131636456], [9.39813618555766, 46.51881276768733], [9.398095119453856, 46.51848918226631], [9.398002107467164, 46.51839140800204], [9.39777717368258, 46.51822861849614], [9.397709847467107, 46.518052456992706], [9.397621952715554, 46.517989795973634], [9.397198006066185, 46.51790420624045], [9.397089129774026, 46.51778578405577], [9.396773635294306, 46.51758515958171], [9.396507654158741, 46.51727510475702], [9.396403890772158, 46.51710083021589], [9.396402291746476, 46.51688464422809], [9.396251953101954, 46.51650511867853], [9.396230179264139, 46.51627887032481], [9.396166823362812, 46.51608573308246], [9.396050271550976, 46.51591487514214], [9.395812127340331, 46.515690070844805], [9.395544997943777, 46.51522183764866], [9.395290084209186, 46.51501110707303], [9.395068173062596, 46.51468703091303], [9.395033168097452, 46.51453055944854], [9.394724547864943, 46.5141820168521], [9.394628230271636, 46.514021534982405], [9.394670015867748, 46.51382768436563], [9.394466121320706, 46.513635342322516], [9.39415405393754, 46.51344568320906], [9.393782289328547, 46.51303284582032], [9.393640263996, 46.51291563030314], [9.39344541168329, 46.51281031853394], [9.393010118316175, 46.512691118148645], [9.392729059350474, 46.51265259614238], [9.392234877476834, 46.51264815408471], [9.391936804268212, 46.512717429330266], [9.391775403148607, 46.51266199569348], [9.391600376633217, 46.51276039729333], [9.391337469264053, 46.51274368152583], [9.391090047875018, 46.512787743936], [9.39073003423561, 46.51267911958737], [9.390510694261954, 46.51252998609696], [9.390346183583578, 46.51237741943922], [9.38996224695814, 46.512212493908535], [9.38955082411128, 46.51189535049278], [9.389221999374957, 46.511738718584546], [9.388769160568398, 46.51157947346599], [9.388577544548614, 46.51148654252608], [9.388503705333274, 46.5114121886144], [9.388403264824431, 46.51118935246902], [9.388150128197092, 46.51090682358339], [9.388008256612146, 46.510869448823776], [9.387839497815728, 46.51087876116127], [9.387761795353544, 46.51078463243247], [9.387443843093218, 46.51068157038363], [9.387355478459863, 46.51061711104932], [9.387098456269232, 46.510711203728526], [9.386606015923752, 46.5104030192632], [9.386349966698312, 46.51031386476008], [9.386074343650275, 46.51017836136982], [9.38561994019313, 46.509936508988815], [9.385329628416574, 46.50975598277802], [9.385097851733589, 46.50985840285838], [9.384985502807574, 46.50984054015754], [9.38468616635857, 46.50959188992433], [9.384460483119613, 46.50945575996165], [9.384230958970804, 46.50934073393529], [9.384119405457417, 46.50916360287168], [9.383975303503469, 46.5086931514738], [9.383823439921112, 46.50860304107899], [9.383795700764543, 46.50837973594592], [9.383557670879217, 46.508155907148485], [9.383532321119368, 46.507938139737504], [9.38344099243008, 46.50784680396439], [9.383226528330493, 46.507801504218975], [9.382985854516003, 46.507778680168194], [9.382794295141995, 46.50763042485697], [9.38265026337276, 46.507580420884025], [9.382334394808847, 46.50752717096305], [9.382186234153268, 46.50742532400405], [9.38195863851394, 46.50735825626707], [9.381630090087748, 46.50721567614156], [9.3813703496153, 46.50697625048683], [9.38116710520369, 46.50675672697398], [9.380946611056121, 46.506749903127584], [9.380860422209215, 46.50672865604092], [9.380468783566023, 46.50655231386347], [9.380174918413514, 46.50637565063894], [9.379688013705804, 46.506199143768434], [9.379506894413561, 46.506101428252755], [9.37948326235827, 46.505959555860315], [9.379418268395796, 46.50590349892949], [9.378895546918153, 46.50572369790434], [9.37872114644517, 46.50563547971942], [9.378211513916364, 46.50547611001688], [9.377724970186506, 46.50534592546913], [9.37738487686571, 46.50527571316244], [9.377258991182591, 46.50517567659194], [9.376415455899663, 46.50509639313278], [9.376210664309403, 46.504933705124756], [9.375886388547292, 46.504618662344384], [9.37535468558084, 46.50425301026462], [9.375027819917454, 46.50414202949174], [9.37478670201983, 46.504144060857634], [9.374440854966162, 46.50398434259339], [9.373924225607029, 46.50385764246526], [9.373602631914661, 46.503892242186694], [9.37335889660323, 46.50394309818985], [9.373191807028354, 46.5039902072065], [9.37297706729296, 46.504163744590606], [9.37266073297464, 46.5041742331418], [9.372269326415463, 46.50426338974776], [9.372131992315692, 46.5042435712008], [9.372102157751847, 46.50430991792817], [9.371946021063671, 46.50434227989087], [9.371750932692038, 46.50447106383143], [9.37107838948597, 46.504563677364914], [9.370860741198577, 46.50455984118454], [9.370721044480256, 46.50459905576665], [9.3705975479887, 46.504710673556716], [9.370300122235562, 46.50486807538771], [9.37017325674945, 46.50489910008129], [9.368320992063406, 46.50513729550932], [9.368074780537546, 46.505489139235074], [9.367942612019498, 46.50550635828694], [9.367861810526465, 46.50561381233967], [9.3677626450397, 46.50564365303501], [9.367626221172612, 46.50587253080745], [9.367425627818044, 46.50595073977626], [9.367198262226017, 46.506166421330256], [9.367179195221578, 46.50629008525177], [9.367061436696515, 46.506384111668304], [9.367018687161854, 46.5064751094957], [9.366759017425435, 46.506618831331664], [9.366688645036218, 46.50677920638925], [9.366391525688908, 46.506905995867], [9.366271734366428, 46.50719048771021], [9.366156761473606, 46.5073145904922], [9.365922534713409, 46.50745502252023], [9.365859243405335, 46.507451587274346], [9.365746850313883, 46.50754019234332], [9.365303919979196, 46.50763924410567], [9.365243336292444, 46.50778368734121], [9.365077566166304, 46.507795840277396], [9.36484193014028, 46.50826372345357], [9.36475443005959, 46.50827472794745], [9.364727103274195, 46.50831106799547], [9.364761509002184, 46.5083319368023], [9.364720572001278, 46.508387926827496], [9.364748016098282, 46.50843512539821], [9.364659480439162, 46.508500551873325], [9.36467544625441, 46.50854015259096], [9.364547647582905, 46.50862364827282], [9.364548866171617, 46.50869638816105], [9.36438254233416, 46.508813596992745], [9.364354370118155, 46.508950022749886], [9.364400082245654, 46.50897365123601], [9.364331115856894, 46.509048490242535], [9.364355718932885, 46.5091044836299], [9.36384175026164, 46.50920627211935], [9.36371984094728, 46.509277048507066], [9.363695552853475, 46.50930945806925], [9.363288280083244, 46.509360137869564], [9.363127734694812, 46.50934306258082], [9.362851271587388, 46.509426786952424], [9.362406780983603, 46.50948494255713], [9.362380940734681, 46.50950523921888]]]]}}]}