{"type": "FeatureCollection", "features": [{"type": "Feature", "properties": {"bfs_nummer": 3712}, "geometry": {"type": "MultiPolygon", "coordinates": [[[[9.498924233833637, 46.62471533264766], [9.500507762843801, 46.62372284972207], [9.500932692911556, 46.62287395306684], [9.500812169341492, 46.62224535546085], [9.50073803490902, 46.6216159013484], [9.501541871140876, 46.620872050850785], [9.501395298887527, 46.61982797212206], [9.501492615436996, 46.61959990183785], [9.50175597672761, 46.619462498166676], [9.501927638019433, 46.61909823343297], [9.502239844010676, 46.61876566161816], [9.503239411629234, 46.61793820347348], [9.50352296843825, 46.61772271404908], [9.503536051361145, 46.61737507265466], [9.503792049587764, 46.61687668550414], [9.503971023489616, 46.61670197537191], [9.504268146397084, 46.616579940871425], [9.504567732153133, 46.61635044712679], [9.504673541721436, 46.61634165144768], [9.504677877988904, 46.61633825216518], [9.504795854907265, 46.61624569950783], [9.504684468833615, 46.61593920137458], [9.504401378479695, 46.61556728773978], [9.50443088766962, 46.6149046680559], [9.504346206146188, 46.6145718098482], [9.504484654625259, 46.614292702706436], [9.504454937778483, 46.613868154487484], [9.50457108698336, 46.61352774786877], [9.504402420542101, 46.6131125963485], [9.504396968504645, 46.61271501082509], [9.504190772248254, 46.61244454913172], [9.5040190568976, 46.61212088320906], [9.503997650779786, 46.611910998679654], [9.504097455243084, 46.611662332636804], [9.503902861541428, 46.61134821247457], [9.50366562621717, 46.61121772733682], [9.503514767959857, 46.61109022851607], [9.503318239040182, 46.61072587171624], [9.502933466239586, 46.610296422675525], [9.502481854790204, 46.60968305014068], [9.50217802994131, 46.6089458304386], [9.502083602351405, 46.60855160009909], [9.502028987254652, 46.60836155645748], [9.502036933565845, 46.60808950769185], [9.50200280668108, 46.60787040501263], [9.501731504073991, 46.60722379583104], [9.501732359898046, 46.60709808710498], [9.501323285217088, 46.60669959704222], [9.501271099052367, 46.606233823882995], [9.501064937754805, 46.60603688086238], [9.500782424002429, 46.60566466294139], [9.500613644685442, 46.60551308208007], [9.500355534799922, 46.605371487799395], [9.499658854404508, 46.60484765668957], [9.499210396939189, 46.60463923473664], [9.499031203016601, 46.60446262348686], [9.498612438120139, 46.604416203165094], [9.49805057933952, 46.60400312204525], [9.497696302835436, 46.60386238728819], [9.497310581042456, 46.603637392503806], [9.497122763915534, 46.603436333421584], [9.496281476996296, 46.60384052638842], [9.496168550355613, 46.60392039632023], [9.496009143595037, 46.60425042937415], [9.493281388504315, 46.60549114577], [9.492487236454082, 46.60596350782421], [9.49193577070086, 46.6061134203863], [9.491277512250273, 46.606164722801786], [9.49018924655304, 46.60633389704716], [9.489389855824607, 46.606424440776664], [9.488354244680869, 46.60666579263573], [9.488034383310262, 46.606966838480254], [9.487460037216321, 46.60724518898314], [9.4863923964469, 46.6071464016734], [9.485701353960257, 46.60712511142031], [9.48521157515108, 46.607241792741874], [9.484814228827872, 46.60742993432684], [9.484563572721173, 46.607635892400175], [9.484063806751013, 46.607919720699066], [9.483869441163264, 46.608122336706174], [9.48393337907348, 46.60839554636707], [9.4834368141418, 46.60859241299033], [9.483170278864094, 46.608816954386384], [9.483026090005804, 46.60903005813], [9.482475458676918, 46.60962126675103], [9.481957512375146, 46.6102004118791], [9.481774209418573, 46.61034792416757], [9.481476177747131, 46.61069884924842], [9.481177804686242, 46.61087366539131], [9.48062269670664, 46.611101345923565], [9.480196563372543, 46.61140205789604], [9.48003529950423, 46.61177097895555], [9.479475524562528, 46.61230061157463], [9.479006253027864, 46.613020632597745], [9.478976365499374, 46.61318812857712], [9.478822986928776, 46.613337375164804], [9.47870432796974, 46.6136094309242], [9.478300990344415, 46.6140675103206], [9.478235476636442, 46.61434088403678], [9.47802001203172, 46.614598759151896], [9.477953510933382, 46.6148469929106], [9.477567059059654, 46.615423811956845], [9.477267778155431, 46.61546586677751], [9.477134257544664, 46.61553010565816], [9.47688472642414, 46.61551420044862], [9.476658610551164, 46.615587039169], [9.476071642913068, 46.61559804014953], [9.475850116248743, 46.615702816768135], [9.475503353124852, 46.616082066994366], [9.475186187152667, 46.61620233895955], [9.474877321209592, 46.61653286721113], [9.474658586653666, 46.61670846377287], [9.474476452845675, 46.617054899781536], [9.474192637651514, 46.617179134029534], [9.473976385506127, 46.61733411280711], [9.473703436546147, 46.61756562062194], [9.473518591044007, 46.61786354583639], [9.47122329348161, 46.61867749489165], [9.464963323577393, 46.61814378626745], [9.442646017416166, 46.62128557956522], [9.438401139996246, 46.62192901107144], [9.435608451246098, 46.62293492148002], [9.434679581082017, 46.623662319752874], [9.435069123188056, 46.623909209456535], [9.435345162685657, 46.6244163989394], [9.435717239020683, 46.62494214952156], [9.436355174850577, 46.62541645069821], [9.436682660311233, 46.62577785907894], [9.437034796281305, 46.62613819475621], [9.436005373313561, 46.626417805153814], [9.43607758221085, 46.62657977924766], [9.436084385303566, 46.62674614069164], [9.436120691178377, 46.62683857475631], [9.436133708036163, 46.62692781805643], [9.436131639272954, 46.62698138624436], [9.43612222909547, 46.62703457932849], [9.436034074894929, 46.627334515316605], [9.436026562363665, 46.627444347425026], [9.436037144924114, 46.627546177432], [9.436059279363676, 46.62763154449306], [9.436089783000968, 46.627707631287436], [9.436232192572332, 46.627958052545715], [9.436275922792102, 46.62806155042792], [9.436459709417976, 46.628758712406146], [9.436480486028136, 46.62889387375936], [9.436481444121032, 46.628961822384305], [9.436472469356842, 46.62905505106051], [9.436465583596238, 46.629306868108415], [9.436303445103352, 46.62963086888861], [9.4362412916086, 46.63048433076629], [9.436433232277087, 46.63144168569659], [9.436812790054768, 46.63250535063531], [9.436806071661625, 46.63253985178565], [9.436778396582115, 46.63260674625652], [9.436736486072816, 46.632664541280015], [9.436679724379346, 46.632716729712904], [9.436604136646574, 46.63276426345181], [9.43650997255387, 46.632802944775975], [9.436437210986538, 46.632820580923074], [9.436362235664479, 46.63283310868215], [9.436285760312199, 46.632840398576676], [9.436216836460218, 46.63284241785755], [9.436147925398693, 46.632840189615216], [9.436071096022218, 46.63283260221756], [9.4360184560443, 46.63294969451255], [9.435978915292479, 46.63293311119653], [9.435649722149654, 46.632883456187784], [9.435381865538144, 46.632822286070876], [9.435225836315327, 46.63280657619488], [9.435036496407387, 46.63289727191403], [9.434860827626201, 46.632933736750374], [9.434615827312184, 46.632892950504605], [9.4344919201709, 46.63291968870907], [9.434410412133056, 46.63302307050144], [9.434151772419584, 46.63303741295595], [9.433984299618501, 46.63308714044743], [9.433634731196653, 46.63313340920928], [9.433501120934658, 46.633073922247924], [9.433280095237096, 46.63305304940119], [9.433212643747721, 46.633087165890856], [9.432932032321618, 46.63299111944256], [9.432850713872693, 46.633021518856005], [9.432628386432654, 46.632989779577784], [9.432556308154238, 46.63299446168047], [9.432369769248632, 46.633019595283606], [9.432359217185574, 46.63299206469088], [9.43215260422534, 46.6329436632501], [9.43221124658706, 46.633141961982176], [9.432329386697772, 46.63338439044507], [9.432867559033896, 46.63358545432932], [9.433244210753571, 46.63413965646025], [9.43330988052164, 46.63465234528799], [9.433953077278963, 46.63534333254372], [9.434576896503344, 46.635587600783765], [9.434895323622909, 46.63605184511864], [9.435300938960228, 46.63642933560672], [9.435400687258658, 46.636723914765085], [9.435733230430682, 46.6369197377284], [9.435850433760637, 46.637305083817274], [9.436187357027743, 46.637759823006036], [9.436460950133204, 46.63796162760565], [9.436828206770963, 46.638071721595544], [9.436859693406472, 46.63844226568317], [9.437226570994959, 46.63867195460397], [9.437683757917556, 46.63940344897578], [9.438255445112393, 46.64020977037944], [9.43834823185498, 46.64031991065711], [9.439707406108237, 46.641141465745775], [9.439786361898667, 46.64122727340636], [9.439950656178715, 46.641352523597504], [9.440143929774095, 46.64148059388366], [9.440433559822837, 46.64159635977309], [9.441596148573757, 46.64156620423179], [9.441491348600927, 46.64196038102682], [9.441612167042836, 46.64222371087896], [9.442349302232138, 46.64272366509189], [9.442941023771743, 46.64300121218846], [9.443922110763616, 46.64320890190347], [9.444293215500018, 46.64335084133395], [9.444789334254112, 46.64386852203638], [9.445287967476768, 46.644453653081946], [9.445819128669475, 46.64487620117449], [9.445427557207363, 46.644960949625116], [9.44565917817003, 46.64846491940204], [9.444038158469255, 46.652244041831516], [9.447106177723512, 46.65592431226355], [9.442948546115316, 46.66349257431511], [9.44307876921891, 46.663478960998056], [9.443392124977539, 46.66341902866209], [9.443774919197914, 46.66339664785627], [9.44432459186663, 46.66333691535872], [9.44497613906585, 46.66315762204911], [9.445512823167485, 46.663111044970776], [9.446315664175572, 46.662987808328374], [9.446553218437854, 46.663136601319394], [9.446872711156187, 46.66331740335752], [9.44711644889986, 46.66327108211143], [9.447041560547078, 46.663393607625686], [9.447001934438285, 46.66352298559966], [9.447004295885788, 46.66358638670099], [9.446993221661918, 46.66371031197864], [9.447098851374843, 46.66380923300911], [9.44715981775181, 46.6639372860704], [9.447281390611716, 46.66416728952349], [9.447316524850569, 46.66427799830608], [9.447694223910117, 46.66442614832051], [9.447941783569133, 46.664589539556374], [9.448082282104439, 46.66471736178106], [9.44839019541109, 46.6649110643079], [9.448648474458436, 46.66512384788227], [9.448565754635018, 46.66532904241319], [9.448588967353901, 46.66537045725364], [9.448839431408267, 46.665492619661826], [9.449159839214953, 46.6655891610458], [9.449366117944203, 46.66569040677303], [9.449480664523337, 46.66576461114247], [9.449543519997272, 46.66582068695958], [9.449597781688063, 46.665891338842656], [9.449714344906099, 46.666144595200535], [9.44974634322626, 46.66625128325789], [9.449842659569342, 46.666455738051745], [9.44992844425017, 46.66660763864897], [9.450066836591999, 46.66674664790797], [9.450372759738322, 46.66724175085212], [9.450413490728888, 46.66745760351079], [9.450445123972466, 46.66753340534606], [9.45057908018451, 46.667734747813874], [9.450710726845077, 46.667960758489755], [9.450737241106767, 46.66813734363326], [9.450805743013412, 46.66823012292507], [9.450927880727596, 46.66837905173124], [9.450977951355847, 46.66843103694193], [9.451140493405381, 46.66852468760905], [9.451275918719439, 46.668662187057365], [9.451208300607616, 46.66876678127631], [9.451340154720722, 46.6689119371338], [9.451389047102223, 46.669023194539285], [9.45141575588931, 46.66917685760905], [9.451085798175566, 46.66952513256524], [9.451052458073349, 46.66964699402477], [9.451050731032103, 46.66972725526485], [9.451062622136892, 46.66992071095168], [9.451037057491881, 46.67000078979881], [9.450922031553405, 46.67015322175434], [9.450857901869364, 46.67032022323262], [9.450810628032807, 46.67047997329608], [9.450819268423563, 46.67058277937981], [9.450945730972537, 46.671061568639566], [9.450966458175623, 46.6712122328688], [9.450874063309472, 46.67176989870636], [9.450822941780926, 46.67194188963234], [9.45065578919785, 46.67235558613066], [9.45066441293312, 46.67240562758149], [9.450805184933767, 46.67262535887363], [9.450865577875854, 46.67268806455101], [9.45115383900003, 46.67285837170232], [9.451199134561127, 46.672912687327596], [9.45122548086892, 46.67302363185843], [9.451223727760771, 46.67310389344851], [9.451188982839833, 46.673166740302285], [9.45112794138265, 46.673236053906], [9.451017027048696, 46.67334710153396], [9.450754837495479, 46.67384268891912], [9.450781162724107, 46.67447885653426], [9.4502391625454, 46.675458011379064], [9.450364030342186, 46.67596646981986], [9.450767284034379, 46.67634744486697], [9.451472354179424, 46.67686987033192], [9.452419677353575, 46.676855939680955], [9.45287951163093, 46.67690659774964], [9.45307579115241, 46.676984833984555], [9.453813295826025, 46.67780794020564], [9.45391175138239, 46.678080651909525], [9.4535180325394, 46.67835575049352], [9.453443724119357, 46.6785677908643], [9.453581750796774, 46.67901166542019], [9.453698052266159, 46.67942688551042], [9.45356056984138, 46.67974370572566], [9.452571519084488, 46.68111085023522], [9.452469909099529, 46.681371766048564], [9.45195935180185, 46.68200133996629], [9.451511880811681, 46.6822679770653], [9.450540557340972, 46.682602081929986], [9.449822550585008, 46.682914701192956], [9.449458682399635, 46.68322602595962], [9.449291934758158, 46.68358582893604], [9.449172155162394, 46.68405138952025], [9.448720571381724, 46.68443906358442], [9.447788368988212, 46.684734921890474], [9.447483207917339, 46.68497163347373], [9.447293395408767, 46.685259573077936], [9.44722178573501, 46.68564834466601], [9.447471659230025, 46.68634524365871], [9.447467961868307, 46.68658247207049], [9.447057522080913, 46.687171852116386], [9.446697368786085, 46.68741236437287], [9.445360071479923, 46.68803614180415], [9.44500940053892, 46.688380818816526], [9.444350999689012, 46.68983751270836], [9.444161947918408, 46.690027881059706], [9.443690143383204, 46.69024352376447], [9.442937477688787, 46.690449904437735], [9.44199565609965, 46.69084322679252], [9.441730874792805, 46.691406665438194], [9.441814717116547, 46.69208006530494], [9.442492290687706, 46.69354232312483], [9.442646091624058, 46.69355544263771], [9.442316050870255, 46.69267641579721], [9.442220259315512, 46.69232278764044], [9.4421125149403, 46.69153160494471], [9.442138234436571, 46.69117783000837], [9.442185683162405, 46.690910623548135], [9.442246191019242, 46.69082750318809], [9.442641455225571, 46.690740441614125], [9.443078293725145, 46.69056124969054], [9.443647366799368, 46.690441981453375], [9.444371515269694, 46.69011893850151], [9.444457623736072, 46.690055882814285], [9.444548090612043, 46.6899338284894], [9.444797176410395, 46.6892323168018], [9.444903309955533, 46.68906214198897], [9.44505858532833, 46.68863451984284], [9.445386861323573, 46.688203797158046], [9.445579075042582, 46.68804915793045], [9.445797008398063, 46.68796166190141], [9.446464683248998, 46.687617093429886], [9.446733533995904, 46.68752015865673], [9.447047999433792, 46.68732883614563], [9.447159845013466, 46.68723128345706], [9.447346318431647, 46.687004502449675], [9.44751229893562, 46.686754463018346], [9.447642568168327, 46.686442296440426], [9.447634030893928, 46.68609284589782], [9.447427527357759, 46.68555050478911], [9.44742948285539, 46.68542210751663], [9.447585678245272, 46.68506708298467], [9.447777761934066, 46.68489186213476], [9.447945535746774, 46.68478685282174], [9.448293548567264, 46.6846468739514], [9.448620769160058, 46.68456343722827], [9.44876118615726, 46.684505800911836], [9.449269198188414, 46.68405411405015], [9.449395476573937, 46.683906570680946], [9.449559232239118, 46.68331764738839], [9.449663819511368, 46.68313301575947], [9.449770005311155, 46.68305271123293], [9.450344216235834, 46.68277488128378], [9.451421198892511, 46.682435744664836], [9.451606256255495, 46.6823135522316], [9.45202757185368, 46.68218382091975], [9.452199335584405, 46.68202567960983], [9.45240750542225, 46.681671799063274], [9.452528093269137, 46.681548772712084], [9.452611756040849, 46.68133282464798], [9.452659279802536, 46.68108009912315], [9.452774729608914, 46.68092064911902], [9.453291551215985, 46.68036833915557], [9.453471358466597, 46.680036735810816], [9.453662708101831, 46.67986176831287], [9.453817474124772, 46.67977099351705], [9.453917663638531, 46.679613001541206], [9.453859149675337, 46.679212753793216], [9.453800777082032, 46.67899887547868], [9.453780968755028, 46.67895647402844], [9.45358259300038, 46.67853154808265], [9.453592170903566, 46.67841968888695], [9.454053017354207, 46.67813668105313], [9.454022046013048, 46.6779055898575], [9.45386152569578, 46.677789729333526], [9.453735623164777, 46.67764752118905], [9.453665202938204, 46.67748169366354], [9.453111969054625, 46.6769680960885], [9.45289730343978, 46.67688133045002], [9.452424636437884, 46.676784933988905], [9.451801444575857, 46.67679833194184], [9.451485895945021, 46.676746704099706], [9.451321311083209, 46.676659058455996], [9.451145635654987, 46.676487069953374], [9.45079240371728, 46.6762855057786], [9.450462407758842, 46.67590471323585], [9.45040201545913, 46.67575545126709], [9.450416963095568, 46.67537986108141], [9.450466489114033, 46.67530384082462], [9.450626625521512, 46.67522494943089], [9.450719748240015, 46.67514291285614], [9.450866128083769, 46.67485912570971], [9.450914374646977, 46.6744812282375], [9.450925883642572, 46.674046084671275], [9.450976514648676, 46.673796715302664], [9.451185183384995, 46.67335304126652], [9.451268527941625, 46.673225220249336], [9.451370455325938, 46.673162770031595], [9.451428533403911, 46.673105143870714], [9.451433936159322, 46.673014074008954], [9.451374262536506, 46.67285497340264], [9.451823240614447, 46.67280395897345], [9.452202680653869, 46.672798434380816], [9.45259418331639, 46.6728271508267], [9.452961717913151, 46.6728336313358], [9.453118118232009, 46.67281779250416], [9.453340401122455, 46.67277032846304], [9.45354721466482, 46.67276860826413], [9.453773887922162, 46.672651742087005], [9.454406648153483, 46.67250536061401], [9.454792355512721, 46.672451025891014], [9.455229137709173, 46.67233333758411], [9.455829425613144, 46.672250099472855], [9.456283963138862, 46.67216476622644], [9.456644749118643, 46.67203418066276], [9.457162760554615, 46.67187806497121], [9.45738525750745, 46.67177774259389], [9.457489917574572, 46.67176412821434], [9.45759263074535, 46.671773628648886], [9.457772206995985, 46.67185816523019], [9.457927729005155, 46.67196016983327], [9.458553074497546, 46.672226530357555], [9.458730534838061, 46.67224571924453], [9.458969965493266, 46.6722112669976], [9.459127580854915, 46.67215464349203], [9.459284633917033, 46.67204178053782], [9.459422242870499, 46.671863474609324], [9.45954718368543, 46.67176967346182], [9.459688395373988, 46.67157171352064], [9.459757453706633, 46.6715450770266], [9.460286929486047, 46.67158942479609], [9.460481608594495, 46.671577638798134], [9.460763445832036, 46.671522687492775], [9.461348728338088, 46.67153736187479], [9.461546500260935, 46.67149577075087], [9.461910718627726, 46.6714809187198], [9.462798982976171, 46.67137531342539], [9.463162474239974, 46.67138710620113], [9.46390042126926, 46.67120290629362], [9.464049069524183, 46.671192849592465], [9.464190883657693, 46.67120864996532], [9.464675723727938, 46.67134332557567], [9.464849663577475, 46.671369739053965], [9.464966879154941, 46.67136716003406], [9.465215512218991, 46.671315478589335], [9.46553239481337, 46.6712811736639], [9.46572854905809, 46.671224125759764], [9.465888704968696, 46.671147686763405], [9.466063390019674, 46.67115042810785], [9.466151609749046, 46.67112624545338], [9.46655801996997, 46.67107652329791], [9.46668833431263, 46.67104612887911], [9.467034689884134, 46.67091606384846], [9.467246863040106, 46.670926370292655], [9.467594605865536, 46.67100092364758], [9.467777089307493, 46.67101811072585], [9.467895649093656, 46.67100849652682], [9.46848419513794, 46.67087326807986], [9.468774860729194, 46.6708350572547], [9.468894503433718, 46.670852218324995], [9.469107706272714, 46.670705668003585], [9.469113126381986, 46.67070484254334], [9.469610217058829, 46.67062878425055], [9.469812207111532, 46.67057761804857], [9.470138303345605, 46.670584763531615], [9.47043484236228, 46.67049428772587], [9.470702418643691, 46.67044218443984], [9.471173355095813, 46.67042849516762], [9.471284099424045, 46.67038326353182], [9.47166276407523, 46.6703287543821], [9.472086636186019, 46.67034831313248], [9.472335614929401, 46.67028837702646], [9.47248983346435, 46.670276716334], [9.47269928259235, 46.67028655786275], [9.47331849763592, 46.67044216676075], [9.473548724036947, 46.67047504015371], [9.473987407962506, 46.67045917117913], [9.47420354900222, 46.67039686501577], [9.474347739227651, 46.67032897855935], [9.47472938486286, 46.670262779776344], [9.475012378542475, 46.67012705600346], [9.475390129733567, 46.67003323547705], [9.475662171718866, 46.66990456368544], [9.475958017078737, 46.66985247455728], [9.476144274984645, 46.6695827532508], [9.4765045202916, 46.66932617317105], [9.476514866091062, 46.66897640024818], [9.476769191220013, 46.6686926827169], [9.47683578296662, 46.66837238879321], [9.477179317846717, 46.66804883146798], [9.477449097657304, 46.66764594894672], [9.477462437122634, 46.667257256682824], [9.477835921211462, 46.666707940835394], [9.478075166321508, 46.66606476892266], [9.477928970073702, 46.66554175319588], [9.478002086406233, 46.66495971302147], [9.477788060021192, 46.66459364666196], [9.477774099231576, 46.663944063021205], [9.47833090971631, 46.66203903352312], [9.484699914726432, 46.655217122082824], [9.484698069907099, 46.654993198524515], [9.484941890106983, 46.6547538646882], [9.485296421651178, 46.65445443835427], [9.485445237435583, 46.654012209583], [9.485291484501454, 46.65364694689236], [9.485431669833595, 46.65329052911192], [9.485399990900802, 46.65281015073015], [9.48559274250213, 46.65243916433429], [9.485822563634903, 46.6521794900199], [9.485956193661758, 46.65168268740292], [9.485945770875219, 46.6512887909145], [9.486111132919131, 46.65094108262312], [9.486050865211272, 46.650687362384566], [9.486109045061678, 46.650548188173104], [9.48648590657967, 46.650224403198756], [9.486518428237138, 46.64992002533332], [9.486929253864208, 46.64961966814797], [9.487229406111307, 46.64923661196497], [9.487530163424962, 46.64901460228171], [9.487537846939226, 46.649012538296134], [9.488185851806989, 46.6488381212626], [9.488495485604481, 46.64849031270978], [9.488824591890076, 46.64833131292024], [9.490024095510556, 46.647542399135325], [9.490299651981877, 46.64710356780225], [9.490433923953772, 46.64666018005496], [9.490940765171906, 46.64612169597415], [9.49172396331179, 46.64596861409365], [9.491831043623272, 46.64601847994099], [9.491980093338817, 46.64605665566936], [9.492362710725443, 46.645663415980835], [9.493520043798334, 46.64492028342048], [9.494278140320784, 46.64459307941175], [9.494899221994253, 46.644304385450454], [9.4949092712685, 46.64430064954796], [9.495270225885523, 46.64417142660875], [9.496155528335525, 46.64395533617348], [9.496465659137144, 46.64386676628602], [9.49704443188097, 46.643766043209], [9.497047665763658, 46.64376347411915], [9.497536051432531, 46.643375377959686], [9.499645945943476, 46.64233734462512], [9.50047012974646, 46.64163270866473], [9.500487528673034, 46.641475826293636], [9.500326028611427, 46.6410900882706], [9.500401463385122, 46.64028245374859], [9.500394554111761, 46.63983986499481], [9.500465314596049, 46.63957015406503], [9.500135283255403, 46.63915900625898], [9.500320096991446, 46.63800918515265], [9.500679421334466, 46.63737801869781], [9.500826955817379, 46.636943357009685], [9.501001173783669, 46.636189650344704], [9.501184616247563, 46.635871304164425], [9.501338013978932, 46.635252957868914], [9.501343101811125, 46.635049506271606], [9.501428464665526, 46.634894938737], [9.501445557765042, 46.63476643466458], [9.501436153966477, 46.63462484041278], [9.501258666326875, 46.63438827825416], [9.500793462454922, 46.63389356192593], [9.500610636375065, 46.63342904202674], [9.500280766422083, 46.632879097213205], [9.500196671566936, 46.632599907312255], [9.50001385092983, 46.63193564469989], [9.499939960741942, 46.63138451374604], [9.499997884403626, 46.63119626656238], [9.499695634174158, 46.630816769031675], [9.499685324233146, 46.63062080337087], [9.499798208991837, 46.63030195249944], [9.499823254355169, 46.630074732048385], [9.500181005508203, 46.62947058468256], [9.500532627203839, 46.628978130986035], [9.501143254752078, 46.62782939193535], [9.498924233833637, 46.62471533264766]]]]}}]}