{
  "type": "FeatureCollection",
  "features": [
    {
      "type": "Feature",
      "properties": {},
      "geometry": {
        "type": "LineString",
        "coordinates": [
          [
            9.31352802653896,
            46.59946318120429
          ],
          [
            9.313394239304003,
            46.599533411491514
          ],
          [
            9.313335063226889,
            46.59960831518832
          ],
          [
            9.313394692129867,
            46.59975313868551
          ],
          [
            9.313341873903356,
            46.59986833929207
          ],
          [
            9.313254564311881,
            46.599958661351046
          ],
          [
            9.313109605791015,
            46.60004936612434
          ],
          [
            9.313062761966286,
            46.6002103946831
          ],
          [
            9.312813383717513,
            46.60040592877354
          ],
          [
            9.312702792581803,
            46.600538331212526
          ],
          [
            9.312704257191598,
            46.600742888814686
          ],
          [
            9.312785510264144,
            46.60085700574763
          ],
          [
            9.312766666379435,
            46.60091859344149
          ],
          [
            9.312675080180158,
            46.60103174173601
          ],
          [
            9.312693922675544,
            46.601429923051754
          ],
          [
            9.312633600090646,
            46.601594988568515
          ],
          [
            9.312685025878816,
            46.601775823096425
          ],
          [
            9.312673695309782,
            46.601908039400115
          ],
          [
            9.312597815701878,
            46.60203484004937
          ],
          [
            9.312423509703637,
            46.60225681505913
          ],
          [
            9.312408146473445,
            46.60235293420347
          ],
          [
            9.312460657417473,
            46.60255791995408
          ],
          [
            9.312558234389169,
            46.602764386113265
          ],
          [
            9.312607334355713,
            46.6029338403369
          ],
          [
            9.312493974026392,
            46.603614733575625
          ],
          [
            9.312265719665975,
            46.603947139875594
          ],
          [
            9.312140770566725,
            46.604083269262844
          ],
          [
            9.311657138351844,
            46.604383840782326
          ],
          [
            9.311572149419241,
            46.604515055672465
          ],
          [
            9.311625772053256,
            46.60463760954403
          ],
          [
            9.312424831700907,
            46.60542145629447
          ],
          [
            9.312403235667551,
            46.60568995634517
          ],
          [
            9.312312106159965,
            46.606001100622706
          ],
          [
            9.312505744031371,
            46.606242652669515
          ],
          [
            9.312599553675112,
            46.60644155945996
          ],
          [
            9.312676922029095,
            46.606892657749086
          ],
          [
            9.312741477021241,
            46.60707620045937
          ],
          [
            9.312725024878212,
            46.607378934736275
          ],
          [
            9.312758844987268,
            46.60784073802167
          ],
          [
            9.31284021818314,
            46.60822800046926
          ],
          [
            9.31306512512709,
            46.608754232673846
          ],
          [
            9.313089837996376,
            46.60893260061786
          ],
          [
            9.31326009449353,
            46.609479915397
          ],
          [
            9.31326520215538,
            46.609679139979896
          ],
          [
            9.313247703433342,
            46.60992490635283
          ],
          [
            9.312952070136467,
            46.610839558815435
          ],
          [
            9.312548002708906,
            46.61094197056122
          ],
          [
            9.312222394837978,
            46.610992033878574
          ],
          [
            9.31191447005041,
            46.611177470031805
          ],
          [
            9.311568280486958,
            46.61135485181165
          ],
          [
            9.311144642442695,
            46.611494823771295
          ],
          [
            9.310780523133454,
            46.61170582712276
          ],
          [
            9.31045235603717,
            46.61185371900779
          ],
          [
            9.310191991268091,
            46.61211653484272
          ],
          [
            9.30986830716256,
            46.61221186519177
          ],
          [
            9.309689436930519,
            46.61234248921074
          ],
          [
            9.309538982506188,
            46.61253696443029
          ],
          [
            9.30795975997414,
            46.61301253948048
          ],
          [
            9.307775352458291,
            46.61299042726054
          ],
          [
            9.307454073496288,
            46.612915403708115
          ],
          [
            9.307099031860547,
            46.612879382478916
          ],
          [
            9.306740191358806,
            46.61288001783818
          ],
          [
            9.306510326001225,
            46.612943897823314
          ],
          [
            9.30615617990095,
            46.61307209254239
          ],
          [
            9.305838275517209,
            46.61321375563819
          ],
          [
            9.304896703030836,
            46.613817053864324
          ],
          [
            9.303742590109913,
            46.615286466317635
          ],
          [
            9.301945437031343,
            46.61592028474602
          ],
          [
            9.302134831938007,
            46.61602017645108
          ],
          [
            9.302244461942655,
            46.61612560294632
          ],
          [
            9.302282090671396,
            46.61649353108788
          ],
          [
            9.302246914117685,
            46.61664433931437
          ],
          [
            9.302339088264091,
            46.61686456136441
          ],
          [
            9.302422871139752,
            46.61730151403393
          ],
          [
            9.302377231119754,
            46.617632095702135
          ],
          [
            9.30228359383853,
            46.61784815252171
          ],
          [
            9.302315048128413,
            46.617954058064925
          ],
          [
            9.302557338985848,
            46.61815579644038
          ],
          [
            9.302773267352224,
            46.61839619898816
          ],
          [
            9.30305206472509,
            46.61859802236528
          ],
          [
            9.303224286731533,
            46.618797874671124
          ],
          [
            9.303737367566534,
            46.61920099729807
          ],
          [
            9.304148730726585,
            46.619567218874685
          ],
          [
            9.304410544438243,
            46.61997127087764
          ],
          [
            9.30480129824878,
            46.620196836726244
          ],
          [
            9.305049097720854,
            46.6204652457183
          ],
          [
            9.305459931634044,
            46.62074075258982
          ],
          [
            9.305871578883846,
            46.62111715847767
          ],
          [
            9.306090671035543,
            46.621378801739915
          ],
          [
            9.306295926137594,
            46.62156801190321
          ],
          [
            9.306243221260688,
            46.621692456615136
          ],
          [
            9.306082534478538,
            46.62181037649333
          ],
          [
            9.305982475378574,
            46.62193637172284
          ],
          [
            9.305506227966827,
            46.622261231198436
          ],
          [
            9.305333340857967,
            46.62245176678667
          ],
          [
            9.30526107205989,
            46.62261902083864
          ],
          [
            9.305100896883225,
            46.62270311597645
          ],
          [
            9.305082386209397,
            46.62286670806804
          ],
          [
            9.304827190944497,
            46.62318430477037
          ],
          [
            9.304811082774558,
            46.62335093476192
          ],
          [
            9.304658310128016,
            46.62357119313665
          ],
          [
            9.304738718855482,
            46.62384227464622
          ],
          [
            9.304678387007286,
            46.624019842359466
          ],
          [
            9.304512791863706,
            46.624332163287384
          ],
          [
            9.304514371898902,
            46.62447096909882
          ],
          [
            9.304642445843182,
            46.62454293327045
          ],
          [
            9.30467662179109,
            46.62463814887952
          ],
          [
            9.30464226478026,
            46.624747598061134
          ],
          [
            9.304668464316803,
            46.624848964144384
          ],
          [
            9.304450089862872,
            46.6252812218854
          ],
          [
            9.304479277467175,
            46.625500522130054
          ],
          [
            9.304471269594881,
            46.62569829665178
          ],
          [
            9.304495784969998,
            46.62590899029701
          ],
          [
            9.304485723678125,
            46.62601212045675
          ],
          [
            9.304366871951308,
            46.62630569670391
          ],
          [
            9.30458941361107,
            46.62669482551312
          ],
          [
            9.304790932254853,
            46.626963373060576
          ],
          [
            9.304690669369068,
            46.627369373109126
          ],
          [
            9.304700002295446,
            46.627460730811066
          ],
          [
            9.30498909516755,
            46.62765200662579
          ],
          [
            9.305223119122804,
            46.627938421727
          ],
          [
            9.305577506941862,
            46.62827099354032
          ],
          [
            9.305811561567202,
            46.6286174693409
          ],
          [
            9.306106802833789,
            46.6289776529927
          ],
          [
            9.306368567457765,
            46.629218701347476
          ],
          [
            9.306492653808077,
            46.629386504863405
          ],
          [
            9.30663693702434,
            46.62951774152114
          ],
          [
            9.306776631871053,
            46.62980487345744
          ],
          [
            9.30686005750445,
            46.6299087733763
          ],
          [
            9.30690572346631,
            46.63007655852401
          ],
          [
            9.306925155500815,
            46.6302558778026
          ],
          [
            9.306991277067672,
            46.630425180863455
          ],
          [
            9.306987761435963,
            46.63057772942023
          ],
          [
            9.306832645947706,
            46.63081292069898
          ],
          [
            9.308830666181413,
            46.630777779254124
          ],
          [
            9.309333551686324,
            46.63065065270716
          ],
          [
            9.30950879555065,
            46.63064325618239
          ],
          [
            9.309926063806634,
            46.63058985162926
          ],
          [
            9.31032798749635,
            46.63057125054064
          ],
          [
            9.310665316372505,
            46.63058911770574
          ],
          [
            9.311023331804947,
            46.630578983474464
          ],
          [
            9.311496445180168,
            46.63044853965999
          ],
          [
            9.311698966229676,
            46.63041339975899
          ],
          [
            9.311925282783564,
            46.630412834665094
          ],
          [
            9.312169326990285,
            46.63044285894726
          ],
          [
            9.31232194345237,
            46.630482449668406
          ],
          [
            9.312412077558623,
            46.63053425317456
          ],
          [
            9.312548269392545,
            46.63054240453544
          ],
          [
            9.313106982033835,
            46.630727341900624
          ],
          [
            9.31342666470247,
            46.6307914628352
          ],
          [
            9.313813035428119,
            46.63083354593579
          ],
          [
            9.314136677079539,
            46.630917224603415
          ],
          [
            9.314184543997355,
            46.630990823586146
          ],
          [
            9.31447557179958,
            46.63112869437011
          ],
          [
            9.315950710317532,
            46.63165277204126
          ],
          [
            9.31675997927773,
            46.631810246175725
          ],
          [
            9.317084738064828,
            46.631859624320924
          ],
          [
            9.318241152901196,
            46.63221110079698
          ],
          [
            9.318799690335846,
            46.63246086325792
          ],
          [
            9.319459013138012,
            46.63282704079351
          ],
          [
            9.319654095340669,
            46.63289965440305
          ],
          [
            9.319852639336496,
            46.632942246692316
          ],
          [
            9.319939174805704,
            46.633004037817436
          ],
          [
            9.31994957399141,
            46.633058097767524
          ],
          [
            9.320419838842902,
            46.6330299728049
          ],
          [
            9.320605878119379,
            46.633088922125246
          ],
          [
            9.32077242667278,
            46.63311069808696
          ],
          [
            9.321004217067776,
            46.6331709240611
          ],
          [
            9.321381895751301,
            46.633177681864936
          ],
          [
            9.321709560080246,
            46.633217856860576
          ],
          [
            9.32199961477713,
            46.633320902182135
          ],
          [
            9.322585851732793,
            46.63348459799421
          ],
          [
            9.323187579429044,
            46.63372865784309
          ],
          [
            9.323622957948839,
            46.633821078424646
          ],
          [
            9.323893503475514,
            46.633899778080455
          ],
          [
            9.324238774495363,
            46.63396778258884
          ],
          [
            9.324587204797671,
            46.6339975365896
          ],
          [
            9.32495192634022,
            46.63415454143188
          ],
          [
            9.325165951458313,
            46.63422048827247
          ],
          [
            9.325641049178255,
            46.63424373122751
          ],
          [
            9.326130493689707,
            46.634245381761936
          ],
          [
            9.326569451126929,
            46.634207429612914
          ],
          [
            9.326869737232697,
            46.634204735747716
          ],
          [
            9.327965032993625,
            46.63428957756553
          ],
          [
            9.32832468168594,
            46.63423546915599
          ],
          [
            9.328440434357434,
            46.63418886316992
          ],
          [
            9.328503522257767,
            46.63410878521902
          ],
          [
            9.328550323684683,
            46.63392311419661
          ],
          [
            9.328756203456168,
            46.6339420751727
          ],
          [
            9.329132810008359,
            46.63399936784476
          ],
          [
            9.32968403269601,
            46.63415904686075
          ],
          [
            9.330269175727878,
            46.634194650916854
          ],
          [
            9.330496513810685,
            46.63418509701418
          ],
          [
            9.330698283275018,
            46.63422278499768
          ],
          [
            9.330997195862217,
            46.63431289217018
          ],
          [
            9.33125177873173,
            46.63436137205355
          ],
          [
            9.331513764433485,
            46.6343146536574
          ],
          [
            9.33177642931776,
            46.6343682259541
          ],
          [
            9.332003219762639,
            46.63435719345787
          ],
          [
            9.33229986776474,
            46.634470559193765
          ],
          [
            9.332430391689144,
            46.634711644916926
          ],
          [
            9.332548666762527,
            46.63485146186567
          ],
          [
            9.332798091179491,
            46.63505300207663
          ],
          [
            9.3329094388151,
            46.63519526444125
          ],
          [
            9.33336559690901,
            46.63548488441883
          ],
          [
            9.333392065446144,
            46.635572860023544
          ],
          [
            9.333571654243066,
            46.63574555179379
          ],
          [
            9.333708528094206,
            46.635786807033156
          ],
          [
            9.333840310990663,
            46.63591269369063
          ],
          [
            9.333942803085957,
            46.63596065766525
          ],
          [
            9.333999732351186,
            46.6360150038392
          ],
          [
            9.33417729463232,
            46.63609074610857
          ],
          [
            9.334312102843025,
            46.63620376848321
          ],
          [
            9.334522146435388,
            46.63631798555913
          ],
          [
            9.334626092400459,
            46.636364530015726
          ],
          [
            9.334869217004751,
            46.636430451311284
          ],
          [
            9.33534912452181,
            46.636516678267604
          ],
          [
            9.335598081557793,
            46.63660505031481
          ],
          [
            9.335826038395682,
            46.63660614745821
          ],
          [
            9.335994745986646,
            46.63664128174115
          ],
          [
            9.336685247946951,
            46.63684334569197
          ],
          [
            9.336911653857994,
            46.63692370452125
          ],
          [
            9.337051671515018,
            46.63700481935634
          ],
          [
            9.337324900648744,
            46.63711608833304
          ],
          [
            9.337508455638195,
            46.63728440690178
          ],
          [
            9.337709961860005,
            46.637357234020605
          ],
          [
            9.337839216926634,
            46.63745877333274
          ],
          [
            9.337966569822747,
            46.637529975361325
          ],
          [
            9.338107924930574,
            46.63766575760411
          ],
          [
            9.33825277943513,
            46.63775651737308
          ],
          [
            9.338485056780133,
            46.63783983460386
          ],
          [
            9.339234474768363,
            46.63797354905988
          ],
          [
            9.339745016620139,
            46.6379425939796
          ],
          [
            9.339948118715302,
            46.638011980267194
          ],
          [
            9.340121458614489,
            46.63810465561152
          ],
          [
            9.340212549598709,
            46.63813648176285
          ],
          [
            9.340329086910248,
            46.63814486550699
          ],
          [
            9.34055463976501,
            46.63812089748599
          ],
          [
            9.340715688461527,
            46.63804958723929
          ],
          [
            9.340819506115674,
            46.638026194375435
          ],
          [
            9.341695291047206,
            46.63807844467961
          ],
          [
            9.342068275767055,
            46.63806580381449
          ],
          [
            9.342306046355906,
            46.63846050309477
          ],
          [
            9.342654189750014,
            46.63898653876438
          ],
          [
            9.343356226187561,
            46.640034362840396
          ],
          [
            9.344075747041671,
            46.64058965291967
          ],
          [
            9.344406328337936,
            46.64074328107711
          ],
          [
            9.344749711406827,
            46.641014183529016
          ],
          [
            9.345178940447349,
            46.64141523747993
          ],
          [
            9.345484807846265,
            46.64183449840334
          ],
          [
            9.345778987493414,
            46.64209724160955
          ],
          [
            9.345850879870456,
            46.64218669448404
          ],
          [
            9.345965730863082,
            46.64258958208049
          ],
          [
            9.346109544230941,
            46.64273704737537
          ],
          [
            9.34645856694204,
            46.64290474910014
          ],
          [
            9.347235280779705,
            46.64326150649319
          ],
          [
            9.347376000458604,
            46.64335861416628
          ],
          [
            9.34745084895156,
            46.64347059304643
          ],
          [
            9.347452346078601,
            46.643590972950996
          ],
          [
            9.347968567094252,
            46.64384643455669
          ],
          [
            9.34833699910861,
            46.64411153485162
          ],
          [
            9.348741609433928,
            46.64435399959688
          ],
          [
            9.349006827480274,
            46.64456135077327
          ],
          [
            9.349317721472355,
            46.64467442564008
          ],
          [
            9.35013665644116,
            46.64527376723487
          ],
          [
            9.35041601977504,
            46.64542015791509
          ],
          [
            9.351069455218626,
            46.646044802764294
          ],
          [
            9.351342317867939,
            46.64635020891276
          ],
          [
            9.35188529999773,
            46.64720681574003
          ],
          [
            9.352313333401513,
            46.64814541784781
          ],
          [
            9.35259355417074,
            46.64886483153023
          ],
          [
            9.352550613030045,
            46.64903432369298
          ],
          [
            9.352581632821229,
            46.64916411458448
          ],
          [
            9.352846879241648,
            46.64926941712071
          ],
          [
            9.353050488297521,
            46.649446886032656
          ],
          [
            9.353261192825252,
            46.64953991302175
          ],
          [
            9.353544844825255,
            46.64964091836139
          ],
          [
            9.35379982903784,
            46.64979644837707
          ],
          [
            9.35400241413244,
            46.649902891939064
          ],
          [
            9.354209218518225,
            46.65017027834082
          ],
          [
            9.354290150944646,
            46.65034554319425
          ],
          [
            9.354538530440756,
            46.650330198534085
          ],
          [
            9.354796152713243,
            46.650427319571975
          ],
          [
            9.35522510541796,
            46.65056851881995
          ],
          [
            9.355450991582007,
            46.65074262135416
          ],
          [
            9.35567919397814,
            46.651163064834876
          ],
          [
            9.356117085819887,
            46.65160550592086
          ],
          [
            9.356326521953743,
            46.651464792919285
          ],
          [
            9.356632853106538,
            46.651601986756624
          ],
          [
            9.357117578166813,
            46.65176084823884
          ],
          [
            9.35743275661977,
            46.651970047749415
          ],
          [
            9.35758148141014,
            46.65203274331924
          ],
          [
            9.357813021544636,
            46.65230488980009
          ],
          [
            9.357907907736923,
            46.652549536478546
          ],
          [
            9.358126111480848,
            46.65260847810325
          ],
          [
            9.358178371593736,
            46.652699388319604
          ],
          [
            9.358029227759504,
            46.65297244246196
          ],
          [
            9.357797099675986,
            46.653076972100905
          ],
          [
            9.35782503735376,
            46.65322919229408
          ],
          [
            9.358003776209383,
            46.65346931260885
          ],
          [
            9.357975154173326,
            46.6536398164342
          ],
          [
            9.358312382496754,
            46.65385646162043
          ],
          [
            9.35853629568102,
            46.65388580113056
          ],
          [
            9.35869547967115,
            46.65394771616817
          ],
          [
            9.358944022439546,
            46.65410227299515
          ],
          [
            9.359199685652996,
            46.65423212607506
          ],
          [
            9.359662762227,
            46.6545515197617
          ],
          [
            9.359774376332082,
            46.65460775688462
          ],
          [
            9.360037477671968,
            46.65464352315146
          ],
          [
            9.360744572293802,
            46.6549123472151
          ],
          [
            9.361805838443278,
            46.655255119092274
          ],
          [
            9.362246444352056,
            46.655604459252146
          ],
          [
            9.36245893720012,
            46.65568455416972
          ],
          [
            9.362955728001896,
            46.65568061666682
          ],
          [
            9.36345148287541,
            46.65571177864554
          ],
          [
            9.363870615671217,
            46.655798187023045
          ],
          [
            9.36398049823255,
            46.655804923072054
          ],
          [
            9.364265985734278,
            46.655715468683454
          ],
          [
            9.364395493137865,
            46.65572210651771
          ],
          [
            9.364521468379621,
            46.655777376450565
          ],
          [
            9.364661058010638,
            46.6558856946547
          ],
          [
            9.365184531803466,
            46.65565927354325
          ],
          [
            9.365631583993078,
            46.6555088102933
          ],
          [
            9.3660581113852,
            46.65540433167143
          ],
          [
            9.366773618269015,
            46.65530221267267
          ],
          [
            9.367124422010491,
            46.65519800397736
          ],
          [
            9.367266547037547,
            46.65516862985683
          ],
          [
            9.367652434890115,
            46.65505083197679
          ],
          [
            9.368072539726281,
            46.65495808919088
          ],
          [
            9.368472950320141,
            46.65485731912283
          ],
          [
            9.36912005551479,
            46.65471227059057
          ],
          [
            9.369569392620427,
            46.65452936808773
          ],
          [
            9.37025671105084,
            46.654351714423
          ],
          [
            9.370427953305676,
            46.65434917022534
          ],
          [
            9.370631172673747,
            46.654273566384525
          ],
          [
            9.37074477475088,
            46.654258672940905
          ],
          [
            9.370931175554505,
            46.65433977066363
          ],
          [
            9.371297989204711,
            46.654458749174225
          ],
          [
            9.372401276921206,
            46.65507082031778
          ],
          [
            9.372583205480865,
            46.65506227861336
          ],
          [
            9.372999196163423,
            46.654982949795055
          ],
          [
            9.373313708815054,
            46.65478533316445
          ],
          [
            9.373777303886156,
            46.65463819173648
          ],
          [
            9.373944112650616,
            46.65459905862484
          ],
          [
            9.374134503479008,
            46.65458639339357
          ],
          [
            9.374577698199166,
            46.654475777349106
          ],
          [
            9.374802901444173,
            46.65445326907418
          ],
          [
            9.37510271885149,
            46.654456900609574
          ],
          [
            9.375601431942949,
            46.65456477763278
          ],
          [
            9.37571738838868,
            46.65458092822845
          ],
          [
            9.375935822906495,
            46.65455406067978
          ],
          [
            9.37614918426193,
            46.65458139465185
          ],
          [
            9.376328668470485,
            46.654663582160204
          ],
          [
            9.376574688182675,
            46.654819854011706
          ],
          [
            9.377209957406901,
            46.65540285848112
          ],
          [
            9.377393823030257,
            46.65567504050922
          ],
          [
            9.377620647150843,
            46.65583987936486
          ],
          [
            9.378227013362945,
            46.656135263471036
          ],
          [
            9.37841901872477,
            46.65620634668359
          ],
          [
            9.379197995296892,
            46.65608586381917
          ],
          [
            9.379430073515946,
            46.656095605190764
          ],
          [
            9.379710405197798,
            46.656205106675685
          ],
          [
            9.379874781954676,
            46.656118288415
          ],
          [
            9.3800294287822,
            46.65609744922457
          ],
          [
            9.380396807806576,
            46.65611747112621
          ],
          [
            9.380727973144563,
            46.65609420663194
          ],
          [
            9.381156318747705,
            46.65610375638982
          ],
          [
            9.381533140109227,
            46.65602624308092
          ],
          [
            9.381859945493733,
            46.6559940603492
          ],
          [
            9.382076694061126,
            46.6559852604128
          ],
          [
            9.382237856254774,
            46.655938148995276
          ],
          [
            9.382519631388773,
            46.65581785653736
          ],
          [
            9.382696928849176,
            46.65577936840848
          ],
          [
            9.382846136516799,
            46.65578028608786
          ],
          [
            9.383069184701212,
            46.65586953014756
          ],
          [
            9.383338998389583,
            46.65608197191837
          ],
          [
            9.383490052557434,
            46.656273846125735
          ],
          [
            9.38369214224241,
            46.65656991282222
          ],
          [
            9.383682695630352,
            46.65670240310772
          ],
          [
            9.389794460302355,
            46.657056907764826
          ],
          [
            9.391934900650165,
            46.65773741679257
          ],
          [
            9.392195165533611,
            46.657995704524524
          ],
          [
            9.394321206488208,
            46.6581337996097
          ],
          [
            9.398798552106797,
            46.66205098834705
          ],
          [
            9.402024233892678,
            46.66168740784031
          ],
          [
            9.402508145697228,
            46.661632841997054
          ],
          [
            9.40808735600874,
            46.663595393422455
          ],
          [
            9.408912092392281,
            46.66552930547247
          ],
          [
            9.408922301337522,
            46.665525025660315
          ],
          [
            9.410828420395402,
            46.66474658335205
          ],
          [
            9.410848942851954,
            46.66476273108605
          ],
          [
            9.41171892126039,
            46.665447335399904
          ],
          [
            9.413560469530747,
            46.665871383292505
          ],
          [
            9.417247569010666,
            46.66729101621167
          ],
          [
            9.417376577408488,
            46.66967589442244
          ],
          [
            9.42346703852923,
            46.66857183490093
          ],
          [
            9.42360829792303,
            46.66836654986774
          ],
          [
            9.42391918872604,
            46.668244558582685
          ],
          [
            9.424265822333155,
            46.66822831364632
          ],
          [
            9.424643312506825,
            46.668118117306626
          ],
          [
            9.42500617053312,
            46.66805365275639
          ],
          [
            9.425364441532032,
            46.668102556999266
          ],
          [
            9.425711214686814,
            46.668222613128215
          ],
          [
            9.425711563263581,
            46.668222850005726
          ],
          [
            9.425898231801849,
            46.66824294502199
          ],
          [
            9.426080562564449,
            46.66823077511396
          ],
          [
            9.426391934580883,
            46.66819302970674
          ],
          [
            9.426561362251881,
            46.66818224494032
          ],
          [
            9.426715097525292,
            46.668184061579474
          ],
          [
            9.426863563548093,
            46.66819187292585
          ],
          [
            9.427032978720645,
            46.66818110567125
          ],
          [
            9.427162752303811,
            46.66815270929766
          ],
          [
            9.42725685972495,
            46.6681244764029
          ],
          [
            9.42732811365691,
            46.66808866975078
          ],
          [
            9.427425630737785,
            46.6680227728178
          ],
          [
            9.427526803376347,
            46.66799650399343
          ],
          [
            9.427599975901146,
            46.667986885055946
          ],
          [
            9.427687220372965,
            46.66802216545069
          ],
          [
            9.427776586276435,
            46.668084511972275
          ],
          [
            9.427909375108777,
            46.66835154310413
          ],
          [
            9.427970547161541,
            46.66841781015358
          ],
          [
            9.428119948259683,
            46.66851198835436
          ],
          [
            9.428314241481536,
            46.66860591329384
          ],
          [
            9.42840404346714,
            46.66861726669829
          ],
          [
            9.42857915497971,
            46.6686258972508
          ],
          [
            9.428734369773935,
            46.668628450212346
          ],
          [
            9.428852672961673,
            46.668643129744424
          ],
          [
            9.429048113727603,
            46.66869509178181
          ],
          [
            9.42923844012207,
            46.66873028880722
          ],
          [
            9.429388805899503,
            46.66874064624937
          ],
          [
            9.429726992126746,
            46.66874552564462
          ],
          [
            9.429948173403085,
            46.66875924293627
          ],
          [
            9.430042744935601,
            46.66878010401478
          ],
          [
            9.43039581310044,
            46.66890987138202
          ],
          [
            9.430796629401662,
            46.66903455553643
          ],
          [
            9.430991870448521,
            46.669085617944695
          ],
          [
            9.431133741637002,
            46.66911689001895
          ],
          [
            9.431253801000155,
            46.669127748037134
          ],
          [
            9.431537551657854,
            46.669125691519106
          ],
          [
            9.431750233542497,
            46.66909572267889
          ],
          [
            9.43210946517881,
            46.669100172886324
          ],
          [
            9.432326627167212,
            46.66908427910276
          ],
          [
            9.432468033070602,
            46.66906647123873
          ],
          [
            9.432642875106104,
            46.669038719645506
          ],
          [
            9.432757632122932,
            46.669008294098944
          ],
          [
            9.4328393626446,
            46.669001383517035
          ],
          [
            9.432924912436523,
            46.66902320100128
          ],
          [
            9.433098656748427,
            46.66912568421493
          ],
          [
            9.433255607341984,
            46.669206307045364
          ],
          [
            9.433545579608747,
            46.669308230475366
          ],
          [
            9.433891619648582,
            46.66934228595383
          ],
          [
            9.434215623542963,
            46.66936049318814
          ],
          [
            9.434576798328832,
            46.66940294699927
          ],
          [
            9.434768740671885,
            46.66944526033779
          ],
          [
            9.43492813619637,
            46.669507418287104
          ],
          [
            9.435213887524354,
            46.66957884381914
          ],
          [
            9.43551614115918,
            46.66966488982787
          ],
          [
            9.43575485647592,
            46.669697662258805
          ],
          [
            9.435904767379622,
            46.66972352345286
          ],
          [
            9.436010329154671,
            46.66972863768187
          ],
          [
            9.436424666190241,
            46.66972537745875
          ],
          [
            9.436739728439306,
            46.66975089711754
          ],
          [
            9.437126956757776,
            46.66975052134047
          ],
          [
            9.437453235232876,
            46.66976121082252
          ],
          [
            9.437795282373008,
            46.6697656477177
          ],
          [
            9.437967971506577,
            46.66975177432867
          ],
          [
            9.438217287922498,
            46.6697142487112
          ],
          [
            9.43842550689159,
            46.669746623959576
          ],
          [
            9.438543017019427,
            46.66975774405202
          ],
          [
            9.43868809298794,
            46.66975043721708
          ],
          [
            9.43896179689748,
            46.669744903253694
          ],
          [
            9.439256941772863,
            46.66972886888433
          ],
          [
            9.439627762707103,
            46.66982577599874
          ],
          [
            9.44002159936078,
            46.6701013198059
          ],
          [
            9.440093831481331,
            46.67012272703623
          ],
          [
            9.44031483093302,
            46.67013552769426
          ],
          [
            9.44040098131708,
            46.67016001063407
          ],
          [
            9.440611161507467,
            46.67023038394019
          ],
          [
            9.44071481982318,
            46.67022113875584
          ],
          [
            9.440949815256594,
            46.67010234182667
          ],
          [
            9.441074658038634,
            46.67005807095881
          ],
          [
            9.441236893299278,
            46.67007988424847
          ],
          [
            9.441359827997317,
            46.670074043007105
          ],
          [
            9.441543972169393,
            46.67002890917355
          ],
          [
            9.441672879688642,
            46.67001423408989
          ],
          [
            9.441760677978547,
            46.67002850978434
          ],
          [
            9.441931457035624,
            46.670105836326165
          ],
          [
            9.442108999218586,
            46.670148759573856
          ],
          [
            9.442241458025524,
            46.6701910266278
          ],
          [
            9.44251502871904,
            46.67024206880723
          ],
          [
            9.44260711669114,
            46.6702493395996
          ],
          [
            9.442781728269892,
            46.67027139194571
          ],
          [
            9.44298986650753,
            46.670278213730896
          ],
          [
            9.443613660001052,
            46.67022526929821
          ],
          [
            9.443708253065356,
            46.67019474657304
          ],
          [
            9.443703463906708,
            46.670117534071096
          ],
          [
            9.443688303129912,
            46.67002750131618
          ],
          [
            9.443664874586535,
            46.669958769440896
          ],
          [
            9.44390684571997,
            46.6699114892709
          ],
          [
            9.44418436679225,
            46.66979966672147
          ],
          [
            9.444307282631417,
            46.66975463430559
          ],
          [
            9.444480362859768,
            46.66974534234524
          ],
          [
            9.444690231791025,
            46.669663342670724
          ],
          [
            9.444815486731613,
            46.669639063960695
          ],
          [
            9.44505336284517,
            46.66963994121974
          ],
          [
            9.445190487692516,
            46.66959247097435
          ],
          [
            9.445358777188956,
            46.6694121022014
          ],
          [
            9.445489558676478,
            46.669313919963294
          ],
          [
            9.445553244263873,
            46.669201379130406
          ],
          [
            9.445754271600856,
            46.66921357616335
          ],
          [
            9.445896085780907,
            46.66915656503464
          ],
          [
            9.446025251605013,
            46.669137318192554
          ],
          [
            9.448505205273813,
            46.666024395445866
          ],
          [
            9.449139999209256,
            46.665920438267555
          ],
          [
            9.44936596028402,
            46.66569024652179
          ],
          [
            9.449159681559804,
            46.66558900079661
          ],
          [
            9.448839273494137,
            46.665492459143856
          ],
          [
            9.448588809436702,
            46.66537029672878
          ],
          [
            9.448565596181536,
            46.665328881343214
          ],
          [
            9.448648316483771,
            46.665123687303236
          ],
          [
            9.448390037414175,
            46.66491090370341
          ],
          [
            9.448082121978318,
            46.664717199008074
          ],
          [
            9.447941625752664,
            46.66458937912983
          ],
          [
            9.44769406483109,
            46.664425986607306
          ],
          [
            9.447316366242159,
            46.66427783706515
          ],
          [
            9.447281231144208,
            46.66416712740981
          ],
          [
            9.447159653686725,
            46.66393711928311
          ],
          [
            9.447098687111874,
            46.66380906602094
          ],
          [
            9.446993057728605,
            46.66371014532455
          ],
          [
            9.447004132906741,
            46.66358622101878
          ],
          [
            9.447001774815044,
            46.66352282332965
          ],
          [
            9.447041402034339,
            46.663393446486985
          ],
          [
            9.447116286239925,
            46.66327091675997
          ],
          [
            9.446872547205297,
            46.66331723668786
          ],
          [
            9.446553049056645,
            46.66313642912456
          ],
          [
            9.446315491667288,
            46.66298763295108
          ],
          [
            9.445512640172058,
            46.663110858910734
          ],
          [
            9.44497595121429,
            46.66315743103759
          ],
          [
            9.44432438791041,
            46.66333670795123
          ],
          [
            9.443774708782536,
            46.66339643386402
          ],
          [
            9.443391910303998,
            46.66341881032803
          ],
          [
            9.443078550093315,
            46.66347873812593
          ],
          [
            9.442948325042353,
            46.66349234945828
          ],
          [
            9.447105943037295,
            46.65592407382576
          ],
          [
            9.444037937560534,
            46.65224381736408
          ],
          [
            9.445658984268745,
            46.64846472247487
          ],
          [
            9.445427381288729,
            46.64496077100309
          ],
          [
            9.445818954288834,
            46.644876024124265
          ],
          [
            9.445287792528655,
            46.64445347544895
          ],
          [
            9.444789157604987,
            46.64386834267253
          ],
          [
            9.444293038105817,
            46.643350661208984
          ],
          [
            9.44392193330211,
            46.64320872170338
          ],
          [
            9.442940846042337,
            46.6430010316961
          ],
          [
            9.442349124458485,
            46.64272348454446
          ],
          [
            9.441611989225098,
            46.64222353027621
          ],
          [
            9.441491170592293,
            46.64196020023095
          ],
          [
            9.44159597038817,
            46.641566023264055
          ],
          [
            9.44043337886753,
            46.641596175964104
          ],
          [
            9.440143747341299,
            46.64148040856853
          ],
          [
            9.439950473287409,
            46.641352337813736
          ],
          [
            9.43978617831554,
            46.64122708691759
          ],
          [
            9.439707222490956,
            46.641141279221614
          ],
          [
            9.438348046738037,
            46.64031972258788
          ],
          [
            9.438255259704633,
            46.64020958201405
          ],
          [
            9.437683572524268,
            46.63940326062253
          ],
          [
            9.437226384273064,
            46.638671764900096
          ],
          [
            9.436859505695864,
            46.638442074968964
          ],
          [
            9.436828018909576,
            46.63807153073271
          ],
          [
            9.436460761424623,
            46.6379614358745
          ],
          [
            9.436187168144437,
            46.637759631093445
          ],
          [
            9.435850244840108,
            46.63730489186505
          ],
          [
            9.435733041412288,
            46.636919545679376
          ],
          [
            9.435400497766308,
            46.63672372222901
          ],
          [
            9.435300749405101,
            46.63642914300865
          ],
          [
            9.43489513332653,
            46.636051651762706
          ],
          [
            9.434576705176996,
            46.63558740638004
          ],
          [
            9.43395288260559,
            46.635343134726696
          ],
          [
            9.433309685106211,
            46.63465214671064
          ],
          [
            9.433244015552111,
            46.63413945810635
          ],
          [
            9.43286736180156,
            46.63358525391027
          ],
          [
            9.432329186519606,
            46.63338418702141
          ],
          [
            9.432211046430847,
            46.633141758581424
          ],
          [
            9.432152404740222,
            46.63294346053281
          ],
          [
            9.43235901849226,
            46.63299186278294
          ],
          [
            9.432369570439624,
            46.63301939325794
          ],
          [
            9.432556110008404,
            46.63299426033399
          ],
          [
            9.43262818864813,
            46.632989578600416
          ],
          [
            9.432850516755016,
            46.633021318561575
          ],
          [
            9.432931835223997,
            46.63299091917109
          ],
          [
            9.433212447344692,
            46.63308696633103
          ],
          [
            9.4332798992713,
            46.633052850287896
          ],
          [
            9.433500925480454,
            46.63307372365984
          ],
          [
            9.433634536126574,
            46.63313321101403
          ],
          [
            9.433984105385353,
            46.63308694311221
          ],
          [
            9.43415157852033,
            46.63303721596501
          ],
          [
            9.43441021891858,
            46.63302287421302
          ],
          [
            9.43449172734302,
            46.63291949281703
          ],
          [
            9.434615634732756,
            46.632892754868514
          ],
          [
            9.434860635744078,
            46.63293354182829
          ],
          [
            9.435036304891856,
            46.632897077369336
          ],
          [
            9.435225645231016,
            46.632806382094344
          ],
          [
            9.435381675128347,
            46.63282209265922
          ],
          [
            9.435649532484215,
            46.632883263538055
          ],
          [
            9.435978726623937,
            46.632932919566905
          ],
          [
            9.436018267451654,
            46.63294950296074
          ],
          [
            9.436070906045448,
            46.632832409262946
          ],
          [
            9.436147735598288,
            46.63283999684155
          ],
          [
            9.436216646803334,
            46.63284222523134
          ],
          [
            9.436285570778907,
            46.632840206077766
          ],
          [
            9.436362046201422,
            46.63283291625658
          ],
          [
            9.436437021621348,
            46.632820388598965
          ],
          [
            9.43650978334373,
            46.63280275261142
          ],
          [
            9.436603947652678,
            46.63276407150982
          ],
          [
            9.436679535499275,
            46.63271653788908
          ],
          [
            9.436736297190254,
            46.63266434945584
          ],
          [
            9.436778207887144,
            46.632606554624736
          ],
          [
            9.436805883013783,
            46.632539660203385
          ],
          [
            9.436812601484542,
            46.63250515913254
          ],
          [
            9.436433046179678,
            46.631441496710934
          ],
          [
            9.436241106528756,
            46.63048414282291
          ],
          [
            9.436303260074485,
            46.62963068101064
          ],
          [
            9.436465398712087,
            46.62930668038597
          ],
          [
            9.436472284396332,
            46.62905486326429
          ],
          [
            9.436481259134041,
            46.628961634562714
          ],
          [
            9.436480301010887,
            46.62889368590802
          ],
          [
            9.436459524347088,
            46.628758524501734
          ],
          [
            9.43627573757362,
            46.62806136237907
          ],
          [
            9.436232007258967,
            46.627957864400926
          ],
          [
            9.43608959760308,
            46.62770744305691
          ],
          [
            9.436059093962042,
            46.62763135625908
          ],
          [
            9.43603695949042,
            46.62754598916614
          ],
          [
            9.436026376919992,
            46.627444159150215
          ],
          [
            9.436033889367177,
            46.62733432695818
          ],
          [
            9.436122043455867,
            46.62703439086296
          ],
          [
            9.436131453600465,
            46.626981197746424
          ],
          [
            9.43613352233291,
            46.626927629528076
          ],
          [
            9.436120505349976,
            46.62683838610187
          ],
          [
            9.436084199351539,
            46.62674595191211
          ],
          [
            9.436077396302178,
            46.62657959051437
          ],
          [
            9.436005187137797,
            46.626417616149915
          ],
          [
            9.437034613502059,
            46.626138009229244
          ],
          [
            9.436682477276431,
            46.62577767328911
          ],
          [
            9.436354991767182,
            46.625416264856206
          ],
          [
            9.43571705559565,
            46.624941963323955
          ],
          [
            9.435344978972713,
            46.624416212447926
          ],
          [
            9.435068939297249,
            46.62390902278494
          ],
          [
            9.434679397051983,
            46.62366213293396
          ],
          [
            9.434572714771083,
            46.62355776754769
          ],
          [
            9.434319407304177,
            46.62341822412
          ],
          [
            9.43386136520796,
            46.62303929212268
          ],
          [
            9.433058983637999,
            46.62253139691376
          ],
          [
            9.431838527840853,
            46.62081959716008
          ],
          [
            9.429973051148762,
            46.62137054046986
          ],
          [
            9.430232031667215,
            46.62188676849801
          ],
          [
            9.430273480615071,
            46.62204716972827
          ],
          [
            9.430295470775945,
            46.62226748121187
          ],
          [
            9.42997196548123,
            46.622597805328965
          ],
          [
            9.429406195420201,
            46.62273844877428
          ],
          [
            9.429062022102082,
            46.622884096346695
          ],
          [
            9.428726928088533,
            46.62295467197986
          ],
          [
            9.42858998656482,
            46.62296491261492
          ],
          [
            9.428415915468902,
            46.62292164040767
          ],
          [
            9.428213341853107,
            46.62281119773665
          ],
          [
            9.42803876955535,
            46.62267411585451
          ],
          [
            9.427934511956748,
            46.62250145785694
          ],
          [
            9.427625381191914,
            46.622285281789644
          ],
          [
            9.42754208686066,
            46.62217505736753
          ],
          [
            9.427433648518843,
            46.62206190677013
          ],
          [
            9.426949104411982,
            46.62141858658864
          ],
          [
            9.426599679134437,
            46.62144626783747
          ],
          [
            9.426466163209344,
            46.6214987658607
          ],
          [
            9.4262656465116,
            46.62153346492707
          ],
          [
            9.42589284522723,
            46.62165320134612
          ],
          [
            9.42564211407386,
            46.621594571184495
          ],
          [
            9.425276629830119,
            46.62142882811381
          ],
          [
            9.425234631692158,
            46.6213727898863
          ],
          [
            9.425098684306576,
            46.62131476482092
          ],
          [
            9.424873741643395,
            46.62136713770627
          ],
          [
            9.424653977288322,
            46.621302431020624
          ],
          [
            9.424500311640516,
            46.62123277345103
          ],
          [
            9.424345327103556,
            46.62113894187354
          ],
          [
            9.424278173812692,
            46.62103911477995
          ],
          [
            9.424269700515731,
            46.620858276896556
          ],
          [
            9.424277154894273,
            46.6207935110438
          ],
          [
            9.423812191607258,
            46.61964662581423
          ],
          [
            9.422831912672837,
            46.619293009170505
          ],
          [
            9.421279803455349,
            46.618490038828455
          ],
          [
            9.4205999958702,
            46.61874040843628
          ],
          [
            9.420240929787335,
            46.61881319445674
          ],
          [
            9.419808569935082,
            46.61847232835684
          ],
          [
            9.419470745232672,
            46.61814516690756
          ],
          [
            9.419504759355398,
            46.61813112231385
          ],
          [
            9.419644460363791,
            46.617833434477724
          ],
          [
            9.419556418110083,
            46.61756774931619
          ],
          [
            9.419606879215511,
            46.61751503113617
          ],
          [
            9.41938188428388,
            46.61740391977155
          ],
          [
            9.419269202200853,
            46.617321403341236
          ],
          [
            9.419060103485732,
            46.616990821974305
          ],
          [
            9.419008755626328,
            46.61689283162553
          ],
          [
            9.419024948130058,
            46.6167385057522
          ],
          [
            9.418597459726328,
            46.616458650000524
          ],
          [
            9.418502121311098,
            46.616359687974246
          ],
          [
            9.418442037591221,
            46.61622174334915
          ],
          [
            9.418413580508904,
            46.61606841017752
          ],
          [
            9.418415135152541,
            46.61583671856055
          ],
          [
            9.41834968981802,
            46.615836507136926
          ],
          [
            9.417918027223056,
            46.615920537066756
          ],
          [
            9.417581898036328,
            46.615979859394756
          ],
          [
            9.417229547988086,
            46.6160494959397
          ],
          [
            9.417045900739504,
            46.61582045686049
          ],
          [
            9.416888692201761,
            46.61582954224225
          ],
          [
            9.416879042541076,
            46.61566296013637
          ],
          [
            9.4167723072207,
            46.615673849629694
          ],
          [
            9.416402228670847,
            46.61576322834126
          ],
          [
            9.4159381623939,
            46.6160167231637
          ],
          [
            9.415712037546925,
            46.61618704104712
          ],
          [
            9.415589907038697,
            46.61587242697017
          ],
          [
            9.41557268505241,
            46.615502657009046
          ],
          [
            9.415625860863354,
            46.61474160065294
          ],
          [
            9.412573021373914,
            46.616392075402956
          ],
          [
            9.408464652124572,
            46.6160032523468
          ],
          [
            9.4032420005623,
            46.614554758222376
          ],
          [
            9.399612695916504,
            46.61332551198767
          ],
          [
            9.396144322520126,
            46.61110140481351
          ],
          [
            9.39575869061162,
            46.610144635676264
          ],
          [
            9.39411785262604,
            46.60929965758065
          ],
          [
            9.38865199866952,
            46.60754118720119
          ],
          [
            9.388012042962437,
            46.605396218745085
          ],
          [
            9.387242874653385,
            46.60514906988301
          ],
          [
            9.386819341901344,
            46.604989852015294
          ],
          [
            9.386425795385316,
            46.60493808150578
          ],
          [
            9.386151787907677,
            46.60494277116639
          ],
          [
            9.385944316120339,
            46.60498231499808
          ],
          [
            9.38518374126693,
            46.604527413679044
          ],
          [
            9.384255823883167,
            46.60413835711533
          ],
          [
            9.384019882083013,
            46.603930929916324
          ],
          [
            9.383788253350662,
            46.60348049139198
          ],
          [
            9.383588005009825,
            46.60281353798561
          ],
          [
            9.383298587828978,
            46.602571030056104
          ],
          [
            9.38317339741017,
            46.6023572093379
          ],
          [
            9.382958170578894,
            46.602180920302885
          ],
          [
            9.382510034312787,
            46.60206259987843
          ],
          [
            9.382130265241559,
            46.601848627551846
          ],
          [
            9.381748192292742,
            46.60120727248379
          ],
          [
            9.380809409669075,
            46.60087686381762
          ],
          [
            9.38050847180697,
            46.60049507165555
          ],
          [
            9.380128365770847,
            46.599907676992025
          ],
          [
            9.379701181787802,
            46.59964501514526
          ],
          [
            9.379659201329158,
            46.59938477972666
          ],
          [
            9.379461696958712,
            46.598974225563474
          ],
          [
            9.379084127330179,
            46.59863872865428
          ],
          [
            9.378470113703177,
            46.59826227017805
          ],
          [
            9.378087574204669,
            46.59815181300792
          ],
          [
            9.377536078818848,
            46.59806223041191
          ],
          [
            9.377078489139812,
            46.59804303198878
          ],
          [
            9.376858958072182,
            46.598109760026055
          ],
          [
            9.375915107980262,
            46.59799985748915
          ],
          [
            9.375458807787343,
            46.59801661489046
          ],
          [
            9.373890178240133,
            46.59832225307568
          ],
          [
            9.372998287171812,
            46.59879937428199
          ],
          [
            9.372263567662882,
            46.59846686709787
          ],
          [
            9.370412979562962,
            46.59745899645563
          ],
          [
            9.369517979416145,
            46.59725372971326
          ],
          [
            9.369329130825916,
            46.597265932626016
          ],
          [
            9.368090921702775,
            46.59750289542343
          ],
          [
            9.366814312362212,
            46.59757851700755
          ],
          [
            9.365736119008117,
            46.59772725834646
          ],
          [
            9.36461477600838,
            46.597764241160284
          ],
          [
            9.363757519131468,
            46.597702263080585
          ],
          [
            9.363225621234763,
            46.59761227102243
          ],
          [
            9.362675360891846,
            46.597189668561896
          ],
          [
            9.361317849133096,
            46.59682568083004
          ],
          [
            9.360845599333429,
            46.59657720904002
          ],
          [
            9.36055070945,
            46.59653674922326
          ],
          [
            9.359921524405928,
            46.59647133987289
          ],
          [
            9.359741755826835,
            46.59655535975435
          ],
          [
            9.357787239920842,
            46.596655830556
          ],
          [
            9.35694814104878,
            46.596552985123914
          ],
          [
            9.356019044687143,
            46.59704105447713
          ],
          [
            9.355601420735205,
            46.59722805650236
          ],
          [
            9.354884992755338,
            46.59727160928742
          ],
          [
            9.354305540471616,
            46.597128396162084
          ],
          [
            9.35334378257558,
            46.59724806446987
          ],
          [
            9.353086201224462,
            46.5973468803841
          ],
          [
            9.35166447449193,
            46.59756424614867
          ],
          [
            9.351158213858904,
            46.597460278619735
          ],
          [
            9.35066229488171,
            46.59746411406883
          ],
          [
            9.349572443469958,
            46.59765338951795
          ],
          [
            9.348971339016632,
            46.59800540742482
          ],
          [
            9.348402060106988,
            46.598149937302914
          ],
          [
            9.346379571130326,
            46.59780593894079
          ],
          [
            9.345058393729925,
            46.59772908405179
          ],
          [
            9.344960998724916,
            46.597928676948015
          ],
          [
            9.344417485869114,
            46.59806375680914
          ],
          [
            9.344007287995757,
            46.59827758575751
          ],
          [
            9.3436174758756,
            46.598329094773355
          ],
          [
            9.343505760414917,
            46.59849293314679
          ],
          [
            9.342835602891197,
            46.5985536404368
          ],
          [
            9.341847417666893,
            46.598480191155026
          ],
          [
            9.341594228026825,
            46.59870488224163
          ],
          [
            9.341297952980078,
            46.59881781541414
          ],
          [
            9.34091896635097,
            46.598806155513124
          ],
          [
            9.340555873928759,
            46.59887521265655
          ],
          [
            9.339974346989049,
            46.59885793663093
          ],
          [
            9.339243700283488,
            46.59831225380488
          ],
          [
            9.338900696379893,
            46.59821000405724
          ],
          [
            9.33869772881242,
            46.59800643459744
          ],
          [
            9.33787946183511,
            46.59738122260232
          ],
          [
            9.336754077745825,
            46.5969320947519
          ],
          [
            9.335779611924472,
            46.5963184720921
          ],
          [
            9.335182757935474,
            46.59604947785136
          ],
          [
            9.334741200322304,
            46.59574190890022
          ],
          [
            9.33456624166739,
            46.59559185491478
          ],
          [
            9.334439683509522,
            46.595333015780234
          ],
          [
            9.334435584145211,
            46.59521610742778
          ],
          [
            9.333810450857696,
            46.59488459005445
          ],
          [
            9.333604827553357,
            46.59493244800359
          ],
          [
            9.333409403019024,
            46.59493983278797
          ],
          [
            9.333207170503204,
            46.594915350991585
          ],
          [
            9.333022586288562,
            46.59490614188651
          ],
          [
            9.332858362330972,
            46.59479960191982
          ],
          [
            9.332588637882843,
            46.594735795741805
          ],
          [
            9.332390854853168,
            46.59480328102387
          ],
          [
            9.332201715303373,
            46.59476052014813
          ],
          [
            9.332080497302977,
            46.59476746848141
          ],
          [
            9.33196357801917,
            46.59482336733358
          ],
          [
            9.331915839627086,
            46.5949880638832
          ],
          [
            9.331733202851899,
            46.595148175344924
          ],
          [
            9.331646137151795,
            46.595168700120716
          ],
          [
            9.331479770163206,
            46.595153759497684
          ],
          [
            9.33125747641986,
            46.595199802900524
          ],
          [
            9.33099030778919,
            46.59532239301473
          ],
          [
            9.330785273230902,
            46.59535175371384
          ],
          [
            9.330504641225023,
            46.5954861832175
          ],
          [
            9.33035577736492,
            46.595592461501575
          ],
          [
            9.330104221565017,
            46.595631979522224
          ],
          [
            9.329713936408671,
            46.595596976256004
          ],
          [
            9.329525295229239,
            46.595659175528645
          ],
          [
            9.329122716749763,
            46.59591618581351
          ],
          [
            9.328905829837959,
            46.595997542568895
          ],
          [
            9.328838775000586,
            46.5962391601222
          ],
          [
            9.328572081595556,
            46.59633643357315
          ],
          [
            9.328475729383593,
            46.59648498335468
          ],
          [
            9.328321292337849,
            46.596513418129554
          ],
          [
            9.328129421533928,
            46.59666113341032
          ],
          [
            9.327844561952283,
            46.596707084178576
          ],
          [
            9.327192339061721,
            46.5972092394076
          ],
          [
            9.326995843508321,
            46.59731328027444
          ],
          [
            9.326902365747587,
            46.59734098031391
          ],
          [
            9.326539516682582,
            46.59735364194947
          ],
          [
            9.32639502964183,
            46.59732580530225
          ],
          [
            9.326171138033903,
            46.59741843062878
          ],
          [
            9.325484705390874,
            46.59752568220841
          ],
          [
            9.325184936339811,
            46.59753436003837
          ],
          [
            9.32504766705248,
            46.59758804247049
          ],
          [
            9.324889715526632,
            46.597614659147304
          ],
          [
            9.32458195141726,
            46.59758688133456
          ],
          [
            9.324208787332791,
            46.597568464806436
          ],
          [
            9.323907508492743,
            46.597623324912746
          ],
          [
            9.32350554245087,
            46.59763135201317
          ],
          [
            9.323259410698697,
            46.5976190343112
          ],
          [
            9.323056225227385,
            46.59764562378796
          ],
          [
            9.322603351872422,
            46.5977856121061
          ],
          [
            9.322287907103398,
            46.598017327479134
          ],
          [
            9.322141711735153,
            46.59807120808934
          ],
          [
            9.321944425325942,
            46.59809632117448
          ],
          [
            9.321566010458437,
            46.598098498662885
          ],
          [
            9.32136389765254,
            46.59821256548917
          ],
          [
            9.32102083693907,
            46.598310472526045
          ],
          [
            9.320778534839958,
            46.598343355825826
          ],
          [
            9.32059168360026,
            46.59834202828838
          ],
          [
            9.320453470371362,
            46.59824914059301
          ],
          [
            9.320130458000385,
            46.59817822275327
          ],
          [
            9.319965935622237,
            46.598182310797505
          ],
          [
            9.319682768035776,
            46.59826529432337
          ],
          [
            9.319294309794731,
            46.59847000788757
          ],
          [
            9.318995242831091,
            46.59853093700581
          ],
          [
            9.318232569280768,
            46.59859340564509
          ],
          [
            9.317911928261049,
            46.598719861899504
          ],
          [
            9.317718515035686,
            46.59870516775962
          ],
          [
            9.317465064146411,
            46.598748656911084
          ],
          [
            9.317050791836671,
            46.59878409266126
          ],
          [
            9.316166026676772,
            46.59904908658439
          ],
          [
            9.316020996436066,
            46.5990089542682
          ],
          [
            9.315840669760854,
            46.59892790460707
          ],
          [
            9.315626454404196,
            46.59894310001163
          ],
          [
            9.315390802647897,
            46.59899624284023
          ],
          [
            9.315171289612946,
            46.599109676560666
          ],
          [
            9.315039536626378,
            46.59926400796969
          ],
          [
            9.314869802050538,
            46.59926433232444
          ],
          [
            9.314416559259515,
            46.59934911691983
          ],
          [
            9.313883699323386,
            46.59938430930551
          ],
          [
            9.313657788794742,
            46.59945532022661
          ],
          [
            9.31352802653896,
            46.59946318120429
          ]
        ]
      }
    }
  ]
}