{"type": "FeatureCollection", "features": [{"type": "Feature", "properties": {"bfs_nummer": 3782}, "geometry": {"type": "MultiPolygon", "coordinates": [[[[9.86965318940757, 46.47208908114566], [9.869334995314007, 46.47182477467699], [9.869377237490115, 46.471564546704826], [9.868921170014628, 46.47123599541632], [9.868521437021743, 46.470804218442254], [9.866798063780491, 46.47087732331971], [9.865570372394792, 46.471016364479915], [9.864585775809275, 46.47031550191103], [9.863211787636805, 46.47016124570774], [9.863234211216612, 46.472674547290055], [9.863416926926833, 46.472914899880216], [9.863727100610836, 46.47315683915133], [9.864223551621546, 46.47357535046051], [9.864286208899031, 46.47369495981558], [9.864555415421474, 46.474300841693825], [9.864134994122342, 46.4815927029733], [9.861720076328886, 46.48566926244215], [9.861107814572993, 46.486710403032916], [9.859816388966502, 46.487975382826924], [9.860149200201635, 46.489098061364324], [9.860737411486879, 46.48985125334248], [9.861249084960454, 46.49051939757564], [9.862916219249362, 46.4928471527123], [9.86326059197471, 46.49308867436199], [9.859252264443603, 46.499794138251595], [9.856222960523493, 46.5012318258102], [9.851345934606162, 46.5021237956843], [9.846973392760964, 46.50393536138266], [9.846304423896148, 46.50395332657366], [9.846211505431084, 46.5039591756059], [9.845441218638992, 46.503976980991396], [9.845074649982498, 46.50399090607645], [9.843540227581878, 46.50415840220638], [9.841277870076528, 46.50441968105926], [9.840609977843974, 46.5044890613113], [9.839470837819114, 46.50547386478709], [9.838362471384626, 46.50641840632033], [9.837574950892646, 46.50736832244247], [9.83537999038979, 46.50998904567178], [9.834689786029374, 46.51079828880931], [9.833459759803102, 46.51225880516365], [9.829606321562851, 46.51127796608143], [9.829250552116296, 46.511173615328495], [9.828880749603357, 46.51104428673142], [9.828567678138091, 46.51088805151982], [9.82828897446831, 46.510853920761036], [9.828066508724076, 46.510781472468544], [9.827805550783637, 46.51058700557347], [9.827621137952306, 46.51053376350181], [9.827468054441438, 46.51043986711992], [9.827278884375128, 46.51018389761646], [9.826943909922607, 46.51009382691751], [9.826467876142056, 46.50980675434779], [9.826344588377623, 46.5096473779049], [9.825151563534076, 46.50988581307878], [9.824799650678548, 46.51016171454073], [9.824122274993575, 46.510187374769366], [9.823631881691005, 46.510137683666635], [9.820630862473722, 46.50943070866574], [9.816068395307019, 46.50924817642048], [9.813730314553096, 46.509388072729465], [9.808297068035124, 46.50972821589158], [9.805553934361077, 46.50942456136146], [9.80511433112472, 46.50921091113], [9.804297220086118, 46.508973715745654], [9.804084660055711, 46.50893814075872], [9.803797992565984, 46.508815588714086], [9.803407459886202, 46.50887225951799], [9.802423575053458, 46.50832145143807], [9.802128487919527, 46.508290460946746], [9.80183380417249, 46.50817376472937], [9.801515173472612, 46.50807755594079], [9.800952444903896, 46.507980709598414], [9.800624317205813, 46.50785614108132], [9.800421460746017, 46.50762240082312], [9.7994458882425, 46.507586413878485], [9.798665489276393, 46.5074312318871], [9.79833420897186, 46.507423831504774], [9.797541917118096, 46.507280328789264], [9.796937583446116, 46.50727288468822], [9.796583928506212, 46.50713168190567], [9.796003060454932, 46.506998051051426], [9.795660631841885, 46.50701944305816], [9.795387492788972, 46.506922281260785], [9.795147887030158, 46.50693011603937], [9.794735524468896, 46.50667586238045], [9.794065282086976, 46.50648410608861], [9.793116260439461, 46.50654090947263], [9.792682914077957, 46.506469901606344], [9.792210731255174, 46.50645682831648], [9.791572562306321, 46.50652716533526], [9.791267610983356, 46.506459228246676], [9.790530673115354, 46.50673156308218], [9.790058937929754, 46.506538523852036], [9.789484621796582, 46.50636474650482], [9.78896351570955, 46.506272697056396], [9.787911620290108, 46.50615163364032], [9.787505046524485, 46.50622002782049], [9.787054805601757, 46.506617808444204], [9.786661172296839, 46.50708011205334], [9.786617216665224, 46.507306677228826], [9.78616844924741, 46.50754732414664], [9.785842112023959, 46.50784543120449], [9.785502382477675, 46.50812095381095], [9.785379648679507, 46.5083434430115], [9.784914873310505, 46.50869296043624], [9.78462210250763, 46.50890020589776], [9.784483171902833, 46.509381945548], [9.784694969068108, 46.50975133120913], [9.784786397029134, 46.51102637778391], [9.784610621864955, 46.51204824585621], [9.78576240543539, 46.51332871271127], [9.786749141141238, 46.51409165097326], [9.78736665451497, 46.5148589882464], [9.787712584465138, 46.51527241793562], [9.787649466508913, 46.515329584078266], [9.786726466260232, 46.516097994982914], [9.785192667318404, 46.517488388256794], [9.785803876785561, 46.51778511964998], [9.787107755202817, 46.5188739669059], [9.787255080733177, 46.519458787434786], [9.787163680482374, 46.5198735898248], [9.787304895132472, 46.52038261452631], [9.78791918289899, 46.52114540811761], [9.78827836997728, 46.52130565852974], [9.787916161774174, 46.521717018960054], [9.78730294909889, 46.52212186148455], [9.786596613423322, 46.522905921789594], [9.786160760781856, 46.523364545982226], [9.78563724592267, 46.52374097819801], [9.785482099741895, 46.52444133825916], [9.785639581680154, 46.52484073064885], [9.786140141088138, 46.525499937285986], [9.786220486482991, 46.52576391952663], [9.786565184304072, 46.526152002433605], [9.78733412263652, 46.52651653844486], [9.787706679004183, 46.526451457144965], [9.788482713450223, 46.52663471426924], [9.788971697997672, 46.526581525833556], [9.789423595658075, 46.52670662842873], [9.789676896826425, 46.52688457928727], [9.790972906162802, 46.52658838968357], [9.791121013989915, 46.52704964334068], [9.79195467568157, 46.52732358268407], [9.792606539896793, 46.52748460577302], [9.793024291333317, 46.52791988596546], [9.793679196309546, 46.528305752337666], [9.796298704634856, 46.52930490331854], [9.795912314705246, 46.529608794935854], [9.795648485980964, 46.53001430455578], [9.795551838706407, 46.530275543548896], [9.795378711858206, 46.530513633403075], [9.795903879632702, 46.53055701458678], [9.796158025813703, 46.530419545385364], [9.796569751021167, 46.53052713045199], [9.797914539336878, 46.53063636720818], [9.79833202670429, 46.53094067297208], [9.799115818919121, 46.53123152526036], [9.799943931162385, 46.531292863133984], [9.80063066707628, 46.53122817744616], [9.802617657853393, 46.53075785558851], [9.803012751616048, 46.53083981967592], [9.803528593545227, 46.53126128581689], [9.804067945963556, 46.5319314412975], [9.80584982620608, 46.53295416202262], [9.80656664124385, 46.53306809852181], [9.806738363607137, 46.53293888166247], [9.807285094770291, 46.533219033264174], [9.808027063352403, 46.53353377154838], [9.808650166676825, 46.53398896101052], [9.808836004149802, 46.53403316952716], [9.809507637985137, 46.53448472710669], [9.810041668425868, 46.534663368932684], [9.810344286267426, 46.53499190627894], [9.810955399679525, 46.53527021090141], [9.811351096321529, 46.53582127955759], [9.81366247344919, 46.53363187244412], [9.81472276829547, 46.53363760118136], [9.815246737913728, 46.53338823965256], [9.815720291293541, 46.53329182116226], [9.815999133387088, 46.53282166537798], [9.816111947585346, 46.53231364089827], [9.816627956065178, 46.53173965700616], [9.817545626439372, 46.53150472584605], [9.818211627702274, 46.53148172750041], [9.818946447814474, 46.53110644048456], [9.820045275659064, 46.531041176998706], [9.820276309775151, 46.53092642458471], [9.821013259899457, 46.531082535698296], [9.821795091921045, 46.5311834997578], [9.822174808916573, 46.53126161813735], [9.822467091507294, 46.53144864155005], [9.823041035746838, 46.53146264983489], [9.823373897427244, 46.531595270588106], [9.823774455139278, 46.531623032704864], [9.82454686065641, 46.531930172833384], [9.82558190508778, 46.53215655720165], [9.826309011538836, 46.532493668169806], [9.827851503886599, 46.532932854523786], [9.82830064449822, 46.53285141417602], [9.829089982442094, 46.532470091533284], [9.829655898340182, 46.53198431242793], [9.831085373731442, 46.531465248534275], [9.832708051356185, 46.53154724683582], [9.833433475538293, 46.53151105128824], [9.833594491536713, 46.53138453755877], [9.834175027212064, 46.531496587999996], [9.834446479791914, 46.53165929577087], [9.834823795720434, 46.53170477039597], [9.834974283153588, 46.531910670767545], [9.835345895470391, 46.531898548734034], [9.836328414843676, 46.53250858522419], [9.842629161418401, 46.5296719416976], [9.846101404839743, 46.52696941879192], [9.846884870819371, 46.52658379661363], [9.848247395100968, 46.52588841911053], [9.849753271502205, 46.52510960226354], [9.852084804822457, 46.5246635093254], [9.852447871295212, 46.52461502449821], [9.855926443580863, 46.52411962746575], [9.857283932313948, 46.52395120953544], [9.858928045241239, 46.52376253117867], [9.859936726073329, 46.52347225177404], [9.86180188370369, 46.523970745142414], [9.863400010562286, 46.52472374559659], [9.863384347572289, 46.523622282440954], [9.863384021041455, 46.523250303923504], [9.863807040051954, 46.52350718632325], [9.864390908401763, 46.52387259206573], [9.865060263315003, 46.52437432716575], [9.86536283283577, 46.524643127557745], [9.8655577470444, 46.52482303962884], [9.866005683716203, 46.525292239516354], [9.865887700492697, 46.52483822952918], [9.86580137032756, 46.524220644407066], [9.865779857341206, 46.523537927950855], [9.86589306630819, 46.522841722292966], [9.865980127387441, 46.522552206234764], [9.866065659160435, 46.522327171254446], [9.86616371612759, 46.52210292155122], [9.866273405275559, 46.52188484017585], [9.866426669807355, 46.52163251854502], [9.866615397992415, 46.521367729782185], [9.86679249253228, 46.521143878196945], [9.86702025233396, 46.52087791237807], [9.86726978536216, 46.52062623152173], [9.867527058261597, 46.520375653892955], [9.86779148865877, 46.52015128286576], [9.868063884473958, 46.519947270169844], [9.868418097928195, 46.51969812684473], [9.868961833234108, 46.51933682027101], [9.8711574528966, 46.51784067957793], [9.872761728557169, 46.516775683591725], [9.873274323283447, 46.516419522513516], [9.87377859856625, 46.516034485380615], [9.874185518808085, 46.51567112634446], [9.874520412867927, 46.515349927427906], [9.874861257636404, 46.515004911575005], [9.875188816278895, 46.51465154865226], [9.875522925807452, 46.51425266632009], [9.877102751558315, 46.51218394714474], [9.877810046009524, 46.51124076257634], [9.87815778293556, 46.51073178823087], [9.878413694182875, 46.51042044499475], [9.878584005546761, 46.510079466892606], [9.879171551001503, 46.50917892255987], [9.879393017162792, 46.50907187855825], [9.880014609194493, 46.50883269095295], [9.880743675028066, 46.50858956000328], [9.881258335071484, 46.50840250657103], [9.882049513780585, 46.50809985503441], [9.88213632574285, 46.508062860333375], [9.882383505503057, 46.507916089083146], [9.883423544238, 46.50741420367424], [9.883653983127024, 46.507208596774035], [9.884614463043299, 46.506512320312545], [9.88500371781693, 46.506036925590195], [9.885410045439762, 46.505430967352204], [9.8857148763246, 46.5047404343722], [9.885781054807735, 46.50466322822913], [9.885761326959909, 46.50458347218379], [9.88579210578447, 46.5045351358558], [9.885802887014894, 46.504268413096526], [9.885897444199813, 46.5042233104308], [9.886166596779395, 46.50399173560234], [9.886486478350198, 46.50361116932269], [9.886718054740076, 46.50327449987427], [9.886877487680861, 46.50296870720941], [9.88695504589457, 46.50272614966129], [9.887180417548489, 46.50247925305134], [9.887883457106405, 46.502071880335954], [9.88811680697457, 46.50200005838814], [9.888434077176612, 46.50181297061745], [9.888554748606918, 46.50174744814757], [9.88874957266265, 46.50162299549552], [9.889259486029252, 46.50138723509302], [9.889381868315109, 46.501284099976296], [9.889489114891271, 46.50128111016621], [9.889795724321319, 46.501016479566765], [9.890093406155534, 46.50078271335033], [9.890440131799593, 46.50053144413969], [9.890639664824675, 46.50044324653774], [9.89086482308421, 46.50026790576513], [9.890928673822156, 46.500176418448056], [9.890921159007965, 46.500096534170034], [9.891117501441304, 46.50000441745562], [9.89141210363798, 46.49988821807712], [9.892326093394464, 46.49966256971719], [9.892389602362881, 46.499656508413366], [9.8927132785502, 46.49957601047819], [9.892882495934371, 46.49951555405305], [9.893058582340027, 46.499466333960825], [9.893283855191465, 46.4993308650035], [9.893334296460552, 46.49926970833458], [9.893550534094304, 46.49915777121351], [9.893723928234321, 46.49902850787063], [9.893840633730163, 46.49891459101014], [9.894125370538292, 46.49873254635548], [9.894205628485231, 46.49862308910637], [9.894258665187893, 46.498511142535726], [9.894300941510457, 46.49846339203225], [9.894404546193377, 46.49843021831681], [9.894556595284032, 46.498364613585636], [9.894639260868871, 46.49833758053936], [9.894700870435793, 46.49830462181046], [9.895376435451446, 46.498087191640025], [9.895882435708952, 46.49786591173902], [9.89619213173889, 46.49767785844063], [9.89622421101971, 46.49763807690485], [9.896321881141686, 46.49756465553397], [9.896519230454452, 46.49739662787148], [9.896623550037631, 46.497320704277016], [9.89674912958782, 46.49724573351995], [9.896908083780183, 46.49705676521768], [9.897014670951153, 46.49686402534823], [9.897122987988508, 46.49670825624476], [9.897301725813847, 46.49640885124397], [9.897419941351698, 46.49613989864083], [9.897479854034318, 46.495902322606184], [9.897490279941595, 46.49580330316205], [9.897507363164722, 46.495709404608256], [9.897551330563221, 46.49558735672106], [9.897590531394108, 46.49550958427293], [9.897774081464163, 46.495279275677426], [9.897886428491974, 46.49516559266954], [9.898087576771776, 46.494984519687826], [9.898263089744692, 46.49487804511389], [9.898317959384672, 46.494820777102134], [9.898411331995678, 46.494753332885686], [9.898443813452854, 46.494724774035035], [9.89846144883639, 46.494688121705586], [9.898528647905351, 46.494623431438946], [9.898578701072722, 46.49459125182848], [9.89868256293194, 46.494481333823394], [9.898723966895293, 46.4944176882982], [9.898979657496799, 46.49417401534369], [9.899015919839924, 46.494131739272454], [9.899048265467682, 46.49410479423286], [9.899159239647707, 46.493982229603034], [9.899321332068226, 46.49376721525423], [9.899408480969074, 46.49362624846926], [9.899492220268218, 46.493507477660714], [9.899491613626358, 46.493479500594376], [9.89952488815464, 46.49344605515103], [9.89830718160091, 46.49296313824024], [9.897890267979086, 46.49281393028038], [9.897180506105608, 46.49248481466976], [9.896302573409754, 46.492161468440266], [9.895799486316912, 46.49179315856478], [9.894700983781153, 46.490974641727746], [9.89268422618049, 46.48948443818441], [9.893101588761201, 46.4871526215963], [9.89310728522318, 46.48682974861219], [9.892622504856936, 46.48642352221279], [9.892672013613128, 46.48605245019814], [9.892314305241284, 46.48516303062088], [9.891619863324182, 46.484315799957486], [9.890346528975318, 46.4831397076666], [9.889447001409808, 46.48239454756434], [9.887570378119213, 46.48267790404196], [9.885169928509344, 46.483027931259286], [9.884133795564617, 46.48235479227171], [9.883005108179301, 46.48157818972733], [9.871420333141286, 46.47380539753785], [9.871357980268227, 46.47362682440944], [9.871171512449948, 46.47335542316436], [9.870834284400377, 46.4734643488564], [9.870159100006802, 46.47310487078457], [9.869723106780842, 46.472140593001086], [9.86965318940757, 46.47208908114566]]]]}}]}