{"type": "FeatureCollection", "features": [{"type": "Feature", "properties": {"bfs_nummer": 3786}, "geometry": {"type": "MultiPolygon", "coordinates": [[[[9.831983898600319, 46.36058108910142], [9.832073097086777, 46.360830252163176], [9.832161184243304, 46.361320725309675], [9.83214407172503, 46.3619312675496], [9.832024250467267, 46.36216121560262], [9.831731465575706, 46.36241205400472], [9.831264255168623, 46.36251293175161], [9.83068260521164, 46.36250254812636], [9.830327949694315, 46.36348544606483], [9.829819140996788, 46.36395110580327], [9.829771797979804, 46.36425901823346], [9.82943389054026, 46.364597750269816], [9.827368320642647, 46.36595279243401], [9.82708394733478, 46.366338175251194], [9.825865882436137, 46.36719049354071], [9.825245664536796, 46.367145826920016], [9.824651634043223, 46.367376017278914], [9.82386117483275, 46.36788995516556], [9.822936262625886, 46.3679851675226], [9.821968868422474, 46.36804790777304], [9.821597359167882, 46.368312526941864], [9.82136770087812, 46.36835772093106], [9.820844644277374, 46.368793462024094], [9.820276545882637, 46.36885015373121], [9.820060665382773, 46.368643369777686], [9.819869962718855, 46.36852394443945], [9.81911607485883, 46.36850800533891], [9.818700774578245, 46.368489482087575], [9.818602360437156, 46.36851210607254], [9.818187091353021, 46.368625589171074], [9.818062121403862, 46.368770258678715], [9.817683186234369, 46.36897153786079], [9.817372992712675, 46.368969843843445], [9.817341851386391, 46.36915160244421], [9.816903333256061, 46.36945020661354], [9.816443783879622, 46.36965482118518], [9.816398997547326, 46.36981277312945], [9.816274242877695, 46.3699821222074], [9.816345765155782, 46.37015043834271], [9.816307803629014, 46.370181375426604], [9.816121352032683, 46.370173556792025], [9.815914925842067, 46.37028189943341], [9.815726579286038, 46.37058682060726], [9.815385525123547, 46.37063889448696], [9.815209954342949, 46.37086193237838], [9.81522991944343, 46.37106694536949], [9.814996046940212, 46.37164483711147], [9.815623758864097, 46.37229471495773], [9.81605911591465, 46.37306012413737], [9.816994209192453, 46.37345664280559], [9.81782187601358, 46.37355091269102], [9.819173678097926, 46.37470590455061], [9.819379526162997, 46.37584686796446], [9.81855806133682, 46.3771090676944], [9.818363208657907, 46.377303649357735], [9.8168896508721, 46.3799972456259], [9.816653967933966, 46.38066227545926], [9.816265612711218, 46.382538485483096], [9.815970861672334, 46.383044877145444], [9.815382169357198, 46.383680607876805], [9.815380999093536, 46.38398762524136], [9.81533052798428, 46.38417736553054], [9.815627864624043, 46.384989899977825], [9.815396589881972, 46.38524249636212], [9.81540130822, 46.38553553758315], [9.815357077633662, 46.38578823462937], [9.814997365741378, 46.38617954504905], [9.815054491674317, 46.386760239506245], [9.81516809915231, 46.387043645262615], [9.815148605474354, 46.38750280020666], [9.815326947307947, 46.3879721778648], [9.815150852485017, 46.388225596250884], [9.815152224893069, 46.38846935000197], [9.81499426357261, 46.38870066060042], [9.8148400960394, 46.38879615753539], [9.815165149660848, 46.38953033037238], [9.815023148090313, 46.38987282199993], [9.814515196597851, 46.39022941693642], [9.8144837893511, 46.39056184539762], [9.814281312533694, 46.39107136190562], [9.814274287104377, 46.391444618917106], [9.814626007452423, 46.391626243167494], [9.814736486734809, 46.39206042874333], [9.815180950264097, 46.39278420186464], [9.815109447940522, 46.3933331271784], [9.815306616581546, 46.393583545933296], [9.815290886840128, 46.39384086664713], [9.816209008490079, 46.395000625368354], [9.816572349367199, 46.39520248271654], [9.816914423556316, 46.39536541148286], [9.817180992601303, 46.395596298903406], [9.817358545020637, 46.39578465530444], [9.817553816237938, 46.39611329139082], [9.817643487281293, 46.396376606862404], [9.817548899645585, 46.396622133060745], [9.817515464830237, 46.39708987945086], [9.817681474675375, 46.39766783434392], [9.817558815317831, 46.39792257290326], [9.81777037107505, 46.398432436929994], [9.818120271294339, 46.39886076374575], [9.818580812782828, 46.39909675950171], [9.818267996477658, 46.39994157363996], [9.818051970515636, 46.40019483421566], [9.817622185288956, 46.4003789233111], [9.817474621532936, 46.400593648505456], [9.817260766457682, 46.4006111303984], [9.81697070649093, 46.40084804967741], [9.816895530553861, 46.40102938165717], [9.816819209884537, 46.4015768612045], [9.817098643923648, 46.40203324391113], [9.817115435106164, 46.40228656850569], [9.817006014710609, 46.402472377301784], [9.817293837781174, 46.4029381939476], [9.81724963270502, 46.403250003647756], [9.817191796277347, 46.403472010116516], [9.81714313908147, 46.40371352279715], [9.817171917912558, 46.403801989542856], [9.817224710890441, 46.40387499444715], [9.817341810345027, 46.403982109222966], [9.817634859408736, 46.40419136242945], [9.817875019013607, 46.40442120132124], [9.818078719398374, 46.404576999159204], [9.818403416886335, 46.40496129738109], [9.818289980513644, 46.4051557536315], [9.818258176128339, 46.405365872364236], [9.81782352760398, 46.40593566888996], [9.817705758512528, 46.406207640469724], [9.817720015652403, 46.40642176195482], [9.817464967573091, 46.40690567294605], [9.81740996703614, 46.40731670664474], [9.816861799030365, 46.40760510781598], [9.816530706808619, 46.407959743204785], [9.816318034590678, 46.4080140273617], [9.816092737490605, 46.40835048687016], [9.81610066746007, 46.40859497825392], [9.81624492813073, 46.40877722908646], [9.816737114296886, 46.40906310366246], [9.816845529919702, 46.40929568727631], [9.816785394739565, 46.409452970589875], [9.816638772560754, 46.40957735145912], [9.816696548095784, 46.409683401419315], [9.816917977479944, 46.40984058945529], [9.817145621962187, 46.410170072567304], [9.817633315203647, 46.41042897873753], [9.81812142366432, 46.41078059854155], [9.81826718346063, 46.410974148226174], [9.818620958977869, 46.4111208706699], [9.818828127537087, 46.411348634822396], [9.81889346484533, 46.41149733498072], [9.819311995777698, 46.411939359643014], [9.819382645869675, 46.41208866065677], [9.819475312349375, 46.412307625905626], [9.819935529930403, 46.41262989449499], [9.820507888836223, 46.41736671402538], [9.820566734126455, 46.41752202802536], [9.82130319574021, 46.41810486124416], [9.821575802638, 46.418204888867365], [9.82216933901031, 46.41819917281293], [9.822766251860326, 46.41861371587362], [9.836684369957792, 46.42649766588113], [9.838531537695326, 46.428833395765], [9.839800889062392, 46.42907166080134], [9.839929288806571, 46.43001384122745], [9.840408101535763, 46.43092044020389], [9.840846134338015, 46.43189106960115], [9.840768023301209, 46.43254926225071], [9.839296235775834, 46.43540577388046], [9.840518596508481, 46.435877859344295], [9.841206250238514, 46.43607812087748], [9.841188017942901, 46.43680023592494], [9.841216060011972, 46.438770042878005], [9.840881435424892, 46.43895586718877], [9.840878557668232, 46.43952307673784], [9.840924697975767, 46.43962982675625], [9.841022263090238, 46.43973956449438], [9.841323468851062, 46.43994862733189], [9.841346950788019, 46.44012267621983], [9.841321815244697, 46.440335644325124], [9.841327959418114, 46.440540334658515], [9.84140286318637, 46.440717384521676], [9.841448463773625, 46.44103412767887], [9.84188077403264, 46.44129450198259], [9.841878719133861, 46.44161252312806], [9.842005254298662, 46.44184730263619], [9.842061303963295, 46.44204384179684], [9.842180014161253, 46.442219794853266], [9.84213229438616, 46.44260016265655], [9.84231161126848, 46.44288532503258], [9.84258891737505, 46.44307025524651], [9.84268190678183, 46.44327291702649], [9.8435363589687, 46.443323515763204], [9.844110568741446, 46.44335039341976], [9.84476525676476, 46.443554069571945], [9.845067301860599, 46.443949117949046], [9.84516968904323, 46.444196727379335], [9.845567040850563, 46.44451365243977], [9.845593819800122, 46.44473852139201], [9.846010126632722, 46.44533159283994], [9.846199601250309, 46.446050752676854], [9.84591908495705, 46.44646299218642], [9.845389819611317, 46.44719003367015], [9.845026658141002, 46.44749289032414], [9.844770854531077, 46.44771444847053], [9.845163907087663, 46.45018746561306], [9.843908096398836, 46.4512809561491], [9.84365789836682, 46.45190534144213], [9.84326969991184, 46.45238610389894], [9.843127401926957, 46.45321362491201], [9.846685971620106, 46.45378468067667], [9.847424964280192, 46.45395818650482], [9.847490257075066, 46.45417065477313], [9.847316300797848, 46.45469469936283], [9.847475753228958, 46.455697702313614], [9.847452261618859, 46.45604080861202], [9.847764652654375, 46.45687955199818], [9.848201814133418, 46.45751818460713], [9.848130727345769, 46.45771268245257], [9.848529377524953, 46.4578608677449], [9.848835397670099, 46.457957199725286], [9.849557853460132, 46.458121813970756], [9.849973613861964, 46.458175808592706], [9.85043625850577, 46.45835450595875], [9.850847968399096, 46.45831718759493], [9.851502800400073, 46.45844893503512], [9.851667924786536, 46.4585368443287], [9.852341473886026, 46.45853107762136], [9.852718880411613, 46.458465926760525], [9.853012086364526, 46.458459670773635], [9.853276950340627, 46.4585597293888], [9.853462415868146, 46.458732891274416], [9.853737967273135, 46.45925831669153], [9.853714373484241, 46.45975014585778], [9.85376393669472, 46.45993476779723], [9.85372663013289, 46.460118369462855], [9.854006187974907, 46.46064087276695], [9.85414807433757, 46.46076353464398], [9.854173616209266, 46.460965803067126], [9.854483480516741, 46.46114773556764], [9.854762220013413, 46.461373170026114], [9.855309039234966, 46.46232701307579], [9.855385292109435, 46.46255390484902], [9.85557025461327, 46.462715643450956], [9.856093820898778, 46.4629615722908], [9.85618278426749, 46.463102496660795], [9.85648644280244, 46.46333025835413], [9.856638910224152, 46.46350410064419], [9.85769084277483, 46.4652155666593], [9.861210335114869, 46.46561464702984], [9.861428961668182, 46.46588135477682], [9.861630025559483, 46.46658832613085], [9.861594370139043, 46.46690044873661], [9.861616017744234, 46.46719990834233], [9.86142923041423, 46.46746099844128], [9.861305652121828, 46.46756360883894], [9.861231940356971, 46.46776514317257], [9.861251090826208, 46.46791612238922], [9.861423351545655, 46.46825522642951], [9.861678605400957, 46.46860112814983], [9.862604624223225, 46.469220129242494], [9.863121433431857, 46.469742787990306], [9.863211787636805, 46.47016124570774], [9.864585775809275, 46.47031550191103], [9.865570372394792, 46.471016364479915], [9.866798063780491, 46.47087732331971], [9.868521437021743, 46.470804218442254], [9.868921170014628, 46.47123599541632], [9.869377237490115, 46.471564546704826], [9.869334995314007, 46.47182477467699], [9.86965318940757, 46.47208908114566], [9.876696759409253, 46.47211790420347], [9.879067482036277, 46.47212182635986], [9.88055501339673, 46.47211744021122], [9.88183823916474, 46.47212284211953], [9.883771020039385, 46.47212421339279], [9.885155605128489, 46.47211594547331], [9.885828538445274, 46.47212648261369], [9.886055453197887, 46.4721266832045], [9.885921723825959, 46.471857892143206], [9.895109587051902, 46.46919539049767], [9.896949138564201, 46.46865850818298], [9.89786702457738, 46.46840140378], [9.899668636085414, 46.46775891960984], [9.899515456290212, 46.467208259352915], [9.900205324372221, 46.465540557898734], [9.90080271056533, 46.46494073025999], [9.900860809398358, 46.46433005821534], [9.900616690389654, 46.46394732734403], [9.90088608174711, 46.46373905390961], [9.901736337769284, 46.46155464013198], [9.902090010817847, 46.46108359163846], [9.901944069805095, 46.46080516604187], [9.902078235173823, 46.46057328224193], [9.90241394766763, 46.46033441211701], [9.902441031446966, 46.460175907585544], [9.902910701056014, 46.45986831896664], [9.903161348831114, 46.458344350946746], [9.90327378178091, 46.457802397316506], [9.90334975483411, 46.45723225439946], [9.903356759501966, 46.456947913722175], [9.903254655963172, 46.456544833817894], [9.903302872162852, 46.45584639490489], [9.903227139760823, 46.45543748884675], [9.903515906117006, 46.454920657033455], [9.903649660003023, 46.454505426267175], [9.904215033424931, 46.454050180795726], [9.904322201585963, 46.45348634327335], [9.904790288172215, 46.45321921216117], [9.905196641001382, 46.45286037026449], [9.905183647267426, 46.45274222142266], [9.904598627588932, 46.452186491005925], [9.905426119216232, 46.4517947953961], [9.905843196346794, 46.451389799982266], [9.90567526219245, 46.450994608735854], [9.905670424383118, 46.450721009965704], [9.905076773818145, 46.450310184777884], [9.904899839244615, 46.45010350196167], [9.904788525028003, 46.449916433251175], [9.904631954603959, 46.4494882261151], [9.904572505067598, 46.44901842408744], [9.904688879677668, 46.448647454222716], [9.904467858794744, 46.44847593546529], [9.904223476614725, 46.447791718578], [9.904220082620828, 46.44754967088058], [9.90409853215536, 46.44730491453418], [9.903980291089239, 46.44654690909241], [9.903825591907648, 46.44590813019328], [9.903945476570923, 46.44527915922848], [9.903756539922515, 46.44505956454346], [9.903796639363009, 46.444853409032376], [9.90365650640115, 46.44445116996077], [9.903730194526231, 46.44397848186981], [9.903624564247886, 46.44366496266453], [9.903586474395127, 46.44321076065943], [9.90371320111384, 46.44226557027283], [9.903255954176826, 46.441754430497504], [9.903268329036992, 46.44135676539933], [9.903140625644346, 46.44114373506272], [9.9032561500924, 46.440251687523784], [9.903044096040981, 46.43970142295248], [9.90307019668655, 46.43935881889515], [9.903840098485354, 46.43869418372214], [9.903661352031113, 46.43819539336778], [9.903328486112914, 46.43788066698453], [9.90317726893477, 46.437819143622576], [9.902892487433924, 46.43779832284248], [9.90273008144589, 46.43772347853378], [9.902523244375608, 46.43769473486029], [9.902141570617983, 46.43775732290124], [9.901661765819114, 46.437933067967066], [9.901160633482608, 46.437963752815676], [9.900851054958192, 46.437912866042616], [9.900551948098881, 46.437791838633196], [9.899937470093773, 46.43726237044215], [9.899636287482254, 46.43674056237782], [9.899367726198689, 46.436612908787005], [9.899181668812183, 46.436453026561935], [9.898987644997536, 46.436036146889506], [9.899001825549135, 46.43559369812239], [9.89908922677092, 46.43517070267484], [9.899590856162495, 46.43475923845956], [9.900224446682188, 46.433848610070555], [9.899906566977693, 46.43321861116005], [9.899738625460683, 46.4329666532835], [9.899552487852255, 46.43279730515096], [9.899035870711609, 46.43262725109201], [9.897790749885596, 46.43239074549404], [9.897725141726317, 46.43191399296607], [9.897783708185692, 46.431564510696184], [9.897847776695897, 46.43128845630936], [9.897853988834934, 46.43102369864787], [9.897822331899805, 46.43078495399347], [9.897374027191551, 46.42991257588437], [9.897247755264551, 46.429539066606665], [9.896683840256514, 46.4288802336763], [9.896439988327868, 46.428706553779385], [9.896277484177471, 46.42835037427626], [9.895573873714934, 46.4275673349912], [9.895371635943786, 46.42730328282427], [9.894695511320954, 46.426828420775664], [9.894248853143548, 46.42663017119635], [9.894055843096016, 46.42632415932989], [9.894109311484648, 46.42588788409698], [9.894495077033056, 46.42549608804201], [9.89456916825674, 46.42529945109757], [9.894716035268088, 46.424511991506], [9.894827957827605, 46.424038482471275], [9.89477380146893, 46.42343062502671], [9.89517565235304, 46.42331247787139], [9.895696379164942, 46.423045905527424], [9.896244004535555, 46.422281353152286], [9.896449494093286, 46.42140330895964], [9.89673122615848, 46.42118656272703], [9.8974783309371, 46.420842732296805], [9.89805741112897, 46.42014186167285], [9.89909913185455, 46.419785010722734], [9.89959709693075, 46.41943735475638], [9.900130839614986, 46.41912312190598], [9.900935915755559, 46.4189187977306], [9.90108023112497, 46.41870515951305], [9.901265412989366, 46.418540925972415], [9.901519724626056, 46.41840938376074], [9.901803881821653, 46.418339371293406], [9.902300413496324, 46.417373519453], [9.90225947971045, 46.41681634151548], [9.902192134998023, 46.41641498585519], [9.90194091797791, 46.41599408388616], [9.901872871396401, 46.41558500893622], [9.902047804348918, 46.41533117731073], [9.901830709392902, 46.41511185837589], [9.901664328458045, 46.41488684728185], [9.901309099745282, 46.414565588508346], [9.901082980137126, 46.41427836841496], [9.90085103677583, 46.41376390582243], [9.900953544024755, 46.41356293693032], [9.901676434891368, 46.41308998870943], [9.901915889727537, 46.41268873334666], [9.901898978321363, 46.411972617948436], [9.901968887214466, 46.41173528757644], [9.90225372580699, 46.411486921379904], [9.9022388228445, 46.41124248654176], [9.901987019288828, 46.41080843964318], [9.901983262552578, 46.4099716127194], [9.902203800605358, 46.409629346089744], [9.902185177034312, 46.40939086302085], [9.90226362602337, 46.4091075568893], [9.902260584455483, 46.40887383766787], [9.902219561462974, 46.40865869244617], [9.90139442111755, 46.40806320587781], [9.901156108824477, 46.40781951438635], [9.90088197909917, 46.40734121793006], [9.90072033959437, 46.40670387250903], [9.900762919763148, 46.40647154875754], [9.900952904975332, 46.406214764446425], [9.901200744625015, 46.40597515439646], [9.901262124296627, 46.40581855286156], [9.901215287184028, 46.40551039417483], [9.90157643640351, 46.40446564246748], [9.901606459863132, 46.40426696163212], [9.901787190366015, 46.40405963349958], [9.901640298907063, 46.40375137103759], [9.901456164111103, 46.40359336241922], [9.90148134799215, 46.40343991536932], [9.902479076670435, 46.402968064308574], [9.902695528875094, 46.402749137766406], [9.903532697335681, 46.401530195958514], [9.903786319526377, 46.40133700055727], [9.903959181092645, 46.40112270086486], [9.90416707780264, 46.40092605548712], [9.904292172181203, 46.400663961147366], [9.904444855367851, 46.40053102793582], [9.904895020705869, 46.40041681729793], [9.905114954031804, 46.40027114412968], [9.905250023224053, 46.40009765186546], [9.905329235368525, 46.3998943032312], [9.905352446853046, 46.39926012454165], [9.905394938939057, 46.398764138839276], [9.905448060655644, 46.39844434625449], [9.905359614496039, 46.398155997821895], [9.90556982377508, 46.39770741278554], [9.905646718100678, 46.39722702645735], [9.905863295868608, 46.396699174832385], [9.906725241460252, 46.39661507578712], [9.90766406054808, 46.39650908546323], [9.907376204244969, 46.395896295783714], [9.906992738193987, 46.39542027113199], [9.90685012550922, 46.39518760948005], [9.906935242800435, 46.39478539259222], [9.906919867235857, 46.3942916798054], [9.90688871185225, 46.39392103329621], [9.906628149496338, 46.39280124427297], [9.906184053272085, 46.3922556887142], [9.90597339024465, 46.39191511948561], [9.90599653374452, 46.39162949013953], [9.905886585322747, 46.391301391715274], [9.905882609257525, 46.390826284415056], [9.905862270644636, 46.39055508219605], [9.906430201602511, 46.38984462336411], [9.90650806934388, 46.389556476099415], [9.906479552038034, 46.38875415570114], [9.906416360932212, 46.38842960678948], [9.906490444703353, 46.388025920395755], [9.906163389171006, 46.387125319441914], [9.9065098282291, 46.38663988044098], [9.906513629407412, 46.38650237603411], [9.9061520237705, 46.38562640096194], [9.9062114701434, 46.38518087634987], [9.906560998672893, 46.3846165086541], [9.906782573374786, 46.38430605334679], [9.906807449486852, 46.38413811040231], [9.907128506605067, 46.38370541050403], [9.907476883325032, 46.383644715827764], [9.9079142316307, 46.383338183171105], [9.90796426162998, 46.38297979927736], [9.908175567697425, 46.38256478161857], [9.908009882598897, 46.38241611136961], [9.907937441568583, 46.381902257057064], [9.907615874023968, 46.38141275076019], [9.90736678167305, 46.380874401807574], [9.907010680171757, 46.38082429161972], [9.906903451690537, 46.380875998498134], [9.906798879862961, 46.380879155914506], [9.906640249070415, 46.380830273887895], [9.906138126039087, 46.38063726128033], [9.9056851957975, 46.38040052792031], [9.905341778942876, 46.380265282055575], [9.905210441520385, 46.38014473019195], [9.90494760551037, 46.38015358048362], [9.904810449609744, 46.38010521292771], [9.904648461856677, 46.38000345734901], [9.904500359434467, 46.37996170955608], [9.904476312041842, 46.37987549063092], [9.903843983818135, 46.37963323881076], [9.903819255448656, 46.379596435334776], [9.903596604569543, 46.37960653111181], [9.903316450502489, 46.379687376848686], [9.903104085540983, 46.3794538714146], [9.902904008956739, 46.37935032153988], [9.902637435162813, 46.37927499129266], [9.902503433732718, 46.3792934924461], [9.902385927053079, 46.37926081244125], [9.901782956247617, 46.37900336167384], [9.901353432959084, 46.378943278606485], [9.900873663360661, 46.378677035349064], [9.900777154928344, 46.37849279006123], [9.900795825605964, 46.378446006570265], [9.900560238540795, 46.37815000095694], [9.900490755453953, 46.37811153153002], [9.900352473804576, 46.378113624828885], [9.90018346286593, 46.37802158180153], [9.900056477359849, 46.37777895290316], [9.900163332464832, 46.37766376967732], [9.900134922322682, 46.3773883432006], [9.899841674679587, 46.377356585192295], [9.899402911383913, 46.37723523245057], [9.899031940712343, 46.377230641960296], [9.898803527919815, 46.37696181699154], [9.898511247498352, 46.376738371977844], [9.898117641002635, 46.376679506122116], [9.897905350176313, 46.37677147673433], [9.897594609475178, 46.376811528642946], [9.896902959694208, 46.37676290816721], [9.89674584680699, 46.37672603415689], [9.896624800929644, 46.376779528746596], [9.896446746975311, 46.37679853092342], [9.896338358254512, 46.3767209074258], [9.896075882802732, 46.37669138183721], [9.895761891790299, 46.37653536581598], [9.8954623351135, 46.3764981905412], [9.895446500338911, 46.37646093119824], [9.89505329394897, 46.376292274124594], [9.894741234916816, 46.376236801701964], [9.894665657423063, 46.376151732222525], [9.894392063466865, 46.37600588909284], [9.894242378411583, 46.37581844785067], [9.894177223436937, 46.375813109017976], [9.894153917746573, 46.375750684364775], [9.894072586248642, 46.375727846846864], [9.894049855523804, 46.37567816129933], [9.893892517435466, 46.375636611337406], [9.893458854464102, 46.37568033817459], [9.89318058673861, 46.375570893721076], [9.893092804673138, 46.375480146360445], [9.89299041754262, 46.375510371400196], [9.892921686145376, 46.37539807002451], [9.892454626293816, 46.375382998762746], [9.892030646132726, 46.375300625505545], [9.891975957316301, 46.37526186653288], [9.89189956763399, 46.37527292393865], [9.891656396328653, 46.37491474854593], [9.891544832073082, 46.374840293695726], [9.891078902579633, 46.374752587764696], [9.890691070177002, 46.37459358304799], [9.890446839057098, 46.374591100872486], [9.890291497128134, 46.37454858121345], [9.89022474360928, 46.37445382972726], [9.890250982441747, 46.37438236176446], [9.89018741475003, 46.374358189413854], [9.88985688193833, 46.374315155798314], [9.889749601103093, 46.374329096791506], [9.889322832189194, 46.37418525362207], [9.88910330342552, 46.37403771475893], [9.888978574834367, 46.37388806200358], [9.888660381878273, 46.37379571548355], [9.888578815482546, 46.373823346704064], [9.888193273544141, 46.373748419666136], [9.888124827258332, 46.37377897825995], [9.888061670518766, 46.37372242960709], [9.887968031007535, 46.37372688455249], [9.887908513220147, 46.37379108889679], [9.887834453225619, 46.37380727185405], [9.887643598128701, 46.37377406816294], [9.88747547619137, 46.3736890986043], [9.88724026967212, 46.37369744151551], [9.886764940987868, 46.37354284566474], [9.886623799961876, 46.373296853089606], [9.886549594878261, 46.3732645375509], [9.886273891904438, 46.37317689847743], [9.886191579864036, 46.373175617149144], [9.886070254608962, 46.373254667134276], [9.885707783641761, 46.37329899585628], [9.885432359178667, 46.373406545603295], [9.885049364824823, 46.37345704376386], [9.884288932957096, 46.37363597049441], [9.88422187597424, 46.37363620363164], [9.883655461400435, 46.37340813993202], [9.88373274859299, 46.37315221575014], [9.883883853242487, 46.37305069022778], [9.883716403264096, 46.372834833639224], [9.883712546449189, 46.37265773249079], [9.883793511261297, 46.372421726111014], [9.88373285093543, 46.37236795495686], [9.883754893426065, 46.372311191940334], [9.883679348332757, 46.3721308124979], [9.883521973239167, 46.372034821043584], [9.883586315447888, 46.37182026406657], [9.883537390781537, 46.37168844201242], [9.883488514673218, 46.37160907129338], [9.883364192076856, 46.37157459923089], [9.883196164725339, 46.37140372234133], [9.883212323329836, 46.37124857515139], [9.883151679101257, 46.37117780207607], [9.88302963913585, 46.37112581311666], [9.883037969473435, 46.37100042464576], [9.882929371645885, 46.37097927655065], [9.882927514874895, 46.37089963082857], [9.882866859160305, 46.37090020079342], [9.88270450656311, 46.37079141967937], [9.882635196195618, 46.37069504003116], [9.882434528905197, 46.37061290387141], [9.88238350525859, 46.370494403503315], [9.88242652372087, 46.370387437182984], [9.882389316459824, 46.37019120849535], [9.882424775019375, 46.37013352633192], [9.882360646483827, 46.37008786467045], [9.882120165431974, 46.37006806360726], [9.881909549604867, 46.3700013192586], [9.881829566532115, 46.369939323404815], [9.881829896865836, 46.369875570498635], [9.881863521550052, 46.36981034168105], [9.881912560606548, 46.36980677386376], [9.881905109549326, 46.36971836511279], [9.881780146303887, 46.36955486261242], [9.88141203389431, 46.36932160664087], [9.881362772459777, 46.36919745850653], [9.881401944432099, 46.369111397935974], [9.881276580276818, 46.36903373480674], [9.881310801956383, 46.368933824436084], [9.881054199877427, 46.36871488093362], [9.880906277374251, 46.36868651410961], [9.880745975172323, 46.36858677113006], [9.880604893652592, 46.36846771518268], [9.880587613174814, 46.36835472142857], [9.880489779123915, 46.36834182422808], [9.880425978547846, 46.368265754248746], [9.880046562502029, 46.36811397565935], [9.879830878033903, 46.3680827369667], [9.879752660508109, 46.36800062241029], [9.87965772733198, 46.36800478085662], [9.879536919689977, 46.367945883926545], [9.879453035407561, 46.367954253485614], [9.879247817661838, 46.36782672158122], [9.878950804563686, 46.36785113480135], [9.878899057617218, 46.36780570959128], [9.878883231067276, 46.36769661796331], [9.8786362350175, 46.36759173060726], [9.878409712176701, 46.36739090642074], [9.87828071344147, 46.36734318434888], [9.878204258609236, 46.36724124666204], [9.87806511645612, 46.367197522116264], [9.877889957983015, 46.367045841978694], [9.87762247156044, 46.36691103619179], [9.87709201018315, 46.366726640265654], [9.876546470637662, 46.366609898668365], [9.876516102008477, 46.366546814749604], [9.876195517046998, 46.36631994828501], [9.875962245342992, 46.36622624555913], [9.875621032268967, 46.366012709007094], [9.875389423474921, 46.36579439112452], [9.875316207161964, 46.36579421043233], [9.874958513311839, 46.36565279191375], [9.874790714364678, 46.36563660130493], [9.87468468964022, 46.36546099477909], [9.874620424714454, 46.36542503499643], [9.873968440594451, 46.36523887836929], [9.873393704197712, 46.36509382572436], [9.87320951717629, 46.36497418954702], [9.872125424270546, 46.3644860916512], [9.87188784304163, 46.36428423349947], [9.87171119497631, 46.364068446923994], [9.871368675798154, 46.36379282839296], [9.871086457277562, 46.363384387410505], [9.869883459679667, 46.363020184190496], [9.868808102267485, 46.36255551871488], [9.868205888661139, 46.362361368879256], [9.868121916189098, 46.362540190275666], [9.86809928381877, 46.36275140955056], [9.867958250704875, 46.363056868195024], [9.867804041512139, 46.36316550143543], [9.866914169388894, 46.36334192806183], [9.866819403960726, 46.36339495358096], [9.86662983641903, 46.36377346855151], [9.865944636980911, 46.36419610294253], [9.865601144476488, 46.36462453496148], [9.86549383271824, 46.364646499351046], [9.864861285701894, 46.36460759864266], [9.864095472154114, 46.36433623388027], [9.863566682430983, 46.36419045208866], [9.863443936635433, 46.36413434656255], [9.863315962480725, 46.36398677009162], [9.863225636565529, 46.36371046415764], [9.862663555167721, 46.36340166865169], [9.862502967723842, 46.363412512556124], [9.86264450268113, 46.363646091421046], [9.86247977778702, 46.364281840808], [9.86210551020197, 46.36443678170938], [9.861591841182914, 46.364535278157796], [9.861389711195717, 46.36451838913899], [9.861292683843532, 46.36446029977877], [9.860609194846932, 46.36375874679109], [9.859948318042777, 46.36339411601861], [9.859728502016086, 46.36356531334067], [9.8594057220666, 46.363729215345536], [9.858872989334042, 46.36390633177308], [9.858116330103925, 46.36406729407088], [9.857619959707128, 46.3640964137637], [9.857166184027198, 46.3640752025083], [9.857056629887216, 46.3640489391229], [9.856870712395827, 46.36377051707296], [9.856622365801023, 46.363217624873485], [9.856384465405387, 46.36298665719956], [9.856305978807214, 46.36281920840672], [9.856171599009697, 46.36274241977491], [9.856091438389505, 46.36285508890449], [9.856069125312317, 46.363258533001925], [9.855707871523578, 46.3632572063379], [9.855515499867815, 46.36311914915959], [9.855311456473975, 46.363272010448256], [9.855183638738296, 46.36332311158508], [9.85500890278861, 46.363328926939225], [9.854910118568277, 46.36327701666546], [9.854685016630086, 46.36325966056422], [9.854604107710374, 46.36320627994382], [9.854387464972927, 46.36327792352546], [9.854289403919452, 46.36324252204349], [9.85426563243366, 46.36311199277322], [9.85408017044298, 46.36305895485191], [9.853913389670925, 46.3630635208418], [9.853485297378363, 46.36346224121417], [9.853318699737173, 46.36358997250062], [9.853181532220619, 46.36359127194335], [9.85306397705911, 46.363729090545206], [9.85288428965955, 46.36382149761611], [9.852791368951282, 46.363946749031314], [9.852663986924915, 46.36394947596415], [9.852441096848732, 46.36362852709923], [9.85246739770896, 46.363510410975664], [9.852408158773468, 46.36343587761105], [9.852231702084637, 46.36338363384087], [9.851704303263295, 46.36357867113195], [9.851654617097925, 46.3641210513809], [9.851701235283507, 46.36426176845005], [9.851168158634897, 46.36436694185268], [9.85038139710915, 46.36431267596947], [9.84944404504283, 46.36429988483527], [9.849149348158985, 46.364379005873204], [9.848758212284134, 46.36416639580564], [9.848726506315668, 46.36411459241937], [9.84864318918977, 46.36389436635475], [9.848650443339622, 46.36348286491252], [9.848558521463586, 46.36340941867916], [9.848262883464836, 46.363463078080194], [9.847788033773032, 46.36337999838902], [9.847350394786966, 46.36311978271177], [9.847482396591877, 46.363089868825305], [9.847563484493145, 46.36294494057689], [9.84643164509332, 46.36270068627575], [9.846297064355698, 46.362553681598385], [9.846023650224518, 46.36186280938168], [9.845929847625682, 46.361794262664915], [9.845719566192571, 46.361747937778965], [9.845597961807824, 46.361801461943486], [9.845404078113631, 46.36179455778173], [9.845273439003645, 46.36188124836118], [9.845094476637364, 46.36189954032985], [9.844511347813135, 46.361685322190425], [9.843849439968949, 46.3618710746134], [9.843758370687208, 46.36185068845785], [9.843656950876383, 46.36176565201039], [9.843495935443723, 46.361723343037454], [9.843466696008841, 46.36165726454614], [9.843167301085971, 46.36163763635284], [9.843033085914232, 46.36153651834937], [9.84290810755578, 46.36164280386861], [9.842772299861513, 46.361690404518534], [9.84237297744818, 46.361605525793586], [9.842200964697017, 46.36153350695881], [9.841954322744133, 46.36151172481475], [9.841890229306497, 46.361538626149645], [9.841885095582121, 46.36161150695646], [9.841621001545457, 46.3616377314345], [9.841496216141337, 46.361766672086], [9.841284504803953, 46.36181419552595], [9.841238379850955, 46.36188693281848], [9.841074438267567, 46.361942376455076], [9.84100835752849, 46.362067226270796], [9.840599886134537, 46.362156483095426], [9.840432909849628, 46.362246775573944], [9.840197933303859, 46.36250665547233], [9.840082145223791, 46.362426455574955], [9.839679516032652, 46.36225162590249], [9.839013873453524, 46.362205597573464], [9.8389540649366, 46.36215097619558], [9.83889995606999, 46.36215383257048], [9.838701460178989, 46.361944967701255], [9.838678730842377, 46.3617565977788], [9.83854910617942, 46.36171568246683], [9.838421466480288, 46.3615687621736], [9.838330787832186, 46.361611586363345], [9.83828667805309, 46.36155037624907], [9.838129274048958, 46.361525907806545], [9.837858865615537, 46.36125053189982], [9.837669882819359, 46.36114649981758], [9.837541952386092, 46.36100581466955], [9.837031526282304, 46.36100733177954], [9.836896820151114, 46.360931953401405], [9.836518310712316, 46.36083539393619], [9.836020532629686, 46.36077466915003], [9.835931691486287, 46.36070773790683], [9.835812477420918, 46.360676881326526], [9.835443244846948, 46.36064722664139], [9.835028267871634, 46.36066144133322], [9.834852256504597, 46.36073306663746], [9.834673391886955, 46.360669926139686], [9.83452271322774, 46.36067487698037], [9.83442143281313, 46.36060060099895], [9.834368521083205, 46.36061494076864], [9.834329128339434, 46.36070589702192], [9.834017201810708, 46.36084073120192], [9.833401296741547, 46.3610068319486], [9.832971505629374, 46.36103946195471], [9.832665901301645, 46.36097341029227], [9.832247583713174, 46.36069834474743], [9.831983898600319, 46.36058108910142]]], [[[9.75423580545266, 46.556562923343314], [9.754320903431683, 46.55662505991569], [9.755197274015307, 46.55726507621066], [9.755592611958756, 46.55783531822171], [9.755881448701558, 46.55836923538569], [9.756095512418735, 46.558985293173635], [9.7565346757467, 46.55894091575173], [9.75690242382361, 46.55899666763729], [9.757266217233594, 46.558973622946304], [9.757509656650477, 46.55899686880845], [9.757851284298882, 46.55908859406377], [9.757956981808839, 46.55910460628587], [9.758060535783919, 46.55908612280567], [9.75828709872832, 46.55897502349312], [9.758543693124341, 46.55896370872702], [9.75880767648743, 46.558854152026534], [9.759242784225762, 46.559010923075114], [9.759255092131557, 46.559007692974106], [9.759723784972152, 46.55888572345041], [9.760049830077271, 46.55884678317504], [9.760238089369361, 46.55860535892502], [9.760440696086512, 46.55845116035308], [9.760852065351132, 46.558461214858376], [9.76149874682863, 46.55860715207051], [9.761711538399513, 46.55851151241452], [9.761969477690531, 46.558565468648595], [9.762193876331763, 46.55863735414803], [9.76233676938661, 46.558816038511274], [9.762694739579608, 46.55905417422977], [9.76294428976922, 46.55898235042985], [9.763189163340492, 46.55893984368767], [9.763337340720012, 46.559113706620245], [9.763473452934372, 46.55922994857379], [9.763591446015614, 46.559297334873975], [9.763897360998754, 46.55942988638644], [9.764148222591514, 46.55956403914592], [9.764506005437235, 46.55978049874394], [9.764767449732108, 46.559905838202376], [9.76520835669816, 46.56005241637354], [9.765420836346978, 46.560145190419085], [9.765621735675595, 46.56036847052192], [9.765935778846243, 46.56076515135456], [9.766141450598376, 46.56088486484848], [9.766194343107605, 46.56118252627724], [9.766461492064977, 46.561463092233424], [9.766802492747965, 46.5615451612965], [9.767044637743572, 46.56163152247182], [9.767282122432125, 46.56163329953234], [9.767775505969375, 46.56154631015482], [9.768082309448179, 46.561531681892234], [9.768374640841209, 46.56160812153888], [9.768672996840207, 46.56173597667707], [9.769674012718994, 46.56203706169361], [9.769716902566358, 46.56191213044368], [9.769833633448865, 46.56184785580745], [9.769989007549878, 46.56180927326334], [9.770389560710836, 46.56179595507984], [9.771310123338159, 46.56171083993445], [9.772870611959723, 46.56188773532958], [9.773403735094682, 46.56199224091044], [9.77378610077202, 46.562045710067665], [9.774371294885622, 46.56196908780812], [9.774683239202341, 46.56195713564545], [9.774950821866858, 46.561965722159435], [9.775280461664678, 46.56202782330425], [9.775772842157432, 46.56221640722291], [9.775956515166902, 46.56209058723729], [9.776103743729614, 46.56203419088165], [9.776294288371563, 46.56200463175628], [9.776828036797633, 46.56198636345559], [9.777156673644928, 46.56199870937767], [9.777493664688391, 46.56205128130632], [9.778090188711282, 46.56217701380348], [9.778335165612306, 46.562264434109956], [9.778690920304998, 46.5624233896058], [9.778953369903714, 46.56251864760805], [9.77934481674925, 46.562702458866355], [9.779491869481362, 46.56272310014399], [9.779908882913476, 46.562680846111064], [9.780150311381394, 46.5627486238006], [9.780320857614127, 46.56282372106592], [9.780495531350029, 46.56299537846697], [9.780658160418431, 46.563060830423666], [9.781099532050268, 46.563080886251754], [9.781293674449236, 46.563148155560285], [9.781476991477492, 46.563232080884816], [9.781639572843153, 46.56323491419192], [9.78203438851174, 46.56316726114679], [9.782308327293872, 46.563071519762474], [9.785035237111062, 46.56305169732704], [9.78584324490739, 46.563469840739884], [9.786217747215423, 46.5636938331832], [9.786573264317141, 46.5636866532958], [9.787557255509345, 46.56398140647731], [9.787718703998873, 46.56419998289131], [9.787857835481098, 46.56435141538682], [9.787876401664116, 46.564434593811576], [9.78772301909286, 46.56470819501642], [9.788735829736503, 46.565023324414916], [9.789473261276976, 46.56520667552424], [9.789715081754938, 46.56522941225735], [9.789922746170266, 46.56521205790996], [9.790709291390504, 46.56509218636863], [9.79122505239722, 46.56506380160559], [9.791720855840556, 46.564990228691364], [9.795336332771605, 46.56586651127305], [9.79581266752018, 46.56595485004207], [9.796621905162608, 46.566000029580515], [9.79790222236215, 46.565874897888605], [9.798811374310922, 46.565710538743026], [9.799283708013116, 46.56565619647677], [9.800424135542762, 46.56560963121378], [9.800703036185656, 46.565712490626304], [9.800756754846708, 46.56576801872678], [9.80076568670813, 46.565857514647945], [9.800707989878708, 46.566052395887716], [9.80071759019858, 46.56633915126463], [9.800839926566587, 46.56655675232987], [9.801327528792289, 46.56652365100296], [9.801878081397717, 46.56650876391008], [9.802032416676886, 46.566526290975006], [9.80243123256684, 46.566615205094045], [9.803876745581404, 46.566859672050846], [9.804656389291166, 46.566813590020026], [9.80531976028665, 46.56680815533327], [9.805994190252616, 46.567267390743226], [9.806751917527157, 46.567243988610144], [9.80708552523868, 46.56721745758633], [9.808109293285389, 46.56721406281089], [9.808960440309958, 46.567296189990515], [9.80941704821127, 46.56737181718297], [9.809635718158976, 46.567423760628934], [9.810100423423753, 46.567601832867446], [9.810505684599, 46.56771425661455], [9.810960453672678, 46.56781771710739], [9.811286366041793, 46.56786206968748], [9.811924460372332, 46.56791199184738], [9.81355529638757, 46.568198667900305], [9.814143259753962, 46.5683260598805], [9.814880644614384, 46.568324680737526], [9.815074892015206, 46.56836830937873], [9.81524959086427, 46.56844663611221], [9.815403810895061, 46.568550085930575], [9.815469676035466, 46.56863511653294], [9.815504221680792, 46.56874445346001], [9.815508440655742, 46.56902547038473], [9.815434355475132, 46.56969378185743], [9.817594097643013, 46.571145407569766], [9.818399456897255, 46.57115084792964], [9.818411941362617, 46.57114837297483], [9.818805283085464, 46.57106757450095], [9.819493367862965, 46.57101189983891], [9.81965211253763, 46.57108971712102], [9.819931052953633, 46.57134148670462], [9.82012176207788, 46.57146742035101], [9.820297782707177, 46.57156029827786], [9.820606687044148, 46.57169002179703], [9.820864172652277, 46.5717469836805], [9.821641373720487, 46.57188413260334], [9.821813987838729, 46.5718897847018], [9.822061433166231, 46.57186681254032], [9.823162982457006, 46.5719712840344], [9.82362233118808, 46.57196980312595], [9.823919829059346, 46.57202028835912], [9.82431378222781, 46.57200636931141], [9.824879920115489, 46.572070902997424], [9.825115099387412, 46.57211981976541], [9.826733150182957, 46.572345644005075], [9.827268934885788, 46.5727017147411], [9.827639693444626, 46.57298804864104], [9.827853817890189, 46.57307884206831], [9.828114296829426, 46.573141273788686], [9.828394622974063, 46.57317292255137], [9.82896297141998, 46.573184356544004], [9.828975189279811, 46.573182048087354], [9.829236474435612, 46.573134800038886], [9.82923723336135, 46.57313455009124], [9.829681852790344, 46.57298197492765], [9.830116807092788, 46.57288766959122], [9.830271625278368, 46.57282510713149], [9.830430189852247, 46.572738670353466], [9.830886889471836, 46.572597923786546], [9.831374284856887, 46.57241332985979], [9.827980498009687, 46.565281921072966], [9.827855364859394, 46.56474777380598], [9.827611624577655, 46.56308492202344], [9.827535040018669, 46.56281896480311], [9.82490680913851, 46.560872529377946], [9.816794180688197, 46.55342705502914], [9.816409745319076, 46.55273581155908], [9.816257303922399, 46.55253200819159], [9.81616448550409, 46.55234944538166], [9.815933236814594, 46.55213378651049], [9.81579875013618, 46.551893594332654], [9.815068086139151, 46.55070285768419], [9.814889571401439, 46.55049959260064], [9.814667221896725, 46.55033774426394], [9.814002353997271, 46.55005014084259], [9.813755734950123, 46.54992929031561], [9.813385695914118, 46.549671525869755], [9.813090296926703, 46.5494797051011], [9.812418137961153, 46.54932273490222], [9.81209667454723, 46.549131442865594], [9.811519898269827, 46.54891848348577], [9.81103079431647, 46.54877119758463], [9.810400517834996, 46.54867633781806], [9.810162585241178, 46.548604806884285], [9.810047275244168, 46.54850370547268], [9.809808949256624, 46.54842318176036], [9.809379276560808, 46.548441139015964], [9.809160304561694, 46.54835571148563], [9.80881596380033, 46.5480883920468], [9.808663942702609, 46.547893568082515], [9.808650926782278, 46.547745343152535], [9.808473436409708, 46.547564543811724], [9.80833878471715, 46.54746835677473], [9.80831178070203, 46.547297925666136], [9.808260262127023, 46.547164004904054], [9.808117519968002, 46.547031986741885], [9.80808498238398, 46.54673566188837], [9.808117979793494, 46.54659548302546], [9.808077332676504, 46.546411841069656], [9.808003296273403, 46.54635938795185], [9.807992844253882, 46.546269610040206], [9.808103834811302, 46.54612330422374], [9.808184803455749, 46.54603612114425], [9.808153440292271, 46.54591528215828], [9.808177556333842, 46.54572127936537], [9.808141060731776, 46.545483550382365], [9.808034269488033, 46.545278785996274], [9.808073581043596, 46.545133971652554], [9.80810757824633, 46.54486777339545], [9.808081929317327, 46.544728805390115], [9.808008505660773, 46.544541344471796], [9.808148538201952, 46.54431343333397], [9.808546984977674, 46.54432763673914], [9.808679484776766, 46.54422587873944], [9.80892690535731, 46.54406772758488], [9.809170762778496, 46.54397714764214], [9.80941284674043, 46.54384610558346], [9.8096142589555, 46.543679911866505], [9.810022807308087, 46.54332941315867], [9.81020946982216, 46.5431898927258], [9.812348661671471, 46.5429793653135], [9.8126746327105, 46.54297706146611], [9.812897538924855, 46.543003900803946], [9.81319942216497, 46.54304709006781], [9.813576928578547, 46.54303020975676], [9.813803394266325, 46.54298947824371], [9.81407763467089, 46.54314573977473], [9.814360961659055, 46.54321182354495], [9.814688712952869, 46.54324996910883], [9.815053781796095, 46.54324685244439], [9.815437408255116, 46.54322082828694], [9.81579852569185, 46.543127784828926], [9.816001095755166, 46.54298854941006], [9.816396960274256, 46.54294426598235], [9.816598942632963, 46.54294004073693], [9.816932616027684, 46.54296456435388], [9.817226209964879, 46.54296741941917], [9.81761240898906, 46.542999855541225], [9.817966819976288, 46.54305093663257], [9.818479193529452, 46.54313472336911], [9.818699934295243, 46.543112104247456], [9.818873688709546, 46.54320746200076], [9.819145562570599, 46.54316127780406], [9.819392945367282, 46.54300310160869], [9.81962118451014, 46.54300281773234], [9.819811507783042, 46.54288183451744], [9.820164105654658, 46.542595450669566], [9.820382263417303, 46.542514385084154], [9.821148713690606, 46.542444338627874], [9.821483757403938, 46.542351817800636], [9.821777329106549, 46.54220616485159], [9.822114148112425, 46.542154099497886], [9.822361344892489, 46.54199142844531], [9.822816978153726, 46.54167587277637], [9.823110737988413, 46.5415347094921], [9.823436504349564, 46.54152788156609], [9.823842040496803, 46.54155536936809], [9.824109341013633, 46.541405760669605], [9.824271431198937, 46.541384358437206], [9.824612406361458, 46.54142670527965], [9.824881516011043, 46.5414660524924], [9.825069667075237, 46.54144410159145], [9.825283284680676, 46.54140812474809], [9.82544834831102, 46.54145415608848], [9.82579980613, 46.541586267741124], [9.826058862305864, 46.5416933391974], [9.826268939324569, 46.541724923515154], [9.826438733700998, 46.54173035412016], [9.826621361219317, 46.5417310243049], [9.826794705333924, 46.54181738200714], [9.827465219337565, 46.541938287442704], [9.827791383682891, 46.54194042900664], [9.832656860502475, 46.54209905650465], [9.836924427301186, 46.54209725105246], [9.838315231987345, 46.5421065902341], [9.839907303590422, 46.541713875398905], [9.841094608356526, 46.54219276899829], [9.842331661762826, 46.54264629759413], [9.843490421772351, 46.54315727778374], [9.844068584364575, 46.5447200191564], [9.845306812306196, 46.5451392979762], [9.845568725733504, 46.54530924910893], [9.845657315760588, 46.54554137021417], [9.845566947021805, 46.546002276720756], [9.845858359516056, 46.54595560597323], [9.846262538291015, 46.545951542437805], [9.846672921643783, 46.546086845716204], [9.84699820131423, 46.546214951640316], [9.847524161907042, 46.54645580959006], [9.847646652134062, 46.54657021159671], [9.848164101837739, 46.54676623999657], [9.848427834523124, 46.54697664598278], [9.848667604755102, 46.54738106077238], [9.849076603456618, 46.547484886078166], [9.849367409734164, 46.54771721636372], [9.849568397275739, 46.54798295191192], [9.849941713517055, 46.54816403142917], [9.85059851747715, 46.5483246930983], [9.85196452810279, 46.54847658987114], [9.852431784324816, 46.54857016552932], [9.853548465210359, 46.54889294592722], [9.853883209748709, 46.548939831716524], [9.854155282422973, 46.54889805008813], [9.854597776155108, 46.54887514302914], [9.855060419516105, 46.54886530488391], [9.855402268722925, 46.548925532994154], [9.855707321150788, 46.54889204484135], [9.855906308050557, 46.54882031311103], [9.85620296070607, 46.548890500923754], [9.85658270372814, 46.548922929388546], [9.856935579333301, 46.548937920389314], [9.857267097850977, 46.54891286522544], [9.857478294702515, 46.54885167124311], [9.859202245298423, 46.5480517667509], [9.862166641727459, 46.547484580716464], [9.864682159004827, 46.54670835425111], [9.868309110444695, 46.546385409336786], [9.871011183148232, 46.54695211562421], [9.875511810111592, 46.547872322218964], [9.876936713145241, 46.54817071654527], [9.877589198246175, 46.54836974185707], [9.880021058420656, 46.5491248177736], [9.880971155347197, 46.54939689780378], [9.88362958948632, 46.5487366583519], [9.886295101949832, 46.54776144283264], [9.886105916844347, 46.547578902605544], [9.88541582693672, 46.5473886070555], [9.884067724418667, 46.54637973422028], [9.883564806152965, 46.54591069312143], [9.882753007965052, 46.545576641436455], [9.882049659393909, 46.54502522420436], [9.88229761049057, 46.544666281414315], [9.882568131627528, 46.54452062918898], [9.882872853108859, 46.54462269646135], [9.883067640534884, 46.54415857009008], [9.88291715625329, 46.54397494897057], [9.882862034100437, 46.543787261253], [9.883296745405858, 46.54371873535441], [9.884283939670704, 46.54478538801382], [9.884786467611983, 46.545121522951995], [9.884882228495897, 46.54520271180409], [9.885171882360469, 46.545472425977266], [9.88520836322175, 46.54545418068683], [9.885474978554507, 46.54571079101161], [9.885645460343222, 46.54586615060028], [9.88599260176012, 46.546149295079125], [9.886544081091133, 46.54667048894008], [9.886607552050018, 46.5467713349101], [9.886597744294782, 46.54677684717639], [9.886779538751341, 46.54705781767414], [9.886927551426105, 46.547269351543406], [9.886999662729167, 46.547441471288096], [9.88713066601307, 46.54797580540326], [9.887140957321344, 46.548190521766166], [9.887133805567347, 46.54852970589212], [9.88719247459906, 46.549171176773505], [9.887595541852862, 46.54903786973287], [9.887903227700894, 46.54897929170254], [9.888780245559849, 46.54882917804001], [9.891736757679062, 46.54829899775385], [9.892581278831383, 46.54813748670958], [9.893452507355141, 46.548004363559606], [9.894267189324523, 46.54790413544843], [9.89768257072301, 46.5476660144238], [9.897931181170408, 46.54766356934291], [9.898134527319224, 46.54766802511054], [9.89833744499843, 46.547678258970734], [9.898517156122741, 46.547692216741304], [9.898718273705288, 46.5477133518149], [9.899014194194207, 46.54776247636596], [9.899307732690588, 46.547818006039606], [9.899598612393282, 46.54787988349273], [9.899900147838453, 46.54795146509858], [9.900997401981995, 46.546128003645386], [9.896612612477092, 46.543997946816006], [9.896861619090249, 46.54381940964952], [9.900499349953515, 46.541262056787744], [9.910986412195815, 46.53742029560197], [9.9191663857894, 46.53579531197546], [9.91950205462157, 46.53560123174719], [9.919916845961692, 46.53540317299983], [9.92028117083485, 46.53524220869606], [9.920627916210744, 46.53498263481803], [9.920890396541422, 46.53473389926102], [9.921150883561793, 46.53458420738069], [9.921375377391023, 46.53450280228878], [9.921738879317942, 46.534323841736445], [9.922106803380817, 46.534099799325574], [9.922532952771764, 46.53386548318572], [9.922944302589604, 46.533734990438866], [9.92338965374518, 46.53363525387269], [9.923831517844116, 46.533459080201524], [9.92432268210423, 46.533362836733005], [9.924785610063124, 46.533361709325504], [9.925087324405174, 46.53340011674913], [9.925286479080604, 46.533476760002884], [9.925484186811534, 46.533238427764374], [9.925714463190896, 46.5329993823611], [9.92597464927447, 46.53270118231949], [9.926310799888325, 46.53249582002276], [9.926627626065658, 46.532295380206435], [9.927186915297057, 46.53212113215293], [9.927509513015718, 46.532046566554605], [9.927809479232048, 46.53190499439375], [9.928119575647642, 46.531700197506396], [9.928533671671026, 46.53148863774191], [9.928846565231606, 46.53120277486225], [9.929453406269854, 46.53092873193443], [9.929835324114924, 46.530726594482424], [9.930200001062675, 46.530574597171544], [9.930613183175778, 46.53048453601593], [9.931029760153004, 46.53032689860512], [9.931468762341837, 46.53023177795131], [9.931869210438112, 46.53023649376551], [9.932173659861277, 46.5301522569257], [9.932345237081496, 46.53003685250874], [9.932438965340639, 46.52988419371448], [9.932594648478572, 46.5294596191773], [9.932896343974281, 46.52889417302126], [9.933065755577735, 46.52863966322972], [9.933277531870523, 46.52839333978176], [9.93381686787611, 46.52811061166259], [9.935262940150512, 46.527827287736145], [9.935717212297194, 46.527801143278005], [9.936168079020918, 46.52773877494325], [9.936621316822592, 46.5275750164679], [9.93708793767305, 46.52736079677694], [9.937329638854449, 46.52711549926437], [9.937857303483122, 46.5267386126004], [9.938155042380455, 46.52644161677643], [9.938680812247844, 46.52607054608599], [9.93894310950299, 46.52592611767149], [9.939575734106995, 46.525670052760205], [9.940043551013686, 46.52550629397421], [9.940657466876333, 46.52533061925595], [9.94175266135563, 46.525111967570716], [9.94335398476318, 46.52456764282784], [9.943628729897615, 46.52443480860539], [9.944054963713466, 46.524173547015714], [9.944747016958777, 46.523833242797394], [9.944990246620684, 46.5236870764411], [9.945345405289473, 46.523510218417805], [9.945451454914549, 46.52343848693767], [9.945548781986316, 46.52328826606977], [9.945714066410654, 46.52317012466502], [9.946088401961271, 46.52295735878566], [9.946179891494186, 46.52287536313216], [9.946360914992885, 46.52266777265861], [9.946695875349414, 46.52251228784925], [9.946854046232403, 46.52239940625936], [9.946985919605678, 46.522271093941505], [9.947308591759981, 46.521832289710936], [9.94746496539503, 46.52170575667416], [9.947732585019853, 46.52154101670748], [9.947965092592906, 46.52137403841309], [9.948401142947137, 46.52097598741947], [9.948969083066775, 46.520556891832086], [9.949317847685968, 46.52024865282009], [9.949338653642132, 46.520183093995584], [9.949329915777668, 46.51988179296584], [9.949357452428147, 46.51982645221713], [9.949643914736209, 46.51964321154025], [9.949834240966522, 46.519480410094765], [9.949990052953542, 46.519271759642876], [9.950253518193652, 46.51900518954352], [9.950431953538596, 46.51871515393805], [9.950471903038713, 46.518409069481415], [9.950714684612135, 46.51822282562568], [9.951122935081736, 46.518043750363866], [9.951263148414014, 46.51781150578707], [9.951209199965117, 46.51757388736016], [9.95119463074377, 46.5173987415587], [9.951226701477516, 46.516962998318945], [9.951276550117653, 46.51674764704309], [9.951482647833885, 46.5162903354512], [9.951671416232715, 46.51564718846839], [9.951669953062376, 46.51548982575322], [9.951638030875902, 46.515311860663886], [9.951955249925831, 46.515286310647525], [9.952180524727407, 46.51523760249138], [9.952532237647262, 46.51508595060275], [9.952944407024072, 46.5149422577293], [9.953092813928492, 46.51460419803724], [9.953245671745321, 46.51441562305213], [9.953264175591604, 46.51426198962733], [9.95369058873214, 46.513974633495025], [9.95354153552022, 46.51386848151729], [9.953354251395487, 46.51361821628698], [9.953275922931773, 46.513447182727184], [9.953248577665653, 46.51325057380253], [9.953136036279286, 46.51291075835793], [9.953112793782068, 46.51268630875439], [9.953199197955856, 46.512363161634475], [9.953008376545718, 46.51219545286609], [9.952721137795955, 46.5120338399442], [9.952665093164487, 46.51189516093907], [9.952578110094016, 46.51152914287187], [9.952243209316444, 46.51130391753939], [9.952405048701387, 46.511105378900666], [9.952668828113726, 46.51071032180157], [9.952679380794557, 46.51057042895449], [9.952605645691973, 46.51040446585755], [9.952412795488094, 46.51014851748893], [9.952362526736815, 46.510001333402755], [9.952164275879252, 46.50982607615822], [9.951985345786603, 46.509620449677776], [9.95136004938204, 46.50929989522724], [9.950960425815984, 46.50916911923973], [9.950878157422311, 46.50911038565962], [9.950818372349596, 46.5090282583533], [9.950820756642326, 46.50890657672897], [9.950877787906647, 46.50883944272651], [9.950938857506715, 46.50858660530025], [9.951106808352545, 46.50831725658305], [9.951119163441575, 46.508111588281245], [9.948125498544153, 46.504258383673665], [9.947406035973824, 46.50418353840154], [9.947079512103759, 46.503913235177336], [9.94672778021635, 46.50377646047146], [9.946140620724169, 46.50370848188103], [9.945962829390835, 46.50363265753393], [9.9458299789316, 46.503505007158054], [9.945663150528807, 46.50322477161542], [9.945213497154299, 46.50277755223523], [9.944787149656618, 46.50247018326479], [9.94453679320977, 46.50223581802537], [9.944411883960129, 46.50208584153736], [9.94439785354025, 46.501934487187526], [9.944274490882233, 46.501512614004504], [9.944295953350114, 46.50138184359183], [9.944387597324136, 46.501163365833676], [9.944399364613234, 46.500943077073465], [9.944353243901514, 46.50063362387548], [9.94416840433688, 46.50011566180105], [9.944166586766462, 46.49982117836243], [9.944339885253642, 46.499394326190576], [9.944381162590796, 46.499113788652096], [9.944477103571186, 46.49887697407088], [9.944523114910849, 46.498515578330775], [9.944756734421109, 46.49811009298501], [9.944812063204237, 46.49788482332192], [9.944810128282436, 46.49771427757549], [9.94474430756704, 46.49761644020999], [9.944632247467217, 46.49754453556997], [9.944318223984343, 46.49743752320122], [9.944287889979067, 46.49706755380795], [9.944170554599406, 46.4966835311228], [9.944187822618057, 46.496475920281945], [9.944165967352136, 46.49612379302491], [9.944000022597637, 46.4959518532984], [9.943922026290794, 46.49566762104452], [9.943731045511559, 46.49549418231883], [9.943312155379969, 46.495516904057716], [9.94299971206093, 46.49541589924986], [9.9425704194327, 46.49535934875591], [9.94236537286059, 46.49536225795622], [9.94211439964159, 46.495430592001156], [9.941509408901677, 46.49560814479875], [9.940997763412238, 46.49558561806154], [9.940581355421319, 46.4958588476928], [9.940089307356804, 46.496008173301036], [9.939830009324869, 46.49619903976636], [9.939406735497098, 46.49637420746526], [9.939102499580821, 46.49670292520114], [9.93868265195883, 46.49695208957068], [9.938609214656035, 46.49702777823993], [9.938400269457604, 46.497401102056244], [9.937648766787586, 46.497789585763414], [9.93733806030489, 46.49782701695985], [9.937242892469426, 46.49787833517368], [9.937068383782199, 46.49809701776482], [9.936290697326747, 46.49837335806449], [9.935565851815463, 46.49812684109256], [9.935361167545954, 46.49813777807819], [9.935079756373284, 46.49830498093966], [9.9346178765342, 46.49855343072987], [9.934506085364305, 46.49865732063513], [9.934199699050126, 46.49883955966033], [9.934035092569372, 46.49906216079361], [9.933810704249465, 46.49920234112655], [9.933709554681135, 46.49933498676234], [9.933255425847095, 46.499650872016254], [9.932713591374695, 46.49988497193683], [9.932537948542837, 46.50005293014385], [9.930595466660566, 46.50016974781767], [9.930169308614332, 46.50023221726294], [9.929697420731674, 46.5006692623169], [9.92939063357304, 46.50064056512149], [9.929058570093808, 46.50056895151291], [9.928583627510637, 46.5007371518126], [9.928326808930487, 46.501034223602886], [9.928012735575942, 46.50099924983659], [9.927643081812608, 46.50122631934667], [9.927543221638025, 46.50123494103226], [9.927430773112452, 46.501172998236996], [9.927276477084057, 46.50111359602148], [9.927136359241194, 46.50110860324201], [9.92691438453051, 46.50120041273729], [9.926631230712708, 46.50133060415812], [9.926447182665735, 46.501638950335014], [9.926320006007385, 46.501712575876645], [9.92597752347768, 46.50177000062392], [9.925796527702916, 46.50189800703854], [9.9255145061107, 46.50194436684889], [9.924766868888108, 46.502013867552], [9.92448319354198, 46.50203133434861], [9.924049038414562, 46.50192006172339], [9.92389912299186, 46.50195554448502], [9.923798253442811, 46.502044701704826], [9.923645507840105, 46.502120494251876], [9.923454523414831, 46.50217619717867], [9.923224058922091, 46.502184459607946], [9.923016255164718, 46.502229252752855], [9.922670282880313, 46.50241393178474], [9.922541228590068, 46.502447353770904], [9.922203318261323, 46.50245151033518], [9.922011655699187, 46.502492736753304], [9.921340410667732, 46.502906709144305], [9.921070301901532, 46.50296574899474], [9.920836441153783, 46.50305297566827], [9.920664288846082, 46.503061560521985], [9.920310666409907, 46.50297751105476], [9.920145715048061, 46.502990762527176], [9.919972131878035, 46.50310632736877], [9.917940226458988, 46.505274753660906], [9.91553651100468, 46.50561428482201], [9.91373514735414, 46.50618544684375], [9.911880316926064, 46.50835708938657], [9.910422986256851, 46.508529195209256], [9.90961868685006, 46.5087860949548], [9.901659277429259, 46.51012980506478], [9.900722954979509, 46.51000697792237], [9.894480329103438, 46.50916163258347], [9.894280232081215, 46.51082686968421], [9.894215172076414, 46.51225814233576], [9.891670429974955, 46.51141479944968], [9.890151771591214, 46.51093654313743], [9.886867475083495, 46.509842212578526], [9.88230511011281, 46.508358732322804], [9.882049513780585, 46.50809985503441], [9.881258335071484, 46.50840250657103], [9.880743675028066, 46.50858956000328], [9.880014609194493, 46.50883269095295], [9.879393017162792, 46.50907187855825], [9.879171551001503, 46.50917892255987], [9.878584005546761, 46.510079466892606], [9.878413694182875, 46.51042044499475], [9.87815778293556, 46.51073178823087], [9.877810046009524, 46.51124076257634], [9.877102751558315, 46.51218394714474], [9.875522925807452, 46.51425266632009], [9.875188816278895, 46.51465154865226], [9.874861257636404, 46.515004911575005], [9.874520412867927, 46.515349927427906], [9.874185518808085, 46.51567112634446], [9.87377859856625, 46.516034485380615], [9.873274323283447, 46.516419522513516], [9.872761728557169, 46.516775683591725], [9.8711574528966, 46.51784067957793], [9.868961833234108, 46.51933682027101], [9.868418097928195, 46.51969812684473], [9.868063884473958, 46.519947270169844], [9.86779148865877, 46.52015128286576], [9.867527058261597, 46.520375653892955], [9.86726978536216, 46.52062623152173], [9.86702025233396, 46.52087791237807], [9.86679249253228, 46.521143878196945], [9.866615397992415, 46.521367729782185], [9.866426669807355, 46.52163251854502], [9.866273405275559, 46.52188484017585], [9.86616371612759, 46.52210292155122], [9.866065659160435, 46.522327171254446], [9.865980127387441, 46.522552206234764], [9.86589306630819, 46.522841722292966], [9.865779857341206, 46.523537927950855], [9.86580137032756, 46.524220644407066], [9.865887700492697, 46.52483822952918], [9.866005683716203, 46.525292239516354], [9.8655577470444, 46.52482303962884], [9.86536283283577, 46.524643127557745], [9.865060263315003, 46.52437432716575], [9.864390908401763, 46.52387259206573], [9.863807040051954, 46.52350718632325], [9.863384021041455, 46.523250303923504], [9.863384347572289, 46.523622282440954], [9.863400010562286, 46.52472374559659], [9.86180188370369, 46.523970745142414], [9.859936726073329, 46.52347225177404], [9.858928045241239, 46.52376253117867], [9.857283932313948, 46.52395120953544], [9.855926443580863, 46.52411962746575], [9.852447871295212, 46.52461502449821], [9.852084804822457, 46.5246635093254], [9.849753271502205, 46.52510960226354], [9.848247395100968, 46.52588841911053], [9.846884870819371, 46.52658379661363], [9.846101404839743, 46.52696941879192], [9.842629161418401, 46.5296719416976], [9.836328414843676, 46.53250858522419], [9.835345895470391, 46.531898548734034], [9.834974283153588, 46.531910670767545], [9.834823795720434, 46.53170477039597], [9.834446479791914, 46.53165929577087], [9.834175027212064, 46.531496587999996], [9.833594491536713, 46.53138453755877], [9.833433475538293, 46.53151105128824], [9.832708051356185, 46.53154724683582], [9.831085373731442, 46.531465248534275], [9.829655898340182, 46.53198431242793], [9.829089982442094, 46.532470091533284], [9.82830064449822, 46.53285141417602], [9.827851503886599, 46.532932854523786], [9.826309011538836, 46.532493668169806], [9.82558190508778, 46.53215655720165], [9.82454686065641, 46.531930172833384], [9.823774455139278, 46.531623032704864], [9.823373897427244, 46.531595270588106], [9.823041035746838, 46.53146264983489], [9.822467091507294, 46.53144864155005], [9.822174808916573, 46.53126161813735], [9.821795091921045, 46.5311834997578], [9.821013259899457, 46.531082535698296], [9.820276309775151, 46.53092642458471], [9.820045275659064, 46.531041176998706], [9.818946447814474, 46.53110644048456], [9.818211627702274, 46.53148172750041], [9.817545626439372, 46.53150472584605], [9.816627956065178, 46.53173965700616], [9.816111947585346, 46.53231364089827], [9.815999133387088, 46.53282166537798], [9.815720291293541, 46.53329182116226], [9.815246737913728, 46.53338823965256], [9.81472276829547, 46.53363760118136], [9.81366247344919, 46.53363187244412], [9.811351096321529, 46.53582127955759], [9.810955399679525, 46.53527021090141], [9.810344286267426, 46.53499190627894], [9.810041668425868, 46.534663368932684], [9.809507637985137, 46.53448472710669], [9.808836004149802, 46.53403316952716], [9.808650166676825, 46.53398896101052], [9.808027063352403, 46.53353377154838], [9.807285094770291, 46.533219033264174], [9.806738363607137, 46.53293888166247], [9.80656664124385, 46.53306809852181], [9.80584982620608, 46.53295416202262], [9.804067945963556, 46.5319314412975], [9.803528593545227, 46.53126128581689], [9.803012751616048, 46.53083981967592], [9.802617657853393, 46.53075785558851], [9.80063066707628, 46.53122817744616], [9.799943931162385, 46.531292863133984], [9.799115818919121, 46.53123152526036], [9.79833202670429, 46.53094067297208], [9.797914539336878, 46.53063636720818], [9.796569751021167, 46.53052713045199], [9.796158025813703, 46.530419545385364], [9.795903879632702, 46.53055701458678], [9.795378711858206, 46.530513633403075], [9.795551838706407, 46.530275543548896], [9.795648485980964, 46.53001430455578], [9.795912314705246, 46.529608794935854], [9.796298704634856, 46.52930490331854], [9.793679196309546, 46.528305752337666], [9.793024291333317, 46.52791988596546], [9.792606539896793, 46.52748460577302], [9.79195467568157, 46.52732358268407], [9.791121013989915, 46.52704964334068], [9.790972906162802, 46.52658838968357], [9.789676896826425, 46.52688457928727], [9.789423595658075, 46.52670662842873], [9.788971697997672, 46.526581525833556], [9.788482713450223, 46.52663471426924], [9.787706679004183, 46.526451457144965], [9.78733412263652, 46.52651653844486], [9.786565184304072, 46.526152002433605], [9.786220486482991, 46.52576391952663], [9.786140141088138, 46.525499937285986], [9.785639581680154, 46.52484073064885], [9.785482099741895, 46.52444133825916], [9.78563724592267, 46.52374097819801], [9.786160760781856, 46.523364545982226], [9.786596613423322, 46.522905921789594], [9.78730294909889, 46.52212186148455], [9.787916161774174, 46.521717018960054], [9.78827836997728, 46.52130565852974], [9.78791918289899, 46.52114540811761], [9.787304895132472, 46.52038261452631], [9.787163680482374, 46.5198735898248], [9.787255080733177, 46.519458787434786], [9.787107755202817, 46.5188739669059], [9.785803876785561, 46.51778511964998], [9.785192667318404, 46.517488388256794], [9.786726466260232, 46.516097994982914], [9.787649466508913, 46.515329584078266], [9.787712584465138, 46.51527241793562], [9.78736665451497, 46.5148589882464], [9.786749141141238, 46.51409165097326], [9.78576240543539, 46.51332871271127], [9.784610621864955, 46.51204824585621], [9.784786397029134, 46.51102637778391], [9.784694969068108, 46.50975133120913], [9.784483171902833, 46.509381945548], [9.78462210250763, 46.50890020589776], [9.784265180882363, 46.508689233614724], [9.783912766468372, 46.50857652482866], [9.783307574841205, 46.50854903092186], [9.783083828959757, 46.50863648186285], [9.782880898313156, 46.50863209365461], [9.782197033521637, 46.5084119684312], [9.781850848256264, 46.50815631841302], [9.781428003553284, 46.507945078315615], [9.780847918227565, 46.5078284987615], [9.780167324682361, 46.50758829004405], [9.779869604719572, 46.507400186109784], [9.779318225183198, 46.50689452036856], [9.778701989350655, 46.50651587028601], [9.77836084492096, 46.5064714738641], [9.778107172234314, 46.506345312970886], [9.777437729751368, 46.506170576148726], [9.77695097408794, 46.50620344891526], [9.77661942253597, 46.5074356923714], [9.77544150176559, 46.509380020657275], [9.77410903382854, 46.50919141699109], [9.768829185111375, 46.50911346390512], [9.762910159513421, 46.5116602969707], [9.758651298418451, 46.5146013002323], [9.758506157800193, 46.51475315270594], [9.758162268388887, 46.51498965087693], [9.758102710995445, 46.51510809594266], [9.758102778162636, 46.51526088902272], [9.758134804827398, 46.51547532470042], [9.757960021108945, 46.51570764298263], [9.757739211888696, 46.515839446299864], [9.757741356144155, 46.51607064307623], [9.757639351803101, 46.516486565927615], [9.757597581817647, 46.516736757811536], [9.757563331681565, 46.517506813704685], [9.757814789670297, 46.51779311854803], [9.75796713148967, 46.518016118983475], [9.757977524588394, 46.518258662653096], [9.75793910128151, 46.518819532645], [9.757842466434475, 46.519129394251244], [9.757831093818586, 46.51930540923743], [9.757902058269167, 46.51969357827873], [9.757894679386087, 46.51999048447538], [9.757802780586236, 46.52015175311835], [9.757677078100851, 46.52045272961226], [9.757688129598746, 46.52058559088498], [9.757744729107703, 46.52071651447014], [9.757953008975202, 46.521027312473485], [9.758034860989737, 46.521257678681295], [9.758154086728695, 46.52143343784442], [9.758247635500938, 46.52151233491107], [9.758425382022377, 46.521571696939894], [9.75854911359921, 46.52172326260683], [9.758663797359368, 46.5218170370962], [9.758840333544626, 46.52206235042761], [9.759031129360176, 46.52222356944152], [9.759270876866436, 46.52233352656531], [9.759203465602845, 46.52281613302432], [9.75946413428084, 46.523146058024686], [9.75962830824907, 46.523496208276505], [9.760118826634763, 46.52413698799684], [9.760187204104247, 46.524259928355555], [9.760206557914207, 46.524446696914865], [9.760200266121874, 46.52459666959748], [9.760332624278698, 46.5247789484104], [9.760475263443638, 46.52491422050011], [9.760854818509126, 46.52533422386467], [9.761195375783927, 46.525579633094495], [9.761437259216954, 46.52573080980407], [9.761588086611036, 46.5257711485192], [9.761752802190882, 46.525798154043535], [9.761876000002195, 46.52584119929528], [9.762052049763525, 46.5259533679119], [9.762124796072431, 46.52601449074841], [9.762197214791973, 46.52611293241679], [9.7622361972104, 46.526193041218775], [9.76236737941752, 46.52660006121456], [9.762589134241566, 46.52683906610649], [9.762723949692731, 46.52694514248195], [9.762770283722979, 46.52711687801621], [9.7628924465402, 46.527455260190706], [9.762985734808876, 46.52755898754096], [9.76307484903723, 46.527589490056165], [9.763272062722757, 46.52760646777248], [9.76337105896568, 46.527630872390226], [9.763451423015972, 46.52767591694577], [9.763587027327022, 46.527800043918006], [9.763625929794618, 46.52809280569754], [9.7636266124093, 46.528249223078724], [9.76356020971636, 46.52845058995922], [9.763448668616308, 46.5286732661998], [9.763362678094243, 46.52889768502367], [9.763334091462895, 46.52913315921318], [9.763375935747574, 46.52949441104821], [9.763479795766502, 46.52957183277272], [9.763752796265925, 46.52970399292833], [9.763926437720446, 46.52981797307756], [9.764425626285416, 46.5300281098186], [9.764928598070645, 46.53016749385611], [9.76524730576917, 46.53031657779861], [9.765694777379872, 46.530449478365504], [9.76618704774042, 46.530533339989006], [9.766423878634805, 46.53058796623186], [9.766581157333947, 46.53066145651688], [9.766903325016779, 46.53074915445041], [9.767289522158155, 46.53090265902852], [9.767438150403677, 46.530982329006065], [9.767522057518311, 46.531057961456334], [9.767884072899657, 46.53154638304439], [9.767998136612157, 46.531692194889274], [9.768135567580046, 46.53178980290413], [9.768456452330918, 46.53194298226279], [9.768728059203683, 46.53212490835968], [9.769015725158512, 46.532394492328336], [9.769451274654932, 46.532717154085695], [9.769519844541783, 46.53283019462077], [9.76953091150377, 46.53325163153222], [9.76964101832501, 46.53388892308442], [9.769608486251327, 46.534072838616225], [9.769539031412801, 46.534297558458384], [9.769523507111124, 46.53454970077229], [9.769505140696367, 46.53461318209511], [9.768990284684946, 46.535320504422415], [9.768389532580725, 46.5362151232206], [9.768361618226438, 46.536319505095406], [9.76844581657345, 46.536717411376586], [9.76858035461593, 46.53706494344752], [9.768630172601092, 46.537245173297826], [9.768656919299778, 46.53746173015408], [9.7686703921374, 46.53789522358768], [9.768715668517297, 46.538086859310695], [9.768886625635817, 46.53861432032724], [9.768848189962302, 46.538746034322806], [9.768756687630455, 46.538861107193206], [9.768738575974922, 46.540745722262756], [9.768349427519217, 46.54624798157388], [9.766637783656071, 46.546634041962776], [9.76493387220316, 46.54686693150891], [9.763467312593693, 46.546795244785855], [9.761817192570698, 46.54761286345583], [9.761508755207263, 46.547809051368894], [9.7614437770734, 46.54790155472716], [9.761231922986992, 46.54835738723051], [9.761191035291047, 46.54851306157266], [9.7611231345728, 46.548666948103644], [9.761001142200648, 46.548847948588], [9.760729566195998, 46.549120292021264], [9.760582764884143, 46.549246667538995], [9.760316332562954, 46.54941798358196], [9.7598524894126, 46.54974684696713], [9.759724581591927, 46.54987099079685], [9.759504068071848, 46.54998229361103], [9.759072810603584, 46.55010792610973], [9.758878525298233, 46.55020854911728], [9.75869302077177, 46.55034998579891], [9.758464100948206, 46.55049593523305], [9.757846239594882, 46.55070536004501], [9.757769801945857, 46.55074560049639], [9.757697567823357, 46.55080934323806], [9.757632724280384, 46.55089304020343], [9.757582135797614, 46.551025359349346], [9.757483040106985, 46.551553366274916], [9.757440346755443, 46.55164774373276], [9.757380249168502, 46.552128787343726], [9.757378322511117, 46.552371376994365], [9.757101071341621, 46.55328932926714], [9.7550531656028, 46.55571408196778], [9.75423580545266, 46.556562923343314]]]]}}]}