{"type": "FeatureCollection", "features": [{"type": "Feature", "properties": {"bfs_nummer": 381}, "geometry": {"type": "MultiPolygon", "coordinates": [[[[7.441825135406528, 47.17923508691769], [7.441247696281008, 47.17867208018114], [7.441230506059851, 47.17864041891525], [7.441174243199008, 47.17689979285294], [7.442012506266705, 47.17695145308325], [7.4424979471155, 47.1769953002425], [7.442946940483637, 47.177042645392355], [7.443356518186109, 47.17709306626983], [7.44389775182234, 47.177171760362796], [7.444283943993193, 47.177238306426055], [7.444324339152225, 47.17696407312186], [7.444465698828775, 47.17679992212428], [7.444581982447278, 47.176655668522045], [7.4437244169758365, 47.176365540874755], [7.443792450974737, 47.17626813432616], [7.443868791918278, 47.17629317289733], [7.443898073692835, 47.17625248858593], [7.443862068464788, 47.17618047796605], [7.444321908297963, 47.17557202943867], [7.443326074558419, 47.17522619125677], [7.443823200390836, 47.17441888681515], [7.44396956768391, 47.17409954936001], [7.443996237032055, 47.17406740104689], [7.444135711881704, 47.17399878366875], [7.444557563204798, 47.17407118278436], [7.444973190246901, 47.17414997598236], [7.4450219546341785, 47.174125876707144], [7.445529744572509, 47.173092779231915], [7.44548164545405, 47.17303842647584], [7.444717393493003, 47.17291694376643], [7.4450969293196705, 47.17212212930652], [7.44510893921468, 47.17205123309955], [7.4452530855709025, 47.17206637316948], [7.445444615322637, 47.17198899996809], [7.445657296184187, 47.17162336225617], [7.445645272147629, 47.17143930315115], [7.445554949422717, 47.17124137805644], [7.445542936638209, 47.17115537963103], [7.445566669386914, 47.171070081022954], [7.446086300530729, 47.17034405027235], [7.4463046483558175, 47.17003097576412], [7.4470819533726385, 47.169235093561404], [7.44756951830821, 47.16875468589909], [7.447803569684058, 47.16834246542306], [7.448076851421419, 47.16781582882064], [7.448366940567126, 47.16734499452146], [7.448632844500789, 47.16708222824117], [7.449241251746152, 47.1665866935954], [7.449428799764796, 47.16637071289814], [7.449752851014332, 47.1659395475536], [7.450015721960747, 47.16561439057195], [7.449997850159935, 47.16560935517], [7.450317287651989, 47.16503463305227], [7.450559915394992, 47.164624188633105], [7.450720393004248, 47.16430202554866], [7.450961700726996, 47.163794975621414], [7.451261763532903, 47.16319592020456], [7.451829261013882, 47.16248009351393], [7.452063791384056, 47.16217049555292], [7.452371048056135, 47.161795029704834], [7.452559779237796, 47.16157335981789], [7.452770188007797, 47.16129167404057], [7.453107885018709, 47.16091772226648], [7.45339130577419, 47.160576382221805], [7.453714725126208, 47.16020189091851], [7.453920565862837, 47.15989550344125], [7.454519009440328, 47.1590872462756], [7.454678666768547, 47.15875968910654], [7.4548801221882535, 47.1584219080805], [7.454998836589425, 47.15811776038044], [7.454922655440028, 47.157750171475556], [7.454875593916934, 47.157482025121], [7.454838985331064, 47.15719758780468], [7.454774114079166, 47.15699193954944], [7.45462722753633, 47.15633480885978], [7.452033403605773, 47.15608427148762], [7.449874565791525, 47.15566803481127], [7.449048248865925, 47.15525983227185], [7.447787219004704, 47.15508401810355], [7.44119995716231, 47.151480137852126], [7.439954595520622, 47.15049986842634], [7.438733499939711, 47.15203377728597], [7.437076760315706, 47.15281401463575], [7.436622170892501, 47.15305303113122], [7.436120701354472, 47.15330076033748], [7.435664983419911, 47.1535330091806], [7.435282697684766, 47.15388345987801], [7.434909112453147, 47.154199081351386], [7.434395355171608, 47.1545075171506], [7.433807505786584, 47.154632084585295], [7.433262776718949, 47.154720492435985], [7.431645608012871, 47.15486012599068], [7.430871049044268, 47.15487813993458], [7.430469618838049, 47.155131771284104], [7.430018844969437, 47.15551303286711], [7.429689536269376, 47.155761899986885], [7.429239413242461, 47.15613191532776], [7.428859973262783, 47.156453632815314], [7.428423952039164, 47.156801868553266], [7.428011694692864, 47.15675441597038], [7.425086799596931, 47.156045680395884], [7.4239593311146255, 47.15653795152985], [7.422250684639607, 47.15638862181659], [7.422194738171272, 47.15597145329024], [7.42156222903069, 47.15552410688917], [7.419888266720007, 47.155722820387545], [7.418780849494608, 47.15652738676008], [7.418867989105207, 47.15658746011101], [7.418623570577891, 47.156700435026735], [7.418355449418968, 47.15685971024019], [7.418001273371163, 47.15714159448972], [7.417884230362618, 47.1573623851577], [7.417582620848799, 47.15768516828491], [7.4175847694558374, 47.15771933092462], [7.417743157912136, 47.15771739140112], [7.417992488274245, 47.157735527360295], [7.418094138086189, 47.15775528110274], [7.418181326821721, 47.15779572001876], [7.418549892582211, 47.15801770780396], [7.418473771860948, 47.158031743558396], [7.416266543835988, 47.15982937928525], [7.416257315187342, 47.15988395771023], [7.416195639799291, 47.15993927202079], [7.415816758072157, 47.15974733550849], [7.415262896241281, 47.15949765924997], [7.414994440747553, 47.15938577894021], [7.414778229315926, 47.159284649063665], [7.41458741743674, 47.159183290451494], [7.4143840378534005, 47.159056068735325], [7.413496388385729, 47.15844551149442], [7.413345971656308, 47.15834854943048], [7.4131822093550594, 47.158253284078505], [7.412749988788622, 47.15860104824259], [7.41280731992303, 47.15866631873145], [7.4127689878585015, 47.15868689885887], [7.412714032330755, 47.15869648345932], [7.4123068906375895, 47.158959826632966], [7.412213225789031, 47.15902979274075], [7.4121387963203516, 47.15910856025538], [7.412038903211796, 47.159236217199364], [7.411826780239124, 47.15945072750351], [7.411393987306952, 47.15984833529045], [7.411325428279522, 47.15994380705296], [7.41126173440307, 47.15999092400004], [7.41119801405069, 47.16001322433149], [7.411026820933688, 47.16022360579344], [7.410841423430828, 47.160409526607246], [7.410648187103968, 47.160651752458506], [7.410640252007425, 47.160717637154136], [7.410727527489585, 47.161035444610604], [7.410704617820965, 47.16116240017738], [7.410525988893293, 47.16133449732224], [7.410488939878778, 47.16151261163575], [7.410212976986171, 47.16215036059409], [7.411817810224385, 47.162425100224446], [7.413443527835906, 47.16317657235843], [7.415954883686463, 47.16538088973412], [7.416514589218812, 47.167274411484975], [7.416685280636306, 47.169068919389055], [7.417370652246678, 47.17025188314203], [7.418399110695974, 47.171157867625915], [7.421814963273751, 47.172302651544506], [7.426055489756377, 47.17297882492592], [7.428033951048678, 47.17354117690224], [7.4300783361699745, 47.17458470149333], [7.431588502984254, 47.176055377127604], [7.431799203005724, 47.1787240066332], [7.430908364961271, 47.18119119098214], [7.43091476944992, 47.18245494281593], [7.431706181058202, 47.183588327143056], [7.433289237439992, 47.18473072852313], [7.434595356747441, 47.18517152534601], [7.436033456104237, 47.18529749597297], [7.437431983506569, 47.18503666557372], [7.438487473623379, 47.184353081080964], [7.439925496222582, 47.180638287612496], [7.440637863027656, 47.17979277782432], [7.441825135406528, 47.17923508691769]]]]}}]}