{"type": "FeatureCollection", "features": [{"type": "Feature", "properties": {"bfs_nummer": 385}, "geometry": {"type": "MultiPolygon", "coordinates": [[[[7.347961151826489, 47.09389521049355], [7.347323313084523, 47.094276633160476], [7.348280369152625, 47.09568691250415], [7.348807638548253, 47.09671447909646], [7.349805609206036, 47.09756025608361], [7.349664269381349, 47.097994034055624], [7.348845253696977, 47.099149270959195], [7.350594983108764, 47.09985125419242], [7.35060649766204, 47.099881926719256], [7.350639141570072, 47.09990444830342], [7.347903265394976, 47.10207833312402], [7.347908673497667, 47.10211263499259], [7.347882077580347, 47.102135262920385], [7.349448783282488, 47.10267269081094], [7.349476809495545, 47.10270008426259], [7.349475424096461, 47.10273266265009], [7.348815012209314, 47.10360563607918], [7.348852932232255, 47.10361732343782], [7.3488777087456185, 47.10361130747609], [7.349596058260617, 47.103770731750444], [7.349611447085655, 47.103792997157754], [7.349650414481799, 47.1038009162387], [7.348711912207437, 47.10649972971644], [7.3519949426177265, 47.10701322739578], [7.3518509726801575, 47.107190137006974], [7.351681852272704, 47.10746295772483], [7.3515037511423795, 47.10767606319112], [7.351485668342265, 47.107728525531655], [7.351641511327228, 47.107751959740106], [7.351653561943247, 47.10777851287377], [7.35084201732896, 47.109004288227425], [7.349893691350904, 47.11037893345603], [7.349828969207845, 47.11039791611798], [7.349640835791737, 47.110369129141155], [7.34863457178594, 47.112139913825594], [7.3495183869924805, 47.11265346289498], [7.349496868408315, 47.112678451803646], [7.349508385204634, 47.11273256507914], [7.34953800886349, 47.112753420494016], [7.347894073454579, 47.11431660018911], [7.347338180416309, 47.11484561175793], [7.349823067131994, 47.11628102288355], [7.349845555684553, 47.1162834240937], [7.349966390970411, 47.116154432930095], [7.3500592518401175, 47.11619868824966], [7.3501692937528, 47.11607030911767], [7.350349988990206, 47.115846531164046], [7.350399949743281, 47.11584149685337], [7.351704472180431, 47.116417464016685], [7.352787257801848, 47.115977034741576], [7.352937974460816, 47.11589400896453], [7.353099027336417, 47.11576634920801], [7.35323076013934, 47.115631471238665], [7.353858249420574, 47.11512320004787], [7.353955612748, 47.115063654543604], [7.354060859316396, 47.11501812891757], [7.354177187175406, 47.114989036131355], [7.355828874499928, 47.11485128168798], [7.355865038445455, 47.11502320974897], [7.356006351882012, 47.11525323137683], [7.356018786163392, 47.115281286487374], [7.356656039487541, 47.11513553650919], [7.357023725399262, 47.115033871419996], [7.35708728209031, 47.1150464200719], [7.357037706825165, 47.11554597884027], [7.357037666796785, 47.115751413050944], [7.357127231645616, 47.11680081994942], [7.357168490587484, 47.11679927545834], [7.357222931541325, 47.11685428221545], [7.357279148018891, 47.1168943946838], [7.36086362065303, 47.11760610892683], [7.361069363589453, 47.11765289723385], [7.361264137006905, 47.117713169949255], [7.361540733465052, 47.11776909950722], [7.362097804668628, 47.11787008433529], [7.3626252774039855, 47.11794691333446], [7.3639873759020595, 47.11810787278563], [7.364016234712648, 47.11816321925276], [7.363119673493209, 47.12093268004736], [7.363831182401572, 47.121184864181494], [7.3659925886605295, 47.1222608419579], [7.366340579784403, 47.12248545058649], [7.366313905240209, 47.12250607681419], [7.367531489465666, 47.123311213767614], [7.36879397514613, 47.123634168125655], [7.3695987792413185, 47.1239409815084], [7.3714082380831645, 47.12254095612433], [7.37049492618811, 47.120934744837164], [7.370802578403543, 47.120060717635916], [7.371837986411765, 47.11770380224351], [7.3719730692017365, 47.11734493205979], [7.371705058524379, 47.11704768233466], [7.371487852014319, 47.11704680679882], [7.370968522863228, 47.11651463985718], [7.370922438158002, 47.116323911890845], [7.370536180386548, 47.116178206112856], [7.36970764442044, 47.115957330278235], [7.3700486291625, 47.11557142338975], [7.3702743560654085, 47.11548983249341], [7.370443758130437, 47.11538379511599], [7.370443576237284, 47.11522881324227], [7.37068698457989, 47.11476803523827], [7.37133056596879, 47.11411870167103], [7.3713925174737085, 47.11403812640973], [7.371464620642332, 47.11376637104998], [7.372106603523469, 47.11337503222787], [7.372572107938331, 47.11315590194374], [7.373077898401648, 47.112980579988], [7.373629002817206, 47.112864873010736], [7.3739968264683124, 47.11190274907832], [7.374155059548351, 47.1117459237408], [7.374399267110724, 47.1118767942131], [7.375404874275109, 47.109467283643326], [7.375885776327895, 47.108370544489574], [7.376741223828443, 47.10826967894825], [7.377131958166947, 47.108247764568105], [7.37724249435671, 47.108247329928226], [7.378351118927142, 47.107153708090536], [7.3788122973499455, 47.10664845881173], [7.37916249131572, 47.10630325804467], [7.37923853384077, 47.10620898665135], [7.379323417655127, 47.10558705288273], [7.379260139089162, 47.1051464050717], [7.378796828903274, 47.1050504912772], [7.379197988614397, 47.10423285195786], [7.379193241855898, 47.10414326037763], [7.379901841191949, 47.103151161258], [7.381342410785129, 47.101154388207654], [7.381815143495516, 47.100035948559345], [7.382203748210352, 47.09920299989598], [7.382363139125376, 47.09862043479759], [7.382512765294944, 47.098112206824744], [7.382634069646157, 47.09671085851054], [7.382029784277466, 47.09574253232392], [7.381648672456869, 47.09561248078683], [7.380733010084467, 47.095600510205664], [7.3787071366575026, 47.09620737500302], [7.377729180177357, 47.096430293649554], [7.377252614346693, 47.09621199716937], [7.376450154962309, 47.095774855737304], [7.375466812078332, 47.09494147246087], [7.374667611144948, 47.094234742882456], [7.374488313812498, 47.09336518221493], [7.374256194096561, 47.092375578428886], [7.374226289164833, 47.092155456514675], [7.374764615497863, 47.091534911750934], [7.375150629802782, 47.091207793579336], [7.375786896631671, 47.09033312891214], [7.374963364739582, 47.08955258178231], [7.374810658542389, 47.089540865316806], [7.374706617041871, 47.08952817769655], [7.374021164336546, 47.08947614807907], [7.373456329100457, 47.089537826250826], [7.37258009746471, 47.08989508256687], [7.372197248469891, 47.090150368571265], [7.371779027468476, 47.09013994899335], [7.3696886613014305, 47.089937703963365], [7.368139372759839, 47.089760224744985], [7.367028081264734, 47.08963981455593], [7.366695530668641, 47.08958567048773], [7.366384909002402, 47.0905047193072], [7.366206902573141, 47.09107900453699], [7.366009951139535, 47.09161633519704], [7.365566193471656, 47.091979311075306], [7.365209107987623, 47.0923888272992], [7.364218224560324, 47.0924301427691], [7.364009995699225, 47.092746681940234], [7.363528194488201, 47.09307905109673], [7.362245877576057, 47.092818547609], [7.3614285835610245, 47.09267431810518], [7.360770086032068, 47.092849530681384], [7.360100419286515, 47.09312826288333], [7.359492129598043, 47.0927766595553], [7.358959272385513, 47.09246308238646], [7.358719218193535, 47.092517368802305], [7.358215437169372, 47.09248070931993], [7.357063593151397, 47.09204687080914], [7.356709168542097, 47.09197071608004], [7.3560543984390945, 47.09214936613748], [7.355665627564903, 47.09230716838792], [7.35451171609953, 47.09176369862893], [7.3542831093088115, 47.09146036404268], [7.35425827956324, 47.0912805819791], [7.353527184268353, 47.0911080797472], [7.3529125902888035, 47.09102254288161], [7.35221233298876, 47.09093988781969], [7.351600828325915, 47.090836329642435], [7.351096923955727, 47.090759233449724], [7.350453252159192, 47.09065325146059], [7.350469003274016, 47.09071699288255], [7.350405962754731, 47.090895205456576], [7.350318064268012, 47.0910526203322], [7.350042001407265, 47.09138931041847], [7.3498515647992555, 47.09151720448758], [7.349761355802217, 47.09151156610881], [7.349444281544496, 47.091999939885035], [7.349144373068674, 47.092498113028974], [7.3492357882392465, 47.09259381898862], [7.349302976196663, 47.09287293037778], [7.349274336937286, 47.0931651979057], [7.34920116758126, 47.09331611112028], [7.348864545980294, 47.093617184409986], [7.348549462607529, 47.0936739537387], [7.348351246763922, 47.093637564918794], [7.347961151826489, 47.09389521049355]]]]}}]}