{"type": "FeatureCollection", "features": [{"type": "Feature", "properties": {"bfs_nummer": 3862}, "geometry": {"type": "MultiPolygon", "coordinates": [[[[9.680808811321372, 46.9539014362225], [9.674362305044214, 46.95109426492369], [9.669574100314062, 46.947092559298284], [9.672867215765113, 46.94722191989478], [9.678073355653535, 46.94702383436183], [9.680780144037232, 46.94704267397404], [9.683475403161793, 46.947385552381064], [9.684214152580482, 46.94361390412699], [9.682541268176555, 46.94175659135673], [9.682946053396936, 46.94147912984878], [9.683009413226223, 46.941467251207634], [9.683481425058135, 46.94109388217436], [9.683845176407685, 46.940712276867536], [9.684272604991305, 46.940230073400755], [9.68457369290412, 46.94005725443037], [9.684754270779115, 46.93977513925522], [9.684998663706194, 46.939669277006516], [9.685160727250429, 46.939472933865325], [9.685467066002241, 46.939388730156985], [9.685748215442882, 46.939056415194834], [9.686362040909145, 46.93874297987631], [9.68646140411295, 46.938615772611286], [9.686916679938353, 46.93851198230088], [9.687187378507456, 46.93841239215775], [9.688592816280016, 46.938196721195034], [9.688866916569886, 46.93802982740011], [9.689208884568217, 46.937921146400726], [9.689551731461925, 46.93776981951721], [9.689876865521367, 46.937391552923856], [9.690177701529397, 46.937130190118594], [9.690664824452512, 46.93695509895696], [9.691108683185838, 46.93687843258989], [9.691643480313862, 46.93690351669165], [9.691866146397127, 46.93677770153096], [9.69225149984098, 46.93685138382313], [9.692725523173719, 46.936853038331904], [9.693654034885933, 46.93679441721805], [9.693871699194885, 46.93683025535256], [9.694197267239353, 46.9367744368027], [9.695030448129257, 46.93687532694214], [9.695850032188275, 46.936902058303396], [9.696024098450833, 46.936890499739924], [9.696119227573977, 46.93679350518395], [9.695744599517027, 46.93644904202856], [9.69531334151181, 46.93628194734955], [9.69492251861898, 46.93595956968608], [9.694914716927077, 46.9356965422619], [9.69467661950701, 46.935441246731884], [9.694304619969813, 46.93522430572318], [9.693954370340444, 46.93481909142609], [9.693827760187585, 46.934365880227126], [9.693601197302801, 46.9340843395647], [9.692809969953528, 46.93378091867226], [9.692009743400172, 46.93366299331278], [9.691555033763752, 46.93341797510357], [9.691089383512566, 46.933338660516405], [9.69046241606901, 46.9328921760407], [9.69033677171997, 46.93264453208902], [9.690082414803552, 46.93242672192964], [9.689715135481158, 46.93223024513965], [9.689334298995487, 46.93205564934638], [9.68924563865359, 46.931839601081336], [9.689276588661123, 46.93152287940883], [9.689633220551231, 46.93110326843602], [9.689599862156365, 46.930749817387444], [9.689972955117968, 46.9301178676689], [9.6899790433249, 46.929698893876164], [9.689602901886046, 46.929120821962705], [9.689295103702161, 46.92896893413331], [9.688559983736742, 46.92880182290693], [9.688115076453991, 46.92842875189465], [9.687785275596706, 46.9284282220912], [9.687279176636029, 46.92855981210087], [9.686359220071934, 46.9285798324184], [9.685814458259745, 46.92837917980601], [9.685525781808126, 46.92805030337314], [9.684734353622312, 46.92799331268082], [9.684339122807355, 46.927863537003795], [9.684011914694286, 46.92761346934606], [9.683276143630188, 46.92721012589879], [9.683148554144815, 46.92698084310637], [9.682598597236208, 46.926695057963464], [9.682215616666337, 46.926142339560144], [9.682341796544112, 46.92580297519671], [9.682647363360502, 46.92565326459529], [9.682790187096918, 46.92537032042189], [9.682485207466637, 46.92478043761404], [9.682102909706506, 46.9245601872399], [9.681944866401128, 46.92431756103709], [9.682094549761462, 46.92412277141013], [9.681954506106948, 46.92391735380997], [9.681864433624353, 46.92329708898828], [9.682001951041375, 46.92299846572683], [9.682278460617132, 46.92292358389452], [9.682755958590398, 46.92293085417326], [9.683212160105246, 46.922437445128146], [9.682963098121702, 46.92223448149095], [9.6830680073433, 46.92192863091923], [9.682875941591481, 46.92169430422036], [9.682860579068901, 46.92143811899713], [9.683175904233725, 46.921026167083], [9.683428925155834, 46.920733573615976], [9.683564485146283, 46.920532759413156], [9.683904386866262, 46.92068125201776], [9.684243535594055, 46.92069351494251], [9.684363869929575, 46.92052444040856], [9.684438908229989, 46.92028034890115], [9.684704241373149, 46.92007957841684], [9.684902314172358, 46.919975893739355], [9.68502435039248, 46.91987902844427], [9.684899329395142, 46.91974738958713], [9.684708515236608, 46.91970703076925], [9.68445554046285, 46.91971918515087], [9.684073341243634, 46.919655583583854], [9.683939271848546, 46.91949623365893], [9.684050589191536, 46.91929968264642], [9.68407779547553, 46.91913356908324], [9.683927579499295, 46.918807156312475], [9.684012904751656, 46.918680397697], [9.684041351258402, 46.91854396534875], [9.684052732540275, 46.91834487544148], [9.683845555201431, 46.918038477935525], [9.683834434816577, 46.917772319661374], [9.684069872021757, 46.917529248279415], [9.68409557269319, 46.917445927276496], [9.684115400689743, 46.917123692555585], [9.684470299046158, 46.91686097150836], [9.684775787355768, 46.91661804473079], [9.685532278599634, 46.915818626823324], [9.685502155447272, 46.915528805017836], [9.685711861756852, 46.914899110923706], [9.686233629571847, 46.914406910956764], [9.686257438988621, 46.91439874930466], [9.686533315787763, 46.9139067961153], [9.686833215576064, 46.913922647813486], [9.68715657596606, 46.914049461306625], [9.687567156084524, 46.91406749153691], [9.687782186561002, 46.91384749073355], [9.688039983661524, 46.913554638296986], [9.687590443302462, 46.91325035700161], [9.687103140904949, 46.913113438129905], [9.68709166857, 46.912792771249435], [9.686261507190016, 46.911556573388324], [9.68587150786863, 46.91135377486103], [9.685674443402116, 46.91108062214082], [9.685909874089734, 46.91095007817142], [9.685877108975921, 46.910577896109444], [9.686268297624247, 46.91029178736585], [9.686440275179867, 46.9099949278708], [9.686428845656746, 46.909675169110564], [9.686776720589645, 46.909227434543695], [9.686725468287836, 46.90851320719094], [9.686548766542392, 46.90792272301953], [9.686711104892268, 46.90752340123923], [9.686973169560337, 46.90741349651132], [9.687154387917102, 46.90682496100192], [9.686982443374916, 46.90600069096422], [9.687087506083065, 46.90564139743595], [9.687333608485346, 46.905594319465855], [9.687700640189853, 46.90525409216162], [9.687873833350547, 46.904810182072346], [9.687941529282684, 46.90449287230867], [9.688362745476471, 46.90417226690011], [9.688278985798869, 46.90385249080294], [9.688370559071513, 46.903651542904306], [9.68872390361293, 46.90348320036409], [9.68914525060823, 46.90293709361842], [9.689137381473289, 46.902742564970914], [9.689451452665512, 46.90251165752482], [9.689919187032666, 46.9023759936398], [9.690006784904325, 46.902185004711704], [9.689928082579385, 46.90206359196574], [9.689533690064977, 46.90187090006192], [9.689298246554687, 46.90170833160382], [9.68943121227399, 46.90156355095442], [9.689418301884308, 46.90138816389684], [9.689634312539182, 46.901180745551606], [9.690061549003161, 46.90099971431888], [9.690341857456554, 46.90075831824289], [9.690194834414473, 46.90068084230744], [9.690303237359723, 46.90060643852497], [9.69027359068388, 46.9005164480119], [9.690395820225772, 46.900450546399], [9.690337265920485, 46.900068514557745], [9.690431819203951, 46.899953122972576], [9.690327200583747, 46.899603476640095], [9.690412508714797, 46.899438835938106], [9.690219269248631, 46.89932611159162], [9.690179110474057, 46.89915533698263], [9.690088000380092, 46.89897204883935], [9.689952587149088, 46.89866413298104], [9.689875223812665, 46.89835855786642], [9.689701212727714, 46.89825593817201], [9.6896698880629, 46.897917960188245], [9.689466513075526, 46.89774516824566], [9.689323576908716, 46.897425791267096], [9.68928645282756, 46.89712952943212], [9.689065725141381, 46.89700247852207], [9.68923383095743, 46.8967562630371], [9.68906223735962, 46.89653718454217], [9.689158458219591, 46.896280127114466], [9.689118314518606, 46.895703445968365], [9.688969640326535, 46.8953942065351], [9.688993397759777, 46.895135353228184], [9.689184647713255, 46.894996508088944], [9.689165778104838, 46.894812302131186], [9.689031177094511, 46.894709094437225], [9.688986023589825, 46.894557441523624], [9.688776686911927, 46.8943920910107], [9.68883605237149, 46.89419956089537], [9.688669400921714, 46.89412280199471], [9.688405510806298, 46.8937384923846], [9.688700583225227, 46.89333870603775], [9.688720272509103, 46.892871615554725], [9.68878709887521, 46.89272720947479], [9.688684168190434, 46.892582290588756], [9.68847125720286, 46.892522062928045], [9.688153621099772, 46.89231066994987], [9.687737142319522, 46.89223862540225], [9.687187642359502, 46.891960536249464], [9.68710414241462, 46.89182748982397], [9.686918000808705, 46.89177252999663], [9.68677251697687, 46.891245530255766], [9.686369941278173, 46.89066461452608], [9.685972235378525, 46.890236098478255], [9.68584590636681, 46.889827561764776], [9.685776716650782, 46.88941045328697], [9.685361790941709, 46.88916859486444], [9.685199796304135, 46.888899621848644], [9.684897753599255, 46.888685808635536], [9.684562280222028, 46.8886539170988], [9.684263451251883, 46.88852575415684], [9.683867263615864, 46.88825606708817], [9.683594722007763, 46.887939074990435], [9.683325986671417, 46.88788737678155], [9.683104948971984, 46.88754126946828], [9.682888043138266, 46.88748029148855], [9.682744915075578, 46.887326122155294], [9.682668011618684, 46.8870050285061], [9.682468581337531, 46.88688558372463], [9.682238020162297, 46.88659853224536], [9.682193134956773, 46.88628248861357], [9.682023727141498, 46.886066156644205], [9.682008289586548, 46.885505169232275], [9.681979291964932, 46.88509640380026], [9.681745142275402, 46.884876319495824], [9.681469409124961, 46.884426713913655], [9.68147649613709, 46.88427565385806], [9.681284049992932, 46.88395641112739], [9.681066475283915, 46.88347831642825], [9.680826228294242, 46.883232289464495], [9.680514117104977, 46.88294483558508], [9.680075099997591, 46.882665096918664], [9.680040023660775, 46.88243443969985], [9.679833416729878, 46.882338753476944], [9.679719723517035, 46.882205997266574], [9.679442709289443, 46.88196049912865], [9.67905173104264, 46.881987650802344], [9.678670693425495, 46.88178777912264], [9.678148576509383, 46.881615146239426], [9.677866373824404, 46.88157480421935], [9.677447783523368, 46.88141343258338], [9.677188396543666, 46.88107964672995], [9.67699469496864, 46.88103899211019], [9.681320036467424, 46.87698760688746], [9.68150434294801, 46.87621460091016], [9.680123725718872, 46.87501658628773], [9.677539144130213, 46.8725348376026], [9.676866229478515, 46.87000773132859], [9.677156840087555, 46.868584556963256], [9.675600574432023, 46.86654671979651], [9.674075277956804, 46.86529906879903], [9.673667417007502, 46.86545355366457], [9.673071727589663, 46.86561896974412], [9.672532349034201, 46.86573196145041], [9.671955558924672, 46.86579555881015], [9.671614744856385, 46.86579573536066], [9.671348160199523, 46.8659092161606], [9.671099907074115, 46.8659678117257], [9.670970581067467, 46.86597961441865], [9.67072125737774, 46.86607939407483], [9.67050073296343, 46.866105520816745], [9.670361450636253, 46.86608324861723], [9.670124684920262, 46.865969999204594], [9.669923264064314, 46.865903790524435], [9.669677127691612, 46.865878687934234], [9.669535590879468, 46.86573940042818], [9.669327947874441, 46.86563006278211], [9.669225857390526, 46.86563894710005], [9.669029954911538, 46.86574309632168], [9.668898111509636, 46.86574543432134], [9.668685464424797, 46.86568589631859], [9.668435123326372, 46.86574097364642], [9.66717949545385, 46.86585110617079], [9.666519538117944, 46.865811140909244], [9.666024964284876, 46.86566779354504], [9.665190173508703, 46.865481293454344], [9.664126582434559, 46.865373446923726], [9.663458977936756, 46.86534976801687], [9.663080177936, 46.86528094400797], [9.662920996009044, 46.865117119296464], [9.662634089346938, 46.864986023284715], [9.660634064802377, 46.86509751510107], [9.659081588263408, 46.86503010155575], [9.65743178794987, 46.865115849759036], [9.656621843341366, 46.86511748133973], [9.65622901175913, 46.865132885056305], [9.655600509510572, 46.86517749706168], [9.654806816654117, 46.86530416505231], [9.652998333378822, 46.86512205007266], [9.652143442797806, 46.86509694049553], [9.651415445020648, 46.86478901064795], [9.650144984817711, 46.86472228140837], [9.649291195251381, 46.864540633373736], [9.648164000194528, 46.86442811684637], [9.645568564081344, 46.86456696630688], [9.643985361487074, 46.86458536838966], [9.642831601485527, 46.864832885916854], [9.641594293921306, 46.86509064889248], [9.64125646242003, 46.865145167104494], [9.640376822443022, 46.86527166326388], [9.638911405492783, 46.865385887131254], [9.637890248827711, 46.86582596226869], [9.63712906816031, 46.86658462156232], [9.636241643138508, 46.86766259894358], [9.6356859757922, 46.868453247504235], [9.635549864913395, 46.86928440553217], [9.635481925806037, 46.86962175540169], [9.635179481691617, 46.87012985078965], [9.635100806669868, 46.87050063055879], [9.634818842234411, 46.87124044243317], [9.632286996385018, 46.8736013123994], [9.632470202648841, 46.87368509503291], [9.632623871810361, 46.873817129501155], [9.63291308943862, 46.87422779605086], [9.63327471041599, 46.87490879316365], [9.633428446953268, 46.87568602477237], [9.63376675005253, 46.87605926937746], [9.634071630682984, 46.87623698132963], [9.634412723026166, 46.87655617902943], [9.634691160754162, 46.87691528477693], [9.635129992941856, 46.87728209771425], [9.635438307340289, 46.877473229467036], [9.63573136972996, 46.87764397541913], [9.63629435062995, 46.87786891561874], [9.637012287677111, 46.87822495483425], [9.637735664025799, 46.878489106910635], [9.63821321797371, 46.87883895454586], [9.639261075043095, 46.87917513821859], [9.639917128441708, 46.87933257936722], [9.64042764153914, 46.87952522445532], [9.641449302100638, 46.880149852729836], [9.641777326470576, 46.88030820364415], [9.643651722395187, 46.8806059168474], [9.644249539087207, 46.880718565496935], [9.645360597882354, 46.880994073152436], [9.645705677022866, 46.881152095973825], [9.645956252890766, 46.88146941201082], [9.646374193157609, 46.881548633052105], [9.646536045778786, 46.881622889074016], [9.64676117554488, 46.881831814209], [9.64718026837383, 46.88235373677377], [9.647568040216152, 46.88278358567313], [9.647944330447235, 46.882966191800044], [9.648038789190773, 46.883093049114976], [9.648118742376143, 46.88344154717827], [9.648071693410582, 46.88408497220907], [9.64803074229819, 46.8845572969601], [9.648048601602445, 46.884799922538434], [9.648146633057502, 46.885461224975515], [9.648430618278704, 46.88566451152231], [9.648663704433416, 46.885875073063644], [9.649057198633482, 46.88618782891539], [9.64923806775402, 46.88637330096836], [9.649672077081796, 46.886522391881975], [9.650221974375645, 46.8868087041215], [9.65090045019768, 46.88696566954787], [9.651399050680146, 46.88715308282385], [9.651828405770148, 46.887220366239355], [9.652333107358245, 46.88733297623959], [9.652830855630448, 46.88752492014948], [9.655372938426117, 46.89186513313144], [9.65474903973133, 46.893292677839064], [9.653669200159515, 46.893772011221365], [9.652492971294818, 46.89561886784619], [9.65163982459121, 46.898053657575964], [9.65131145530906, 46.90164448563401], [9.651721804440886, 46.9027966880879], [9.651611762288763, 46.90400178729154], [9.6480164553421, 46.91078117267152], [9.648022344251714, 46.911314138338724], [9.646231027216523, 46.915349715511404], [9.643071527907743, 46.91849196785481], [9.642336787713255, 46.918518354158074], [9.638110942840942, 46.92126091269139], [9.636648437711022, 46.92176576331106], [9.636302116240222, 46.92192925813978], [9.635937109596803, 46.922285331770674], [9.636242005751678, 46.922662730320816], [9.635805283421679, 46.922642396908664], [9.635067538943982, 46.92296806788515], [9.634695184041615, 46.923171635963776], [9.63406716990177, 46.92367173785448], [9.633031250260112, 46.92454881316289], [9.632660332413879, 46.92499807480032], [9.632473493988295, 46.925296374687434], [9.631961538470016, 46.92567554700837], [9.631368838563787, 46.926089279283765], [9.630847190381429, 46.926651702127614], [9.631387738070599, 46.92708824392748], [9.63210451293704, 46.9275673817698], [9.63324926111852, 46.927777069821936], [9.633606193573133, 46.92833815306922], [9.634004928326206, 46.92926544929418], [9.633900963135693, 46.9301254269126], [9.633738258940447, 46.9309293799561], [9.633938019261285, 46.93162156746308], [9.634349385464239, 46.93259876978888], [9.634578096828305, 46.933195358991206], [9.63477181864914, 46.933536753617254], [9.634689560567363, 46.93396681739706], [9.634902003286001, 46.93448354555905], [9.635355688972714, 46.934746800700225], [9.635673225297287, 46.93476308665547], [9.636184068384003, 46.93494548676755], [9.632279059374122, 46.936836250770284], [9.627942994893107, 46.939152262427086], [9.627168762716868, 46.9452510600536], [9.628109118046707, 46.94878605705438], [9.633844811393024, 46.95198574227806], [9.643381894752267, 46.95577028218473], [9.650426552502893, 46.95561623748092], [9.65940768020213, 46.954107901836224], [9.659713633662879, 46.95469009395708], [9.659934622603767, 46.955295035011126], [9.660322235197983, 46.95580397541253], [9.660822072318897, 46.956445441183135], [9.661382727086913, 46.95710192546242], [9.661707824722273, 46.95746206715802], [9.662392166815486, 46.95804532429565], [9.66295284126939, 46.958086272668275], [9.664133304670656, 46.95813254538951], [9.665506579761344, 46.95788429278704], [9.666295573220783, 46.957799032967856], [9.6676988700547, 46.95761885139768], [9.668365328427997, 46.95776712422241], [9.668948891671477, 46.95796354614303], [9.66963961119278, 46.957869833545054], [9.669952530501787, 46.957600524879474], [9.670281363051082, 46.95717781882485], [9.670911112554736, 46.9569693185868], [9.671372439650996, 46.95680366623299], [9.67214605694749, 46.95663851763298], [9.672923869232843, 46.956516485569665], [9.673903096754893, 46.95645703982094], [9.680808811321372, 46.9539014362225]]]]}}]}