{"type": "FeatureCollection", "features": [{"type": "Feature", "properties": {"bfs_nummer": 3871}, "geometry": {"type": "MultiPolygon", "coordinates": [[[[9.876138121852792, 46.934628101759365], [9.876530794753691, 46.93466188903968], [9.876690114361502, 46.93459541630274], [9.876930496009834, 46.93455841026803], [9.877049805783413, 46.93450690181186], [9.87711239176204, 46.934435003433535], [9.87734465914726, 46.9343492125155], [9.877432698640984, 46.93435874831646], [9.877682490904617, 46.934295793356945], [9.878360784990305, 46.934401401569914], [9.878621256222342, 46.93453342305545], [9.878661624977502, 46.93463369798176], [9.878793200031216, 46.934650332401304], [9.878747485271434, 46.93470024583239], [9.878820535715375, 46.934788782158215], [9.878723470627103, 46.93494240371979], [9.878755867842715, 46.93497878284539], [9.878664066530197, 46.93500972487264], [9.878662121394406, 46.93503887328525], [9.879445527632539, 46.934879710304116], [9.879588785990233, 46.93489637467565], [9.879619427566999, 46.93496928395935], [9.879712727532263, 46.93493177318174], [9.879801649925009, 46.934991056079724], [9.879833693687216, 46.93497571233674], [9.879927735167975, 46.93506640195155], [9.880426224772682, 46.93505363927802], [9.880555887198701, 46.935033640056275], [9.880614992824809, 46.93498439417228], [9.880735701572549, 46.935016541442316], [9.880983171062816, 46.934946106986544], [9.881095496076831, 46.934879715375494], [9.881314201296739, 46.9348430640692], [9.881262329005189, 46.934705311962716], [9.881287757832006, 46.93458667787616], [9.881529677295887, 46.93447599866763], [9.881620321219991, 46.934488420695416], [9.881730788987216, 46.934455212059405], [9.88190044907347, 46.93453234757328], [9.882176194515441, 46.934537670142134], [9.882379268450212, 46.93443989339247], [9.882432300524382, 46.93434934122373], [9.882835637248915, 46.934329698415375], [9.882943749640846, 46.934247914777295], [9.882999055215025, 46.93426189005513], [9.88301459608086, 46.93422489396005], [9.883173671441613, 46.93418844981043], [9.883217613116777, 46.93400934592102], [9.883339243122279, 46.93391168542309], [9.88332218071078, 46.93384999786658], [9.883506577082677, 46.93367540824099], [9.883522662037112, 46.93344949810632], [9.883596041259901, 46.93343684381973], [9.88369148336995, 46.93333277753766], [9.883781530857664, 46.933306771268775], [9.883972325971387, 46.933322998788015], [9.884152653369927, 46.93325992972204], [9.884258055721515, 46.933203580081646], [9.884417712115887, 46.9330175562329], [9.884691292435456, 46.93301423051257], [9.884741253465108, 46.93297636383331], [9.884927056023884, 46.93296261051936], [9.885199152087507, 46.93285259686595], [9.88533258043424, 46.93286697092846], [9.88548190660459, 46.93283435958092], [9.885548732208685, 46.93286853266451], [9.885665515673189, 46.93286215823145], [9.886195512717448, 46.9326471786173], [9.88680349480354, 46.93257121817617], [9.886964923559626, 46.93248855086427], [9.887170035604898, 46.93250617692927], [9.887237024349709, 46.93247127407874], [9.887344297148072, 46.932504438271195], [9.88755603383283, 46.93242358275977], [9.887880983942503, 46.93238230549771], [9.88796013239246, 46.93230695821825], [9.88805092991878, 46.93230209050132], [9.88814626878571, 46.93223923047179], [9.888261271236086, 46.93224309711979], [9.88838297571761, 46.93219949022191], [9.888521422366052, 46.93220983823971], [9.888759117401843, 46.932131872062314], [9.888773993270183, 46.93215785176281], [9.888935883667639, 46.93214588146083], [9.889177888317718, 46.93227295191409], [9.889412958375749, 46.93219272879569], [9.889490137198235, 46.93221416156099], [9.889562193496996, 46.93213861474237], [9.88960039944038, 46.93215764938175], [9.889586152484576, 46.932210224045726], [9.88987887174973, 46.93210009230316], [9.890094922641937, 46.932113337122544], [9.89066947995541, 46.93193233026737], [9.890849975955701, 46.93195497586116], [9.891402600193222, 46.931777309241696], [9.89150468962865, 46.93182007503779], [9.891792161303954, 46.93184916760696], [9.891881490784401, 46.93184410351234], [9.891871757092503, 46.93179809948801], [9.891970301618356, 46.931745409634765], [9.892320338401815, 46.9317521709934], [9.892354071105128, 46.93180124264798], [9.892347050317264, 46.931778984028945], [9.892605755242933, 46.93171332878497], [9.892684364649172, 46.931670639873126], [9.892654818136139, 46.931639297855256], [9.89277054697884, 46.931649910557965], [9.892961374315629, 46.93155332957465], [9.893225200732296, 46.931630888945364], [9.89341168187144, 46.931614342073615], [9.89340642817966, 46.93166064163268], [9.893541559015867, 46.93172260553643], [9.893721096458357, 46.931641711018365], [9.893790045738386, 46.931670777545335], [9.893842599553262, 46.931621132231214], [9.894029821383176, 46.931703809589365], [9.894118897123331, 46.93165152818087], [9.894190482860067, 46.93168050168027], [9.89430752180877, 46.93162923057862], [9.894472030703326, 46.931617987724614], [9.894496357582161, 46.93164434693049], [9.894507701381341, 46.93160625137954], [9.894870153134852, 46.93152597233694], [9.894984253759969, 46.93141476356846], [9.89515506877926, 46.93140381675836], [9.895435850923885, 46.9312725710817], [9.895810420953078, 46.930977876691024], [9.896025857484572, 46.93096764580608], [9.896085736329944, 46.930872251035844], [9.896030242345425, 46.9308348885947], [9.896380174909284, 46.9306283520033], [9.896584481116284, 46.930600610156304], [9.896750666485582, 46.930510933081194], [9.896872758584742, 46.93056331583577], [9.896936841163628, 46.93054574084272], [9.897221998499488, 46.93034694459801], [9.897444014355282, 46.93033529982749], [9.897563092709913, 46.930289433204514], [9.897673488991057, 46.93021285066491], [9.897633368963753, 46.93010906162476], [9.897686082890965, 46.93005267981593], [9.897692327695347, 46.929804593668436], [9.897759455476082, 46.929736228922145], [9.897730105663323, 46.92964723249377], [9.897640709433963, 46.929644733533806], [9.897737745423782, 46.929597427415445], [9.898047174381654, 46.92960733753165], [9.898172231359126, 46.929503818442], [9.898167414140751, 46.92946746460239], [9.898344633489298, 46.92937675540998], [9.898538192035529, 46.929343660837276], [9.898594942428172, 46.9292423208812], [9.898818921489916, 46.92911903532628], [9.898772156975253, 46.92904338178649], [9.898808675551736, 46.92900717440693], [9.89903739963101, 46.928816813114985], [9.899126453002717, 46.92879924841614], [9.899391665233871, 46.92860937040906], [9.899410052926351, 46.92848026894225], [9.899524237967553, 46.928374459337824], [9.899528881197005, 46.928271654573464], [9.899737141539864, 46.927964884577264], [9.899776658470286, 46.92769138870557], [9.899918422738843, 46.92740587851606], [9.900035975292086, 46.92733659994786], [9.900672742594178, 46.92716819584399], [9.901329915346485, 46.9267812715188], [9.901458163451895, 46.92667173836768], [9.90178404389722, 46.92672280684209], [9.902061609076712, 46.926722591115414], [9.902551663909952, 46.926849027106854], [9.902705090330285, 46.926695600200595], [9.902941154602065, 46.92661741301733], [9.903245451735541, 46.9263975580322], [9.903949215938779, 46.926186036181676], [9.904256281005537, 46.92603032373874], [9.904939688640923, 46.92590148311463], [9.90526792124798, 46.92590218506338], [9.905692050087875, 46.92581706830543], [9.90591578639171, 46.92586649487229], [9.906164355898882, 46.92582878241625], [9.906332002501346, 46.925300034430684], [9.907965247806107, 46.92492317988649], [9.90964964546215, 46.92542802461325], [9.909933303603697, 46.92552094180624], [9.910259007312193, 46.92550866247022], [9.910440092269036, 46.92540814123295], [9.911077794255725, 46.92552791677748], [9.911458701396363, 46.925507745595255], [9.91165960448561, 46.92575416520668], [9.912122837212404, 46.92608792221189], [9.912320953049985, 46.926054913530486], [9.912551993297221, 46.92596122849742], [9.912884355503047, 46.925741185093784], [9.912975673819558, 46.925599842755844], [9.913458616102927, 46.92533303069844], [9.913724841702056, 46.9252395645534], [9.914579879482698, 46.92480231375472], [9.9147069263226, 46.924710945949315], [9.914736833141747, 46.92463189392432], [9.915239838198579, 46.92432934325274], [9.915340988822804, 46.92408999634718], [9.915678085784132, 46.92379816109364], [9.91575583832015, 46.92362997966268], [9.915850612010473, 46.92358175252307], [9.915936031480596, 46.923321541831776], [9.916033140054347, 46.923314267256124], [9.916077256798804, 46.92326198722797], [9.916155715555476, 46.923253099068525], [9.916141492866359, 46.92250784592771], [9.916181494590397, 46.92244609758585], [9.916068115431932, 46.92242176020384], [9.91615709653359, 46.9223596535526], [9.916088666614359, 46.92233044644748], [9.91611421861909, 46.92230345226476], [9.916054726731288, 46.92221252211254], [9.916148240436323, 46.92213365773288], [9.916271120470297, 46.92211880166747], [9.916509572194391, 46.92199636406289], [9.916491092357724, 46.92182636382421], [9.916559928951886, 46.92166955725708], [9.916844185795568, 46.921587922627275], [9.91679689637844, 46.92154088843246], [9.9169877288349, 46.921498776547566], [9.917031451564524, 46.92142975581629], [9.917428868775245, 46.92132965744867], [9.917606395158653, 46.9211255685487], [9.91773022274825, 46.92105469563012], [9.917828765887577, 46.92089529246024], [9.917997210475814, 46.920859658498216], [9.918273809407632, 46.92057893213157], [9.918506948244739, 46.9205163548231], [9.91856629927301, 46.92043112773034], [9.918766126760508, 46.92036259340172], [9.919247699566382, 46.92029085921429], [9.91940110320848, 46.92018329003878], [9.91949210955384, 46.92016436195006], [9.919639253561666, 46.92001567415831], [9.920005637034226, 46.91990203859794], [9.920158543751567, 46.91989154172059], [9.920564499855953, 46.91970276458599], [9.921258755448044, 46.91927791059818], [9.92151049927045, 46.91899654284235], [9.92154180222526, 46.9188235092232], [9.921943425853524, 46.918683451195776], [9.922245844673094, 46.91850536268213], [9.922657457276463, 46.91848112983846], [9.922581980524505, 46.91837875756178], [9.92276729565438, 46.91828525012805], [9.922788493612567, 46.91824232024637], [9.923147237008704, 46.91822805185099], [9.923880095666954, 46.917987391610914], [9.924111810232048, 46.91795259799508], [9.924885234702403, 46.917640192664585], [9.925663116239697, 46.91753234158067], [9.925799525534192, 46.917477422915624], [9.925798675541554, 46.917435502813206], [9.92591377954484, 46.917353344973414], [9.92623059315601, 46.91726362530689], [9.92624564768686, 46.917184523307256], [9.926415802541696, 46.917164345880394], [9.926742949030912, 46.917044799927204], [9.927004952279338, 46.9170671474421], [9.927209463575208, 46.91699897371808], [9.92750409770882, 46.916975748080375], [9.927608882262843, 46.916937713343636], [9.927799311338616, 46.916962777361526], [9.92785753234709, 46.916920166226895], [9.928389019197295, 46.916876549944405], [9.92859906196721, 46.91675578310212], [9.929398473714839, 46.91647329274951], [9.929509584521304, 46.91638193054356], [9.929827575626065, 46.9163065206086], [9.929948879721376, 46.916237867497955], [9.930041382611115, 46.916121962396666], [9.930320168816241, 46.915972383503394], [9.930458544606076, 46.91578244783811], [9.931171368284383, 46.91557701418132], [9.931361609230352, 46.915453722601164], [9.931596739920755, 46.91541478743455], [9.932086684000335, 46.915150982567674], [9.932134106799131, 46.91509431161546], [9.932258543121028, 46.915095551307495], [9.932375662737485, 46.915198063772216], [9.932414659008073, 46.91512705218919], [9.932485293717587, 46.915124513779276], [9.93251365571887, 46.915090965357564], [9.932601564547571, 46.91511367300019], [9.932704474575747, 46.915028047377014], [9.933270754270689, 46.914980383157555], [9.933356768372118, 46.91487121997616], [9.933358070618953, 46.91480340350838], [9.933476936641265, 46.914724845453364], [9.93378847577288, 46.91467007417746], [9.933862305546919, 46.914608804202736], [9.934225920008675, 46.91452346012695], [9.934292700077355, 46.91444131272698], [9.93460735507383, 46.91446040699197], [9.934701293766146, 46.91429286957726], [9.935272913077274, 46.91411697405615], [9.93563662098229, 46.914062642821435], [9.935794805229119, 46.913904159225936], [9.9363447626375, 46.913702428765525], [9.936619606586838, 46.91353310188187], [9.93692854848805, 46.91345340699611], [9.937237055654284, 46.91331073897995], [9.937421595935486, 46.91329717104225], [9.937592661844734, 46.91324209346952], [9.937909309921137, 46.913236368397314], [9.938211616004756, 46.91314961510661], [9.938296872146774, 46.913194354263126], [9.938413945819986, 46.913197188683334], [9.938733184163151, 46.913110776552145], [9.93893954661481, 46.913160610253904], [9.939177452267607, 46.913155602616214], [9.939272152253892, 46.91318480854042], [9.939676251001686, 46.91310534783523], [9.939951486526837, 46.91309478920407], [9.940053573087303, 46.91313455152626], [9.940214616276387, 46.91310263831391], [9.940546190255064, 46.913104967191416], [9.940831537251997, 46.913036864527854], [9.941141679588984, 46.91311484396], [9.941437747373485, 46.91312522678063], [9.941544548958923, 46.91318471086865], [9.941784913583213, 46.91321783869611], [9.941977056930565, 46.91329505767487], [9.942165856186453, 46.9132362437993], [9.942270573191633, 46.913243349064814], [9.942560663708894, 46.91311896096003], [9.942890074621483, 46.91311038596642], [9.943019703573256, 46.91315662502977], [9.943335805985466, 46.91315303739622], [9.943514069893396, 46.91311757369675], [9.94356877148295, 46.91301809100682], [9.943908354646673, 46.913035901656336], [9.944300744480113, 46.91294270990262], [9.944701859840563, 46.9127144295252], [9.944997711257828, 46.912594362727894], [9.945106476549885, 46.91256524183407], [9.945583460710514, 46.91255319358819], [9.94577397758241, 46.91243952002122], [9.946132726274017, 46.912349087245374], [9.946247124193535, 46.91244970037911], [9.946313820127441, 46.91264538944976], [9.946596887533236, 46.91269044120518], [9.946796406673235, 46.91267429720554], [9.946985704537303, 46.91278217780342], [9.947115545827447, 46.91278001524982], [9.94719397380644, 46.91287697859874], [9.947280350038055, 46.912914333431665], [9.947589357950768, 46.91298528122608], [9.947580013826856, 46.91304310267505], [9.947726225166244, 46.9131172683852], [9.9478265384615, 46.913113026152146], [9.94795334853525, 46.91324056262751], [9.948099821105181, 46.91327839005874], [9.948202041640942, 46.91324915887519], [9.948324371562705, 46.91335976537842], [9.948555382250927, 46.913433780782746], [9.948738304721, 46.91338815407907], [9.94869636427468, 46.91345188360017], [9.94886119825854, 46.91353043792599], [9.948960547480166, 46.91351368846269], [9.94907914438185, 46.91363427717385], [9.949287417535652, 46.91360610343735], [9.949342169108403, 46.91365720900621], [9.949340587974028, 46.91372934143526], [9.949439787564298, 46.91375351701558], [9.949533748948351, 46.913849113948736], [9.949634621932274, 46.91385933919254], [9.949638887957873, 46.91395849612328], [9.949741911475234, 46.91408892155189], [9.949846753484117, 46.914150078727396], [9.949889846543282, 46.91427177456022], [9.950516954272695, 46.914394334713066], [9.950805082558766, 46.91432542585517], [9.951135235153233, 46.91437890122079], [9.951130628384778, 46.91432419340394], [9.951277386094116, 46.914362650413416], [9.951621971932479, 46.91437982773613], [9.952079291938393, 46.91432919704946], [9.952116774903399, 46.9143769183899], [9.952281067006005, 46.91436540809134], [9.952302222717934, 46.91441701599629], [9.95237975085236, 46.91440577247626], [9.952555901830147, 46.91450063183498], [9.953159503537707, 46.91464443700932], [9.953498064731033, 46.91493640627033], [9.953895251925031, 46.91499531261155], [9.954131796743647, 46.91507329991346], [9.954308008827, 46.91523247700754], [9.954475259461146, 46.91532253417154], [9.954639897856723, 46.91533659087364], [9.954832938726097, 46.91528938068115], [9.954951890189655, 46.91534230300264], [9.9550073825475, 46.91542111889486], [9.955232301922818, 46.91545299276961], [9.955401704800948, 46.91540777945357], [9.955540742635264, 46.915441980990515], [9.95563243861507, 46.915526490100156], [9.955779482417183, 46.91552212289832], [9.955867171287851, 46.9155780012671], [9.956029830115934, 46.91555650512817], [9.956094081351912, 46.91560665227567], [9.95617707774055, 46.91558255271011], [9.956509410463585, 46.91558977685988], [9.956834744263732, 46.91562315197361], [9.957136573279412, 46.915764494197084], [9.95736421167035, 46.91582039728305], [9.958613328260936, 46.91600211901466], [9.958667317926759, 46.915978196451576], [9.95908131260034, 46.91602438510059], [9.959105379371513, 46.91592509863675], [9.95945733724287, 46.91568344823069], [9.959593294469892, 46.91542322611825], [9.959898927442001, 46.91535323383553], [9.959956377835777, 46.9152561116194], [9.960096510569732, 46.91522791553159], [9.960048348731393, 46.915144818288255], [9.960163206053108, 46.91509026637794], [9.960186754246253, 46.91512745734896], [9.960287151719568, 46.915100585896454], [9.960295734680528, 46.9151323635719], [9.960375579697233, 46.91513492481842], [9.96041699286644, 46.91504066424382], [9.960631540189297, 46.9150281150766], [9.96091770372688, 46.91492398812492], [9.960974304268957, 46.91486505242353], [9.96116582976379, 46.91485174003806], [9.961467996616685, 46.914699362708355], [9.96150098189264, 46.91464104405109], [9.961814692405277, 46.914558610560654], [9.961813356020476, 46.9144519067567], [9.961552969116338, 46.91443638999097], [9.96156897157988, 46.91423398911753], [9.961839631992488, 46.913947757484785], [9.961854865653933, 46.913779846429286], [9.962056423728361, 46.913675055967936], [9.962230738321235, 46.91344908906161], [9.962419192262802, 46.91335619480661], [9.962581708551358, 46.91333775959028], [9.96264766623519, 46.91324882690581], [9.962768359342578, 46.913229154321954], [9.962840115393305, 46.91315188103629], [9.96294175984124, 46.9128437077747], [9.962894192451088, 46.91255495126712], [9.963061994145484, 46.912495271404644], [9.96312305861657, 46.91239726663248], [9.963283450750763, 46.91238679717031], [9.963451858987208, 46.91249945638679], [9.96369145728953, 46.91252278698988], [9.963685317096349, 46.91256261190966], [9.963868264649706, 46.91259639188375], [9.964068906414957, 46.91254813137902], [9.96415499820704, 46.91258591954706], [9.964306116485727, 46.91256845191965], [9.964388058712796, 46.912640899982655], [9.964340516214701, 46.912760835894105], [9.964457276393935, 46.9127838179555], [9.964582206291263, 46.912736960389594], [9.964683893949813, 46.91261429217658], [9.964879891299699, 46.91250916307777], [9.965308543993231, 46.91236091846091], [9.965544635010449, 46.91234031614401], [9.965665132576357, 46.91237798345631], [9.965766624230124, 46.91228240354671], [9.965917585076772, 46.91227773011813], [9.96595611598419, 46.91224276942024], [9.966062264624226, 46.91225149574362], [9.96607841454859, 46.912332407066366], [9.966283521268151, 46.91227855678303], [9.966438376701012, 46.91229862627331], [9.966577821829292, 46.91222255686715], [9.966829561477345, 46.91225238278677], [9.966916034848344, 46.91234317086657], [9.967828917745104, 46.912530277649246], [9.967934375008047, 46.91258878536112], [9.967928022169476, 46.91262123537037], [9.96829652384945, 46.91275214492986], [9.96861004788526, 46.9130154887218], [9.968778860143582, 46.913005293954164], [9.968822744763974, 46.91306678232129], [9.968956983514913, 46.913117543299535], [9.969135281457776, 46.91315509893683], [9.969407330768306, 46.913131082590716], [9.969763067232302, 46.913275500487764], [9.970189553905756, 46.91330134526506], [9.970308631041076, 46.913345258365716], [9.9705697114954, 46.91333650333288], [9.970771368469517, 46.913401720482234], [9.97115175470808, 46.91340797341187], [9.971381347061106, 46.91337202372573], [9.971496322375694, 46.913378749528675], [9.971592186764784, 46.91343729561179], [9.971691507221466, 46.913449047589836], [9.971753548542175, 46.91351976342708], [9.971962267617041, 46.91362081176295], [9.972156082926327, 46.91382640709393], [9.972301523642917, 46.91390292650313], [9.972287090483153, 46.91393664511848], [9.97240446571892, 46.91398310517102], [9.972660334941017, 46.91422890674289], [9.972664817461995, 46.91428775684042], [9.97259919472687, 46.91434167931888], [9.972657484914839, 46.91443056729822], [9.972758852833872, 46.91446621201466], [9.97283141012942, 46.91453985292176], [9.972863332546336, 46.91491904067701], [9.972937156501551, 46.915042325625784], [9.9730627204269, 46.915089692418626], [9.973149235258138, 46.91521998641488], [9.973423467295731, 46.91526711058085], [9.973638020629725, 46.915265866741464], [9.974017121457836, 46.915481485334276], [9.974451260393653, 46.91552984530538], [9.974508526359768, 46.91558301666412], [9.974713662090686, 46.91565210872365], [9.975150456858518, 46.91567626962914], [9.975332264215702, 46.91575225838762], [9.97534634715491, 46.91579460603682], [9.975424599984398, 46.91575507135778], [9.975571297930019, 46.91580762072166], [9.975635005151139, 46.91574653878713], [9.9761831775088, 46.915823138150245], [9.976576400001582, 46.91580875903517], [9.976937506438317, 46.91589886081794], [9.977073563947553, 46.91589576212254], [9.97746844797776, 46.91579151152262], [9.97787783150194, 46.915882878691974], [9.978145599490915, 46.915695854564305], [9.978132017401432, 46.91547771608719], [9.978232546874096, 46.915436874470984], [9.978462051692508, 46.9151400896525], [9.978567726989843, 46.91511947423522], [9.978591453511147, 46.914968467562886], [9.978809423591146, 46.914713871765315], [9.978951988768507, 46.91465401662002], [9.979022764448095, 46.91458143526803], [9.979263523070065, 46.91454000033702], [9.979357883114176, 46.91447427543881], [9.979406710788673, 46.91435943306167], [9.97957025108161, 46.914254014927316], [9.980009706957834, 46.914176124778685], [9.980199334225048, 46.914103342757315], [9.980264930399128, 46.9140071154233], [9.980502723353855, 46.91385036145929], [9.980598049373535, 46.913735733743245], [9.980615065674227, 46.913587394969184], [9.980793976269652, 46.9133709291114], [9.980792017206326, 46.913159990844896], [9.98059434037201, 46.91298734104354], [9.980649826181935, 46.91275516873684], [9.980826783353153, 46.91257573711877], [9.980867339141843, 46.91244415560472], [9.980944697867207, 46.91241921687333], [9.980951316080358, 46.912348410866244], [9.981060091525775, 46.91223745422726], [9.98116926365881, 46.91216041896492], [9.981539138140885, 46.91208038959464], [9.981624627941462, 46.911994160176576], [9.981793506126875, 46.911918856884135], [9.981356285397535, 46.91132959923051], [9.981566112915985, 46.91065054856357], [9.981960391741646, 46.91030321208149], [9.982179095248158, 46.91000126363001], [9.982138352788583, 46.9095169642955], [9.982239358065648, 46.90927837873595], [9.982202812956972, 46.90923878096029], [9.982047436201412, 46.90920792679808], [9.981894867283758, 46.909080998412904], [9.981801793393553, 46.90887614905143], [9.981865155914688, 46.90864406420751], [9.981680142522599, 46.908399771109224], [9.981558778517229, 46.90828583024651], [9.981273375058338, 46.908148517881195], [9.981664477902278, 46.90801013487824], [9.981701499674307, 46.9077709131499], [9.981948836292053, 46.90737462083073], [9.982118089051147, 46.90688485543406], [9.982385718806482, 46.906426032103454], [9.982383848834267, 46.906278557114994], [9.982445490403338, 46.90619861827042], [9.982665149334336, 46.90609788521788], [9.983264964986207, 46.90605197974292], [9.983359283210532, 46.90599714262749], [9.983437137231283, 46.90600783996796], [9.98361940875805, 46.90594402664754], [9.983883696998905, 46.905915019487196], [9.983953959545879, 46.9058538765605], [9.984100014895613, 46.905904636647456], [9.984296402150706, 46.90584194737506], [9.984537102899068, 46.90583894338534], [9.984696000738776, 46.905786277560345], [9.984769629025774, 46.90570777060677], [9.984734434032513, 46.90567669398092], [9.98492999222796, 46.90560539182613], [9.985456039844086, 46.90562411411828], [9.985600099909593, 46.90559921815142], [9.985738555474368, 46.90551675660495], [9.98587040215942, 46.90553065172118], [9.985991585605952, 46.90541932379661], [9.986230287591663, 46.90549060750566], [9.986640530623289, 46.90554601313874], [9.9868177171371, 46.90552739745567], [9.986941099200832, 46.90529613455726], [9.986913560545137, 46.905202864685464], [9.986950171066143, 46.90516352868613], [9.987248017239697, 46.905041714426865], [9.98730958174386, 46.904944303794906], [9.987403850805281, 46.90491070439408], [9.987359407227661, 46.904792886198805], [9.987598218274588, 46.9045862380771], [9.98755740968618, 46.90450659714876], [9.987678997891297, 46.904420547685746], [9.987692616010772, 46.90425058429653], [9.98777418871017, 46.904217905456655], [9.987802360075628, 46.90408343884256], [9.987935936154022, 46.90398713274795], [9.987974066955909, 46.903904833657], [9.988233318585461, 46.9037613568501], [9.98830895179377, 46.90376957144328], [9.988417509877948, 46.903660502838456], [9.988627260188998, 46.90360597859261], [9.988767979103827, 46.903433005593264], [9.988852432522792, 46.90341124272923], [9.98893570758633, 46.90332864921605], [9.989114027431327, 46.903311905517064], [9.98926227555959, 46.903206361169595], [9.98949501511451, 46.90313547441383], [9.99012862335972, 46.90247938251263], [9.990121964111532, 46.902408251305395], [9.990220639038641, 46.90242333117424], [9.990518179903729, 46.90233454489904], [9.990638721494532, 46.902375957147825], [9.990811305822938, 46.90234637732296], [9.990793853710718, 46.902363236294875], [9.990847870923346, 46.902369771730726], [9.99090828891963, 46.90232306421403], [9.991059989552463, 46.90239294018344], [9.991188315647276, 46.9025208476171], [9.991402711109174, 46.90246418949707], [9.991436725304341, 46.902437195196136], [9.991537595466815, 46.90244043454724], [9.991638525327474, 46.9023399013957], [9.991698004468502, 46.902386813030596], [9.992092863273529, 46.90237584989432], [9.992133171150499, 46.90242274005895], [9.992222215958195, 46.90242309126009], [9.99225959071491, 46.90247706661707], [9.992331404636131, 46.90247125160958], [9.99246943832762, 46.902557441692046], [9.992840696194556, 46.902577688005785], [9.992966637012337, 46.90235969378898], [9.99329809969481, 46.90225851705544], [9.993468513525668, 46.90227145178375], [9.993707773433648, 46.90236006830389], [9.9941472688733, 46.90236547183757], [9.994255373602503, 46.90233308624117], [9.994328704426831, 46.90238680663708], [9.99443404545726, 46.90240399203172], [9.994744024667076, 46.90228150580804], [9.994982117318434, 46.902315164622], [9.995031202246627, 46.902223527247926], [9.995113284561205, 46.902176872434865], [9.995256637384994, 46.90221192846536], [9.99539163209144, 46.902178941559036], [9.995448693080494, 46.90226046818445], [9.995548980523667, 46.90224868743783], [9.995616338660618, 46.90228444343509], [9.995741615529692, 46.902237642186705], [9.995827541736668, 46.90226074158871], [9.995874273496062, 46.90221073728289], [9.996119340469575, 46.902139828699326], [9.996290361151209, 46.902036121697186], [9.996870156019652, 46.9018965401928], [9.997327935244575, 46.901966141209414], [9.99741132351414, 46.902035197457735], [9.997677725224616, 46.901733958012144], [9.99765022132206, 46.90168030271006], [9.997873003034352, 46.90152753877027], [9.997958687806307, 46.901421761121306], [9.998158166677833, 46.90132290592819], [9.998461218873796, 46.9012593413116], [9.998772315495263, 46.90114672504424], [9.998850343743662, 46.901042646930435], [9.999110244175666, 46.90085341312113], [9.999421591511616, 46.90072431696625], [9.999587744519564, 46.90060683676026], [9.999583034526156, 46.90055510230747], [9.99964959593445, 46.900488992161954], [9.999711771993578, 46.90049868785117], [9.999719198003463, 46.9004533426531], [9.99979275703955, 46.900451147087175], [9.999828073288652, 46.900403916024395], [9.999805081195234, 46.90033225113745], [9.999982739292863, 46.90030164320542], [10.000327844057173, 46.90015901398961], [10.000410148825868, 46.90019182176632], [10.000746916560583, 46.89991293527439], [10.00128777952533, 46.89978347022732], [10.001377204991025, 46.89969605501707], [10.001546569611076, 46.89968957052119], [10.001644812926052, 46.89961906041047], [10.002145259613618, 46.899435340767255], [10.002198526063243, 46.89946195749425], [10.002672103267606, 46.89932067511963], [10.003061728870708, 46.89929395676703], [10.003187645298901, 46.899208514977516], [10.003262113028203, 46.89920612629915], [10.003368456104685, 46.89914805001726], [10.00352786723586, 46.89917570711295], [10.00372733828349, 46.89913207626301], [10.004058699366782, 46.8991804669706], [10.00436105172972, 46.89908603593278], [10.004639280973368, 46.899061166286664], [10.004727709887165, 46.899026692522504], [10.004787788345666, 46.898940212690164], [10.004955576288335, 46.898893068662254], [10.00558816672655, 46.89888681822892], [10.005818145109469, 46.89885790812906], [10.005920828994576, 46.89880025401307], [10.006011698637657, 46.898953739055266], [10.006118620281828, 46.89904556994948], [10.006229753330322, 46.89908483506015], [10.006403286873049, 46.89929271784208], [10.00665443586225, 46.89933072861171], [10.006705127303293, 46.899366042194075], [10.007090151600316, 46.89926282348684], [10.007280660328904, 46.89941037543645], [10.007465869265372, 46.89940632421609], [10.00750473953593, 46.89946962066368], [10.00771073338762, 46.8995047688676], [10.007779524654525, 46.899493512881136], [10.007914580572912, 46.89934945819495], [10.007972617475849, 46.8993440123564], [10.00804492356982, 46.89948872783991], [10.008041742816713, 46.899647468536976], [10.008134804465337, 46.89971242747871], [10.00822993470286, 46.89987580340715], [10.00841153504391, 46.89984013584533], [10.008731035240544, 46.90000558773406], [10.00886880338984, 46.9000363343349], [10.009006832128005, 46.899965462985655], [10.009173183266387, 46.9001708060218], [10.009330311796013, 46.90026042669554], [10.009511254526384, 46.900298842901165], [10.009587093180274, 46.90034978988594], [10.009561040877555, 46.90039258625029], [10.009612600296196, 46.90043282810031], [10.009804597472323, 46.900515654111565], [10.010032777011679, 46.90050881122648], [10.010048719816568, 46.900436372308775], [10.010382081084336, 46.90045192884919], [10.010477944560925, 46.90041341359654], [10.010762445133937, 46.90052771883489], [10.011065151995032, 46.90048770243724], [10.011318613459803, 46.90037572084429], [10.011365328802471, 46.900416250069824], [10.011518956463004, 46.90041099449721], [10.011669741610365, 46.900313199389046], [10.011885975617894, 46.90030689206319], [10.012193747764194, 46.90035326598205], [10.012300683844158, 46.90040945135425], [10.012422620684772, 46.90037007657888], [10.012555065261644, 46.90039382637192], [10.012686420334846, 46.90043291088988], [10.012745401628278, 46.90046659380233], [10.012732255911377, 46.900493439224725], [10.012913010034005, 46.90048981982128], [10.013062421960393, 46.900434347963895], [10.013108680236229, 46.90037516330739], [10.013078972859756, 46.900270349561296], [10.01371873995974, 46.9002983617393], [10.014107573731652, 46.90018916580742], [10.014394969639724, 46.90016351415572], [10.014492507856092, 46.900124695356396], [10.014940653333907, 46.90018183350248], [10.014971431275558, 46.90025413172187], [10.015207891913837, 46.90030838765229], [10.015271148215785, 46.900378595893415], [10.015420117383636, 46.900376950850514], [10.015509215337728, 46.90040581466331], [10.015526639976573, 46.900468243730785], [10.015771662260237, 46.900497825477466], [10.016103673858893, 46.90059224553092], [10.016119318440104, 46.900704847203535], [10.016320998895315, 46.900770325144286], [10.016720024816015, 46.900985807433074], [10.016788319320879, 46.90107364173118], [10.01715684458175, 46.901187018784974], [10.017586430643659, 46.901574168514706], [10.017712534541275, 46.90162433786481], [10.017830683106075, 46.90161546454672], [10.017878875785506, 46.90154984612232], [10.01821265330641, 46.90139660776846], [10.018274689471628, 46.90121726626219], [10.018599507737756, 46.90111787094102], [10.018565334370349, 46.90103789945259], [10.01860495602372, 46.90089498223695], [10.018525986691126, 46.90081459050882], [10.018510522663425, 46.90064562843563], [10.019010054268582, 46.89981802452096], [10.019169555362465, 46.89972153643084], [10.01923756744842, 46.89970776210809], [10.01941882243507, 46.89939703285354], [10.019493368224248, 46.89914495089054], [10.019629608545612, 46.89896628779964], [10.019704079605084, 46.89896946746934], [10.01979080888994, 46.89890523130482], [10.01987197116249, 46.898779547784066], [10.020167013727201, 46.89867344186031], [10.020475442878725, 46.89866783379434], [10.020832091862577, 46.8984800440065], [10.021084293480099, 46.898479573954496], [10.021262420767355, 46.89831453987151], [10.021399730568398, 46.898095247173046], [10.021872008959315, 46.89789043636282], [10.022189067290714, 46.89784070866671], [10.022279040925108, 46.897797637120966], [10.022324563576182, 46.89772029014523], [10.022279616553528, 46.89764020501883], [10.022293800402922, 46.89750641314646], [10.022221928334817, 46.897376993689186], [10.02239446533177, 46.89727885424835], [10.022419564028691, 46.89722464647128], [10.02261149972374, 46.89718070894428], [10.022752162647851, 46.89708329616943], [10.02281074370576, 46.89696082260398], [10.022957325772492, 46.896817196522775], [10.023027271880704, 46.896816426659875], [10.023238781384078, 46.89662802513501], [10.02320211629209, 46.89660275401416], [10.023381197405914, 46.896487826785396], [10.023769828733219, 46.89656680938375], [10.023852934101267, 46.896537123581695], [10.023954832380008, 46.89643355332452], [10.024282634512554, 46.89647043377443], [10.024472889105086, 46.89638037286629], [10.024668650897105, 46.89638846645307], [10.024868939695523, 46.89625379517761], [10.025084443847454, 46.896178272492136], [10.025289631982377, 46.89605483150892], [10.025522577016936, 46.89604740277935], [10.025572804050848, 46.89595608723116], [10.025653132823223, 46.89594464063147], [10.025704967386364, 46.89587857761037], [10.025852460352713, 46.89582223141922], [10.02601390502674, 46.89590841236122], [10.026170431223452, 46.89586788207852], [10.026276961252044, 46.895800671891365], [10.026479285594938, 46.89580626640633], [10.026715137844377, 46.895539915911264], [10.026718121427848, 46.895517347991], [10.02663375696654, 46.895513136180256], [10.026543759746643, 46.895391949595975], [10.026742826491269, 46.89511157033311], [10.02694180197534, 46.89496864460425], [10.027002094227587, 46.8947401964674], [10.02721805437015, 46.89455709793871], [10.02772430174208, 46.89424908643507], [10.027807335280915, 46.894029474134605], [10.0278653675489, 46.8939940500662], [10.028044886177183, 46.89345012618449], [10.028213455487979, 46.89321282749733], [10.028289915147605, 46.89318113437129], [10.028274109830594, 46.89312830152612], [10.028443794125371, 46.89285155424067], [10.028492845574744, 46.89283415278709], [10.028481282354207, 46.892738563326404], [10.028546503383003, 46.89203241879534], [10.028588282956058, 46.89196487353889], [10.028775973278625, 46.89188196633376], [10.02880478623693, 46.891815065846224], [10.028950858013033, 46.89182490650227], [10.028976677594514, 46.891609212716446], [10.029064557868104, 46.89148751672561], [10.029129311309159, 46.891280749216335], [10.029227247729047, 46.89116350147692], [10.029446855471889, 46.89103225737087], [10.029677514740564, 46.89095872360598], [10.029898039636803, 46.89077542929457], [10.029935581950188, 46.890797097699085], [10.03017690237189, 46.89073204317862], [10.030223479665757, 46.89060641768169], [10.030302791995178, 46.89057951063759], [10.03031157668227, 46.890440350887886], [10.03038747466166, 46.89036986981427], [10.030467210309114, 46.890093088922804], [10.030730565767136, 46.889774449755095], [10.031551660782085, 46.88944920421827], [10.031656573879822, 46.8894362249343], [10.031729653069572, 46.88916003991271], [10.032071479085866, 46.88898272857367], [10.03215718372129, 46.888786555195296], [10.032262326457332, 46.888723690089655], [10.032307194439426, 46.88855976229909], [10.03223371364029, 46.888383578668936], [10.032247160103115, 46.888270404636636], [10.032195203068682, 46.888216583247406], [10.03222948168003, 46.888113474272444], [10.032187043976661, 46.88799571656257], [10.03228340011395, 46.88798804164161], [10.032422441755417, 46.887903525955906], [10.032641788285751, 46.887832668805224], [10.0328262545562, 46.88766989927212], [10.03304548588677, 46.88768617518404], [10.033096926090659, 46.88761776645398], [10.033234927200608, 46.88757215266222], [10.033254724621228, 46.88759610314193], [10.033328798155816, 46.887526100380164], [10.03353226138971, 46.88747163172243], [10.033679053309811, 46.8873660501898], [10.033749004606033, 46.887365642223266], [10.033921616485184, 46.88728369372086], [10.03403782129442, 46.887156395132095], [10.034270290571367, 46.88703393310646], [10.034434273188689, 46.886827696997024], [10.034485326259627, 46.88684130663243], [10.03461647204322, 46.886740757746665], [10.034665849726041, 46.886580425150775], [10.034904672972095, 46.88656267152818], [10.035130965600551, 46.88659480144323], [10.035236973150962, 46.88671318182378], [10.035268073931476, 46.88682983726544], [10.035397194427214, 46.88688577571498], [10.035672140413158, 46.88678081382848], [10.035830534294218, 46.88678505755293], [10.035894143550143, 46.88673517441249], [10.035988749985421, 46.886742405193495], [10.036009456411563, 46.88666829609653], [10.036153257321235, 46.886634087743026], [10.036298575932078, 46.886669309366795], [10.036412480558486, 46.88664665361637], [10.036454152920266, 46.886677747313946], [10.036517980750991, 46.88662670633809], [10.03665001315956, 46.88672928893525], [10.037020408574008, 46.886717372128714], [10.037401035072065, 46.88678100574313], [10.037492240618088, 46.88675319309458], [10.037641427294272, 46.88676242603115], [10.037635141115306, 46.88671927842462], [10.037711383038038, 46.88672951687809], [10.037693236170593, 46.88669356892832], [10.037882615300017, 46.88669817632382], [10.037860037166421, 46.886632990231206], [10.038121499787188, 46.886588893313856], [10.03819350284197, 46.88650031649742], [10.038692209872906, 46.88618853460162], [10.038926165355228, 46.8861131005925], [10.039212691789873, 46.885857183040386], [10.039320648028015, 46.8858069442265], [10.039385141151438, 46.88564498179109], [10.03942766135932, 46.88560945376416], [10.039495594928516, 46.88562437887942], [10.039635897160135, 46.885417506780335], [10.039758045011068, 46.88539439794286], [10.039810624275242, 46.88518960965834], [10.03997179217532, 46.88504265186577], [10.039921959967675, 46.88498942504149], [10.040023263719005, 46.88486110092645], [10.040107439879682, 46.88481832575256], [10.040149054065989, 46.88468814426905], [10.040370259764863, 46.884539277482006], [10.040447642559645, 46.884421582264295], [10.04099434534234, 46.884152449073675], [10.04125115572525, 46.88392626554035], [10.04111242460752, 46.88347119777261], [10.041211544471764, 46.883053910959255], [10.041245797984237, 46.88295888815681], [10.041405593674245, 46.88284589903557], [10.04166266424689, 46.88246220906885], [10.041915003528128, 46.88234927390625], [10.041841240148774, 46.882243740318174], [10.04183984256584, 46.88216338973826], [10.04188660623184, 46.88213694563635], [10.041864143709251, 46.88207697497473], [10.041983755888117, 46.88206156350609], [10.042006974823636, 46.88203142465798], [10.042001797817226, 46.88194351843745], [10.042148263787542, 46.88173695101416], [10.042098599987893, 46.88168991258865], [10.042127341334842, 46.88149196151878], [10.042197929900519, 46.88136120112401], [10.042319248225144, 46.88125880809548], [10.042290531968643, 46.88113201066339], [10.042401788698434, 46.88080320055373], [10.042352942801694, 46.880667590597014], [10.042400095428821, 46.880632685684326], [10.04244915935331, 46.880439665501555], [10.042565337523817, 46.88043450001009], [10.042607028969314, 46.88038224946157], [10.042698695023645, 46.88043443310386], [10.043042527571489, 46.88040374901618], [10.043449023684428, 46.88025427898068], [10.043741420121005, 46.88026949625536], [10.043981326599479, 46.88032578585508], [10.044081313959945, 46.880303436868886], [10.044121743264805, 46.88020053355392], [10.044422411997985, 46.880153547380495], [10.044667015651722, 46.88000594968049], [10.045063426358652, 46.880063253424886], [10.04542437238926, 46.87997897167702], [10.0455023008256, 46.87994029186961], [10.045675341333908, 46.879698097380654], [10.046138959428214, 46.87954101385959], [10.04647338671289, 46.8793516735823], [10.046541958568763, 46.87922022583412], [10.046743667253716, 46.87914109985244], [10.046773582109484, 46.87908668828161], [10.047076461006805, 46.879069166844715], [10.047392965841798, 46.878970233052385], [10.047455001841717, 46.87882858316063], [10.047682777447182, 46.878721236424276], [10.047806716132047, 46.87859744631643], [10.048077565851314, 46.878428720654306], [10.048226338813473, 46.87840561473584], [10.048680251646992, 46.87812262467174], [10.048732392766224, 46.878034313154394], [10.048874505639855, 46.877946738128635], [10.048993115082228, 46.87781359860266], [10.049156306319427, 46.87775768913541], [10.049653211819843, 46.8773276266031], [10.049829188931183, 46.87720525671372], [10.050238339068933, 46.877035977220466], [10.05038434094245, 46.87689646799662], [10.050795286878964, 46.876858741435754], [10.051259135954878, 46.87661288135773], [10.05194402384335, 46.87674324787853], [10.051638051136464, 46.87652106369919], [10.051569508088196, 46.87639355454877], [10.05160965383155, 46.87627977294626], [10.05156700893452, 46.87623438604931], [10.051581842347849, 46.876155834352545], [10.05184646277388, 46.87609713239905], [10.051971551584854, 46.87599167077496], [10.052123004792886, 46.875994420306434], [10.052179158260985, 46.87592671560114], [10.052235472435449, 46.87591336832002], [10.052265063667763, 46.875938883761826], [10.052416079626642, 46.875886470987446], [10.052611282004627, 46.875746735490125], [10.052668177606952, 46.87548351523336], [10.052582680741168, 46.875360974773244], [10.052407043809138, 46.875328077853794], [10.05243704886872, 46.87499221237341], [10.052370364862142, 46.874921814781914], [10.052407927179058, 46.87478190302724], [10.052594217096228, 46.87469412045988], [10.052126132244327, 46.8743606950184], [10.052108626137137, 46.87427324342208], [10.051935957766116, 46.87405017475513], [10.051594776729258, 46.873840781581414], [10.05153551036807, 46.873763642984606], [10.051554854795002, 46.87353782424442], [10.0514715216527, 46.8733624045871], [10.051560446438005, 46.873136978017335], [10.051799879870881, 46.872897762002424], [10.051994331396479, 46.87279944738033], [10.051863693255465, 46.87258234813702], [10.051872227085441, 46.87248521837447], [10.051705168031033, 46.87235590885921], [10.051904939698598, 46.87224289158274], [10.051931129473093, 46.87215795205952], [10.051850813184364, 46.87206888535019], [10.051640932708475, 46.87194955646408], [10.051576371162927, 46.871825547129994], [10.051481979744285, 46.87175200302417], [10.051423615570963, 46.871768996723546], [10.051300072182462, 46.87171402838743], [10.051101623185126, 46.87132477092177], [10.05054755653301, 46.870914551702874], [10.0505580812016, 46.870874530874794], [10.051109262696967, 46.870636306875845], [10.051360381317114, 46.870359649190604], [10.051056266135726, 46.8701859526178], [10.050995279225706, 46.87001111229505], [10.051053409726354, 46.86971914069399], [10.050782983957381, 46.86946618371073], [10.0507424283316, 46.86926611789203], [10.05078715148044, 46.869168254385876], [10.05068194234049, 46.86897182465813], [10.050667494738208, 46.868604106228716], [10.05085693589612, 46.86843264492901], [10.051064843099512, 46.868350133800014], [10.051140562520976, 46.86823094222384], [10.051114399657331, 46.86817888892099], [10.05115759551449, 46.86809285004941], [10.05127099332077, 46.867941566296984], [10.050935537758399, 46.867662723451524], [10.050936926100121, 46.86746197416974], [10.050988845234668, 46.867420196465346], [10.050955414999903, 46.86735632843561], [10.051053797202403, 46.86732581812702], [10.051028465365134, 46.86724170423235], [10.051093295379195, 46.86707424079697], [10.051061102221928, 46.86705446467337], [10.051159622372877, 46.86685175726033], [10.051059000009785, 46.866711930768034], [10.051127769511856, 46.86661477747918], [10.051043327578263, 46.86654325530957], [10.05094604959491, 46.866547906243895], [10.051018238087831, 46.86647254399964], [10.051004419051887, 46.86636636761965], [10.050893417937637, 46.866215353269446], [10.050950970154906, 46.86601692517366], [10.050888967869083, 46.86580484764225], [10.050939036902898, 46.86565501102788], [10.05085128229609, 46.86557465573015], [10.050910630964967, 46.865410565575225], [10.050849384577857, 46.86519513971317], [10.05080091419208, 46.865053680661], [10.050902797040587, 46.864836243781134], [10.050907126901018, 46.86458531221183], [10.050952778326304, 46.86449048495128], [10.05090773697421, 46.86441960078142], [10.051102939669416, 46.86426746186785], [10.051146787960874, 46.86401398997961], [10.051209119105582, 46.86394165036768], [10.051576314136483, 46.86372913657819], [10.051922017915835, 46.86366327404063], [10.052033551212904, 46.86357676112863], [10.052361009055621, 46.863437958581336], [10.052484455267564, 46.863426496252], [10.052721091393373, 46.86331407992019], [10.052846224134774, 46.86332651967434], [10.053180254504218, 46.86320178530152], [10.053490722128318, 46.8629511425747], [10.0539576595665, 46.862348169511044], [10.054126198158006, 46.862217329666656], [10.054245493948567, 46.86217994925138], [10.05435890471405, 46.862003199244626], [10.054701668544558, 46.861858021712585], [10.054892579870142, 46.86170433838729], [10.055415230092601, 46.86157258806156], [10.05551807170391, 46.86158004372246], [10.055697175925257, 46.86160421342215], [10.05631460970088, 46.86191830794464], [10.056694606880242, 46.86203679010135], [10.056913566981278, 46.86205751630776], [10.057227202388779, 46.86200415264977], [10.057519537005977, 46.86192294362054], [10.05767502745618, 46.86183694787741], [10.05771043128107, 46.86175828453972], [10.057900763586613, 46.86167616128256], [10.058328812824342, 46.86131588916382], [10.059572276453382, 46.860774388064726], [10.06072533060961, 46.86073023244483], [10.06178541360016, 46.86109102942232], [10.063331049575174, 46.8615568823549], [10.064093787013883, 46.86153514067044], [10.064661357002747, 46.86147189074824], [10.065005651019014, 46.86149575183104], [10.065520845300707, 46.86136520817071], [10.065800775667007, 46.861336634028135], [10.066262396858361, 46.86133187546141], [10.066748812047315, 46.861374796129574], [10.066916558960683, 46.86135680942682], [10.067690914739272, 46.861465671009746], [10.068103097923574, 46.86127573620716], [10.068635377767865, 46.86122903347783], [10.06920444282498, 46.86131443644626], [10.069637037735996, 46.861429516949386], [10.070695990608062, 46.86140931170678], [10.071461921495601, 46.861493049853394], [10.072166911479409, 46.86161815064099], [10.073814652734805, 46.86179355754817], [10.074187055719927, 46.86188201029526], [10.074692428255167, 46.861891628631085], [10.07494222590073, 46.86194132352572], [10.075280962260923, 46.86189706251258], [10.075712241816115, 46.86176039159136], [10.075893612888228, 46.8616672851994], [10.076186205588563, 46.86166684446844], [10.076286303176822, 46.86160513279165], [10.076551596311521, 46.86165537355442], [10.076817621890788, 46.86160819371414], [10.076939522403304, 46.86155200852214], [10.077376982588865, 46.861525180390885], [10.077468900793841, 46.861547909842365], [10.077628171436764, 46.86146979187518], [10.077839012109255, 46.86143451291226], [10.077801486319778, 46.86139442819791], [10.077993177095443, 46.86129297142751], [10.078052395513728, 46.86130979562366], [10.078411755106798, 46.861182965274836], [10.078820783597289, 46.861173080084974], [10.079096294775068, 46.86107888416991], [10.07931586917776, 46.86108255319618], [10.079321899808166, 46.86104235318232], [10.079417238203709, 46.86102251035358], [10.079431499178687, 46.86095484894158], [10.080237884184422, 46.86072392085346], [10.080605002193028, 46.86067565559188], [10.080625723694881, 46.86059795413148], [10.080816301975743, 46.86052424749756], [10.080922984415096, 46.860446897821895], [10.08113393204882, 46.860381898147914], [10.081217400359254, 46.86042497868898], [10.081277974226511, 46.860416017537766], [10.081369588928256, 46.860539462180135], [10.081450590006208, 46.86054325926964], [10.08179477378216, 46.860367174561496], [10.082090908802806, 46.86042828816614], [10.08226899115906, 46.86033021748232], [10.082381887911257, 46.860379619395225], [10.082499221158761, 46.86036952446973], [10.082522008739106, 46.8604220277408], [10.082598245810201, 46.86043808483402], [10.082789723890194, 46.86034536378826], [10.082926620640977, 46.86032221374354], [10.082927463878399, 46.860283312607606], [10.083122793919907, 46.8602583612578], [10.083199014124133, 46.86029008809674], [10.08342701302416, 46.86027068035301], [10.083476117126349, 46.860305995297736], [10.08359656033667, 46.86030312607515], [10.083664671956413, 46.86025267706386], [10.083859925659306, 46.86020216517462], [10.083922558148217, 46.86032313822028], [10.085398120382132, 46.86056750220453], [10.085515603163076, 46.8606190648138], [10.085546682586685, 46.860581623522386], [10.08562372800337, 46.86057380930549], [10.085720217883328, 46.860673650383625], [10.08594544082154, 46.86063747465701], [10.08615584808957, 46.86085448377], [10.087207146052085, 46.86117977718199], [10.087439429556873, 46.86119366757915], [10.08750152687857, 46.8610904151456], [10.087606771152526, 46.861037582569914], [10.087709414500587, 46.86091567852386], [10.087865426693712, 46.86053203493765], [10.088021855242408, 46.8604285928706], [10.08832577380472, 46.860083122309035], [10.08865885302202, 46.85983931818328], [10.088844002962466, 46.85978651211284], [10.089244300378388, 46.859551752863354], [10.089429298711382, 46.859482029815204], [10.090145776941647, 46.859355993790075], [10.090887037326068, 46.85914420944392], [10.091363952311907, 46.858967989103576], [10.091644032659774, 46.858809834836485], [10.091706665771728, 46.85861918447965], [10.091901421001802, 46.85843690793806], [10.092191227237594, 46.858297787588086], [10.092606814042098, 46.85817365703062], [10.092665091808357, 46.858049357730856], [10.092538716484029, 46.85777243656226], [10.09278263733391, 46.857477397449635], [10.092970970605561, 46.85709821641906], [10.092952816433156, 46.85700152323932], [10.0926771494316, 46.85676758788578], [10.09252656622355, 46.85630589396524], [10.092399054055926, 46.85616006475104], [10.09232967091405, 46.85595051230077], [10.092204467144793, 46.85580355048987], [10.092144720932879, 46.85564569833063], [10.091891486968645, 46.855355601356315], [10.091792658574706, 46.85501732011381], [10.09167994235557, 46.854900047177985], [10.091650512552903, 46.85431184739255], [10.091855587670034, 46.85404095391016], [10.092052166941816, 46.85387718101946], [10.092042348878365, 46.85374195283245], [10.09207445331173, 46.85366164270475], [10.092154274013371, 46.85361748722513], [10.092123865769503, 46.853392028437256], [10.092177707520039, 46.85298909400071], [10.092227341337631, 46.852931688683086], [10.09234766316195, 46.852392568982964], [10.092330205074962, 46.85197230786093], [10.092259167625908, 46.85187261406097], [10.092322447038956, 46.85181263976678], [10.0923097823845, 46.85169944166357], [10.091965037317841, 46.85142601453865], [10.09206801823139, 46.851362339237085], [10.09248086457463, 46.85127715001935], [10.092702738369624, 46.85114501008471], [10.092861829377902, 46.85085699567458], [10.093138350339641, 46.85063600017875], [10.093367946662566, 46.85052752988495], [10.095307679496445, 46.84994786638413], [10.095663860245837, 46.84994786804484], [10.095657553864239, 46.849894551927186], [10.095772992631675, 46.84986810635221], [10.096098179852453, 46.849678924191174], [10.096179105370323, 46.84960710923839], [10.09612805471807, 46.849550963443036], [10.096132853092714, 46.8494170248302], [10.096287029364904, 46.8491498217402], [10.096505317479409, 46.849016858985635], [10.09674555454368, 46.84893810840141], [10.096907787082099, 46.84881768085718], [10.096925891121607, 46.84879166259761], [10.08947269087975, 46.845969385138275], [10.08723963265488, 46.84367334797903], [10.0870778799094, 46.84340337776008], [10.086743437911718, 46.84323114584922], [10.086137311372523, 46.84314856718515], [10.08506230337065, 46.842757911885116], [10.085048342280125, 46.842039505511764], [10.08523784254739, 46.841680343113836], [10.085107234095695, 46.84152216763001], [10.084910854877338, 46.841035247711666], [10.084384134195616, 46.84083926687519], [10.084336921330332, 46.84031580233211], [10.084262805883196, 46.83987412168217], [10.083787136270956, 46.83960008767285], [10.082698642966784, 46.839435887974595], [10.082524416304368, 46.838995078228336], [10.082022232490964, 46.83872687591268], [10.082381607686658, 46.83640117912812], [10.079646288972986, 46.834499048846915], [10.07923463917206, 46.83479711283181], [10.078561442291276, 46.83508052533377], [10.07827488316614, 46.83534972254153], [10.076907265878555, 46.83585378523899], [10.076449258869388, 46.835919986166736], [10.07545683509078, 46.8354918855215], [10.07388567551422, 46.83502213123085], [10.073232058407, 46.83524121919588], [10.07250307167579, 46.835049623399016], [10.072575695007714, 46.83483350405708], [10.072565625915738, 46.834739562699866], [10.072468782178637, 46.834517978912174], [10.072383200078752, 46.834197662771], [10.07173841185413, 46.8331427839434], [10.07159845051794, 46.832614714160485], [10.071393902845035, 46.83237382844682], [10.071218668651904, 46.83193030968464], [10.070777178401075, 46.8315503224828], [10.069351258929077, 46.83083778628225], [10.06896884354706, 46.82985968402004], [10.07083042466337, 46.829343047878496], [10.07163501846559, 46.82922265761137], [10.071912479672148, 46.82902813313551], [10.072069322921005, 46.82883800656438], [10.072164703287314, 46.82863552892795], [10.072392337819123, 46.82812179881712], [10.07248733679674, 46.8280396309659], [10.07280057899174, 46.827907284792474], [10.073078226897763, 46.82786568251473], [10.07326956390211, 46.827864321110084], [10.073425969627655, 46.82790399722246], [10.074204550313494, 46.82739091104432], [10.074688654174583, 46.82726210606628], [10.074435773622008, 46.8271244447669], [10.074155989585156, 46.826990354859355], [10.072546272398956, 46.82635614188898], [10.071668528974175, 46.82551150121913], [10.070950803139677, 46.82516187937192], [10.07075526403666, 46.824648082865906], [10.069842057776093, 46.82384801962832], [10.06929293170759, 46.823762415749286], [10.068498166335006, 46.822918870522884], [10.0671770890962, 46.82240706195842], [10.06605681395016, 46.821728602052445], [10.066057110142646, 46.82148157297296], [10.065458296123186, 46.82088647034447], [10.065070039530566, 46.82034769014368], [10.064575713434177, 46.81927260926052], [10.064069410535515, 46.818534285679775], [10.063996682160989, 46.81811386305101], [10.064013926598006, 46.817762002689754], [10.063838596747717, 46.81734370777774], [10.063508709111616, 46.81693534839025], [10.06276594610172, 46.816411028279745], [10.062454663248534, 46.81542272586351], [10.061909009194178, 46.814684596006586], [10.061911294403124, 46.81398950813853], [10.06216232727468, 46.81308831623573], [10.061018222448928, 46.81318150467607], [10.060391480000112, 46.813120429938195], [10.058899956689038, 46.81336227425823], [10.058172107838368, 46.813151991554754], [10.0578821788542, 46.81312942903243], [10.057498021587836, 46.81309320420193], [10.0563063008599, 46.81284949376563], [10.055164762982029, 46.81284749616506], [10.054160079387225, 46.8130149853385], [10.053561171867974, 46.81283175704253], [10.053125141885937, 46.812912453694445], [10.0522693069212, 46.81256057152425], [10.05144685343762, 46.812469243631455], [10.050572154842737, 46.8121570377685], [10.049932223878466, 46.81206003375186], [10.049241397751874, 46.81220763176328], [10.047661392921349, 46.811719489871386], [10.046762029092813, 46.81127201693635], [10.046583940667675, 46.81097351126298], [10.046056647751643, 46.81095521613266], [10.045475667777685, 46.81074220371422], [10.045351422830228, 46.81018162325712], [10.044711130905014, 46.809635974351686], [10.044123342769836, 46.80938886454658], [10.043742714056005, 46.80933195195203], [10.042098788254552, 46.80969948095325], [10.039335775757301, 46.80977999633227], [10.038597335911218, 46.81021073202458], [10.037979318793028, 46.810367962165486], [10.035899495253679, 46.81016491170687], [10.034904078813398, 46.810201441519645], [10.034127182060152, 46.81012871980078], [10.033307253962187, 46.810288393025345], [10.032931967715344, 46.8103117579644], [10.031784424003288, 46.81069784161167], [10.03170250738805, 46.810755043860546], [10.031466627671742, 46.81080224085962], [10.031184033659093, 46.811061751808474], [10.02767916240493, 46.800702408179966], [10.020617023777719, 46.79511323191627], [10.017297923642658, 46.79464420646225], [10.00714167841643, 46.79410698004529], [10.006087354486532, 46.79377877248329], [10.00497923010712, 46.79401856858365], [10.003876986406144, 46.79419156918485], [10.002521204269643, 46.794092729537596], [10.001865204609691, 46.79406323532547], [10.000997215119922, 46.79398612292726], [9.999987958123599, 46.79370041183486], [9.999583500583944, 46.79321991089329], [9.998802086460842, 46.79238829951923], [9.998323574432487, 46.791934138903926], [9.998009948415078, 46.7912070506854], [9.99712828387863, 46.79076519546314], [9.996796387599828, 46.790493255534706], [9.996061795595065, 46.79031624300515], [9.995433022807985, 46.78965546692815], [9.995190548262084, 46.78951487817241], [9.995076467479482, 46.78947454791506], [9.99440102955393, 46.78938583389111], [9.993796634536158, 46.789193434539555], [9.99351662993709, 46.7889539907253], [9.993221743776353, 46.78759625055773], [9.993268618664336, 46.787212072514116], [9.992956655870481, 46.78629304980104], [9.992365290313014, 46.78603294082813], [9.99123015672829, 46.785436639908106], [9.99102558581797, 46.78447904025745], [9.990359266606283, 46.78389605339532], [9.989633817892916, 46.78324924904441], [9.989135089751697, 46.782896491139624], [9.98802249578123, 46.77895416553944], [9.987259466482254, 46.772722973943424], [9.977257299541684, 46.76835515927235], [9.975758542560442, 46.76808941975514], [9.974606895318813, 46.76777068534591], [9.974436854843978, 46.76746516330626], [9.97436740537531, 46.7673883054228], [9.974074634444987, 46.767219665455286], [9.97382378896612, 46.766847717094315], [9.973530168560902, 46.766690975536484], [9.973339445210081, 46.766530501781524], [9.973109975265404, 46.76634656904936], [9.972403419867112, 46.766046038025536], [9.972098239493596, 46.765709190793174], [9.97171731973094, 46.765598689628746], [9.971377525316132, 46.765391599412894], [9.970652851251307, 46.7652104843372], [9.970386020780143, 46.76502628203266], [9.969936908798362, 46.76511418700248], [9.967026186597094, 46.76283279156317], [9.967073976334826, 46.763008951015074], [9.966181659821762, 46.76392354540017], [9.965309253390013, 46.764713017807786], [9.964802843540019, 46.76505827127371], [9.96401078157859, 46.765873120730895], [9.963732000565841, 46.766389485803664], [9.96328007757643, 46.76674610266406], [9.963117459430604, 46.76695174205001], [9.962680546151093, 46.767165930604804], [9.962083112851937, 46.76719941074789], [9.961541127863022, 46.7675474809944], [9.960772812319053, 46.768363052020874], [9.960430165070509, 46.768609094049175], [9.960422628237785, 46.76889447176737], [9.960283167582077, 46.76909771167407], [9.960392209180553, 46.76919870240938], [9.960364171262631, 46.7694051855105], [9.960402226067897, 46.769738919609956], [9.960269826660552, 46.76993542839867], [9.960257652014, 46.77035907744839], [9.960348178955885, 46.7704718909256], [9.960134415522484, 46.77062462154218], [9.96008098377055, 46.770891348851364], [9.959613035956254, 46.77114134024448], [9.959363008235588, 46.771491161273254], [9.959146927830789, 46.77164324720145], [9.959089494264305, 46.771728216558756], [9.959063022449605, 46.77230488281816], [9.958880530879068, 46.772622593108714], [9.958545959703326, 46.77286872782238], [9.958317988614455, 46.77313676888066], [9.95819378462553, 46.77345952842811], [9.957609700114936, 46.774010826485465], [9.95733086962819, 46.77437557036226], [9.957506975574685, 46.77487196713377], [9.957412460343589, 46.77503254363857], [9.957583034054494, 46.77541641009824], [9.957669342844053, 46.775675451003764], [9.957710865121907, 46.77585494884162], [9.957720934722719, 46.77617731614946], [9.957899160342036, 46.776292712258396], [9.958052574811116, 46.776592114855376], [9.958030504426988, 46.77668741859266], [9.958216315750374, 46.77695207483022], [9.958220297312089, 46.77707331789866], [9.958316417398429, 46.77719183335861], [9.958369359222052, 46.777444817320294], [9.958323008901614, 46.777633320326856], [9.958557045670677, 46.77796618815005], [9.95856521260629, 46.77809231548263], [9.958701279338213, 46.778379978138176], [9.958833771882167, 46.77890090361627], [9.959096944540768, 46.77943599854264], [9.9588902298758, 46.77979203458646], [9.958626709401662, 46.780077043397334], [9.957952262067067, 46.78048949702122], [9.957278212410015, 46.78082068695627], [9.956861946509413, 46.7813659377917], [9.956361662794823, 46.781871325679944], [9.95615296865876, 46.78213767694968], [9.956162718340211, 46.782490381011286], [9.955489940827672, 46.783775117145545], [9.955541867975624, 46.784331700848824], [9.95548546645336, 46.78463431218906], [9.955427784533446, 46.78475501616034], [9.955409825864672, 46.784952758568444], [9.955242923500293, 46.78532449612285], [9.955348075456385, 46.78590970768785], [9.955690237137356, 46.78604231419738], [9.955947464736795, 46.786626016479445], [9.956223681823992, 46.78677931574785], [9.956436453027843, 46.78697178667349], [9.957131410642063, 46.78750125152785], [9.956912838349375, 46.787804400326074], [9.956923008292536, 46.7884410864557], [9.956418674891681, 46.789569056848734], [9.956279554259282, 46.78976683266323], [9.956446687079017, 46.789864256434285], [9.956253124523469, 46.79043291336539], [9.956624683866917, 46.79097228116255], [9.956791710555153, 46.791460560371526], [9.95730626223173, 46.79170031538309], [9.95743438346308, 46.79211847319111], [9.957583289875597, 46.79299920204346], [9.957985879109055, 46.79316307350825], [9.958417061390016, 46.79319518433851], [9.958837736796339, 46.79361034675999], [9.958791824718501, 46.79449705645026], [9.958765580957087, 46.79528490257318], [9.95830947850023, 46.795454436744414], [9.957558159281922, 46.79546772261443], [9.95681834686745, 46.795689996689234], [9.95579096202203, 46.795723529341196], [9.955232988455329, 46.79578296852913], [9.954885638995668, 46.79595373181987], [9.953837933466737, 46.7960923938404], [9.953094428111136, 46.79626131012667], [9.95232648644275, 46.79633161427278], [9.951570613914305, 46.79691147679457], [9.95054798361932, 46.79753029229317], [9.950135963260346, 46.79771771795569], [9.949421857367398, 46.798361471811226], [9.948986233262037, 46.798640594266246], [9.948450575795977, 46.79902978898494], [9.948119116809078, 46.79932083470247], [9.947717322294203, 46.799557445967196], [9.946463999472549, 46.80051414365124], [9.945907609044264, 46.8006239067909], [9.945642646381305, 46.80081138426936], [9.945378890003031, 46.80096661097714], [9.94507672182279, 46.80154256702772], [9.944916526039117, 46.80178898556567], [9.944991597885055, 46.801987487652305], [9.944997556163226, 46.802318571828295], [9.944838330188457, 46.802456957816666], [9.944880654109125, 46.80273583668877], [9.944872908746213, 46.80291296488589], [9.945154524665067, 46.80323698031941], [9.945159728975979, 46.803390408016256], [9.945090162068002, 46.803600266456264], [9.945263967114343, 46.80389383748689], [9.945360237471247, 46.804116831474275], [9.94545337434554, 46.80427136866542], [9.945571237466215, 46.804395034462054], [9.945598441754557, 46.80481124571856], [9.945636025837947, 46.80488458845228], [9.94572233344854, 46.80494305755266], [9.945939856135418, 46.80505134854495], [9.946379473266495, 46.80522521028041], [9.946521537021594, 46.80541671607544], [9.946754360149425, 46.80557818437451], [9.946938625964657, 46.80577550230336], [9.947115975800433, 46.80576180872212], [9.947307937253408, 46.80574329269376], [9.947411765272657, 46.80594254912586], [9.947773417047935, 46.80613412817045], [9.948254707534842, 46.80675948398163], [9.948526564896678, 46.8069350145561], [9.948599431130893, 46.80705368897659], [9.948602754545826, 46.8071860225945], [9.948532608533949, 46.80739874006564], [9.94852323189323, 46.80771550459604], [9.948466926020135, 46.80790261871903], [9.948440821356105, 46.808102686130155], [9.94827103944192, 46.80834550994788], [9.948057385479553, 46.80884237544482], [9.948185833657435, 46.80886854305457], [9.948083461834681, 46.80919960753065], [9.947971094516758, 46.80979913641814], [9.947869994417589, 46.810110588422546], [9.94783631416694, 46.8104538784837], [9.94776854952839, 46.81083151128925], [9.94807457963791, 46.81131590398323], [9.948050377033983, 46.812113519173494], [9.9479387719266, 46.812452448102384], [9.947520192863859, 46.81269672260523], [9.947293954579266, 46.81300020445727], [9.94641801382884, 46.812750170003746], [9.946056655198824, 46.81260450949585], [9.945528520184983, 46.81228538525195], [9.945215668150155, 46.81213664745646], [9.944841989791408, 46.81199178192566], [9.944516903103429, 46.811927928608846], [9.944002273938603, 46.81187952661769], [9.943118931690412, 46.81172905803345], [9.942423585956455, 46.81171918246097], [9.942189248281842, 46.81167511589298], [9.941992511897741, 46.81147554199245], [9.941092136083043, 46.81104095217237], [9.94084244062588, 46.810863202005905], [9.940474829351635, 46.81065200002388], [9.939731983004119, 46.81046472327693], [9.939420995172448, 46.810445521389276], [9.939147944947912, 46.81030445510847], [9.938879279468885, 46.81023261191867], [9.9386795398679, 46.81014047611522], [9.938476020531068, 46.81007814113985], [9.938249261954297, 46.81005452771826], [9.938030576905467, 46.810133381657835], [9.937870390826468, 46.81010992258318], [9.937257499396607, 46.810227253728094], [9.936705026646253, 46.81007183642007], [9.936242564849602, 46.81004873011424], [9.935764136289658, 46.810092832953664], [9.935398759867166, 46.80986793970149], [9.933613470651276, 46.8091420912434], [9.932589035453558, 46.80896608410862], [9.931516861140196, 46.80948671580792], [9.930800773480046, 46.80962955226896], [9.930590689593894, 46.80961772777226], [9.930168883172191, 46.80967904568343], [9.929752710086117, 46.8098235968161], [9.92938929626154, 46.80990013632607], [9.928858979079902, 46.810140645568055], [9.928530760971336, 46.81024104822484], [9.928144945838428, 46.81040643323025], [9.927748892526688, 46.810479666924216], [9.927497472199272, 46.81058031975522], [9.927165680686908, 46.81064460063656], [9.926841347551756, 46.810763119875354], [9.926664573567503, 46.810685574499736], [9.92622201890533, 46.810686447467354], [9.925695373103524, 46.810626591227624], [9.924943585746671, 46.810629951433114], [9.924651763028677, 46.81069435237432], [9.923779217818835, 46.810691388852796], [9.92342890859523, 46.810754738413905], [9.921932177859581, 46.81102248983811], [9.92106799433333, 46.81124669008895], [9.920838545151238, 46.81135310520774], [9.920411923674234, 46.811512382391555], [9.9196127808125, 46.81176190998742], [9.919264846241779, 46.811902987257525], [9.918840834801575, 46.81201946379937], [9.918244502640162, 46.81229586114195], [9.917729850368621, 46.81236336119474], [9.91728545326341, 46.81248624006463], [9.916839619224694, 46.81264484303726], [9.91621190615775, 46.812906225285396], [9.915910978727508, 46.81300599015437], [9.915548089863892, 46.81313606921314], [9.915154963281825, 46.81333275076095], [9.915081783614468, 46.813468867266316], [9.914813693509226, 46.81358296527307], [9.914318373347845, 46.813637052282175], [9.913961555598124, 46.813727456457435], [9.913740957828315, 46.813746348126294], [9.913159825648625, 46.81389402592949], [9.912609282031413, 46.81390294461661], [9.911575581158212, 46.814096371116904], [9.911304606978542, 46.81408936802654], [9.911169617288893, 46.81406101592364], [9.910919818981151, 46.81442662464931], [9.91038048660501, 46.81477345208115], [9.90974706086271, 46.81494578908991], [9.909358528292493, 46.81526211322353], [9.909237598900988, 46.815326809109756], [9.908603834963548, 46.815573151845264], [9.90748999062907, 46.81619116344133], [9.907228118570997, 46.816484638181535], [9.907063115278568, 46.81666953294801], [9.906635900804007, 46.81702662383629], [9.906418790975545, 46.81701241397809], [9.905773510427242, 46.817346863029734], [9.905276051909114, 46.81746304655712], [9.905057519307764, 46.81757089352932], [9.904834982007666, 46.81748086725949], [9.904451982297822, 46.81758669280636], [9.904345252875187, 46.81766940084531], [9.904307568003649, 46.81787332288971], [9.904240226319384, 46.8182022814057], [9.904258254866779, 46.818333415868054], [9.904087866374335, 46.818332953413304], [9.903964260657643, 46.818386137263786], [9.903505748560393, 46.81842376836125], [9.903057388461042, 46.81846639773627], [9.90271561997252, 46.81855438149731], [9.902524520163945, 46.818543122125114], [9.902340526892838, 46.81861407612949], [9.902024911559218, 46.818647629831126], [9.901761574646315, 46.81878053642324], [9.901674325512879, 46.81878254356405], [9.901490223588697, 46.81879959797572], [9.900605450619016, 46.8190142929087], [9.90033560426588, 46.818857292177164], [9.900154419497074, 46.818861304408706], [9.899839933895148, 46.819050921716475], [9.899116951001254, 46.81932576960268], [9.898762565843349, 46.819267604121805], [9.898219154480252, 46.81939247740464], [9.89777905245656, 46.81934950049572], [9.897340558994788, 46.81956067141107], [9.896871709014466, 46.81993048826664], [9.895386836764445, 46.82047522099991], [9.894941953012152, 46.82066259550651], [9.89418630109331, 46.82089335862987], [9.893637750972543, 46.821288440449194], [9.893321824084834, 46.82143808228877], [9.893163586872175, 46.82185872834183], [9.89276964895254, 46.821937155060176], [9.89246391496514, 46.8218894798019], [9.892033091560917, 46.82191602243633], [9.89164603501001, 46.82203785793238], [9.891253104093842, 46.82224577404989], [9.890337652346538, 46.822467208588805], [9.890097500260065, 46.822481695462535], [9.889754046923086, 46.82235685051742], [9.889586833692123, 46.82233709356522], [9.886041466311681, 46.82630993445314], [9.885412223154184, 46.82927887381729], [9.884894301900673, 46.83164156153892], [9.884266283280391, 46.83224636307949], [9.88301816258614, 46.83442477183103], [9.882605732419735, 46.83515715136287], [9.882304693044528, 46.83565775575498], [9.881845658939131, 46.83640426691685], [9.88124791866988, 46.837492750474254], [9.881010533809388, 46.8379108155105], [9.880663755329817, 46.838462171445734], [9.880532211142956, 46.83867260332778], [9.879947171508434, 46.83960844662742], [9.878384938789356, 46.84108824517579], [9.878268262489176, 46.841198767754975], [9.877897392505291, 46.84137095496779], [9.877770313962639, 46.84142996917851], [9.877721014351351, 46.841452864281706], [9.877688927166707, 46.84146776886909], [9.877528310353595, 46.84154234130281], [9.877423763651821, 46.841590903983644], [9.877117978998372, 46.84173368856711], [9.87740739457714, 46.84232494050592], [9.87746561752399, 46.84244389823371], [9.87760599492264, 46.84258620270834], [9.877890284355288, 46.842874380381346], [9.877945730512817, 46.84293031811777], [9.87789385874943, 46.84317543356283], [9.877876868433265, 46.84344614637168], [9.87781541487478, 46.84393561004659], [9.87783891252938, 46.844114553529074], [9.87784990932553, 46.844198565428925], [9.877828980909102, 46.84442407617738], [9.877823482963775, 46.84448333958171], [9.877851251925197, 46.844651778308815], [9.877878840321996, 46.8448416854064], [9.87789586734678, 46.844931121122485], [9.877793125467033, 46.84505697884351], [9.87782634536129, 46.845174075144584], [9.877727285994256, 46.84536007912525], [9.8775564804592, 46.845738264375015], [9.877400580235202, 46.84602544169623], [9.877221890809457, 46.846486788695586], [9.877065524122736, 46.84698312872316], [9.87695285372799, 46.84718873645204], [9.876546347806562, 46.847732528630196], [9.876269433076052, 46.84806844371718], [9.875740215256036, 46.84835917832163], [9.875702650069218, 46.84837980554152], [9.875044096435033, 46.84851896666621], [9.874406722501615, 46.84866735643791], [9.873991725132623, 46.84893013614796], [9.873766950693778, 46.84926987856253], [9.873071620719157, 46.849412274295716], [9.872862660289606, 46.84950565265401], [9.872710278093553, 46.84957360600281], [9.872697150831742, 46.84973638158697], [9.872691103040967, 46.84987122485739], [9.872687811842988, 46.849944580614675], [9.872284675212892, 46.850126896266545], [9.87192794938791, 46.85043691606548], [9.871805261145674, 46.85057821376216], [9.871396177624558, 46.85104485474075], [9.871212786929325, 46.851533067052074], [9.870887868219366, 46.85217933508662], [9.870516133457267, 46.85222891291139], [9.869401638239584, 46.85244409292832], [9.868917232987254, 46.85255612153406], [9.86814746644706, 46.85291251701103], [9.867648110568691, 46.85337107607896], [9.867550768892905, 46.85348169119471], [9.867464377852455, 46.85356146458652], [9.866890557270647, 46.85356773960257], [9.866697183127924, 46.85357136238108], [9.866189390332364, 46.853603893885], [9.865263545100182, 46.85356039177169], [9.864529001855958, 46.8537965977456], [9.86336638654534, 46.85397661249781], [9.863004407637298, 46.85417669373811], [9.86167938812662, 46.854267081290914], [9.860951505283643, 46.854787308317874], [9.860157582425781, 46.85459867599348], [9.8601168349684, 46.85459982739505], [9.859918552802775, 46.85463818205405], [9.859710536055584, 46.85470975361313], [9.859651489013995, 46.85473569131562], [9.85960294767951, 46.85477470723438], [9.859573325443423, 46.85484495600674], [9.859527831760712, 46.85490476822683], [9.859413523525538, 46.854975811742456], [9.859334128516338, 46.85498514324959], [9.859106788770013, 46.85495094553899], [9.858961388532588, 46.854972123792145], [9.858889112789203, 46.854989232963156], [9.858709708302529, 46.85505474280947], [9.858573932755172, 46.85501721891596], [9.85846557573299, 46.8549531506232], [9.857966517463607, 46.85478701150623], [9.856945603445672, 46.85519866567738], [9.854592955940758, 46.85529216121443], [9.85161181020991, 46.85629938871062], [9.849423709900828, 46.858507014056435], [9.849305067292473, 46.858626700594336], [9.84787270875424, 46.859044436197316], [9.847597113727335, 46.859002232245786], [9.847002328186946, 46.858911151278804], [9.846651382983833, 46.85885741973454], [9.84489607179523, 46.85882013229984], [9.843892074260882, 46.85872228495155], [9.841692186220985, 46.857972437073656], [9.840768835435473, 46.85812730469489], [9.839911310920003, 46.85852340906676], [9.837178057715654, 46.85809107517588], [9.836650397606977, 46.858007607992185], [9.83585727411968, 46.85795111502506], [9.834490463465055, 46.8578023061415], [9.83397642596656, 46.857784123411236], [9.833059713208932, 46.85791913327471], [9.832164577882311, 46.85792386400648], [9.832077377480346, 46.85793694799194], [9.831993975950281, 46.85795876228283], [9.831916189852226, 46.85798882906108], [9.831845798499906, 46.85802646245572], [9.831788539603783, 46.85806733102024], [9.83174003162644, 46.8581132095368], [9.831701141320774, 46.85816322525751], [9.83167263716539, 46.85821642355303], [9.831573787120204, 46.85844754507116], [9.83152795909472, 46.85851297745231], [9.831471681153538, 46.85857447745495], [9.831405707887141, 46.85863124068499], [9.831330872971053, 46.85868257330087], [9.831251920306784, 46.85872597405251], [9.831166641356607, 46.858763311532776], [9.831076016437684, 46.85879414922058], [9.83098108916501, 46.858818159296916], [9.830832672629926, 46.858893845363326], [9.83068978680912, 46.8589743937106], [9.830552828533294, 46.85905964036327], [9.830422090682214, 46.85914936423769], [9.830292269572224, 46.859247837805945], [9.83016994203105, 46.85935072934686], [9.830055443628593, 46.85945777269847], [9.82994905027975, 46.85956866584759], [9.829906513495759, 46.85960079256522], [9.829855789650992, 46.85962672737629], [9.829798725506866, 46.85964550510988], [9.82973749630384, 46.85965641701242], [9.829680758225958, 46.85965917939039], [9.829624178204641, 46.85965517064181], [9.829569441825956, 46.85964452669167], [9.829518227533956, 46.859627552978], [9.82890833630913, 46.85943980463041], [9.828505043360149, 46.85943946989386], [9.828209279380411, 46.85939879802651], [9.826566961492661, 46.859160831511176], [9.825330807627115, 46.85901075547757], [9.825057431937203, 46.85887888587016], [9.82478934808369, 46.85879827343328], [9.824366201836458, 46.85848955495894], [9.824233182120768, 46.85845582011153], [9.823728930616374, 46.85832794879206], [9.823437366777826, 46.85814928258514], [9.819027662285045, 46.85757102787686], [9.816528354226355, 46.85690607711424], [9.815824191525415, 46.8555929220565], [9.814648386047804, 46.85403880837076], [9.8132476652534, 46.852379925346156], [9.81339576085823, 46.851502953885344], [9.813233988708419, 46.850995662912865], [9.8127459060288, 46.8503305133951], [9.812536629579556, 46.84940608375767], [9.811810783945717, 46.848395885331094], [9.811610496211769, 46.84793001404463], [9.811347646479812, 46.84731863770257], [9.811254774255469, 46.84639147115971], [9.811061079227981, 46.845655854151964], [9.810576193651118, 46.84493385780261], [9.810734991640222, 46.84457923200954], [9.810732419761823, 46.844105128522706], [9.811036203379048, 46.843820532787426], [9.811080654963261, 46.84337847712113], [9.811033171869141, 46.84322248650304], [9.8111753834159, 46.84290615814633], [9.8103860888296, 46.84223351387625], [9.80998534694663, 46.841343510277966], [9.809565294974929, 46.84059468898674], [9.808976864938758, 46.839896998398515], [9.808048753838808, 46.839608963807066], [9.80687759366986, 46.839184100281145], [9.806469789621866, 46.833362233009666], [9.806220802828133, 46.83331507759704], [9.805584772283973, 46.833182332881975], [9.805251431003462, 46.833048999717015], [9.804993048245633, 46.832841102574044], [9.802291685598462, 46.83456511729899], [9.801661432568606, 46.834603902949176], [9.800374870241491, 46.83561738755536], [9.798409233431398, 46.83664032916233], [9.797260919442945, 46.83720509461499], [9.79607733781961, 46.837213154608655], [9.792851722116241, 46.83771049133657], [9.795439996064607, 46.83926758723119], [9.797283786604536, 46.84198693110362], [9.80056790258648, 46.84225285336185], [9.804229320746677, 46.84594208823885], [9.80591871647467, 46.849220942001324], [9.805562156117817, 46.850215846322314], [9.802676268336105, 46.85156740428176], [9.797841715736626, 46.85182823153248], [9.795488755193492, 46.854869710972906], [9.795878359539051, 46.85595271417298], [9.796676779800396, 46.8564190148941], [9.797375022162186, 46.85680112178439], [9.797736173570756, 46.85727100750177], [9.798017747533418, 46.85810026957253], [9.7982502116955, 46.858626689051206], [9.79833184976914, 46.858771334394355], [9.798595782362689, 46.85919137665146], [9.798635727391877, 46.86011774819036], [9.798827624603476, 46.86053922299939], [9.799142869189438, 46.861084249667556], [9.799306925495921, 46.86184833907028], [9.799478071925053, 46.86209244786886], [9.799885507003548, 46.86223713513157], [9.801718516420403, 46.86295020990248], [9.804613284085034, 46.86450735894455], [9.806597260731726, 46.865880559671595], [9.806951231697042, 46.86718460004523], [9.807184109816218, 46.86839865295117], [9.808250007732445, 46.86995052917186], [9.808174874034366, 46.87011388474288], [9.807975411852516, 46.87027767507529], [9.807733201930448, 46.87036356088667], [9.807737482414021, 46.870613285160815], [9.807603990816675, 46.87071048983455], [9.807596296120902, 46.870987460645495], [9.807096968706281, 46.871267559361], [9.807061206550594, 46.87165310396866], [9.807144296833664, 46.87175495664155], [9.807567896070063, 46.871845472022876], [9.807688205539586, 46.87197357847747], [9.807784979629407, 46.87201215206004], [9.807846079794814, 46.87206042742687], [9.807791337140886, 46.87223482676282], [9.807958415644961, 46.87238224831016], [9.807976441178244, 46.872582894114956], [9.807998490445836, 46.87262674131995], [9.80813373189854, 46.872720790003136], [9.808145423105435, 46.8729906190408], [9.808268136620113, 46.87309843570554], [9.808440633211125, 46.87314447401657], [9.80855854859495, 46.87329288681545], [9.808856999335317, 46.873370142403225], [9.80894860778059, 46.87351684140054], [9.809183089435853, 46.873631410921604], [9.809213792532088, 46.87373431201947], [9.809350142794575, 46.8739296153534], [9.809360868927333, 46.87402617231224], [9.809491675310074, 46.87409330443238], [9.80971554064783, 46.874340860609884], [9.809913936507003, 46.874530403434946], [9.809961174650175, 46.8745847339046], [9.809970997506845, 46.874694412510294], [9.809802068482401, 46.874824715709586], [9.80973520958697, 46.87507043377255], [9.809802913152547, 46.87515614370768], [9.809856178891357, 46.87534033576133], [9.810030706381854, 46.87563136390482], [9.810166985537753, 46.87591804665724], [9.810611021465489, 46.87621042321631], [9.810978598439512, 46.876501216732976], [9.811281216416754, 46.87672956013731], [9.811364202614595, 46.877024727265265], [9.811456892093085, 46.87723311917528], [9.81135585270192, 46.877462539213134], [9.81136327825344, 46.87752673060096], [9.811445578910455, 46.877637065148726], [9.811441641777023, 46.8778747389052], [9.811544263179412, 46.87804404771577], [9.811623363312625, 46.878096402413725], [9.811638412245038, 46.8782441293108], [9.81137125383721, 46.879439081160825], [9.812394861572473, 46.88027583348956], [9.813840577070883, 46.880942369909775], [9.81395762857532, 46.8811554741709], [9.814042797830487, 46.881449335377454], [9.814246460185277, 46.88151350920914], [9.814263353760321, 46.881564049794136], [9.814443313431067, 46.88167635861254], [9.814531142257602, 46.88189636890187], [9.814801138222562, 46.88217253896064], [9.814979456233054, 46.882411286002025], [9.815008511764889, 46.88275364823517], [9.814951534079816, 46.88301176359499], [9.814844323940866, 46.883288291139394], [9.814909082686908, 46.883467643297], [9.814792164716208, 46.88375886172737], [9.814679643245126, 46.88398682213066], [9.814654669379124, 46.884108121394455], [9.813692637063092, 46.88448061884587], [9.813314026129996, 46.88482366385034], [9.813120173294294, 46.885015155542355], [9.812833450311873, 46.885447679383084], [9.812151331390494, 46.88593340200525], [9.811718981603496, 46.88621954439302], [9.8112543144694, 46.886576560401494], [9.810685711267391, 46.88669094517324], [9.808989058656394, 46.88735964635691], [9.808397360480589, 46.88760499523779], [9.808563418911392, 46.88764924169221], [9.808644841641511, 46.88770965910067], [9.808701134843401, 46.88776607969959], [9.808776683748391, 46.88787161531105], [9.808867447561388, 46.8880245227573], [9.808922086300962, 46.88807288678801], [9.809181510268703, 46.8882700048512], [9.809237695794259, 46.88835343436741], [9.809284611587184, 46.888524349226714], [9.80936799800053, 46.888569417374214], [9.809414689477382, 46.88861614597345], [9.809423305183033, 46.88869246178508], [9.809360902418828, 46.88876575006614], [9.809340027527584, 46.888857975811426], [9.809376980614937, 46.88892200511011], [9.809542556406708, 46.88907427040517], [9.80960389673745, 46.88915579286145], [9.80964440845849, 46.889270144693825], [9.80963549936073, 46.88933603323935], [9.809554543843216, 46.88946460235115], [9.80957134902241, 46.889518249814806], [9.80969239937341, 46.88970294458175], [9.809699623948216, 46.8897774798473], [9.809682536521285, 46.89001453419851], [9.80966946816869, 46.89007510951859], [9.809794532431251, 46.8902615020876], [9.809962799330977, 46.89044520822405], [9.809988469616039, 46.89049149049767], [9.81001886330746, 46.890585352678386], [9.81006250803102, 46.89065194273298], [9.810222357902418, 46.89076382803489], [9.81032815757299, 46.89087052560012], [9.810413602943575, 46.890902951045504], [9.810471358674823, 46.89096205809878], [9.810547771925403, 46.891117061968984], [9.81065237866076, 46.89125619104283], [9.810815686078094, 46.89141660112828], [9.810820570041665, 46.8914677957675], [9.810790502456921, 46.891559321260715], [9.810814182690983, 46.891649732362644], [9.810940761397916, 46.891721801217805], [9.811076850240214, 46.89183057926071], [9.811165833399789, 46.89188362943184], [9.811256730403585, 46.8920392328], [9.811253490613218, 46.892143701773485], [9.81132827993536, 46.892261840519744], [9.811365645829895, 46.89236457538644], [9.81137628882623, 46.89248674591839], [9.81143340935476, 46.89256116362139], [9.811525175494987, 46.89261775507026], [9.811558238310186, 46.89268276397324], [9.811590239285161, 46.8927829014059], [9.811690015890887, 46.892931120879766], [9.811781981033967, 46.893021915708985], [9.81207371274204, 46.89320665781653], [9.812123880426983, 46.89327222046839], [9.812193040351232, 46.89344088116525], [9.812270656361115, 46.89356346151028], [9.81235473792639, 46.89368321646012], [9.812356244121885, 46.89374707984587], [9.81236922245644, 46.893833203461085], [9.812412568684582, 46.89389260844771], [9.812400836911651, 46.89401344275162], [9.812381249196418, 46.8941344579795], [9.81230275294214, 46.89434846340665], [9.812333908279523, 46.89445942637228], [9.812387863739513, 46.894580697904445], [9.812443251761366, 46.89467584987345], [9.812533932213121, 46.894796357992796], [9.812652981529117, 46.89487578941547], [9.812760651649741, 46.8949356499152], [9.812843161354012, 46.895020330807654], [9.81287747204513, 46.89511322081275], [9.812919162532511, 46.895195149242824], [9.813014419767324, 46.89527057598907], [9.813114619572127, 46.895339600448736], [9.813190546068471, 46.895423518284346], [9.813212045963816, 46.8954941663052], [9.813220507904402, 46.895596591484576], [9.813266623574965, 46.89568922678872], [9.81327305910224, 46.895775495172096], [9.813238946586265, 46.896042593444065], [9.813249515752014, 46.89613327576156], [9.813316963579904, 46.89623357687227], [9.813325040821521, 46.89635670000226], [9.813517941690503, 46.89656238804857], [9.813560044111318, 46.896653306579395], [9.813556425922249, 46.89671998641423], [9.813570296022094, 46.896796193366704], [9.813626708605543, 46.8968841155087], [9.81370573804867, 46.89697878495948], [9.813733611858222, 46.89704479195252], [9.813779081984036, 46.89709334389831], [9.813871574001963, 46.89713641940464], [9.814187234873256, 46.89744576813384], [9.814297774205544, 46.897510967897105], [9.814393511262846, 46.89768627474993], [9.814517936182229, 46.89776828437952], [9.814586383155918, 46.8978613741058], [9.814710966755023, 46.89797666853934], [9.8147976716016, 46.89815577280591], [9.815117425929921, 46.89856608715058], [9.81520200576739, 46.89881587949507], [9.81554760200856, 46.899157172810966], [9.815553955022306, 46.89933621662692], [9.815611515934322, 46.899613289227275], [9.81562697228621, 46.899953349944205], [9.81577622785611, 46.9004476606255], [9.815665842796395, 46.9009787830889], [9.815449912241789, 46.90161792908523], [9.815230431177122, 46.90241356637559], [9.815027813724363, 46.90290826639422], [9.81486276002645, 46.90309528095121], [9.81437719098535, 46.903308757726805], [9.813287838073839, 46.903854258527986], [9.812995653613243, 46.90377930940698], [9.812748109518266, 46.90382316117834], [9.811952684445608, 46.90385944279887], [9.811570450446599, 46.90397538074463], [9.810056821903064, 46.904042739596505], [9.809312780727524, 46.90420214704347], [9.808470343516195, 46.90448327016436], [9.807898851673174, 46.90492256502508], [9.807074035849016, 46.90563169911331], [9.807043187722106, 46.90633248602931], [9.806990129315679, 46.90649917192179], [9.8065850902381, 46.90675413659811], [9.806182985233951, 46.90686684008432], [9.805253922695869, 46.907179428388886], [9.803767756279065, 46.907514305097905], [9.802575985063227, 46.907885378573766], [9.801980242910423, 46.90819377038334], [9.80079814975512, 46.90854662622702], [9.800353234014482, 46.90888158471198], [9.799099358467542, 46.90948428460934], [9.79837338269061, 46.909758428326306], [9.797747002695976, 46.91020780032038], [9.797250617805751, 46.91014783733508], [9.796533014460387, 46.91022381183248], [9.794694190310423, 46.91072511245543], [9.794547872970554, 46.91074252352357], [9.79425194678043, 46.91073790618017], [9.793642224633588, 46.910708059597084], [9.79305953019029, 46.91073128945617], [9.79240354687159, 46.91086490625866], [9.791904993641623, 46.91108618368799], [9.791527958444473, 46.91123297517634], [9.79106866842358, 46.91136074901547], [9.790641574949193, 46.911443771753035], [9.790206627639598, 46.91149769754841], [9.78958670431894, 46.91158601041461], [9.78974468734856, 46.91197649464489], [9.789716775425777, 46.912037911936274], [9.789691929503373, 46.9120643404736], [9.789622371250774, 46.91211066712334], [9.78961967176912, 46.91217803738241], [9.789695455123946, 46.91225927435629], [9.789912808952634, 46.91244437110183], [9.789928430868974, 46.91249675909012], [9.789996541129963, 46.912565276013304], [9.790018988365635, 46.9125977616795], [9.790127467387054, 46.912663847325696], [9.790240617130607, 46.912824373586986], [9.790298829249927, 46.91292508553445], [9.79033842436449, 46.913013905118525], [9.790366306238665, 46.913104854966775], [9.790385090967714, 46.91314397590428], [9.791295916745009, 46.913551661551395], [9.791377771514247, 46.91359749531751], [9.791425460320802, 46.91363116235819], [9.791460521478845, 46.913667068842976], [9.791513961841131, 46.913744804349726], [9.791672724687585, 46.913999083350376], [9.791699673378647, 46.91407525725116], [9.792374354163579, 46.9144910655989], [9.792379554899826, 46.91462926957502], [9.792139358075465, 46.9147535940275], [9.792169144046373, 46.91478057362735], [9.792250429808012, 46.91493927916478], [9.79229487792378, 46.915004159229], [9.792322681485922, 46.91514118702033], [9.792347199236605, 46.91529943125093], [9.792337319641511, 46.91543066488894], [9.792273630176133, 46.915691965363116], [9.792292945767846, 46.9158453675231], [9.792275317495761, 46.91589864676472], [9.792299184424273, 46.91594279284918], [9.79237195516229, 46.916042269584665], [9.792395848579945, 46.916110984054534], [9.792440122046749, 46.916171539541516], [9.792503213144968, 46.91629587373304], [9.792579609244163, 46.91639384482128], [9.79259818237152, 46.91647931709462], [9.792587297412831, 46.91650365931163], [9.792655910220287, 46.9165558841503], [9.792683317986688, 46.91672009850081], [9.792671228035266, 46.91689079486658], [9.792740926646461, 46.91704900995751], [9.792793563941999, 46.917207215395734], [9.792800260637899, 46.91733666812259], [9.79285455403282, 46.91749578467162], [9.792880608107387, 46.91762398453629], [9.792905761368397, 46.917676482147186], [9.792919553923761, 46.917745763336285], [9.79291163708636, 46.91784383901571], [9.792922800642986, 46.91796402058906], [9.792900228854915, 46.918054658455866], [9.792895016577765, 46.91815420849048], [9.792861081605576, 46.91829754640301], [9.79285322494468, 46.918432968053246], [9.792870658099156, 46.91854636117878], [9.792916822324756, 46.91864971410622], [9.792940285886877, 46.91873256574857], [9.79293067600974, 46.91878630969721], [9.7929677089038, 46.91885511319041], [9.79299294986859, 46.918939548551805], [9.793024260384394, 46.919147780718255], [9.793020897065551, 46.91926313212706], [9.793041689028144, 46.91937222675987], [9.793048256370898, 46.919573326231706], [9.792906634463309, 46.919671444372305], [9.792925911989254, 46.9197906490251], [9.793098377968963, 46.92009119843537], [9.793139329435908, 46.920390844248054], [9.793117950468226, 46.920544372208205], [9.793069009505741, 46.920734627025716], [9.793060440276465, 46.92096195655024], [9.793023648358684, 46.921098279644994], [9.793432032054993, 46.920982859939215], [9.79426433302902, 46.920504338685284], [9.794696371775256, 46.92040647849116], [9.795312379163688, 46.92062465779555], [9.79560150505179, 46.92084390649231], [9.795920250674564, 46.92122357833531], [9.797238819561747, 46.92124762584725], [9.79750487938497, 46.921707062370295], [9.798171562393083, 46.92204869156337], [9.79933074077215, 46.92172318900723], [9.8061327835132, 46.922548199765934], [9.809492582774785, 46.92443414523661], [9.81564607623318, 46.925077144248654], [9.820952808002042, 46.92550880181233], [9.829393023061968, 46.929550780907135], [9.8352850860822, 46.93259546140379], [9.83579266649368, 46.93221816054592], [9.83865463683661, 46.93053462706863], [9.839307853220955, 46.93052774132321], [9.843300498064446, 46.92996614219095], [9.84407738436013, 46.92995467236965], [9.845154196409126, 46.92968749090252], [9.846890740642584, 46.93081163647136], [9.847959912732069, 46.931341689913054], [9.849382284616613, 46.93338274941634], [9.849760608136561, 46.93530909955104], [9.850255232927008, 46.93581821519606], [9.850171227225312, 46.93651179322531], [9.854603920509657, 46.933785586915164], [9.854991528823655, 46.933234255721864], [9.856324963375272, 46.93330856171821], [9.85837038109893, 46.93329487182139], [9.859365816438146, 46.93343110527747], [9.864940120434415, 46.932837003522124], [9.865687221571894, 46.93211096706351], [9.866644883604016, 46.93177446810788], [9.868244821413613, 46.93207115381475], [9.870179224466755, 46.93203410641327], [9.87218763869162, 46.93106314022402], [9.873372282417332, 46.93181327991383], [9.87395489822981, 46.932317369453166], [9.874549578811976, 46.933114340370466], [9.874808382765147, 46.933496152663785], [9.87535417377836, 46.93398683175525], [9.875742566944469, 46.93406878387317], [9.876138121852792, 46.934628101759365]]]]}}]}