{
  "type": "FeatureCollection",
  "features": [
    {
      "type": "Feature",
      "properties": {
        "bfs_nummer": 3946,
        "segment_length_m": 0.27446033873472736
      },
      "geometry": {
        "type": "LineString",
        "coordinates": [
          [
            9.556063915923074,
            46.91961336489627
          ],
          [
            9.55525163415449,
            46.91687415385421
          ],
          [
            9.555093699013321,
            46.916406245675894
          ],
          [
            9.554899564474587,
            46.91594476566048
          ],
          [
            9.554669770402272,
            46.91549106243445
          ],
          [
            9.554404932138864,
            46.91504640221212
          ],
          [
            9.55410584936966,
            46.914612065769575
          ],
          [
            9.553773372053417,
            46.91418927893852
          ],
          [
            9.553589395604686,
            46.913976417762655
          ],
          [
            9.553396932348852,
            46.913767096561706
          ],
          [
            9.553070069421535,
            46.913438337416565
          ],
          [
            9.552722286502808,
            46.91311979018751
          ],
          [
            9.552354305403155,
            46.91281210724683
          ],
          [
            9.551966844692066,
            46.91251586003761
          ],
          [
            9.551560637417909,
            46.91223165572803
          ],
          [
            9.551136492826798,
            46.911960037090324
          ],
          [
            9.548708419487545,
            46.91047235016077
          ],
          [
            9.548335101525613,
            46.91023738914741
          ],
          [
            9.54797117056897,
            46.90999561306651
          ],
          [
            9.547616858159284,
            46.909747233703854
          ],
          [
            9.547272445131103,
            46.90949238095076
          ],
          [
            9.546938150224651,
            46.90923127582798
          ],
          [
            9.546614243236997,
            46.908964102421464
          ],
          [
            9.546392351125881,
            46.90877228331673
          ],
          [
            9.54617579791972,
            46.908577611946015
          ],
          [
            9.545964678262099,
            46.90838015858395
          ],
          [
            9.545759060550605,
            46.90817999398842
          ],
          [
            9.545559039068259,
            46.907977179441765
          ],
          [
            9.54536464389989,
            46.90777181340195
          ],
          [
            9.54524988231005,
            46.90764644446002
          ],
          [
            9.54502671569627,
            46.90739302468253
          ],
          [
            9.544918312062988,
            46.90726500982726
          ],
          [
            9.544812082208496,
            46.9071361630017
          ],
          [
            9.544606091310497,
            46.90687597442952
          ],
          [
            9.544408839690691,
            46.906612583210155
          ],
          [
            9.544220452385062,
            46.90634616705578
          ],
          [
            9.544129623324984,
            46.9062118531414
          ],
          [
            9.543954738969077,
            46.90594114782067
          ],
          [
            9.543788968568299,
            46.90566776401377
          ],
          [
            9.543632396716264,
            46.905391853176035
          ],
          [
            9.54355756826543,
            46.905252988227744
          ],
          [
            9.543414934719571,
            46.90497352728421
          ],
          [
            9.543347144473216,
            46.904832976016394
          ],
          [
            9.543218607000398,
            46.904550313078694
          ],
          [
            9.540169712648707,
            46.89756344246204
          ],
          [
            9.538973963251193,
            46.897808525304335
          ],
          [
            9.536963695595647,
            46.897172692607136
          ],
          [
            9.5360834676924,
            46.897290298890276
          ],
          [
            9.535840008577912,
            46.89744324545245
          ],
          [
            9.534734303674472,
            46.89753555787885
          ],
          [
            9.533782692789337,
            46.89821441048749
          ],
          [
            9.531797250001839,
            46.897796461947515
          ],
          [
            9.531497088926564,
            46.897842463772164
          ],
          [
            9.531265922418317,
            46.89814364101141
          ],
          [
            9.530959388142863,
            46.898194266166755
          ],
          [
            9.530088083046072,
            46.89789980333907
          ],
          [
            9.527320379092673,
            46.89745112700295
          ],
          [
            9.526824471673361,
            46.89701929987292
          ],
          [
            9.526546893038933,
            46.896970383897376
          ],
          [
            9.526005266843638,
            46.89705228996333
          ],
          [
            9.525711563234243,
            46.897264629975425
          ],
          [
            9.524732679637392,
            46.89724205159892
          ],
          [
            9.52421367684468,
            46.89740000531963
          ],
          [
            9.523739794379576,
            46.89770561756403
          ],
          [
            9.522149775526367,
            46.898004625249754
          ],
          [
            9.523410055826629,
            46.89970024380293
          ],
          [
            9.523240779326137,
            46.90041419490656
          ],
          [
            9.522959132386646,
            46.900599303264656
          ],
          [
            9.523345608008528,
            46.90108714929175
          ],
          [
            9.522784722652087,
            46.902524040195416
          ],
          [
            9.522140619490237,
            46.902526753390276
          ],
          [
            9.521740914444093,
            46.90294220791754
          ],
          [
            9.521605815471943,
            46.90331011109109
          ],
          [
            9.521400290819875,
            46.903287693666755
          ],
          [
            9.520908347343791,
            46.90334334837143
          ],
          [
            9.52073510331023,
            46.903526910022116
          ],
          [
            9.520394111759618,
            46.90343024406511
          ],
          [
            9.5198175755891,
            46.903939963212814
          ],
          [
            9.518939355046822,
            46.90419387716347
          ],
          [
            9.515375973311645,
            46.90423792338475
          ],
          [
            9.512831515954428,
            46.90198879802093
          ],
          [
            9.512310235955956,
            46.90195328995424
          ],
          [
            9.51205266650942,
            46.90181040172462
          ],
          [
            9.511668951369852,
            46.901425959892514
          ],
          [
            9.511379389272843,
            46.90062314976792
          ],
          [
            9.510583752526452,
            46.89963422986838
          ],
          [
            9.507000920364483,
            46.89844010545304
          ],
          [
            9.5042492852881,
            46.89728038674474
          ],
          [
            9.502523268792967,
            46.8968103066326
          ],
          [
            9.500816996909913,
            46.8962381455699
          ],
          [
            9.500070518605744,
            46.89607971957298
          ],
          [
            9.498812233495364,
            46.89582342509496
          ],
          [
            9.497719316694688,
            46.89570269775427
          ],
          [
            9.494878846692092,
            46.89550362734584
          ],
          [
            9.493351401355936,
            46.89538079586163
          ],
          [
            9.486773319282895,
            46.894571812892686
          ],
          [
            9.485032773162766,
            46.89445007622064
          ],
          [
            9.483888673557564,
            46.89422307123348
          ],
          [
            9.480063815952613,
            46.89461083014407
          ],
          [
            9.479831547974328,
            46.89488942254868
          ],
          [
            9.477405825813603,
            46.895135143654024
          ],
          [
            9.47573205815103,
            46.895479896904845
          ],
          [
            9.473332604237306,
            46.89590052970512
          ],
          [
            9.469764378636714,
            46.89631038950164
          ],
          [
            9.469354336326846,
            46.89674958494771
          ],
          [
            9.467738280244511,
            46.8968862529001
          ],
          [
            9.467364487487533,
            46.89804377737235
          ],
          [
            9.467258169049877,
            46.89988483545748
          ],
          [
            9.471015498646954,
            46.90141725241111
          ],
          [
            9.471359066144986,
            46.902620526352614
          ],
          [
            9.472083466307767,
            46.903305930834556
          ],
          [
            9.47234275729185,
            46.9040508699808
          ],
          [
            9.474808689532857,
            46.90544406183965
          ],
          [
            9.475431216058027,
            46.90641829487494
          ],
          [
            9.477523677010725,
            46.90713419898512
          ],
          [
            9.48009339863372,
            46.90748522091203
          ],
          [
            9.482283347007959,
            46.90820650829044
          ],
          [
            9.485463247769923,
            46.91040556241476
          ],
          [
            9.48800202390665,
            46.91229000521168
          ],
          [
            9.482471604561619,
            46.91418699150038
          ],
          [
            9.482269905351606,
            46.91426542283059
          ],
          [
            9.482007816746853,
            46.91430042642825
          ],
          [
            9.481432838842156,
            46.91474129388214
          ],
          [
            9.48078532407997,
            46.91496408341821
          ],
          [
            9.480528781429681,
            46.91509747075657
          ],
          [
            9.480325604088254,
            46.915329687478625
          ],
          [
            9.480034505192815,
            46.91544362389896
          ],
          [
            9.479530952231771,
            46.9155173104523
          ],
          [
            9.478925599573069,
            46.9156871563493
          ],
          [
            9.47858329608651,
            46.91567901334336
          ],
          [
            9.478652950564106,
            46.91665049404332
          ],
          [
            9.478175543727373,
            46.91801864916027
          ],
          [
            9.477793944163624,
            46.92056388527633
          ],
          [
            9.478211547381182,
            46.92066622410459
          ],
          [
            9.479130283585198,
            46.922206559453485
          ],
          [
            9.479610705194789,
            46.92382578974425
          ],
          [
            9.480440898527956,
            46.9259759854775
          ],
          [
            9.48328063142938,
            46.92769525287944
          ],
          [
            9.485727442720387,
            46.93037723926737
          ],
          [
            9.485789900781198,
            46.93108701283699
          ],
          [
            9.48668075062916,
            46.93323169133672
          ],
          [
            9.48653276361953,
            46.93552177875479
          ],
          [
            9.490410782093859,
            46.93665292079649
          ],
          [
            9.491848472741598,
            46.93718620387867
          ],
          [
            9.493717430200613,
            46.93771408756768
          ],
          [
            9.492873453168,
            46.93921486564909
          ],
          [
            9.494271271452643,
            46.94034616790676
          ],
          [
            9.496108944015626,
            46.940335695936284
          ],
          [
            9.49589602833038,
            46.94077956444077
          ],
          [
            9.495858403069745,
            46.94106641282957
          ],
          [
            9.495767144411698,
            46.94149727938531
          ],
          [
            9.495741591704215,
            46.941825284908525
          ],
          [
            9.495890746959752,
            46.942117776084466
          ],
          [
            9.496511626532635,
            46.94213721445322
          ],
          [
            9.496299362096064,
            46.942667464308606
          ],
          [
            9.496988421833912,
            46.9431976954852
          ],
          [
            9.49707965104933,
            46.9441215021524
          ],
          [
            9.497410835425496,
            46.944415722468484
          ],
          [
            9.498371391951446,
            46.94476286259475
          ],
          [
            9.50138460134749,
            46.944367448549734
          ],
          [
            9.50336493428135,
            46.94420660374205
          ],
          [
            9.504908768321936,
            46.94458542801881
          ],
          [
            9.506260588406388,
            46.94471933642022
          ],
          [
            9.506966383740112,
            46.94479475673904
          ],
          [
            9.507866989872849,
            46.94487923256585
          ],
          [
            9.50935578437809,
            46.944953031420376
          ],
          [
            9.510966027716405,
            46.944530605368506
          ],
          [
            9.512257630672423,
            46.945010195838336
          ],
          [
            9.513279360465228,
            46.9453812374634
          ],
          [
            9.515821794260912,
            46.94613343829101
          ],
          [
            9.517928636513608,
            46.946418497806135
          ],
          [
            9.521311969882625,
            46.94668457752709
          ],
          [
            9.523164961485131,
            46.94681917001948
          ],
          [
            9.524304430369215,
            46.94691201932063
          ],
          [
            9.525916667995482,
            46.94625820476228
          ],
          [
            9.527364702509102,
            46.94568377588913
          ],
          [
            9.528786075768314,
            46.94543827346072
          ],
          [
            9.529955190863632,
            46.945430427131626
          ],
          [
            9.530374268413764,
            46.94552985409591
          ],
          [
            9.530740809089716,
            46.945596045473465
          ],
          [
            9.53122010264978,
            46.945824845894954
          ],
          [
            9.533890233829013,
            46.946801886398205
          ],
          [
            9.536032842329139,
            46.94709458114428
          ],
          [
            9.540751208361389,
            46.94778620873234
          ],
          [
            9.543787248542476,
            46.94824130887782
          ],
          [
            9.54370527314885,
            46.94766416335811
          ],
          [
            9.543660843268837,
            46.94708508586144
          ],
          [
            9.543654016285291,
            46.94650523615021
          ],
          [
            9.543684822608038,
            46.94592575644924
          ],
          [
            9.543753226645778,
            46.945347781161445
          ],
          [
            9.543859049095774,
            46.944772465292324
          ],
          [
            9.543941477742635,
            46.94442499650827
          ],
          [
            9.544037556135997,
            46.94407918433896
          ],
          [
            9.544147214760619,
            46.94373527298136
          ],
          [
            9.544270397237298,
            46.943393506386435
          ],
          [
            9.5444069957335,
            46.94305415644226
          ],
          [
            9.544556901015484,
            46.94271745906493
          ],
          [
            9.544673763342226,
            46.94247533075513
          ],
          [
            9.544797519509123,
            46.942234803201245
          ],
          [
            9.544928095243465,
            46.941995994725346
          ],
          [
            9.545065479806114,
            46.94175896848951
          ],
          [
            9.545209585449019,
            46.941523834063425
          ],
          [
            9.545360389015208,
            46.94129067283255
          ],
          [
            9.545614848951809,
            46.94092275124027
          ],
          [
            9.545885935400394,
            46.94056044399854
          ],
          [
            9.546173398941495,
            46.94020409751711
          ],
          [
            9.54647695185304,
            46.93985408590186
          ],
          [
            9.546796290841295,
            46.93951072055307
          ],
          [
            9.547131127179567,
            46.93917434859395
          ],
          [
            9.54732019408214,
            46.938993921587155
          ],
          [
            9.547513722189661,
            46.93881572467614
          ],
          [
            9.547711634830133,
            46.93863981324119
          ],
          [
            9.54791390749454,
            46.93846623270305
          ],
          [
            9.548120450034794,
            46.93829502969155
          ],
          [
            9.54833123865312,
            46.93812626761118
          ],
          [
            9.548570740426657,
            46.93794133671887
          ],
          [
            9.548795547131574,
            46.93777398912282
          ],
          [
            9.549024596937544,
            46.93760934337208
          ],
          [
            9.549257774514166,
            46.93744747355488
          ],
          [
            9.54949504118296,
            46.93728839835615
          ],
          [
            9.54973632029716,
            46.93713217315455
          ],
          [
            9.554626363221878,
            46.93402101423778
          ],
          [
            9.55476123169879,
            46.9339338099918
          ],
          [
            9.55489407257632,
            46.93384516730471
          ],
          [
            9.555024832991158,
            46.93375507816208
          ],
          [
            9.555153501233173,
            46.93366357878136
          ],
          [
            9.555280038984568,
            46.933570696873396
          ],
          [
            9.555404394447088,
            46.93347645139985
          ],
          [
            9.55560899005241,
            46.933314592353746
          ],
          [
            9.555807172614594,
            46.933149036147675
          ],
          [
            9.555998842098269,
            46.93297991064369
          ],
          [
            9.55618383248497,
            46.93280733592539
          ],
          [
            9.5563620171431,
            46.93263143134793
          ],
          [
            9.55653328363705,
            46.93245234299897
          ],
          [
            9.556753174459311,
            46.932205820019796
          ],
          [
            9.556959942061141,
            46.931954014309895
          ],
          [
            9.557153311255103,
            46.931697272976486
          ],
          [
            9.55733301893423,
            46.93143591590541
          ],
          [
            9.55749885593249,
            46.93117029797533
          ],
          [
            9.557650572301311,
            46.93090073882228
          ],
          [
            9.55772689816475,
            46.93075301966908
          ],
          [
            9.557798981331473,
            46.93060431716412
          ],
          [
            9.558062865781473,
            46.92994660979666
          ],
          [
            9.558244041807669,
            46.92927590938248
          ],
          [
            9.55834124556055,
            46.92859706295873
          ],
          [
            9.558353742664243,
            46.927915015568
          ],
          [
            9.558281442689434,
            46.92723471814428
          ],
          [
            9.558124884845245,
            46.926561100779196
          ],
          [
            9.556063915923074,
            46.91961336489627
          ]
        ]
      }
    }
  ]
}