{"type": "FeatureCollection", "features": [{"type": "Feature", "properties": {"bfs_nummer": 3961}, "geometry": {"type": "MultiPolygon", "coordinates": [[[[9.597540394930888, 46.9420247397818], [9.597420969641972, 46.94209358040188], [9.597193259838466, 46.94218155913175], [9.597059668741068, 46.94219216662814], [9.597001696207899, 46.942253549833396], [9.596979101745843, 46.942377265169135], [9.596914973873922, 46.942416267693126], [9.596686070292023, 46.94247457314856], [9.596509093224393, 46.94245180353512], [9.596335632302777, 46.942451472797515], [9.596192224633922, 46.94251176588608], [9.596096633073019, 46.94265034473306], [9.5960683503595, 46.942698570130744], [9.596069939300628, 46.94273813377968], [9.596107843508149, 46.94279860964252], [9.59623356922325, 46.94288623504127], [9.596319185344862, 46.942956610209414], [9.596431854630922, 46.94301388666831], [9.596489525779848, 46.94307578996126], [9.596559881048417, 46.94319144570927], [9.596694258606123, 46.943297805485955], [9.596733670982404, 46.94336275241604], [9.596758002370542, 46.943445098884176], [9.596868806902478, 46.943553693380146], [9.596894246180197, 46.9435982068294], [9.596965072257385, 46.943595072217], [9.597017288084686, 46.94361929246026], [9.596971433012264, 46.943720040472556], [9.596919396002663, 46.943766014069325], [9.596808699453671, 46.94379059661887], [9.596639185315944, 46.943888276628925], [9.596520575465442, 46.94391210903414], [9.596470553402133, 46.94394184749064], [9.596179332035202, 46.944051710218616], [9.596106638166754, 46.944073776823224], [9.596080691783763, 46.94411475943983], [9.596088110692511, 46.944168611233074], [9.596055912662417, 46.94428260920248], [9.595920955348243, 46.944324745811926], [9.595825808617935, 46.94431123159799], [9.595771903763612, 46.944408541417424], [9.595767988746031, 46.94447430522413], [9.59577339573866, 46.944543492871276], [9.59579219774631, 46.944618726686166], [9.595797001433468, 46.94473832660964], [9.595765730012644, 46.94477760068447], [9.595608535889822, 46.944789560396295], [9.595557859240088, 46.944836407932826], [9.595507363180257, 46.94492014628776], [9.595470393438255, 46.94494873822542], [9.595402106013395, 46.94501481403776], [9.595346416238169, 46.94510044931621], [9.595304870261646, 46.94511292095318], [9.595148072120038, 46.94510237589142], [9.595100060158762, 46.94508438296132], [9.59483186658478, 46.94508043448209], [9.594693003422249, 46.94512354291274], [9.59416063684199, 46.9450858716159], [9.59411479034448, 46.94512182896929], [9.593983912434862, 46.945167485646714], [9.5939209700118, 46.94523615960741], [9.59384593589915, 46.94526546720103], [9.59367348828721, 46.945290299600785], [9.593864861980006, 46.9456061476957], [9.593795757521438, 46.94575051565302], [9.59380583033261, 46.94590330198529], [9.594043277734938, 46.94609050404111], [9.594094465277335, 46.94618761595035], [9.5941502897631, 46.946334141057925], [9.593995326457147, 46.94640184607902], [9.593915948308066, 46.94651942949728], [9.594314532320286, 46.94676027948908], [9.594633303137938, 46.947140302289995], [9.595205796425375, 46.947588448853175], [9.595590580162604, 46.94807431389664], [9.595579661477679, 46.94822749398362], [9.596153167875872, 46.94876649160585], [9.5965809519006, 46.949242536374015], [9.596835130742832, 46.949550896580064], [9.59715400291579, 46.94963846507054], [9.597193360253048, 46.949669218298816], [9.597210815771433, 46.94971118257499], [9.59723453448017, 46.94974582994509], [9.597317247866018, 46.94980906069429], [9.597354048192042, 46.94984256154038], [9.597490596673719, 46.94987238206096], [9.597681813699884, 46.94992186903459], [9.59773056673723, 46.949957835292174], [9.59781443488592, 46.94998504956991], [9.597841263173502, 46.950031336139006], [9.597878174219243, 46.95003423961612], [9.598089932445246, 46.95026780697631], [9.598093932416605, 46.95030192602782], [9.598438564964615, 46.95050688055204], [9.598578355278642, 46.95055192614532], [9.598498354189774, 46.95058853888499], [9.598428492587653, 46.95094260249543], [9.598461105809555, 46.95103467292914], [9.598532077537827, 46.95117281210914], [9.59856172764693, 46.951347724627425], [9.598539947164696, 46.951427322409934], [9.598273280039725, 46.9517886819164], [9.598048096273848, 46.95226715772044], [9.598023363830164, 46.952273032163454], [9.597950192939164, 46.95257765448429], [9.598089186681758, 46.95273341938786], [9.598089932968515, 46.95285038520782], [9.59810007882505, 46.95300495263767], [9.598299302226943, 46.95318747027276], [9.598305462505916, 46.95330793662576], [9.59817937883573, 46.95347318990413], [9.598181257426175, 46.953519945326875], [9.598229906101903, 46.95352082988183], [9.598376201045472, 46.95359635863749], [9.598376985196634, 46.953648535488455], [9.59827515703111, 46.95409048740399], [9.598323675161645, 46.95425153837373], [9.598612649126576, 46.954738310634575], [9.598741638084592, 46.954939245773744], [9.598794140493862, 46.955231601956136], [9.598926695222492, 46.9553577816498], [9.598982372382867, 46.95550070888699], [9.598993702913289, 46.95565167163456], [9.59907932213178, 46.955852523982266], [9.599044266464007, 46.95596116832821], [9.599437286460068, 46.956355071834246], [9.599569309573651, 46.95663153775634], [9.599558747446952, 46.95672802048408], [9.599823312983334, 46.957032569699116], [9.600005220198144, 46.957274801473254], [9.600118373855397, 46.957408545364814], [9.600499360023626, 46.95773159296195], [9.60065953521846, 46.957988627463024], [9.600741759791845, 46.95826873232842], [9.600844921064747, 46.958447656867705], [9.600817863289347, 46.9586569271981], [9.600792038645034, 46.95896246655525], [9.60075828094346, 46.95900539693257], [9.60072755300986, 46.95915625140894], [9.600423812428224, 46.959250179098234], [9.60039606843883, 46.9593118936205], [9.600536389231697, 46.959533302409945], [9.600586912137183, 46.95971052258624], [9.600962731130807, 46.95990500045215], [9.601174938249125, 46.96005036525326], [9.601313876716143, 46.96033479371332], [9.601487919165653, 46.960511483857665], [9.60169684660369, 46.96060831634786], [9.601731654724434, 46.960721941776654], [9.601768664026203, 46.960792332200725], [9.601796606754268, 46.96080080323763], [9.601891701498987, 46.960844899457555], [9.601993555024725, 46.960860974009464], [9.602059721387734, 46.96093801180101], [9.602250230823492, 46.96106669312849], [9.60233776386273, 46.961151417232394], [9.602377147195346, 46.96121546348592], [9.602398315751053, 46.961316747870086], [9.602352683187693, 46.96142379257627], [9.602459861428736, 46.96153965142099], [9.602547713580833, 46.9616648722715], [9.602625030511645, 46.96175699614427], [9.602713371201284, 46.961829115266696], [9.60284179809376, 46.962015648935434], [9.6029234918315, 46.96211848896733], [9.60299329297785, 46.96221975397981], [9.603159171121845, 46.96238939130698], [9.603230709366054, 46.96250142273938], [9.60315929027341, 46.962588259351534], [9.603380836489709, 46.962638945064306], [9.60355352547535, 46.962716666814686], [9.603613134543316, 46.9628262227844], [9.603666150203008, 46.96290261875946], [9.603705339806487, 46.96292887391892], [9.603733508040085, 46.96300841997267], [9.603835861609936, 46.96313426482713], [9.603864095819242, 46.963248014034335], [9.603897588763287, 46.96329598177227], [9.604000435749603, 46.963337213701394], [9.60404070035248, 46.963390443890894], [9.604115875680199, 46.96346191147605], [9.60416431000669, 46.9635221849022], [9.604266967323007, 46.96355803935501], [9.60437254152566, 46.963699121681245], [9.604378425486113, 46.963812393089235], [9.604425758135742, 46.963910482502946], [9.604460766879438, 46.9641266765318], [9.604607382134075, 46.96433986965684], [9.604621914706678, 46.96443947768218], [9.604650483427962, 46.964528922301604], [9.604743175430725, 46.96464324998119], [9.60494353631008, 46.96498320838289], [9.604975007262157, 46.96504650222496], [9.605048159061482, 46.965100009180176], [9.605157579773248, 46.96523833241671], [9.605187040464765, 46.96531696120381], [9.60520169016421, 46.9653868627303], [9.605262269804854, 46.965584581213086], [9.605283938727958, 46.965698469172864], [9.605348656899979, 46.96593390335251], [9.605339163028214, 46.96602406764437], [9.605283443499856, 46.966206898712855], [9.605267839626455, 46.966308875641744], [9.605279483975977, 46.96643463216732], [9.605264009602212, 46.966506911760355], [9.605085468028216, 46.96670824801155], [9.605074182459838, 46.966754353029415], [9.60500643735382, 46.96686721444609], [9.604945674484568, 46.966925053719784], [9.604855397754305, 46.96696815348905], [9.604712297873203, 46.966972657958316], [9.604575540877105, 46.96700403872116], [9.604475982922462, 46.96694742907522], [9.604195009383297, 46.966923044056436], [9.604042265240144, 46.96698172265263], [9.60392936914563, 46.9670180514998], [9.603727379641636, 46.96702905890515], [9.603698881555223, 46.96703949599844], [9.603642320232638, 46.9670711599871], [9.603665846143937, 46.96710041044137], [9.603754628016874, 46.96724811599974], [9.60374689368171, 46.96738233853272], [9.604068997522264, 46.96751393639374], [9.604041407285463, 46.96764403618573], [9.604274331930077, 46.96791138990626], [9.604510380934473, 46.967995122694184], [9.604631547556725, 46.96813051847263], [9.604896443859802, 46.96827759410657], [9.605289413414983, 46.96847083048577], [9.605602006464043, 46.96859450568323], [9.605748738928305, 46.96867991589343], [9.605777448180403, 46.96870726808841], [9.60587453455825, 46.96873513544491], [9.605903461643653, 46.9687678825788], [9.606176832076303, 46.96896157783], [9.606427010892903, 46.96903694069503], [9.606914841226304, 46.969202289767594], [9.607364851511418, 46.96947363644006], [9.607500222974664, 46.96960246081845], [9.607843337718819, 46.969700349438945], [9.608231067496112, 46.96986129029711], [9.608631158205188, 46.96993739949832], [9.609032327728, 46.97004050013941], [9.609267147049138, 46.97015842320285], [9.609422440909045, 46.97016269808921], [9.609463492000149, 46.97023480791157], [9.609682554975402, 46.9703206427452], [9.610137503046358, 46.97058288418356], [9.610251594094022, 46.97064101147192], [9.610490013127082, 46.97071748789442], [9.611074342914105, 46.970896288240134], [9.611241661815825, 46.97096960388641], [9.61163492104473, 46.97110433892401], [9.611139979883825, 46.971348562212036], [9.609937844530258, 46.971919346677694], [9.609480957003273, 46.97225914599254], [9.609186891710127, 46.97246448361073], [9.608038164149118, 46.97336390648971], [9.607919188147196, 46.973466429095005], [9.608164199858452, 46.97354609678997], [9.608974390806123, 46.97385769695043], [9.60994260840649, 46.97356417768988], [9.612366991206494, 46.97450809913709], [9.613091338175959, 46.97470133165291], [9.613738688141167, 46.97477904863834], [9.615226996092089, 46.97484528953094], [9.617308645223341, 46.97511620635705], [9.618429849388106, 46.97520738261996], [9.619494805074321, 46.97553358259811], [9.62090700634704, 46.97583066363159], [9.621843749928729, 46.97591181297497], [9.622414496105039, 46.97588294862528], [9.6237625784111, 46.97556931034538], [9.624944952295463, 46.97538478979527], [9.626812950708908, 46.97525015576514], [9.628846022858179, 46.97465072349425], [9.630084872307291, 46.97428986574473], [9.63098683048226, 46.974037476792866], [9.63197608988755, 46.973808614456196], [9.632516743982013, 46.9741567612629], [9.633448198225443, 46.974737018747504], [9.646005913296491, 46.981698181020086], [9.646078859735777, 46.981752450770486], [9.646139439437105, 46.981819017034596], [9.646170819016643, 46.981881511360214], [9.646192018134444, 46.98195287653226], [9.646198215243396, 46.982033529530554], [9.64618231333155, 46.982112691404815], [9.646107692309116, 46.98228146847377], [9.6459713242569, 46.982518691123055], [9.645901115728714, 46.98259464254326], [9.645862236776578, 46.982745939515375], [9.645220472616295, 46.98324937626957], [9.645047749246087, 46.98358404258173], [9.645001993969132, 46.98401307168676], [9.644474009424766, 46.98465299055211], [9.644641802263585, 46.98494453947061], [9.644966251021826, 46.98534582662507], [9.645732361890428, 46.98583973391194], [9.646035190244781, 46.98621379909977], [9.646124754963424, 46.98662747197113], [9.646093963313774, 46.98685106207788], [9.645995579530085, 46.98704267693955], [9.64623989915064, 46.98746505687442], [9.646331013680273, 46.987532412017394], [9.646339155152317, 46.9876024452378], [9.646513063582463, 46.98769376137228], [9.646750415331768, 46.98776061963526], [9.647046619933286, 46.988197296841484], [9.64725742953985, 46.988380211680365], [9.647567397518026, 46.988518206917455], [9.64757189943151, 46.98867903370106], [9.647250582319863, 46.98895613189774], [9.6472206357653, 46.989168555956205], [9.64726571355356, 46.989459253749125], [9.64717342835038, 46.98967126827336], [9.647180134475217, 46.989764554340006], [9.646980086387396, 46.990125702001464], [9.646951690452395, 46.990260158705404], [9.647049478361568, 46.99046362579807], [9.647190697791853, 46.99061712103193], [9.64777635047143, 46.99070461283837], [9.648254421278532, 46.9910090651579], [9.64843847679095, 46.99109063530083], [9.648760305018623, 46.99109430190372], [9.649137718111588, 46.99099141813769], [9.649423458345362, 46.990942338151925], [9.65020339432037, 46.99097616817934], [9.650373319672328, 46.99113000421366], [9.650582583750015, 46.991261837148684], [9.650857936016092, 46.99179789355856], [9.650972530581567, 46.99193012232422], [9.651147580753728, 46.991971727663696], [9.65172346307207, 46.99198090183693], [9.651969396012348, 46.992012840687764], [9.65212194390297, 46.99210223048091], [9.652220218866807, 46.99227903755501], [9.652390977040945, 46.99288057774498], [9.652432623568135, 46.99306822411773], [9.65232713210531, 46.9932435045346], [9.651817769131643, 46.99341285216864], [9.651382008015434, 46.99352083624036], [9.651226167561543, 46.99360044152305], [9.651220145596081, 46.99366490737905], [9.651102605621078, 46.99388046341171], [9.651035653460458, 46.9941421148919], [9.651049083016716, 46.99439509679824], [9.651259690749749, 46.99458818399637], [9.651413581434184, 46.99465864255383], [9.65152873634364, 46.994810657018704], [9.651486888059374, 46.99505625629985], [9.651544163232089, 46.995159526280545], [9.651651915305711, 46.995256701566504], [9.651663547631927, 46.99548803138565], [9.651530392809807, 46.99563054074967], [9.651064898023684, 46.995823909840745], [9.650981283954303, 46.99594627727218], [9.650980352550574, 46.99603214270211], [9.65089939551084, 46.99611019398596], [9.650872383638987, 46.99625892363915], [9.650681486877835, 46.996541819664195], [9.650682500645944, 46.9969084064723], [9.650768540168784, 46.99699187373796], [9.650982895510193, 46.99708070354156], [9.651091350226054, 46.99715275031826], [9.651071192616152, 46.997346783468046], [9.650940106905646, 46.997465936481824], [9.650960618726998, 46.99756785568505], [9.651149150494236, 46.99762018814479], [9.651143249358766, 46.997703540073964], [9.65096017398662, 46.997898385869384], [9.650646779063521, 46.99808430878442], [9.650435769991427, 46.9981631600097], [9.65028587556445, 46.99818315007567], [9.650144046422723, 46.99835766216295], [9.650184635788607, 46.99863079878751], [9.650185597910477, 46.998740294263136], [9.649990733715057, 46.999070526045735], [9.649857312529685, 46.99932784365067], [9.649715606468634, 46.99952458027017], [9.649846361842577, 46.99977700003046], [9.649912039263672, 46.999838984993744], [9.650212522308644, 47.000057113125905], [9.650319108779286, 47.00009040413382], [9.650389194372488, 47.00022547222289], [9.650793865618896, 47.00043618808533], [9.650936645901426, 47.00048977333554], [9.651164596332325, 47.000637154829036], [9.6512434270644, 47.00071661265316], [9.651322513856394, 47.00097162960975], [9.651546798256849, 47.001246268524255], [9.651706102609387, 47.001334610911734], [9.652197621330556, 47.0013608908949], [9.652841315570672, 47.001470356009875], [9.653075549375723, 47.00154124070363], [9.653334354204466, 47.001673929829835], [9.65354075471507, 47.00188338185492], [9.653577318925247, 47.002149972474484], [9.653441172379257, 47.002418162973186], [9.653103476257229, 47.00261203054036], [9.652791770411044, 47.0027580979946], [9.652732034683284, 47.00285841717712], [9.652798266460954, 47.003009197825364], [9.652895977100881, 47.00304940644537], [9.653283825395372, 47.003164747019795], [9.653574685433657, 47.003203842234306], [9.653754512963017, 47.0033930117844], [9.653819126983294, 47.003736764046614], [9.6538784004238, 47.00378678529565], [9.654187484476116, 47.00383386909506], [9.654297533375132, 47.00388642718665], [9.654405138082657, 47.00403490446923], [9.654392590945438, 47.00408559367642], [9.654336339643859, 47.00413392402198], [9.654033155360354, 47.004366388510675], [9.653636466166194, 47.0048951406751], [9.65351846046481, 47.00509819007837], [9.653575290012585, 47.005192541064886], [9.653755394761712, 47.00539177451033], [9.653737966255038, 47.005540265694336], [9.65364418677517, 47.00566070711528], [9.65334733544521, 47.005922904531616], [9.652981432570543, 47.00640279033787], [9.653000102763661, 47.00659854693203], [9.653096358478221, 47.00667855764605], [9.653467940465378, 47.00693679590009], [9.653707814439688, 47.00733896521647], [9.653963118189107, 47.0076747585292], [9.654096549745672, 47.00772503852772], [9.654131669714971, 47.00776028272497], [9.654072818230437, 47.00801682933846], [9.654138083275612, 47.00830862847918], [9.653987500395889, 47.0085677667808], [9.654077830322956, 47.00865930149641], [9.654194525054304, 47.00886964979642], [9.654302102338848, 47.00910768258187], [9.654344463157118, 47.0092287060986], [9.654206165981297, 47.00931074720199], [9.653709391730708, 47.00949509140117], [9.653510432801719, 47.00965649276765], [9.65340427484716, 47.00986380357111], [9.653302106075895, 47.01017731167001], [9.653581924723499, 47.010425669336975], [9.6537677824145, 47.01069878824223], [9.653862174213861, 47.01096467765303], [9.654257718157378, 47.0111605143258], [9.654529657934592, 47.01133883674147], [9.654857780376684, 47.01144085188043], [9.655351654072522, 47.01161903541166], [9.655692450172317, 47.01177008896487], [9.65603775800899, 47.01199781990812], [9.656277839169265, 47.012016656928544], [9.656515504104629, 47.01213237292066], [9.656827218571653, 47.012276785466895], [9.657127655907583, 47.01240297698432], [9.657566392672802, 47.0124880591125], [9.657887977358653, 47.01277832858142], [9.658039485393346, 47.012884128457785], [9.658988600230431, 47.01726010155721], [9.659673324614069, 47.01753500589752], [9.660417846308528, 47.01773688442791], [9.660729900934449, 47.01829783753014], [9.660949699764325, 47.01863912728853], [9.661700419075311, 47.01895794281902], [9.662242486065868, 47.01903048317032], [9.662749255051416, 47.019132941976785], [9.663315809008024, 47.01932592708875], [9.663805816701597, 47.019656022470905], [9.664176582004137, 47.01984229100656], [9.664805040892542, 47.01984311304096], [9.66589268160762, 47.01995035853251], [9.666358352982838, 47.020124878000146], [9.667281928168245, 47.02046027716455], [9.66771500290918, 47.020673741928036], [9.668118006129465, 47.02089428735721], [9.669111745242137, 47.02135358345176], [9.669904370046735, 47.021643956842084], [9.671333831562846, 47.02237908668414], [9.672013794752338, 47.02268756714967], [9.672796124903972, 47.023033202291806], [9.674099872372308, 47.023452998883286], [9.67466004230939, 47.023774772160635], [9.675684933105673, 47.02416737575339], [9.676477800511414, 47.02481726717285], [9.677398819411774, 47.0250501561683], [9.678066056949183, 47.025319147356186], [9.679611163591959, 47.0259276756006], [9.68012926164227, 47.02621090136792], [9.681186642002958, 47.02676119075661], [9.682693788337575, 47.02765558894208], [9.684408830455524, 47.027633890393226], [9.686614780090917, 47.027641046773226], [9.69039935692413, 47.0279761253807], [9.690968525251, 47.02767065312382], [9.691394114029615, 47.02745996286155], [9.691572273686793, 47.027231154700495], [9.691756081864876, 47.02683767600644], [9.692759855502057, 47.02643554649177], [9.693724007048207, 47.026214378778754], [9.694489640316236, 47.026123241374606], [9.695270367592427, 47.02631633762597], [9.696116834493113, 47.02629998346464], [9.696275746551914, 47.026369442069736], [9.696331598013773, 47.026506313927186], [9.696777491827211, 47.02689722369458], [9.696741794247897, 47.0271332907321], [9.696905327362996, 47.02727681469094], [9.697122387417666, 47.02711546673178], [9.697271404394368, 47.026821181231114], [9.698229502724407, 47.02596704129925], [9.699324739664073, 47.02565632836912], [9.70015096876375, 47.0257596758448], [9.700818365683215, 47.0256403459134], [9.701959300861757, 47.02573939744962], [9.702905063808272, 47.025609959411895], [9.703532545190916, 47.02580448092915], [9.703675891958776, 47.025681615436234], [9.707306967081012, 47.02611676045434], [9.713169052704172, 47.026943826488626], [9.713201585120704, 47.02667453011105], [9.713362493758087, 47.02643659366297], [9.713786100923105, 47.02615044536363], [9.714063437421997, 47.02588119150215], [9.714335111105436, 47.025626517767314], [9.71452032389023, 47.025337430617775], [9.714600176216875, 47.025006430811565], [9.714926588396946, 47.025027487217685], [9.715355534114954, 47.02516799229541], [9.715729394271031, 47.02533172655941], [9.716170229712771, 47.0254529730192], [9.716529323718552, 47.02565316327452], [9.716952906360996, 47.02583253114273], [9.717478899934855, 47.02638955429326], [9.71792064378363, 47.02642638941342], [9.718369453367124, 47.026528477825494], [9.718829335470577, 47.02645645663817], [9.71932900671007, 47.02640936958544], [9.719807225660249, 47.026416946826735], [9.720272894565516, 47.026474418819056], [9.720716054187777, 47.02654966889937], [9.721663055883079, 47.026520952035504], [9.722118207964286, 47.026457185100305], [9.722498403360792, 47.02641449255354], [9.722961289969495, 47.0264090096027], [9.723399586115839, 47.02632860434101], [9.723863629207225, 47.0263005612972], [9.724906020235556, 47.0264428408559], [9.725286418986695, 47.026605466751846], [9.725687589338696, 47.02664229403415], [9.726003146621098, 47.02681943331483], [9.726387892935653, 47.02700803419093], [9.72671702745743, 47.02721177266154], [9.727136158720809, 47.027402960080614], [9.727713954105969, 47.027726358971414], [9.728249351025333, 47.02786410228796], [9.728646137832452, 47.02787364407192], [9.72915730566211, 47.02780097258358], [9.729614941176695, 47.027795599568186], [9.730076577598782, 47.02775049591445], [9.730528341295107, 47.02763454110979], [9.730909548576165, 47.027445923780164], [9.731333409987743, 47.027326277969465], [9.73210314114137, 47.027222586430256], [9.732562826153956, 47.02720815140931], [9.733502599441142, 47.02710843883605], [9.734205020897033, 47.02726424666466], [9.734652802385344, 47.02732938807762], [9.735257485267159, 47.027440654803286], [9.735874022183788, 47.027499865019394], [9.73648361914667, 47.027432109923964], [9.73698215098374, 47.027448030495336], [9.737912478993646, 47.027445810046636], [9.738375448920412, 47.027400631194546], [9.739270222416996, 47.02725717082253], [9.739720192143748, 47.027154736040394], [9.740894349375607, 47.02663472323456], [9.741249896382993, 47.02639640619781], [9.741676940870311, 47.02628563204012], [9.741987476487822, 47.02628457021566], [9.742461145339304, 47.02624266397463], [9.742953829556845, 47.02624973348795], [9.743313245766263, 47.026451652230044], [9.741377138766364, 47.024520724704054], [9.741276860174374, 47.0244358342036], [9.741245998268274, 47.024355821962274], [9.741136229878949, 47.02427793391755], [9.74064393447282, 47.02389815702797], [9.740202725256704, 47.023606847327216], [9.739954496298555, 47.023409141680595], [9.73981450462507, 47.02332083505197], [9.739625596998636, 47.023182179283275], [9.739434001182033, 47.0228796686968], [9.739173274392682, 47.022693542455094], [9.739098788329002, 47.02259898106744], [9.738774946140053, 47.022344934947085], [9.738440849646286, 47.02220117874829], [9.73833806717089, 47.022129824317865], [9.7382551075564, 47.02200180242002], [9.738234110346584, 47.021921537877134], [9.738259654761968, 47.02179060227531], [9.73831972977601, 47.02168794983372], [9.738338081498979, 47.02142921897386], [9.738480852951497, 47.020866245132716], [9.738589839890096, 47.02063877637252], [9.738556858416759, 47.02046225610661], [9.738493261990753, 47.02032697975528], [9.73834064076357, 47.02007282948039], [9.738333055319549, 47.01993830258559], [9.738204727275535, 47.01970595527234], [9.738074860001507, 47.01956346802154], [9.73759124372227, 47.0192777790877], [9.73753497144046, 47.019155782627436], [9.737605020361539, 47.018938339016955], [9.737270356298929, 47.01860823220679], [9.7369629846634, 47.018528901391335], [9.736673929741736, 47.01842436613633], [9.736318534630248, 47.01831037826297], [9.735878404938546, 47.01815376655169], [9.735676221578121, 47.01801321186975], [9.735577363686115, 47.017952982375625], [9.735344617533066, 47.01767853116433], [9.735246494854492, 47.017631758165926], [9.734995423037274, 47.01744087851697], [9.73473229699518, 47.01732890836465], [9.734412675854436, 47.01726560962592], [9.734234788458535, 47.01720525987946], [9.734023896650966, 47.01708516056245], [9.733885574937593, 47.01696760362199], [9.733557120033575, 47.01686412874384], [9.733326136670062, 47.0167378163222], [9.733056823782077, 47.01669112757921], [9.732970733916318, 47.01662381892519], [9.732813222492258, 47.01639900823583], [9.732669350597755, 47.016299549874894], [9.732436349894945, 47.01619576586625], [9.732249648124828, 47.015978456334686], [9.732151665840599, 47.0159339181058], [9.73106965970515, 47.01572034545387], [9.730836161257706, 47.01560757713683], [9.730583419984711, 47.01556269320948], [9.729939575632503, 47.015061206048294], [9.729469207348282, 47.014716738526026], [9.728921198082428, 47.014396810564904], [9.728571958875843, 47.014040129338724], [9.728326471370409, 47.01347858440057], [9.728232440267501, 47.01338679201289], [9.728279250216753, 47.01328225253033], [9.728294113469413, 47.013077517799736], [9.72829028128931, 47.01277448304002], [9.728167389539886, 47.01234438439118], [9.728141386040742, 47.01217442754459], [9.728079344360438, 47.01206605061207], [9.72802893310761, 47.01198881111664], [9.72802186897633, 47.01192164011379], [9.728065277505817, 47.011756551433436], [9.728135991194124, 47.011667102669584], [9.72813110905845, 47.0115225242601], [9.727827631850907, 47.009942960210296], [9.727674017588585, 47.009573238202506], [9.727683653323455, 47.008765049719486], [9.727816401015247, 47.00793382056218], [9.727417928134718, 47.00721758583879], [9.726551855037092, 47.00692506239245], [9.725106118811278, 47.00645226058356], [9.724416834744792, 47.00615093502817], [9.724206765035829, 47.00595372925779], [9.723978249643864, 47.00572188350522], [9.72314890338294, 47.005065851723984], [9.722363991120924, 47.00459255889662], [9.720992555390291, 47.00417340739232], [9.720241631542494, 47.00409946316376], [9.717435701614418, 47.00448567883529], [9.717247102617469, 47.004514489832715], [9.715769911389739, 47.004381938309564], [9.714528736850221, 47.0048246144237], [9.712552716667714, 47.00419408088888], [9.712296821984722, 47.00409321523397], [9.711935603676897, 47.00399055178135], [9.711718599231691, 47.003935690599704], [9.711565932616022, 47.003854435921724], [9.711430201983518, 47.003840075644746], [9.711147359409674, 47.0037523038274], [9.71097277638383, 47.00372410780775], [9.71059695570672, 47.003721652077346], [9.71030071262493, 47.00374327311202], [9.70940171920371, 47.00375865278344], [9.709329909641951, 47.003737218686815], [9.70918801336952, 47.00374749028309], [9.708923262334727, 47.00377999410363], [9.708834612802695, 47.00378337022204], [9.708608466614914, 47.00371756945956], [9.708456631887193, 47.00366703458118], [9.70828579753374, 47.00365557041603], [9.708138806496612, 47.00366667087238], [9.707962784224659, 47.00366627862294], [9.707753013746435, 47.003651715533564], [9.707516310164076, 47.00358225286332], [9.707286452441066, 47.00347836898941], [9.707084074895992, 47.0034177547358], [9.706827271038236, 47.00336722567162], [9.706704688315746, 47.003308460471466], [9.704337431654892, 47.00122981961873], [9.702721850988569, 46.998399406057], [9.703012872539372, 46.99786866678578], [9.702670852098928, 46.99767753877522], [9.702350631529313, 46.997568174040204], [9.701583286879384, 46.997370134549406], [9.701408336235174, 46.99698525814443], [9.70123703126442, 46.996885063669225], [9.701279052393067, 46.996739982682456], [9.700991716182852, 46.99656620861733], [9.700576581991918, 46.99637443906661], [9.700304685764296, 46.99608318583687], [9.700248550472468, 46.99593995238574], [9.693469032953985, 46.993773983456585], [9.693470075430284, 46.99371335554372], [9.693444459851136, 46.99350725341937], [9.693393669653704, 46.99327509239385], [9.693377586975593, 46.99311398629792], [9.693417668021292, 46.99281561387674], [9.69341495912576, 46.99268825214414], [9.693259357439366, 46.992628410226914], [9.693264341823774, 46.992424037784126], [9.693200591634843, 46.9923532193808], [9.693013590559415, 46.99200865923671], [9.692600973591237, 46.99191003949434], [9.692563874948117, 46.99187846316137], [9.692678744161642, 46.99178279417673], [9.692484211449516, 46.99166614204721], [9.692312995006905, 46.99155036363879], [9.691929823469511, 46.99135426091614], [9.692056056970435, 46.99113428492239], [9.692055019915971, 46.99098402415984], [9.691840861208846, 46.99083868101416], [9.691538744133876, 46.99074365215807], [9.69079225269755, 46.99048583593546], [9.690440709946223, 46.990312603289766], [9.690304838928938, 46.99017051561188], [9.69035961194444, 46.989930762117304], [9.690261722760937, 46.98970970153422], [9.69007217090095, 46.989483278506256], [9.68971451763809, 46.98924317619322], [9.689232890494178, 46.98909074525566], [9.688767657523284, 46.988887684887054], [9.687919380572579, 46.98869735946691], [9.687697545830456, 46.98842455554716], [9.68723098881039, 46.988242942415305], [9.686901058884457, 46.98821521669793], [9.685906352650523, 46.98779378552643], [9.684840133050722, 46.98713979497321], [9.683947908614783, 46.986935903720976], [9.682824489940348, 46.986170535199136], [9.682198238175804, 46.98584803996638], [9.681823785091158, 46.98538294888375], [9.681623660965116, 46.98490453730957], [9.681413040759644, 46.984678307437], [9.680521507693207, 46.984395180003304], [9.679477455450474, 46.98430129713774], [9.67911888731378, 46.98418502192541], [9.678630154403125, 46.98419547116895], [9.678314677484263, 46.98378769804836], [9.677910507388876, 46.9835238201681], [9.677589509687829, 46.98301535589148], [9.6775593326906, 46.98282786883382], [9.677301701953843, 46.98254583847641], [9.67703351002545, 46.982294608512774], [9.676903426622525, 46.982012786212394], [9.676459208703914, 46.981607515290634], [9.676422563321557, 46.981195094022766], [9.675081048963154, 46.98046560847049], [9.671751233678474, 46.979307118570105], [9.669676299547286, 46.97890180833796], [9.664832577029621, 46.98033264572895], [9.66406524043476, 46.97955271165166], [9.66390454251624, 46.9794991667628], [9.663809905508144, 46.979203781255244], [9.663362072218442, 46.97915554025799], [9.662442739934503, 46.97874362726488], [9.662356306628256, 46.97703506809843], [9.662079246550608, 46.97598047922794], [9.661475838031697, 46.97288046362631], [9.662932873541974, 46.97276486288929], [9.663839411117843, 46.972714891604326], [9.664801546667427, 46.972683351324704], [9.665371920348893, 46.97261181408671], [9.666110384318293, 46.97249461300877], [9.667416865228033, 46.972381683634296], [9.66728719332281, 46.971042515080676], [9.667284774159269, 46.97066147716082], [9.66736388874353, 46.97046513432862], [9.66733211732631, 46.97020991998825], [9.667268381168938, 46.96991304270645], [9.66729713047954, 46.96959564041046], [9.66734527051315, 46.96930391214651], [9.667212514985248, 46.96885644458929], [9.667036657535093, 46.968167887487176], [9.667029115285343, 46.96795476609503], [9.667069738926566, 46.96772991937338], [9.667046820743787, 46.967273244524584], [9.667139205452798, 46.96715536535442], [9.667097977444113, 46.9669861017778], [9.667118030427062, 46.966424216682256], [9.667793831726376, 46.96560000070143], [9.668233767424985, 46.96547114421896], [9.668907101242587, 46.965322642346976], [9.66928884910967, 46.96533484367107], [9.670255714008876, 46.965290075378064], [9.670808554778048, 46.965272228893184], [9.671751321238172, 46.96525813257229], [9.672201289588775, 46.965346497805456], [9.672455614400612, 46.96550444122595], [9.672674812945125, 46.965633841444955], [9.673358246296575, 46.96560480535135], [9.673815814959713, 46.96557528632351], [9.673461266024246, 46.96521862898254], [9.672204891637682, 46.963878820306036], [9.67202881108474, 46.9636968796301], [9.671451798637785, 46.96297049666484], [9.67124120213567, 46.96271571758597], [9.670836081383987, 46.962149290298385], [9.670509848111887, 46.96171065512051], [9.670317509935662, 46.961437876312615], [9.669896792986599, 46.96086619621218], [9.669757489247468, 46.960689835608655], [9.669192770929259, 46.959439192339396], [9.668979073010915, 46.958876429843585], [9.668959653873857, 46.95841562206341], [9.668948891671477, 46.95796354614303], [9.668365328427997, 46.95776712422241], [9.6676988700547, 46.95761885139768], [9.666295573220783, 46.957799032967856], [9.665506579761344, 46.95788429278704], [9.664133304670656, 46.95813254538951], [9.66295284126939, 46.958086272668275], [9.662392166815486, 46.95804532429565], [9.661707824722273, 46.95746206715802], [9.661382727086913, 46.95710192546242], [9.660822072318897, 46.956445441183135], [9.660322235197983, 46.95580397541253], [9.659934622603767, 46.955295035011126], [9.659713633662879, 46.95469009395708], [9.65940768020213, 46.954107901836224], [9.650426552502893, 46.95561623748092], [9.643381894752267, 46.95577028218473], [9.633844811393024, 46.95198574227806], [9.628109118046707, 46.94878605705438], [9.627168762716868, 46.9452510600536], [9.627942994893107, 46.939152262427086], [9.632279059374122, 46.936836250770284], [9.636184068384003, 46.93494548676755], [9.635673225297287, 46.93476308665547], [9.635355688972714, 46.934746800700225], [9.634902003286001, 46.93448354555905], [9.634689560567363, 46.93396681739706], [9.63477181864914, 46.933536753617254], [9.634578096828305, 46.933195358991206], [9.634349385464239, 46.93259876978888], [9.633938019261285, 46.93162156746308], [9.633738258940447, 46.9309293799561], [9.633900963135693, 46.9301254269126], [9.634004928326206, 46.92926544929418], [9.633606193573133, 46.92833815306922], [9.63324926111852, 46.927777069821936], [9.63210451293704, 46.9275673817698], [9.631387738070599, 46.92708824392748], [9.630847190381429, 46.926651702127614], [9.631368838563787, 46.926089279283765], [9.631961538470016, 46.92567554700837], [9.632473493988295, 46.925296374687434], [9.632660332413879, 46.92499807480032], [9.633031250260112, 46.92454881316289], [9.63406716990177, 46.92367173785448], [9.634695184041615, 46.923171635963776], [9.635067538943982, 46.92296806788515], [9.635805283421679, 46.922642396908664], [9.635702417850025, 46.92262704831935], [9.635353717429513, 46.92260242292545], [9.634900873222598, 46.92255495689939], [9.634701334791254, 46.92252408468264], [9.634445897493887, 46.92239973296887], [9.63423413646475, 46.92235613529767], [9.63406014855515, 46.922341445261715], [9.633847404687986, 46.92229787529903], [9.63352163128611, 46.922319004885765], [9.633267617776648, 46.92229499628479], [9.633042912175458, 46.92225534394866], [9.632768674479623, 46.922176055938934], [9.632541738912023, 46.92215446965005], [9.632283998954042, 46.92209994411418], [9.631941014458475, 46.922090072791235], [9.631688226245917, 46.922119841135626], [9.631508422533951, 46.92210384767139], [9.631224545764155, 46.922121702820725], [9.630909440966645, 46.92207887268641], [9.630723917472988, 46.922032122096766], [9.630557750742815, 46.92205033122454], [9.630349063250172, 46.92206647474207], [9.630169789528432, 46.92205379857204], [9.629861845219615, 46.92209019836204], [9.629387346628592, 46.92208378282135], [9.62849360423856, 46.92224784770422], [9.628238794376296, 46.92236664491929], [9.627991002745826, 46.922386950909036], [9.627839016927968, 46.92246022714182], [9.627565564917623, 46.92244358734408], [9.627133708227433, 46.92250772511948], [9.626781964173611, 46.922510128398734], [9.626105085009682, 46.922420351847926], [9.625797900963779, 46.92235937790225], [9.625058200157211, 46.92235856925018], [9.623951992388102, 46.92228550119856], [9.623841315717787, 46.92226885096045], [9.623637649210792, 46.922306132553764], [9.623289714491401, 46.922270370640796], [9.622672858700914, 46.92228212277623], [9.622366375143526, 46.922302556337044], [9.622174484095169, 46.92230061028347], [9.621978341166018, 46.92232234858536], [9.621768356139226, 46.92232634412342], [9.62155872380442, 46.92233934044181], [9.621124520842482, 46.922320613618304], [9.620812059737752, 46.92238954273721], [9.62044457254457, 46.92239653801226], [9.62032974169525, 46.92247971460374], [9.620293628912655, 46.922561391023336], [9.620224406349985, 46.92276410089911], [9.619972745872587, 46.92317999247958], [9.619950939134615, 46.92350377548903], [9.61977417781806, 46.923825786877245], [9.61978415088774, 46.924060480091995], [9.619746018542882, 46.924204087528615], [9.619853608466853, 46.92449119190181], [9.619588879362974, 46.9247452382693], [9.619322181574974, 46.925102302267376], [9.61926574289111, 46.925372266879215], [9.619305502877545, 46.92563702425908], [9.619110201328851, 46.925949426039885], [9.619219013061954, 46.92606920432427], [9.61918286958219, 46.92645737580671], [9.619036826261086, 46.92668832785482], [9.619070736262492, 46.926838382907555], [9.619269319441447, 46.92725243549127], [9.61932702642623, 46.9273949190095], [9.619416157020694, 46.92747826725042], [9.61942103006948, 46.92784137845403], [9.619313001989891, 46.92811157875313], [9.619073996700699, 46.92832451181724], [9.618697906461271, 46.92845654676308], [9.618451975187888, 46.92856914809625], [9.618195879699291, 46.928575299709884], [9.617610286173711, 46.928438970849555], [9.617326764770505, 46.92845417484234], [9.61700652586472, 46.92863680384824], [9.616822986183786, 46.92885826074505], [9.61652957739378, 46.92923009599509], [9.616330748256148, 46.92945780969602], [9.616112453640248, 46.929690490902445], [9.615652522835974, 46.93022019589802], [9.615521374643002, 46.93040865439238], [9.615489204010427, 46.93044301981323], [9.61504688851002, 46.93035587367412], [9.614665618766972, 46.9303093008402], [9.614277344646805, 46.93027788756213], [9.613883580939483, 46.93010439803649], [9.613236718211562, 46.9299221997782], [9.61260244043066, 46.929758404462675], [9.612359300183345, 46.92957997149251], [9.61229638160054, 46.92927126145995], [9.612394928920926, 46.92911578412514], [9.612542366239952, 46.92902262946943], [9.612626289464552, 46.928883653486814], [9.612641173694353, 46.928844398128476], [9.612638423491727, 46.92861048782885], [9.612362233552316, 46.92829329297894], [9.612472275895923, 46.928142464646186], [9.612480350007157, 46.928001114334435], [9.612404887948355, 46.92792515972361], [9.612331564349228, 46.92783648482167], [9.612476986321546, 46.92765789024597], [9.612344818602248, 46.92751731315153], [9.612320916650994, 46.927355080509365], [9.612393631188949, 46.92717155864764], [9.612318825276612, 46.92713420429757], [9.612341125814586, 46.92699970123504], [9.612453235141462, 46.92666983275705], [9.612422536236599, 46.926602575019764], [9.612568571554933, 46.92647851812394], [9.612587724530874, 46.92635161598461], [9.613047644596522, 46.926138863583134], [9.613413389265112, 46.925738036166464], [9.613674928643784, 46.92531254173099], [9.614068484502312, 46.92489392391322], [9.614163927806294, 46.92456447776324], [9.614361673104911, 46.92439034785859], [9.614532207559098, 46.92391730400693], [9.614583693634582, 46.923806991705085], [9.614813589259803, 46.92335268829803], [9.614982303792289, 46.92299377294166], [9.615122377644079, 46.92267039703919], [9.615414989386906, 46.92252338281024], [9.615941446651053, 46.922244597979606], [9.61619920575684, 46.92190206458008], [9.616465727602847, 46.921603736543766], [9.616985214449597, 46.92134126791838], [9.617677895659678, 46.92081490739903], [9.618194601039045, 46.92064284231552], [9.618319476565917, 46.92029509480247], [9.618323523314244, 46.920187636466146], [9.617875530804046, 46.92013598598093], [9.617533215000508, 46.919907908280905], [9.616890824092263, 46.91955108363692], [9.616501502745091, 46.91931336972091], [9.61587733634859, 46.919033554476094], [9.615645792124976, 46.91881915710968], [9.615394939086414, 46.91863089889289], [9.61504011132717, 46.91841763096096], [9.614646027341514, 46.91831876109978], [9.614434417779988, 46.91819788304238], [9.613881268735236, 46.9180136597094], [9.613200255055428, 46.91779522951737], [9.612851111580065, 46.9176442072651], [9.612655065492914, 46.917453380968034], [9.612506854984488, 46.91722467040478], [9.612315025441484, 46.916995159249964], [9.612083501756976, 46.91673263002742], [9.611873816591366, 46.916561921930644], [9.61167115622792, 46.91637719476273], [9.611492955638846, 46.91622833048924], [9.611312292942296, 46.91612898724886], [9.610917261527973, 46.915944347834305], [9.610602287727652, 46.9157778857064], [9.610386640151749, 46.91573239666587], [9.610077617065981, 46.915735553408446], [9.609763012728804, 46.915734145556044], [9.609396537047585, 46.91578447346503], [9.609090807906249, 46.915719624948565], [9.608095252211088, 46.91527943316984], [9.607935492107547, 46.91526498677872], [9.607706726712559, 46.91525195666044], [9.607474081254308, 46.91516979083634], [9.607215310206042, 46.915103417435276], [9.606963270949281, 46.91504438491918], [9.60642842050345, 46.914935349532364], [9.605839797748942, 46.91479803045239], [9.605331324948867, 46.91469429428554], [9.604469962748082, 46.91459993428333], [9.603927769876082, 46.91437623832799], [9.600714990894359, 46.916982615489125], [9.598080731698937, 46.91946029364793], [9.595525460881015, 46.92134936914295], [9.595478694922585, 46.92148001919879], [9.595658755527477, 46.921604918314166], [9.59589394753936, 46.92186452840984], [9.596115341671865, 46.92197927052093], [9.59619482533972, 46.92228280476647], [9.596348273307706, 46.92240491928146], [9.596328335939853, 46.92248083714546], [9.596637569669413, 46.922763905232834], [9.59678993617596, 46.92286426306003], [9.596796160975915, 46.92296759315355], [9.597187724974553, 46.923401066069964], [9.59745616858898, 46.923542751933375], [9.597670298069456, 46.92357906199521], [9.597626404151796, 46.9236987517123], [9.597686291731767, 46.923789165092074], [9.59818977390604, 46.92383104778763], [9.598138194654569, 46.92390720355543], [9.598381061482591, 46.92428460233135], [9.598818706225138, 46.92473425423673], [9.599084545567845, 46.92496903866139], [9.599441725282144, 46.92514201662176], [9.599517949641347, 46.92529071903026], [9.600204637780921, 46.925641799363255], [9.600761826951008, 46.92554345679472], [9.601294879058319, 46.92574977389606], [9.602081750541966, 46.92563755593876], [9.602443893961802, 46.92587314026268], [9.602727875348224, 46.92621765474312], [9.60269526891797, 46.926360692381294], [9.602558799475009, 46.92649548030036], [9.602213545137717, 46.92661522743109], [9.60195783365867, 46.92683970096058], [9.601743143390468, 46.927003276153144], [9.601641116255623, 46.92732570407501], [9.601625866554546, 46.927461431175146], [9.601479456889221, 46.927683522683324], [9.601401094038719, 46.927847111914296], [9.601363770387103, 46.92805503372306], [9.60119950229685, 46.9283696547742], [9.601071390537367, 46.92858729600291], [9.601151936481088, 46.92902082832487], [9.601026240592233, 46.92934628599279], [9.601074307782767, 46.929666672793005], [9.600748241948757, 46.929858051970484], [9.600862480532419, 46.929967962022], [9.60107735655318, 46.93016144151682], [9.601221681693547, 46.9304114491436], [9.601527678948065, 46.93057016372929], [9.602014454862449, 46.9308714515941], [9.60216851291429, 46.93080121394062], [9.602362233713675, 46.93077225660659], [9.60279086318622, 46.93071939368993], [9.603268519740334, 46.93089388753808], [9.603367048275988, 46.93121078500484], [9.60386015393369, 46.93139617191243], [9.604317138307561, 46.931639297991495], [9.60432745137022, 46.93175404186264], [9.604759877601278, 46.931989388287086], [9.604887867894321, 46.9323256823611], [9.605587361624618, 46.93285823506076], [9.605717662406214, 46.93323769291374], [9.60622076631258, 46.933659243281326], [9.606569069454, 46.934106742675255], [9.606828361739913, 46.93438790497702], [9.606647208156799, 46.93492937408162], [9.606293452462813, 46.93511988759433], [9.606104356753084, 46.93527909222371], [9.6058637849432, 46.93545774572939], [9.605487030851863, 46.93565170158318], [9.605292328324449, 46.935806222437954], [9.605091374951552, 46.935917164698154], [9.604949695614616, 46.93605190899182], [9.60474576827376, 46.936382961565705], [9.604247522911496, 46.93675328928427], [9.604274973707433, 46.93690401816857], [9.604515724541566, 46.93712737795596], [9.604643855951325, 46.93725217550819], [9.604717856120747, 46.937398123565394], [9.604506650253377, 46.93760730293601], [9.604468614633658, 46.9376555073407], [9.604565103413263, 46.93805674717393], [9.604420723742342, 46.93838836589777], [9.604219559439315, 46.938465060246806], [9.603731251596031, 46.93883688243154], [9.603118627312634, 46.938927023365046], [9.602233775085947, 46.93910448150275], [9.602053015643163, 46.93915427622198], [9.601920631503285, 46.939249155587405], [9.601806985207547, 46.93938492031737], [9.601637526830746, 46.939549331756936], [9.601470401304686, 46.93968131322967], [9.600893874553893, 46.93989130919717], [9.600754294137694, 46.93998184868587], [9.600671890589995, 46.94011794424676], [9.600692551488942, 46.94025298978954], [9.600748731775596, 46.94044656827782], [9.600706901785266, 46.94049820955582], [9.600550211971813, 46.94058535097464], [9.600317563685604, 46.94067238770299], [9.600065334619764, 46.9408145227861], [9.599903798913017, 46.940973660228195], [9.599677012019288, 46.94109607529088], [9.599443012039453, 46.94128156177746], [9.599181419551497, 46.94146709875729], [9.598926352961593, 46.94155425589206], [9.598881021398443, 46.94162083662746], [9.598941724101133, 46.94171529220847], [9.599091564183368, 46.94182355247828], [9.599058311426328, 46.94188633233022], [9.598791614538232, 46.94195944535438], [9.598544769492724, 46.941944312762814], [9.598178245454195, 46.94201421485518], [9.59788836950867, 46.94199185699601], [9.597561861082326, 46.941934849838546], [9.597540394930888, 46.9420247397818]]]]}}]}