{"type": "FeatureCollection", "features": [{"type": "Feature", "properties": {"bfs_nummer": 3986}, "geometry": {"type": "MultiPolygon", "coordinates": [[[[8.678749150687693, 46.579190569563664], [8.68192526912331, 46.58852867853484], [8.680563438979025, 46.59303821879736], [8.680613569446008, 46.59504835056036], [8.677278523848083, 46.59827505698868], [8.677232866173613, 46.598565031722984], [8.676723960385099, 46.599372091629945], [8.67728760266652, 46.60003107671805], [8.677331954638639, 46.600255530680826], [8.677278169944818, 46.60036738792256], [8.677262012262172, 46.60064616275638], [8.677276105547854, 46.600935381963275], [8.677191926538049, 46.601056611926566], [8.677073888768692, 46.6011903392244], [8.677313995111147, 46.60138541689406], [8.677160691107664, 46.601580874900485], [8.677542039526012, 46.60192619715188], [8.677627093431335, 46.60231082382091], [8.677334735530312, 46.60258278077167], [8.677665476013818, 46.60276078425813], [8.677842986358577, 46.60306093611671], [8.677714708490772, 46.6032133611442], [8.678417894983259, 46.60403239888047], [8.67896600198173, 46.604318766422786], [8.67934994352498, 46.60468196485517], [8.679501177452066, 46.604949145809734], [8.679608894595212, 46.60534380840721], [8.679637047731335, 46.60561661511794], [8.679371492889732, 46.60629151635934], [8.679101505763034, 46.60723875546868], [8.679226960453915, 46.607395999157745], [8.67867660913612, 46.608051588083825], [8.678721520234886, 46.608194579470485], [8.678515571773456, 46.60861218571089], [8.678471262507735, 46.60888186892489], [8.677753233174986, 46.6093596826142], [8.67830117652053, 46.61450965177106], [8.678749084333417, 46.61599202863049], [8.67668095068501, 46.619965929853095], [8.675971740202595, 46.619818498992075], [8.67544331601389, 46.619713631779945], [8.675325409427321, 46.619816393812116], [8.67503785508368, 46.61981826674178], [8.67481341781696, 46.619837797457095], [8.6747724385101, 46.619915731738644], [8.67435213038287, 46.61987879154478], [8.67403590532274, 46.62002819510105], [8.673371624593154, 46.61991471027255], [8.672890754840763, 46.61978266158521], [8.67134361070955, 46.61960744291758], [8.667790059349459, 46.620095733749665], [8.667099024149582, 46.62034202300618], [8.666414891151552, 46.62067272499607], [8.665251355418825, 46.62117354386797], [8.664268071109305, 46.62155682226169], [8.664025710236372, 46.6216789169151], [8.663831637669933, 46.62230450519754], [8.663702116572805, 46.6224962341581], [8.663703650395423, 46.62276052658277], [8.663883382661453, 46.623124914737026], [8.662961123992593, 46.623379967947734], [8.662560940814434, 46.62342695872324], [8.662129524293205, 46.62379158025084], [8.661576210099518, 46.62411092375589], [8.66133045639912, 46.62419301096135], [8.660974586034698, 46.62450574655136], [8.660419056730516, 46.62453920807452], [8.659256586805984, 46.62492931476311], [8.658747546504959, 46.62551261303973], [8.658415569385141, 46.62580761494566], [8.658325458609482, 46.62598907001967], [8.65795902930148, 46.62616029438289], [8.658142601449065, 46.62655523541463], [8.658173472533043, 46.626972590535466], [8.657960068791557, 46.62748148023327], [8.657915813617954, 46.62835212079649], [8.658006681520236, 46.62854963958413], [8.657701494005329, 46.62877696731526], [8.657373747532517, 46.628919092914856], [8.657244415208048, 46.62906896371706], [8.65707117456356, 46.62907671919881], [8.65645147019584, 46.62983129913563], [8.656352654136807, 46.63017468706952], [8.656596918360025, 46.63049134372491], [8.656643237309506, 46.630689218939175], [8.656558009984076, 46.63102877514091], [8.656586689696848, 46.63132623516074], [8.656245638075731, 46.63142395185677], [8.656192546150283, 46.63152240175892], [8.655839383212909, 46.631602683039176], [8.655588995643674, 46.63178773607558], [8.654954379439559, 46.63203671843882], [8.654469882485735, 46.632437712858014], [8.653667180964916, 46.63269214386948], [8.653401023127039, 46.63294297631515], [8.65314359560861, 46.63303323229587], [8.653100748423483, 46.63318913362148], [8.651543198595023, 46.63401583366161], [8.65129465848287, 46.633953633232764], [8.651121795216268, 46.63425941854827], [8.651067765132739, 46.6345848897794], [8.651224907387078, 46.635035801781854], [8.651266744846405, 46.6354003492438], [8.651535963143697, 46.63663040450734], [8.6518039245645, 46.63747105560303], [8.651879528672554, 46.637936139602814], [8.65243823745179, 46.63840617001919], [8.653467004931143, 46.63877920722395], [8.653796459856828, 46.63930735280453], [8.654859650796116, 46.639596475837315], [8.655705730157843, 46.63972332910327], [8.6560947798699, 46.640354797809486], [8.65647455946014, 46.64084205603779], [8.657477300711525, 46.64163022097908], [8.657229383523566, 46.64187730290187], [8.656394088496159, 46.643208204569504], [8.656441473927446, 46.643736013829376], [8.656791290874018, 46.64423069900727], [8.657552519505991, 46.64498267002551], [8.657647507712356, 46.6456017936779], [8.658194079608082, 46.64632003736066], [8.658421572734031, 46.64715966433224], [8.658209273775665, 46.647769057903766], [8.656065355190206, 46.648498396453], [8.654883534564087, 46.649968475698394], [8.659237940043601, 46.65399627600928], [8.66139871439552, 46.65602090962819], [8.666217499985345, 46.65596816851428], [8.671545470739233, 46.65890689975779], [8.674138690044527, 46.66141906125757], [8.675419857644085, 46.66287162405544], [8.67861290849884, 46.664261954771824], [8.677142920969473, 46.668086362740596], [8.674026795588103, 46.67068876306606], [8.673727020979575, 46.671011680257166], [8.673605752323784, 46.671410108681684], [8.67347618254584, 46.672629465107725], [8.673519202548228, 46.67292219601899], [8.673724608967074, 46.67334885271663], [8.67379048604195, 46.67394258677522], [8.673994594591147, 46.674989574056966], [8.674000420824193, 46.67521152525829], [8.67413894243892, 46.67549644421721], [8.67416349342119, 46.67579019019251], [8.674070978676328, 46.67612252553793], [8.673933932301802, 46.67633345149071], [8.673660893213771, 46.676721970663095], [8.673701993709775, 46.67705299995394], [8.674176707086318, 46.67794022943704], [8.674225006161263, 46.6783357595274], [8.673779958333155, 46.67951424352168], [8.673336503683739, 46.680370655808126], [8.672972903056083, 46.68080485895103], [8.672845909048064, 46.68122206790845], [8.673230390099876, 46.68230705547099], [8.673989471974911, 46.68327238993726], [8.6750295101832, 46.684049283766726], [8.675182377268774, 46.6845212668181], [8.674986011090354, 46.68502579417425], [8.675072648722118, 46.68527821834163], [8.674551914805505, 46.68613436658495], [8.674453253288569, 46.686645956408306], [8.673785030522957, 46.68824236048688], [8.673962023776792, 46.688916795134816], [8.67376772238664, 46.689864724719946], [8.673654465059066, 46.69090654534477], [8.67436236237268, 46.69214070975367], [8.67589970206856, 46.693633659660925], [8.676331999293883, 46.69421108825808], [8.67830544930918, 46.69494587914013], [8.680591919093008, 46.69504699722038], [8.681495556953195, 46.69459228234905], [8.682476289835853, 46.69437850130028], [8.683873181256539, 46.69464601463265], [8.684958193238954, 46.694310375427236], [8.685936576870642, 46.69429373852595], [8.686287621049152, 46.694175382779974], [8.689303819825804, 46.696164688201264], [8.689803375839599, 46.69713017724573], [8.690654657280096, 46.69856202380695], [8.690973696599652, 46.69933765828797], [8.691239706103659, 46.70028318358511], [8.691601768988274, 46.70097933975914], [8.69259273827592, 46.70184536921763], [8.695536073953523, 46.70283279894803], [8.695776392780536, 46.70287696071229], [8.696348342399972, 46.702851121350186], [8.696708875581983, 46.702876527612304], [8.697679592357293, 46.70314169410423], [8.698571352977334, 46.70347780941222], [8.700208871444186, 46.70358377867869], [8.700610975039531, 46.70341851648482], [8.701156177606652, 46.70339303561306], [8.70178649001483, 46.70309210491447], [8.702517573124277, 46.702678799748305], [8.703015221786673, 46.70263553061238], [8.704043802383401, 46.702090507692944], [8.704489082846857, 46.70140261780176], [8.70479884744614, 46.70118283549608], [8.704934347068404, 46.70094260853709], [8.706297073340119, 46.70030214574514], [8.70898970116172, 46.69895874309354], [8.70966057483838, 46.699549897951385], [8.710088345639228, 46.70019107121793], [8.711288964674914, 46.70025324697619], [8.712881517548325, 46.700774456187574], [8.714257318540009, 46.701273621829216], [8.715134972632088, 46.70154721223455], [8.716524405416573, 46.702427160780324], [8.717202189576772, 46.702584786680255], [8.717320879552332, 46.70282848230429], [8.717481204310834, 46.70354314814551], [8.717678247468687, 46.70403566243468], [8.717478194965059, 46.70443537281628], [8.717430218727399, 46.70499229090407], [8.717391563850597, 46.70530496894664], [8.717710412741337, 46.706081241094275], [8.718129370271903, 46.70613860705375], [8.719464277899963, 46.70650407646541], [8.720139824012705, 46.70692200922227], [8.722161259695064, 46.706727455873], [8.722625900851208, 46.70676071318071], [8.723081237916913, 46.70687119326247], [8.724428409060298, 46.7066738542109], [8.726102680642423, 46.70687079181837], [8.727627499777372, 46.707440497440956], [8.728121630070893, 46.70789581134856], [8.729059343485918, 46.70845485689774], [8.729689862268279, 46.708690091548235], [8.73003604514075, 46.70923084938257], [8.730565895042258, 46.709723651825975], [8.731080293142487, 46.71004604777074], [8.73147447357592, 46.71053168548751], [8.732415560792836, 46.71106054596274], [8.733006030807806, 46.7116878436116], [8.733192952210318, 46.7118475920971], [8.73353121502936, 46.711913423173876], [8.734473816171134, 46.71236804823121], [8.73528425509585, 46.71303327933715], [8.737490011879181, 46.714058383506774], [8.74080300998807, 46.71460388694513], [8.742128122998606, 46.71546296129828], [8.743031950818933, 46.71551560414589], [8.743020578681447, 46.71612750802456], [8.74420249962152, 46.71668779310963], [8.745703626866701, 46.717115657744124], [8.746034716820523, 46.71755474706023], [8.746274318400943, 46.717727363163156], [8.747017796270564, 46.71806100399841], [8.747535658091092, 46.71837894089768], [8.749070061979518, 46.7207368990818], [8.749094582847539, 46.72192374273184], [8.748406573432296, 46.722488531571315], [8.744401931167028, 46.728878153448925], [8.744437325765336, 46.72898260479997], [8.744460856566564, 46.729283313479435], [8.744615677950629, 46.72983610105298], [8.744767835008862, 46.73021956560748], [8.745078192504167, 46.73085892847695], [8.745478645538615, 46.7315181047124], [8.745110088834695, 46.73172051945367], [8.746681244661204, 46.73301718915519], [8.747222203086771, 46.73329235464327], [8.747344774207223, 46.73346725005145], [8.747289449789642, 46.73378439606044], [8.74759310302311, 46.7347444399087], [8.747901617137714, 46.735184369860406], [8.747644734399957, 46.73590719071198], [8.749647786940564, 46.73641733244092], [8.750676969097894, 46.737253897335044], [8.751030897263648, 46.73753019050029], [8.752977055764646, 46.738138287517614], [8.753883713258979, 46.73889026074576], [8.756162826367817, 46.74070484608875], [8.756674927614846, 46.74103771072308], [8.757777978380604, 46.741552711440185], [8.75846153254385, 46.7416486294182], [8.758900860223433, 46.74181107686613], [8.759478193580971, 46.74212985237861], [8.761017212783553, 46.742930374403514], [8.761702284862771, 46.74310170821224], [8.762142112448917, 46.74332072487801], [8.763726152422214, 46.743814470489646], [8.763883355424888, 46.74391493032608], [8.764731153317959, 46.74419877655474], [8.765156266490395, 46.74446687415228], [8.76611662629045, 46.744779718544684], [8.767495356059722, 46.74469510055188], [8.768062402244478, 46.744463302851415], [8.768842693162108, 46.74444952908582], [8.769068159311352, 46.74455740000712], [8.769594998172607, 46.74434574015066], [8.769541422826219, 46.743992791966924], [8.769449369687022, 46.74380998157183], [8.768761495953825, 46.74346806538132], [8.769107815828963, 46.7432999105058], [8.769458206277747, 46.743074221923905], [8.769502486069843, 46.74289819305277], [8.769433816498793, 46.74263399600471], [8.769769995357601, 46.74177189457098], [8.769754340708209, 46.74167636909454], [8.769431142198066, 46.741102342112704], [8.769407791840113, 46.74094941877144], [8.769664171311554, 46.740575508037864], [8.769856329383723, 46.74042636390551], [8.770169109384582, 46.74031823892479], [8.7707884751759, 46.740217956053144], [8.771447631500747, 46.740206226659055], [8.771836600001123, 46.74014363350676], [8.772323131608728, 46.74001363215487], [8.772783497878763, 46.7397563306282], [8.773076096404433, 46.739392858798695], [8.773309107507531, 46.73886692841198], [8.773402828798817, 46.73844832852911], [8.773524724655237, 46.737705648576956], [8.773881957674305, 46.737496931714716], [8.774172320996355, 46.73728349182078], [8.775028479637601, 46.73635990200189], [8.775664079166075, 46.73589833576335], [8.775572274813983, 46.735370581212905], [8.775462808821244, 46.735267436610364], [8.77550537683022, 46.73504021127999], [8.775929270647456, 46.734697467217714], [8.776538041301697, 46.734431528941165], [8.77647967681614, 46.73410198262742], [8.776355214344738, 46.733838645583575], [8.77677318170339, 46.73362440807727], [8.776902755521524, 46.73326429865793], [8.776842635735687, 46.73301022638509], [8.777414370609073, 46.73263010656231], [8.777498709469318, 46.73246266152379], [8.777369904874346, 46.73222964655343], [8.777757143654156, 46.732174737640534], [8.778264351161528, 46.73205001943919], [8.778769492187067, 46.73178249028338], [8.779423654587678, 46.73169170015916], [8.779764579719776, 46.73145710088844], [8.780540654185474, 46.73121195555061], [8.781164993627545, 46.72987380118054], [8.781989776235934, 46.72830882208857], [8.780029815925797, 46.72750577989447], [8.779250791010464, 46.726704283094165], [8.77927113406981, 46.726097350499074], [8.779046216961232, 46.725761760123554], [8.779161359583727, 46.725573802277246], [8.779282337347343, 46.72540011600923], [8.77926938633798, 46.72517211232414], [8.779048368311715, 46.724936978524596], [8.779335903139044, 46.72483371740535], [8.779377609059562, 46.72452683808139], [8.779388153290624, 46.72434984015163], [8.779279694362774, 46.72368460277181], [8.779144876419306, 46.723466470300735], [8.778890975721437, 46.72313846640531], [8.778659273888115, 46.722868325686235], [8.778532021862024, 46.722674057175695], [8.778346125126033, 46.72251507319085], [8.777915170936462, 46.72212844891323], [8.777456601657473, 46.72162807396237], [8.777520447383429, 46.72093812849811], [8.7774584759547, 46.72062048312502], [8.777449254894227, 46.72035160763909], [8.776858167248385, 46.72007116535484], [8.776474380801321, 46.72004573841057], [8.776125510841226, 46.72006666948382], [8.775478097565946, 46.72012710133573], [8.7752591498268, 46.71992182148381], [8.774942469554777, 46.71983480631537], [8.77437222566678, 46.719595668343544], [8.774134365858885, 46.71929363860731], [8.773840303923725, 46.719179924733645], [8.773270081668349, 46.718614132437395], [8.773138599779841, 46.718413012306065], [8.772895317080629, 46.71823218222705], [8.772620666583345, 46.71810214474544], [8.772283939582907, 46.71800516633065], [8.772247528332409, 46.717569417201105], [8.772257783181798, 46.71733174665158], [8.772337832078806, 46.71687330231156], [8.772471678107387, 46.71644830801737], [8.772489683129027, 46.71621953104852], [8.772464851398993, 46.7160029095776], [8.772381956308438, 46.71574730605071], [8.77263428195257, 46.71537395153143], [8.772640796899434, 46.71516375177994], [8.772353777074585, 46.714558610914786], [8.771978738460074, 46.71428409227008], [8.772044170894647, 46.71403164650902], [8.77204395916086, 46.71380546267486], [8.771617857881148, 46.713721459507305], [8.771595169994502, 46.71360532142866], [8.771526933087044, 46.713473994907886], [8.771957351984595, 46.71296618188635], [8.77228598989597, 46.712545927814986], [8.77239551372504, 46.71213381213616], [8.772129666649892, 46.71153068285755], [8.77218162568928, 46.711010133544384], [8.772768551727657, 46.71037040589605], [8.773030130976743, 46.7102424999071], [8.773300194416072, 46.709986487878005], [8.773523989430632, 46.70982838979928], [8.773597286243726, 46.70947641962241], [8.773931441875856, 46.708798935922566], [8.77380994598411, 46.708538268627215], [8.774066561838827, 46.708323627209985], [8.774125231594935, 46.7081289104556], [8.777892866604379, 46.704640839497756], [8.778937267938476, 46.703024296495855], [8.781930602957699, 46.70194665602822], [8.785422366810995, 46.70067245836792], [8.788036721488366, 46.69869553021735], [8.790026664610613, 46.69706423652641], [8.79160722688046, 46.69647597140777], [8.795072352231099, 46.694392485389635], [8.798425939027213, 46.69219867773128], [8.800695511531126, 46.69029583746973], [8.80102938789678, 46.689331057527646], [8.801474052810493, 46.688218826381515], [8.802061244511268, 46.6864507272994], [8.802367330569897, 46.68551154861875], [8.802524521801965, 46.68497567423407], [8.802773186137824, 46.684206159976], [8.802912239640918, 46.68381652868648], [8.803155857800173, 46.683018271734554], [8.803442426077995, 46.68215651914203], [8.803630144653882, 46.6815718058759], [8.80392078872192, 46.68071161246609], [8.806455444075, 46.673017273280905], [8.80657281934412, 46.67252007970952], [8.806582935948938, 46.672014336535995], [8.806560075603745, 46.67142381904633], [8.806530278227257, 46.671003773984964], [8.806499409574089, 46.67065655156727], [8.806499826063929, 46.67019511629507], [8.806450350979205, 46.669905885136146], [8.806261921276272, 46.66761160215253], [8.805924154118557, 46.66621944924074], [8.805861636300232, 46.66539818258572], [8.806046555461483, 46.664620173835054], [8.805005590956597, 46.66094404225637], [8.80442561897762, 46.66015346700269], [8.804023358062594, 46.659644890803705], [8.803834162598392, 46.6593560895471], [8.803486294234865, 46.65903336123588], [8.803335169021736, 46.65890327912295], [8.802972730305719, 46.658707640272], [8.802786135920542, 46.65855915146353], [8.80244946526028, 46.65835140861141], [8.80216575346488, 46.65816529739108], [8.801962746983065, 46.65808547936125], [8.801750207938131, 46.65795514923785], [8.801414290085141, 46.657766132752045], [8.801150809202651, 46.65764365394901], [8.800845114615479, 46.65753943060527], [8.800423104638568, 46.65743625750586], [8.800085362368005, 46.6573455431842], [8.799717933304592, 46.657290063490926], [8.799132469462958, 46.657327677896305], [8.798798503744761, 46.65730539773804], [8.798351882640983, 46.657208510536], [8.798142405605825, 46.657150553064994], [8.798021464607281, 46.657088326489074], [8.797851536484439, 46.6569346380099], [8.797684033780369, 46.656753183151025], [8.79722682552333, 46.65630045024881], [8.796941367843843, 46.65600476554308], [8.796668858857418, 46.65569181357751], [8.79645699899211, 46.65545971174866], [8.796181178983854, 46.65513074716703], [8.796128964117635, 46.655057307463515], [8.796100643741243, 46.65472576170674], [8.796015847062614, 46.65433156924494], [8.795969686332102, 46.65408608408474], [8.79592232625502, 46.65372362845923], [8.795870136124885, 46.653424827345596], [8.795882329540465, 46.65301453564793], [8.79573860091238, 46.65259544925934], [8.795612161046977, 46.65236578258994], [8.795466504298245, 46.652155948307204], [8.795343161064407, 46.65200271674933], [8.795189303761862, 46.651546835406315], [8.795090829249391, 46.65147023960075], [8.79484336122038, 46.65130260614176], [8.794747330810093, 46.651219224837774], [8.794685062981221, 46.65109376798564], [8.794600755361591, 46.65083976523378], [8.794530205517665, 46.650717978359275], [8.79439405307655, 46.650613724922856], [8.794274902332033, 46.65048669622636], [8.794119824882953, 46.650224783862754], [8.793894600063364, 46.64995641971666], [8.793763265731116, 46.64977737333198], [8.793656061627733, 46.649651983535186], [8.793505438948676, 46.649550888435925], [8.793192594766632, 46.64942379668762], [8.792984279210447, 46.649288750141224], [8.792720293799459, 46.64912857992611], [8.792466177442074, 46.64900197467481], [8.792210635782284, 46.64889358464927], [8.79186477420815, 46.648801094796454], [8.79157615154678, 46.64870764524538], [8.791205377882564, 46.64854410588096], [8.791080198398872, 46.64830216252575], [8.791011607462853, 46.648040034763596], [8.790918811996445, 46.64780929769196], [8.790851607181484, 46.64762180937609], [8.790690662868961, 46.647434712608], [8.790736969956066, 46.646915158468644], [8.790716054285008, 46.64678150657564], [8.790770551826535, 46.64663197977434], [8.79041136292759, 46.64629754565241], [8.790271724077705, 46.6461336156404], [8.789784906210413, 46.64569294159895], [8.789697673126959, 46.645594453514384], [8.78965235947139, 46.645488036710056], [8.789638545873837, 46.645375983761404], [8.789649213126422, 46.645228390555246], [8.79008161021412, 46.644955944812395], [8.790191169501798, 46.644913961185615], [8.790306759704803, 46.64488487885447], [8.79063133864688, 46.64485466572456], [8.790924197020283, 46.643465847906484], [8.791443137091267, 46.643314134791765], [8.791750347667131, 46.643114940647976], [8.791270153196216, 46.64276983614567], [8.79043800639742, 46.641980896432365], [8.78990092860539, 46.64100234501819], [8.789615321381367, 46.64096135165668], [8.789303536587814, 46.640906227998], [8.78908372087636, 46.64085715683859], [8.788893809591652, 46.640773201116936], [8.788780710998525, 46.64065124087314], [8.787741103686198, 46.6394744669304], [8.787783243027572, 46.639335865371244], [8.787770573893651, 46.63925012212185], [8.787605288019291, 46.63897822267386], [8.787397289555063, 46.63848810437436], [8.78731965261776, 46.63817630264448], [8.787230421824946, 46.63801855615778], [8.787107330758602, 46.63787264622165], [8.786964811475434, 46.63776995302716], [8.78664635379588, 46.63758727342137], [8.786459746399263, 46.637459207975176], [8.78631835317528, 46.63730100820097], [8.786211294633674, 46.63706610026008], [8.786198369818672, 46.636902349914806], [8.786191741986226, 46.63666376071591], [8.786351810484534, 46.636446913076114], [8.786296298683942, 46.63614096761999], [8.786310821859457, 46.63601728768517], [8.786365573260063, 46.63591451748211], [8.786575492077857, 46.635626912701575], [8.786696916552305, 46.63541044908511], [8.786801025424412, 46.63521616928522], [8.786857880108123, 46.63502090180873], [8.786833251476631, 46.63479912336265], [8.786815018056924, 46.634548883874565], [8.78674998707927, 46.63443631135122], [8.786563491932633, 46.63425627924526], [8.78650774909777, 46.63419505010205], [8.78625107505931, 46.63366383049691], [8.786256304460942, 46.633571290875864], [8.786324280011867, 46.63330960712296], [8.786402109318937, 46.63322949547089], [8.786472112919542, 46.63307388483975], [8.78653866828936, 46.632950244288566], [8.786535367075192, 46.63279952381734], [8.786489827721942, 46.63269067140173], [8.786300563652947, 46.63249346455696], [8.786198739570855, 46.632346565399025], [8.786084468056188, 46.63190114121322], [8.785845111478366, 46.63178165456448], [8.785645557321102, 46.63165671970774], [8.78584921401852, 46.631403023941004], [8.785987906953535, 46.631291048202236], [8.786271305430045, 46.6311105363945], [8.786483809447649, 46.63103566052869], [8.786709950973691, 46.6309388174749], [8.786792514879215, 46.63081088748447], [8.786805041939125, 46.63061887977809], [8.78682481614356, 46.630549828379536], [8.786884797129876, 46.63040476035966], [8.787132156200533, 46.62997416186015], [8.787114001981168, 46.629754747017266], [8.787113795785713, 46.629602540371785], [8.787152983684354, 46.6295291105645], [8.787296569074416, 46.62929952960495], [8.787251190759928, 46.62912115752877], [8.787406552592383, 46.62903337012113], [8.787530024644843, 46.628937305439564], [8.787638746237931, 46.62878351879008], [8.787765616547832, 46.628586630598754], [8.787807062110545, 46.62833468808964], [8.788010905358592, 46.62801538723238], [8.788162828385504, 46.627909321316636], [8.788349184821625, 46.627788939245505], [8.788549203673616, 46.62766610849597], [8.788686478465543, 46.62755353003194], [8.788777806084466, 46.62736390831554], [8.78893423028202, 46.62731213888275], [8.789129816047804, 46.62722734446099], [8.789322486859453, 46.62707765414028], [8.789441856880943, 46.62696570965597], [8.789481977193512, 46.62688853354395], [8.789567898681865, 46.62657048384199], [8.789685217633998, 46.62634448856904], [8.789783123224945, 46.625927070829704], [8.789912480001203, 46.625765357869675], [8.789934369792151, 46.62554969642391], [8.789896987154696, 46.62539683359763], [8.78984500114834, 46.62525319563596], [8.789760388265366, 46.625130744992184], [8.789677234647094, 46.624834778804804], [8.789618442059368, 46.62469728427472], [8.789532918410346, 46.62461098415476], [8.789356860716756, 46.624525802314125], [8.78918160251155, 46.62445169473517], [8.788907606519091, 46.62395969626999], [8.788801718818348, 46.62375648877641], [8.788718041975008, 46.62354375182833], [8.788743685456097, 46.62342541918372], [8.788782843774763, 46.62329296285703], [8.78892811454437, 46.623158412448504], [8.789042084369832, 46.62301760256345], [8.789162740665992, 46.62283971855382], [8.789149391860906, 46.62276900033398], [8.78905573709836, 46.62260426395021], [8.788903707052144, 46.62244449393301], [8.788735598482715, 46.62224154370305], [8.788962408761384, 46.622004115727414], [8.789166498571722, 46.62185420446698], [8.789261364675925, 46.62176995975722], [8.789225291410897, 46.621701662575944], [8.788906658128246, 46.62149815159822], [8.78878758716159, 46.62146644559421], [8.788572977570377, 46.62144277409212], [8.788355969266616, 46.6213952076101], [8.788221407398058, 46.62127283403522], [8.787900890386691, 46.62116044594785], [8.787843646140482, 46.6210757702535], [8.787761729208293, 46.621015365013015], [8.787481713482252, 46.62097479863672], [8.787181409442272, 46.62095116819275], [8.78698213958303, 46.6209407827991], [8.78711568632733, 46.62083215494968], [8.787286865785294, 46.62065515049631], [8.787306099280832, 46.620515363976], [8.787286684191441, 46.62039512384655], [8.787242572899777, 46.62018773817772], [8.787299904461848, 46.619994357483506], [8.787203800083548, 46.619581698858994], [8.78731447137127, 46.61926442588521], [8.787375976730173, 46.619063661067344], [8.78751529202155, 46.618782344486085], [8.787582297783953, 46.618498050159026], [8.787381973821761, 46.6183295973025], [8.787367195930234, 46.61820041610251], [8.787412075063699, 46.618060208821596], [8.787443325985286, 46.617908203405506], [8.787594957693186, 46.61776649416832], [8.787681702876366, 46.61767680207219], [8.787569078342516, 46.617503334673444], [8.787589636645048, 46.61743716161349], [8.787686709486499, 46.61730661958886], [8.787681222600648, 46.6171840661877], [8.787527637987539, 46.61706806198721], [8.787534828117726, 46.61691357116201], [8.78755694149768, 46.61675172420479], [8.787502014935288, 46.61649868704749], [8.787380207581242, 46.61616318770877], [8.787358648231848, 46.61593591292568], [8.787286517637625, 46.615692747294794], [8.787264478627431, 46.615517390464106], [8.787068958783797, 46.61515871952073], [8.787231202566753, 46.61492388767774], [8.787209064986504, 46.614788549418385], [8.787027748485396, 46.61465070615009], [8.786786139424027, 46.61453431496148], [8.786608978155801, 46.6144179788892], [8.786215478799617, 46.613999887875394], [8.786113371852997, 46.61383606830254], [8.786177209569534, 46.61370640620479], [8.786186252263986, 46.61350520584815], [8.785943284199847, 46.613313334023616], [8.785773690846973, 46.61298452276324], [8.785795476129916, 46.612784279433846], [8.785795362496836, 46.61263987059095], [8.785698606247466, 46.61256703430225], [8.785529432793217, 46.6125210463053], [8.785285593510643, 46.61242995845012], [8.785132909373727, 46.61245266234361], [8.784782135695549, 46.612476654887956], [8.78446221990613, 46.61255599970218], [8.78400916675666, 46.61263048049944], [8.78385254603203, 46.61253638907412], [8.783681907685809, 46.612411600428906], [8.783512492824855, 46.612380536608455], [8.78319187766352, 46.61235256175645], [8.783014188907273, 46.612366220068395], [8.782793684279556, 46.612390666816296], [8.782510285607298, 46.61245169033228], [8.782136523623112, 46.61256986474497], [8.781839178675463, 46.61267444353312], [8.781527843214041, 46.612732449313164], [8.781080350045151, 46.61282631885757], [8.780841814899908, 46.6129149265854], [8.78065586421734, 46.61300388632064], [8.780496166431407, 46.61312118218738], [8.780397558386987, 46.61292621050953], [8.780285224747816, 46.61282729014668], [8.779735088485396, 46.61259182052502], [8.779406932589112, 46.612485439413845], [8.779009310000912, 46.612185918842655], [8.77879590294216, 46.611901095635375], [8.77877209933735, 46.61177357336072], [8.778693880645534, 46.61159123614551], [8.778640782790196, 46.611497986969205], [8.7785038420936, 46.61136148744462], [8.778407058751998, 46.61121594168842], [8.778363670758917, 46.611017701027095], [8.778226211813319, 46.61081541340873], [8.7780737275206, 46.61063104444262], [8.777994959788629, 46.610479034032885], [8.77790522520968, 46.61024582098325], [8.777651103457982, 46.60991045595409], [8.777471532309278, 46.60972383334065], [8.77735791261326, 46.60959666819301], [8.777285539556669, 46.60948660645997], [8.777178035235167, 46.60926686236327], [8.777086021848145, 46.60917294513735], [8.776937038805151, 46.6091238997756], [8.776800303937291, 46.60907389168949], [8.776716904886444, 46.608999917534454], [8.77665369559237, 46.60883390192122], [8.776529291097356, 46.60875826074146], [8.776264615278942, 46.60865262570554], [8.775997860342567, 46.608537333209235], [8.775751289329067, 46.608378762011334], [8.775504999467099, 46.608295869909625], [8.775391003316532, 46.60822291210009], [8.775271828805222, 46.60803500780883], [8.775066464519874, 46.60791556549586], [8.77491756587695, 46.60783807603533], [8.774836122410273, 46.60768868719891], [8.774498051541396, 46.60757784567788], [8.774453115304745, 46.60751596057337], [8.774386777397764, 46.60734705855915], [8.774218896048499, 46.607172017163926], [8.77401724659172, 46.60702039291188], [8.773801955740227, 46.60688294726426], [8.77296261185886, 46.60663239157135], [8.772613000631662, 46.60655320970393], [8.772264492346624, 46.60647903336322], [8.77210819698038, 46.606393954231386], [8.771826109642726, 46.6062721155392], [8.77155167656314, 46.6061758537775], [8.770874165630381, 46.60602995388056], [8.770761187309107, 46.60577120883587], [8.770661824575136, 46.60559756367807], [8.77053697320253, 46.60545337270208], [8.770365058976903, 46.60523256102326], [8.770384860811301, 46.60510050858039], [8.770448256629884, 46.604937578881604], [8.770519331456766, 46.604585642321545], [8.770595742361838, 46.60429511818644], [8.770714723882023, 46.60409212230017], [8.770656238178669, 46.604024628025094], [8.770238667142609, 46.60376330797048], [8.770102595439138, 46.60357289042803], [8.769959316129587, 46.603466128504735], [8.769793208822446, 46.603397078717904], [8.769667862058633, 46.60330869478407], [8.769706970192576, 46.60306523412816], [8.76956754801458, 46.602846322727615], [8.769538467741059, 46.60271764528443], [8.769505452679399, 46.60266137588456], [8.769324437625446, 46.60242264205059], [8.769348588508556, 46.6019667976716], [8.769287228185377, 46.6018555129753], [8.768997123820945, 46.60179131212197], [8.76889071774461, 46.601686383385704], [8.76867132326741, 46.60164660912527], [8.768705230374465, 46.60152548239343], [8.768684691585268, 46.60138680831484], [8.768668910500972, 46.601187385189014], [8.768539663940102, 46.60103850111929], [8.768472855297974, 46.60083944857187], [8.768424650792507, 46.600770934806356], [8.768102718310272, 46.60063932186943], [8.768046938375027, 46.6004262254693], [8.767861342664094, 46.60028872678854], [8.767604138046641, 46.600168601356444], [8.767428458903645, 46.60005213749834], [8.767316851163056, 46.599953009108475], [8.767098339923695, 46.59965027001766], [8.766898295819727, 46.599468476353316], [8.766703893454588, 46.59934945097625], [8.76638833058535, 46.59914233029021], [8.766268126009123, 46.598890077121425], [8.76611135656604, 46.59878219962646], [8.766006976276554, 46.598648141318755], [8.765982536984987, 46.59844000524725], [8.765924500618281, 46.59833763291629], [8.765785437900348, 46.59822253114528], [8.765450808777045, 46.598023593509275], [8.765429466748973, 46.59793520556624], [8.765388304068699, 46.597847588052744], [8.765313067495626, 46.59775113680266], [8.765110786170261, 46.5976175706411], [8.765130139086642, 46.59749721803819], [8.765166989536338, 46.59735855121032], [8.765094230852556, 46.59715406949098], [8.765043391584479, 46.597052419953755], [8.76454306759903, 46.59677404281533], [8.764225997813623, 46.59660743270606], [8.76390322785882, 46.59644833756064], [8.763403604389808, 46.59618895960175], [8.763221238262837, 46.59611461724583], [8.762962069922356, 46.596109832122934], [8.762657530925766, 46.59616246237284], [8.761978221274621, 46.59630403027096], [8.761874743204588, 46.596307069005356], [8.761628896876422, 46.59624075968579], [8.761314806495973, 46.59623012206029], [8.761140633627141, 46.59618968928306], [8.760973845206474, 46.59610275396297], [8.760871374910627, 46.59599443209799], [8.760777471157457, 46.595936386220274], [8.760525120572089, 46.59591040044566], [8.760250597162102, 46.59584918056658], [8.760008954130923, 46.59577578347402], [8.759765920593134, 46.595666836729116], [8.7594174234943, 46.59549556894803], [8.759205745054075, 46.59533807088457], [8.759144330694275, 46.59523733401031], [8.758981139111809, 46.59506374464593], [8.758889160092801, 46.594991883248134], [8.758880220588408, 46.59487536975685], [8.758841781361825, 46.59456903762223], [8.758645189308982, 46.59444555031369], [8.758497193001181, 46.59439018106329], [8.758561854164231, 46.5943085326888], [8.75861648379325, 46.59415553595738], [8.758701700835461, 46.59401045940472], [8.758801656763236, 46.59392905726792], [8.75885355002505, 46.593852718732165], [8.758413509318274, 46.59354643415142], [8.758191769671368, 46.593443095375], [8.758027991485719, 46.59328206109583], [8.75787471303669, 46.593194544528934], [8.75772919899659, 46.59308019084339], [8.757524576802117, 46.59290053814883], [8.757683138745671, 46.59252061822761], [8.757661532414389, 46.59241816822612], [8.757581633474459, 46.59230356587564], [8.757439311218327, 46.592189912983656], [8.75727433581062, 46.59207955465853], [8.757128393722576, 46.59194744602217], [8.757158509345416, 46.59178615102484], [8.757224052893656, 46.591647153778496], [8.75713971812971, 46.59155873002861], [8.757043609919965, 46.591400609494215], [8.756875628975624, 46.59125084405585], [8.75664711490613, 46.590984074271795], [8.756515975564954, 46.59080687402425], [8.75639828525188, 46.590488589594365], [8.75632712567099, 46.59037516345092], [8.756146537507965, 46.590187082547146], [8.756124374783706, 46.58978765306935], [8.756091923417491, 46.589694632017554], [8.75598917990274, 46.58948234779207], [8.755966921770494, 46.58933521049358], [8.755968970741066, 46.58915247092927], [8.7558431959049, 46.5889151853033], [8.755695274084607, 46.58872070991119], [8.75569363002802, 46.588611973862925], [8.755626347039183, 46.588480132656365], [8.755472471349854, 46.58832122225957], [8.755323531582205, 46.58820206571797], [8.75515741268785, 46.588089717661234], [8.754827576713744, 46.58777588109767], [8.754887221974622, 46.587673866837356], [8.754855155279333, 46.58753857450607], [8.754959833434318, 46.58732924768914], [8.754913894729293, 46.58721914498793], [8.754859830089657, 46.58712371888738], [8.754735097956955, 46.58708435240911], [8.754628076567013, 46.58698827071398], [8.754324350738463, 46.58681172256658], [8.754150915926708, 46.586703543882564], [8.754013761627634, 46.586509689363595], [8.75381133132684, 46.5863043106474], [8.753741281107432, 46.586208719027134], [8.753690380658771, 46.58600239469632], [8.753655087066509, 46.58590650934737], [8.753454367805915, 46.585698339868216], [8.753243585390214, 46.58542130700772], [8.753121675952405, 46.58536574897976], [8.753046383071426, 46.58524332616196], [8.75286886902032, 46.58507646250386], [8.752770016232589, 46.58491722618669], [8.752779636335212, 46.5848255354284], [8.75284600955238, 46.58465830702873], [8.75285065145662, 46.58453844123268], [8.752818936695762, 46.584382982171824], [8.75267217564313, 46.584125188554744], [8.752597517395143, 46.583909019199346], [8.752529030561023, 46.5838281545472], [8.752274010472034, 46.58361554382969], [8.752071759587137, 46.583410437510025], [8.75189786055354, 46.58320512157818], [8.751631759445653, 46.58300398275118], [8.751403234386135, 46.58267793690693], [8.75137411917404, 46.582540231254065], [8.751323258765215, 46.58234454465898], [8.751254705978475, 46.58226615482558], [8.751400058782053, 46.58198428654914], [8.751355393188232, 46.581674414056565], [8.75141237265358, 46.581565165419], [8.751445526261033, 46.58146616845229], [8.751558485085319, 46.58139256630373], [8.751665147103306, 46.58127566282031], [8.751752554743511, 46.58109173133877], [8.751785279619408, 46.58091912056793], [8.751779821945687, 46.58074202964382], [8.751688028540691, 46.580561134668244], [8.751457464454303, 46.58032879762864], [8.751468755990206, 46.58024123106623], [8.75148154149322, 46.57978229746497], [8.751380027245869, 46.57933820227339], [8.751447511665187, 46.57911581045224], [8.751297734104044, 46.57893708951788], [8.751058359790235, 46.57879216119906], [8.750794048591182, 46.57864865381518], [8.750726979523083, 46.57843174618059], [8.750580135193207, 46.57803907510054], [8.750549346017902, 46.577864149578424], [8.750446496137236, 46.57775502448517], [8.750452905163447, 46.57765668685342], [8.75041269209445, 46.577503119936814], [8.750503576608075, 46.57721013922038], [8.750553244689067, 46.57699041586025], [8.750543014445718, 46.57681159083319], [8.750611952076357, 46.57663712214065], [8.750745457326124, 46.57621663171861], [8.75059074147796, 46.57605188974491], [8.750442394863162, 46.57596195598691], [8.750155317895727, 46.575821233414615], [8.750087614663213, 46.575684406627175], [8.749794560475877, 46.57562526534671], [8.74970728796695, 46.57547025258674], [8.749331445964872, 46.57531340197747], [8.748915453219368, 46.57527942720388], [8.748618319408747, 46.57523053255434], [8.74855588708398, 46.57510436641156], [8.748480889351429, 46.57502279091172], [8.74825458416969, 46.57493122566503], [8.747926698610335, 46.574818005673215], [8.74755942866168, 46.5746979037399], [8.747493994756274, 46.57452623955654], [8.747208296680643, 46.5743582872304], [8.747168844391812, 46.574238560798975], [8.747055052149076, 46.57409609955824], [8.746880815222477, 46.573942241478], [8.746674556870483, 46.573792378116856], [8.746181155565269, 46.57362805626054], [8.746048580264757, 46.5735303891474], [8.745833139253405, 46.57345120901759], [8.74579286257517, 46.573353929042696], [8.745599985001688, 46.57325501945196], [8.745436682533466, 46.57313446508825], [8.745346382569595, 46.57297970293796], [8.745156440099237, 46.57291794351635], [8.744728368359942, 46.572710855701345], [8.744567551997019, 46.572608805812], [8.744455600934167, 46.5724260143914], [8.744220550598627, 46.57231840103948], [8.743938272549782, 46.57222579674782], [8.743677835338064, 46.57221439756463], [8.743445232843307, 46.572253105201234], [8.742779096804519, 46.57230092763009], [8.742519087382854, 46.572299226652135], [8.742089075137383, 46.57224708486486], [8.741877961373927, 46.57227937287459], [8.741614386614673, 46.57229208005236], [8.741205900996254, 46.57231901430075], [8.74078220432767, 46.57233998633139], [8.740360427745403, 46.572310067625196], [8.740160408992601, 46.5722385456882], [8.739953992164304, 46.57219765075283], [8.739550956794492, 46.572208534705666], [8.739206841169215, 46.57216113334422], [8.739051155736465, 46.57218892437439], [8.738853214082402, 46.57226069695016], [8.738712032014753, 46.572326430278224], [8.738474060726437, 46.57241550824527], [8.737991431466712, 46.57258738122568], [8.737882189977773, 46.572683752550994], [8.737878974987114, 46.57280571510986], [8.737749692064089, 46.57283191500489], [8.73763047821424, 46.57289876450812], [8.737545419641611, 46.57300639382005], [8.737422066608074, 46.57314262151911], [8.737341762254506, 46.573278717786735], [8.737385577126654, 46.57339849694168], [8.737113434885075, 46.57352077667269], [8.736865056466762, 46.573593922490964], [8.736596409631014, 46.573639597534594], [8.736371805204596, 46.57372436501674], [8.736142911182654, 46.57386363076385], [8.735861431425137, 46.57385462380659], [8.735671280375422, 46.57385998591107], [8.7354008640037, 46.57393373863001], [8.735174392628117, 46.57402566808755], [8.734773196261969, 46.57416299789134], [8.734295208354593, 46.57438919819197], [8.734017659448327, 46.57454007876975], [8.733362999377732, 46.574682230761866], [8.732984974375887, 46.57478403089382], [8.732715521966744, 46.57483950303143], [8.73245207442421, 46.57490334472288], [8.732066935713632, 46.57505367140978], [8.731876659376605, 46.57515651098061], [8.731590091058623, 46.575302729117304], [8.731439911685374, 46.57532018952308], [8.73104635640833, 46.57540626279944], [8.73070059603883, 46.57541940345172], [8.730490225760905, 46.5754590210794], [8.729922845647721, 46.57562855961054], [8.729771805854625, 46.575712766754876], [8.72964750302541, 46.57572833809602], [8.729565092681666, 46.57579746891482], [8.729308445224175, 46.57581636832296], [8.729128414923377, 46.575876070280955], [8.728956027886843, 46.5760155327267], [8.728884095123531, 46.57614432958517], [8.728638578017955, 46.57620326417008], [8.72838836357773, 46.576377671425895], [8.728292850365566, 46.57647408500996], [8.728174964902015, 46.57664337610434], [8.727943144267883, 46.57709179566291], [8.727924374409376, 46.57682283699708], [8.727814414718702, 46.57666802114662], [8.727704231974583, 46.57655855214664], [8.727526593396428, 46.576406734984985], [8.72732501103779, 46.576272265155474], [8.726992363638505, 46.57612913916269], [8.726710375068134, 46.57598529536844], [8.726549343922816, 46.575869393235564], [8.726418449002312, 46.57567117992325], [8.72586725386011, 46.575473279988074], [8.725541553678449, 46.57531405056094], [8.725141779305451, 46.57518558268356], [8.72485301185774, 46.575086916755176], [8.724176220235249, 46.574872450305456], [8.72392639555251, 46.574673762510365], [8.72386866529316, 46.574570616179], [8.723744158784438, 46.57437211476543], [8.723529065710581, 46.57426613431947], [8.723224127067995, 46.57409321658107], [8.72303520076992, 46.57396389888316], [8.722825623006898, 46.573728011262624], [8.722407990985538, 46.57333962231512], [8.722220935976612, 46.573121965664896], [8.721939105759226, 46.57303364558837], [8.72166196898297, 46.57291654521365], [8.721500177873011, 46.57288543191694], [8.72132012488825, 46.57280438401534], [8.721041863746077, 46.57269202715715], [8.720894727339383, 46.57258563355724], [8.720750889634617, 46.5724626564842], [8.720507812556683, 46.57234903836051], [8.720348635880827, 46.57224640686904], [8.720165722984754, 46.57218269041709], [8.719712087331036, 46.57199948811914], [8.719439213572988, 46.57181732445976], [8.718864608126879, 46.57168031182382], [8.718535140960737, 46.57159486217479], [8.717969616502636, 46.57137818616947], [8.717689219160546, 46.57122065448235], [8.717513660269775, 46.57110787418941], [8.717333923256463, 46.571086591547015], [8.717073460976964, 46.57110785251532], [8.716804809169142, 46.57117840805655], [8.716489990250437, 46.57121366609651], [8.71618577564664, 46.57118482675258], [8.716027447448175, 46.571186234295304], [8.715799851058694, 46.571222102236675], [8.715376436271606, 46.57124010494492], [8.714978545640568, 46.57136402701032], [8.714513945246635, 46.571539158758966], [8.71424600419419, 46.571612966262265], [8.713988969491075, 46.57169070778399], [8.713546765482446, 46.571749121737824], [8.713381972991133, 46.57174029809287], [8.713170391869319, 46.571817566965066], [8.712814698241093, 46.571875073310636], [8.712621997117925, 46.57198301490293], [8.71178137392615, 46.57219443138358], [8.711654779378764, 46.5722594269965], [8.71156928705514, 46.57249153124097], [8.711175378850777, 46.57254811757012], [8.711048866418459, 46.57264276431561], [8.71069657514373, 46.57282969136997], [8.709954651989843, 46.573261014249425], [8.709650290792963, 46.573383847840226], [8.706847468787393, 46.57366781758606], [8.7065587087785, 46.57370909396015], [8.705983650843208, 46.57382833205907], [8.70566225911249, 46.573842843086496], [8.705298244022636, 46.57379710006782], [8.705313797303281, 46.574035282963045], [8.705252029839631, 46.5744743056171], [8.705144213568698, 46.57485601436786], [8.705004526950805, 46.57517760387561], [8.705095361744753, 46.57536064776918], [8.705146957186988, 46.57551939506219], [8.705097970605513, 46.57575305537788], [8.705087362072037, 46.57589499241005], [8.705051470066726, 46.57599629353562], [8.705040431381898, 46.57634608896805], [8.70502541573576, 46.576504898315044], [8.704954220915479, 46.57671271934025], [8.704765697931853, 46.57712575947784], [8.704671697505246, 46.5772095389858], [8.704001053149252, 46.577723670737804], [8.70380213087901, 46.57811155974006], [8.70358144939144, 46.57826219821812], [8.70338415392974, 46.57842263383986], [8.702952764048174, 46.57873758608644], [8.702695897818208, 46.57884362190756], [8.702116309361655, 46.57892873318775], [8.701674413889199, 46.57911128698415], [8.701334496392375, 46.57915414027115], [8.700812521645759, 46.57920562693101], [8.70060856239637, 46.57925928703393], [8.70028063614904, 46.57932736726856], [8.700061338098951, 46.579364498518075], [8.699674459113059, 46.579407266090875], [8.699247810520024, 46.579446605976386], [8.699074258963423, 46.57950343597939], [8.698852962926914, 46.57962348215518], [8.698675984352164, 46.57976404528247], [8.698607026794326, 46.580212536717895], [8.698555305096601, 46.58038950938776], [8.698426427290313, 46.58053719640033], [8.698428881331528, 46.580677799251745], [8.698474856591007, 46.58079073057422], [8.698517763018218, 46.58091361946757], [8.698478673966369, 46.58099379162538], [8.698399421206156, 46.58105540666783], [8.697514985003435, 46.5810551058683], [8.696924590071681, 46.58107239480745], [8.696662684005778, 46.581069253058985], [8.696496318491276, 46.58102867194181], [8.696323796672353, 46.5809926835765], [8.6961304049438, 46.58085256362705], [8.6960832275742, 46.58064453875522], [8.696039525445403, 46.58057691754361], [8.695904867212663, 46.580566619042614], [8.695576716980392, 46.5805583044291], [8.695379750460408, 46.580562926800624], [8.695179007115131, 46.580535282984144], [8.694978484526013, 46.58047276468588], [8.694168831899622, 46.58020572610884], [8.69388784216082, 46.58007825800925], [8.693425278192523, 46.57989432215608], [8.69257410152413, 46.579667752548396], [8.69173923771332, 46.5798570243917], [8.6914663097138, 46.57988352163123], [8.691198814946098, 46.57994755312393], [8.690976209713323, 46.58008526425565], [8.690570718563853, 46.58040289210135], [8.689730875980972, 46.58044550833404], [8.689190971446743, 46.58050428520591], [8.68889823401827, 46.580526447390426], [8.688637900895815, 46.58052854210814], [8.688381948120664, 46.58045597691683], [8.688123041426952, 46.58037583192161], [8.687833978581924, 46.58034748821823], [8.687300441928956, 46.5803169407205], [8.686996607880289, 46.58032068770299], [8.686690337866906, 46.580338747343234], [8.685918124733597, 46.580451982058776], [8.685640636187493, 46.580451891949394], [8.68537720746311, 46.58038872383064], [8.684874428730238, 46.580305036328184], [8.684607500721597, 46.58024399100515], [8.68388539559953, 46.580049340653304], [8.683386051526831, 46.57988784190723], [8.682944153512189, 46.57962846059528], [8.68278347698288, 46.57950262738215], [8.682656225047808, 46.57934765801552], [8.682575334838273, 46.57919401597892], [8.682320891378268, 46.578876400251424], [8.682034296914876, 46.57855507933022], [8.681783581791484, 46.57838979002357], [8.681480216973242, 46.57833678499578], [8.681196850418754, 46.57829610256356], [8.680673481572356, 46.57832020691252], [8.680422382377476, 46.57838642900665], [8.680205111246448, 46.57849629361288], [8.68002882052866, 46.57864539487867], [8.679784358529254, 46.578734251961], [8.679595238923877, 46.578855963218125], [8.679336193396882, 46.57900132570907], [8.678749150687693, 46.579190569563664]]]]}}]}