{"type": "FeatureCollection", "features": [{"type": "Feature", "properties": {"bfs_nummer": 4062}, "geometry": {"type": "MultiPolygon", "coordinates": [[[[8.375358768711141, 47.341164498014365], [8.374712713907519, 47.34182531915534], [8.374305558513955, 47.34228832562718], [8.37437739071652, 47.34232005358145], [8.374413125482507, 47.34266579212765], [8.374359383142856, 47.34296599461005], [8.374460328554092, 47.34330231859582], [8.373753347710156, 47.34391027873761], [8.373378160124163, 47.344224039337895], [8.373019957069271, 47.34432079185726], [8.373230140251515, 47.34457081617272], [8.372533433977988, 47.34531994110845], [8.372706679118213, 47.34540885873054], [8.371984517913823, 47.346182913641904], [8.371663562107601, 47.3460667732057], [8.371065091257998, 47.34678236287449], [8.37106328525451, 47.34681078354826], [8.370613035656826, 47.34692924747221], [8.370534363931341, 47.347097125733065], [8.370097723202697, 47.34722888033667], [8.369772744693742, 47.34734259767604], [8.369452796295525, 47.347475397005844], [8.369890004908298, 47.34773375190714], [8.369093505526166, 47.34811379627805], [8.368643479071961, 47.34834990499972], [8.369437186101077, 47.349952628754814], [8.370089803781196, 47.35032432919992], [8.368667419576147, 47.351422976668154], [8.36807568269331, 47.352003633146815], [8.367931421857875, 47.352156152070314], [8.367792902438856, 47.35210266705243], [8.367692953579837, 47.35219890753554], [8.367473260487651, 47.35245029347765], [8.367235527572113, 47.352678284263845], [8.367053359334733, 47.35278851561783], [8.366491775206601, 47.3531017533472], [8.366060699036845, 47.353302636977034], [8.365379986332536, 47.35386165056505], [8.364895465595165, 47.35403898661253], [8.364525722649633, 47.354182452378645], [8.364103497464779, 47.35433671789455], [8.364269757969096, 47.35444636543412], [8.363141426521755, 47.35518618862315], [8.362631210322373, 47.3554141017779], [8.362688144048333, 47.35546999992996], [8.362498214164555, 47.355568817239295], [8.361927560632473, 47.35596082845992], [8.361677329347772, 47.35613891351232], [8.361642547816798, 47.35616596947051], [8.361369770171644, 47.35636230480388], [8.361129757005598, 47.35651146942713], [8.36090242808136, 47.35671830653995], [8.360868508290041, 47.35676079071413], [8.360649890004405, 47.35697314357877], [8.360502635987773, 47.357119137482584], [8.360744239134634, 47.35729207046656], [8.360689524429995, 47.35727874498455], [8.360661159757965, 47.35727430304065], [8.360603609530594, 47.35727000405642], [8.360546006225706, 47.35727182203279], [8.360362173366143, 47.357294337158294], [8.360306558611391, 47.357290967074846], [8.360249303308986, 47.357280755856294], [8.359991607796173, 47.3578465064186], [8.359634340070883, 47.35777802475907], [8.359304907594845, 47.35771086713773], [8.359228336893871, 47.35811308273171], [8.359034012345138, 47.35810390919201], [8.359030322734583, 47.35816240565678], [8.358772280219805, 47.3584528473858], [8.358815651793236, 47.35847695015456], [8.358628656910133, 47.358802940128314], [8.35856201152667, 47.35903885004311], [8.358433502454627, 47.359685151078494], [8.35837802788699, 47.360291778172744], [8.359795872578989, 47.36125343885684], [8.359843008782997, 47.36143553374382], [8.359893920695232, 47.3614691282455], [8.359962799242195, 47.36157103105845], [8.360028356093908, 47.361595604038506], [8.360133802464647, 47.36161496548973], [8.360192749604613, 47.36164007681094], [8.360325570640184, 47.361680753522776], [8.360399022571622, 47.36177911175632], [8.360488233383814, 47.36183947549754], [8.360586536750104, 47.36197397457796], [8.360584978752739, 47.36206762410328], [8.360597748342933, 47.362193631157886], [8.360722578275873, 47.362285012726936], [8.360817269886992, 47.36228713534708], [8.360802474659264, 47.362350217783735], [8.36092134603867, 47.362334337238444], [8.361033062178995, 47.36238696496051], [8.361076892842608, 47.362372313132546], [8.361203534200566, 47.362399995484054], [8.361415513039878, 47.36260068786863], [8.361525378927492, 47.36262283721047], [8.361657600694341, 47.362689872354196], [8.36168039858476, 47.36281382020878], [8.361660080817366, 47.3628560788079], [8.361683019322218, 47.36286578998419], [8.361662668866185, 47.362890868496464], [8.36172189460968, 47.36293195173304], [8.361830795681623, 47.36299008807388], [8.361911270653732, 47.36300446645766], [8.361947626653842, 47.36306273273715], [8.362042140673747, 47.36312332262792], [8.362025261614061, 47.36318831097343], [8.362034761145287, 47.363239955848265], [8.362178186814113, 47.36334225092589], [8.362293307961071, 47.363446031509376], [8.362294510619, 47.36350017133446], [8.362372666542761, 47.3635716855385], [8.36239739774751, 47.36360079321416], [8.362572301743167, 47.3637226519094], [8.362690008919992, 47.363786105306474], [8.362676741136761, 47.36380506466276], [8.362850983260017, 47.36390929789981], [8.36297348404774, 47.364023191797216], [8.363096950241797, 47.36408735414718], [8.363068181367806, 47.36417817228582], [8.363128997006095, 47.36422681580146], [8.36326554525321, 47.36428495445639], [8.363330638099654, 47.3643359293075], [8.363498194896389, 47.364407177019906], [8.363496328473618, 47.364461386259194], [8.363596694189733, 47.36448433829532], [8.363638203263557, 47.364513617192216], [8.363614752996652, 47.3645332250437], [8.363673053368336, 47.36456961925315], [8.363736318604968, 47.364578548274], [8.363806842725543, 47.36471435541654], [8.36389338430071, 47.36478595438309], [8.363997940785124, 47.36484666005619], [8.36403084488208, 47.36491787927835], [8.364071885103423, 47.364946819727685], [8.364124660372184, 47.36503627472339], [8.364619054856274, 47.36465773770697], [8.365456891227842, 47.36527872878569], [8.365477365791508, 47.36529739982561], [8.36550533245041, 47.365258875079725], [8.365568657541127, 47.365170657543665], [8.365588137805283, 47.3651313733316], [8.365753944268024, 47.3648633343637], [8.36593954897151, 47.364884241782285], [8.366152738868957, 47.36456998364233], [8.366600448795273, 47.36392682182076], [8.367179094117214, 47.363030630999035], [8.367258837436568, 47.36291549357107], [8.367345554205228, 47.362802467796016], [8.367454414577098, 47.36268920984102], [8.36755207388785, 47.36260477186335], [8.367684198658868, 47.3624340649457], [8.36810770273498, 47.36242222039628], [8.368246518815155, 47.36240916695003], [8.368383519621316, 47.36238919284384], [8.368517820451341, 47.36236243114215], [8.368648854591182, 47.362329030331814], [8.369487028225285, 47.36205041535502], [8.372126918217575, 47.36119733793219], [8.372075254977393, 47.36112429374874], [8.37279957992349, 47.36087564616259], [8.373167066665665, 47.36073575223408], [8.373521866733125, 47.36057379648242], [8.373858219154103, 47.36039795716586], [8.373998243079244, 47.36034243991285], [8.374145461741959, 47.36030391846109], [8.374295355361522, 47.360282060687744], [8.37437047670387, 47.360279572052164], [8.374445481596947, 47.360283272805006], [8.374519283156964, 47.36029308183764], [8.374590301559223, 47.36030874208103], [8.374658057335187, 47.36033008653371], [8.374721538579813, 47.360356781619146], [8.374886902102547, 47.36044697345756], [8.37537101929553, 47.36023392470582], [8.375676606493837, 47.3600939491968], [8.375690309286924, 47.36011061352785], [8.375979717674944, 47.3600022503859], [8.376059180170927, 47.359982419132265], [8.376107435549216, 47.359974327708294], [8.376225306128722, 47.359963071505206], [8.376427681031721, 47.35997179033484], [8.376528759981255, 47.35998126862708], [8.376679406300097, 47.3600015518963], [8.376774567735685, 47.36002832131895], [8.376817989940246, 47.36004724466996], [8.376853641074291, 47.36006839892539], [8.376896957722417, 47.3600346844698], [8.377652619864936, 47.35973426264337], [8.377960672362653, 47.360175144743074], [8.37807385253507, 47.3602816234892], [8.379368891941475, 47.360173940775525], [8.379926403137544, 47.360177343076245], [8.38026661012626, 47.36018735244537], [8.380905793277666, 47.360177635569656], [8.381241138656305, 47.360217374642794], [8.381654589517593, 47.360189048984296], [8.38240224799476, 47.36019750705322], [8.382915746471788, 47.36010691460344], [8.382935730870043, 47.3599967519679], [8.383090475828128, 47.35943284383042], [8.387975726602981, 47.35935293314146], [8.387978850445815, 47.35917372770674], [8.388056304841145, 47.35917450324267], [8.38815525373897, 47.359285830413285], [8.388254633682473, 47.359341807817785], [8.388708080033913, 47.35951491148751], [8.38888213108498, 47.35959590951415], [8.389039049753993, 47.35961359782544], [8.389284549064875, 47.3595997130295], [8.390061924526892, 47.35975985363354], [8.390816028730363, 47.359876025010315], [8.390963466555505, 47.35994018489392], [8.391187343648202, 47.35918117954983], [8.39124636910934, 47.35904474298617], [8.391295550947067, 47.359057559812285], [8.395691496345588, 47.35882813147534], [8.397574207262391, 47.359051978780016], [8.397608459175387, 47.359186286025334], [8.39775832613866, 47.35934982040719], [8.397894239192429, 47.35970162705381], [8.397884655717291, 47.359842225957095], [8.397799469258304, 47.360125546025195], [8.397808940168426, 47.36023773348015], [8.398052966640666, 47.36076660728392], [8.397957732483183, 47.360874096428695], [8.397916876214415, 47.36104022182617], [8.398004418635358, 47.36119611500566], [8.398176771193087, 47.36128756519943], [8.399494695450366, 47.3614853461854], [8.399729364680205, 47.3617839510629], [8.40022031116905, 47.36187947446062], [8.400303164834607, 47.36193055948574], [8.401343679216314, 47.3621425378218], [8.401730901560267, 47.36226917885489], [8.402013926662526, 47.362401032189126], [8.402627227261167, 47.36267631488803], [8.402562641533374, 47.36305377845944], [8.40257143374181, 47.36330799253508], [8.40308211854533, 47.36339798775224], [8.403580506803559, 47.36350118013353], [8.40393974993516, 47.36361862093914], [8.404493953270151, 47.36390213252769], [8.404939757974484, 47.364099243101656], [8.405213327386557, 47.363919546635174], [8.405504730948996, 47.363632696283375], [8.405849393112819, 47.36314599852245], [8.406094157323732, 47.36290411583121], [8.406260457795508, 47.36260261472333], [8.40647050136668, 47.36227877211466], [8.406720095315755, 47.361765154376755], [8.406858301797891, 47.36131154868313], [8.40681154132287, 47.3607587228762], [8.406747666934047, 47.3604590151334], [8.40678258526708, 47.36028382406907], [8.406794036613245, 47.36011323725036], [8.407273759211698, 47.3600187789371], [8.407171496373346, 47.359838045992404], [8.407033374415242, 47.35852826704885], [8.406836738647536, 47.358172203491236], [8.406784302960462, 47.35799272553284], [8.406978535316503, 47.35758084413317], [8.40728060789374, 47.35721554298836], [8.407363459817827, 47.357044285381484], [8.407351716604126, 47.3565202197516], [8.407379240855361, 47.35628801698589], [8.407391660832822, 47.355977081837985], [8.407310180843085, 47.355691778813444], [8.407376110921973, 47.355543707793856], [8.40746372588929, 47.35545775411681], [8.40762798164312, 47.35539292522255], [8.407885097341413, 47.355348724789714], [8.408061668381697, 47.35530679215753], [8.408300249754895, 47.355226073886776], [8.408652058842948, 47.35515634929815], [8.409269157023557, 47.355091688953046], [8.409283154575663, 47.35507167435429], [8.409098467071017, 47.35479988657391], [8.409150437887288, 47.35479136326235], [8.40857367053512, 47.3539446077085], [8.408470366979879, 47.353744104232085], [8.40834682403118, 47.35355513169956], [8.40814481355079, 47.35331354040173], [8.407845199327273, 47.353068216546745], [8.407586741146703, 47.352790947210984], [8.40703356005881, 47.35223461504241], [8.406979571255212, 47.352098343864746], [8.4067734798246, 47.35189522929032], [8.406077828467858, 47.35203617422577], [8.405398252263062, 47.352143374849774], [8.404787089573187, 47.352271739515686], [8.404653745838157, 47.35205297363689], [8.404490019101965, 47.35174607698197], [8.404029242739902, 47.35117382696935], [8.403706731242163, 47.350712515513045], [8.40338514873063, 47.35034905260389], [8.403124597992761, 47.350019170415976], [8.401402173865502, 47.349337987419446], [8.401072993264401, 47.3492599293536], [8.399225856066199, 47.34889933617372], [8.398575908633086, 47.34871582771202], [8.397869091591474, 47.348524773954324], [8.397146502637979, 47.34834987582241], [8.396487748694678, 47.34810268932939], [8.395745681030606, 47.34786402405847], [8.394975169708962, 47.34758279163651], [8.394478111609967, 47.34738802685876], [8.394431271321155, 47.34730665895974], [8.394770958470815, 47.347151058056546], [8.39519724767984, 47.34693252026153], [8.395233263970194, 47.3468671071074], [8.394500029158301, 47.346461296653736], [8.394104000826157, 47.3464238081202], [8.39357439661708, 47.34645064817082], [8.393282124949106, 47.34678420555818], [8.392395574626695, 47.34643486029921], [8.392349456238959, 47.346660844520706], [8.39072575596064, 47.346418444061], [8.390442587542383, 47.34628851662534], [8.390181621593946, 47.34610555115474], [8.389948517104092, 47.345855882269525], [8.389952984767191, 47.345798430485736], [8.390308015799889, 47.34563849752129], [8.390282457865345, 47.345616850345934], [8.389148336943947, 47.345626325899296], [8.388680829034643, 47.34555697188715], [8.387923942921605, 47.34541560654789], [8.386923039343985, 47.34489187580505], [8.386773465428575, 47.3447674619581], [8.387347619881652, 47.3445512548976], [8.387793108363315, 47.344340222818104], [8.387546389391083, 47.344175240490756], [8.387223157948354, 47.34388773564259], [8.38683151012533, 47.344063962616666], [8.386203948652048, 47.34363897231695], [8.385888840974093, 47.3436712406078], [8.38565850760802, 47.34347152632408], [8.384888412799617, 47.34322117820545], [8.384423802234677, 47.34307857380797], [8.38379156621237, 47.343240866644486], [8.383752051593898, 47.34317521187375], [8.382455535067814, 47.34228030677101], [8.382369466415819, 47.34220862726961], [8.381505092998328, 47.342754273806186], [8.381321573575317, 47.34279871409078], [8.381270983740436, 47.342908920186055], [8.381153611899224, 47.342890799966895], [8.380513352022508, 47.342565465627395], [8.379198578207559, 47.343242873503506], [8.378888353657347, 47.342999709914324], [8.378652729187838, 47.343158968832995], [8.377708682161147, 47.34238287963043], [8.377963556649908, 47.341967882274325], [8.3776971243213, 47.341986456164484], [8.377214678490052, 47.34197922485271], [8.376963552169775, 47.34196592933705], [8.376866791223046, 47.34195625433735], [8.376779501505014, 47.34194258957636], [8.376476953256418, 47.3418692374591], [8.376434229313523, 47.3418553183391], [8.37635444983715, 47.34180590006894], [8.376233678983304, 47.34170709931005], [8.376093905690464, 47.34146825663363], [8.376047504670847, 47.34142052806533], [8.376011914234944, 47.34139608075692], [8.37588391971459, 47.34133042194352], [8.375823287948576, 47.3412846527152], [8.375646681169414, 47.341232152022314], [8.375583136235646, 47.341202831221885], [8.37545526538111, 47.34120217772953], [8.37539234928885, 47.341173238553054], [8.375358768711141, 47.341164498014365]]]]}}]}