{"type": "FeatureCollection", "features": [{"type": "Feature", "properties": {"bfs_nummer": 407}, "geometry": {"type": "MultiPolygon", "coordinates": [[[[7.708223968795189, 47.06650724339314], [7.707866020047341, 47.0663588801394], [7.707525458363508, 47.06620158812734], [7.704836455303344, 47.06488610525854], [7.704606743277217, 47.06477200335462], [7.704386108275586, 47.06465113374077], [7.704169169240568, 47.064526765106336], [7.70395759721574, 47.06439606917577], [7.703752040337532, 47.0642596651622], [7.7035547679319025, 47.06411859129726], [7.703386253136264, 47.06398154371589], [7.703231377207043, 47.063841873979996], [7.703093380272977, 47.063694618446476], [7.703043818437615, 47.06363571582434], [7.70297499038559, 47.06354043653184], [7.7028412611544805, 47.063323774206644], [7.702695357416907, 47.06306975624998], [7.701622852766349, 47.061060353683416], [7.701542409279167, 47.06091967507456], [7.701454384870309, 47.06078181116578], [7.701358045100396, 47.06064730332017], [7.701133868163541, 47.060389117209624], [7.701009906686118, 47.06026659941959], [7.7001400344365125, 47.0594767808151], [7.7001148655696925, 47.05949001543474], [7.699150402860373, 47.05864241280227], [7.698290834509507, 47.05787640265502], [7.698160824985074, 47.05777727334153], [7.698084767694933, 47.057699808518066], [7.698051064789018, 47.05761371193364], [7.698049405164559, 47.057447055427055], [7.698058031640284, 47.05724351414499], [7.698055640018935, 47.056927838524395], [7.697534798903801, 47.05701762105146], [7.697176543446203, 47.05708436925975], [7.696784333015613, 47.056806645845306], [7.69768557587076, 47.056381952867284], [7.6976561803996715, 47.056356374182144], [7.697588030604849, 47.05631600481608], [7.697503232745114, 47.05628693462393], [7.697410237148494, 47.056274712490236], [7.697242560136754, 47.05627612341347], [7.697137924536262, 47.0562382284423], [7.697031992262785, 47.05617973747699], [7.696928820858186, 47.056106821309676], [7.69679932201652, 47.05603859642796], [7.6966673427857755, 47.055982754291136], [7.696504776216521, 47.05594906294082], [7.696424342947766, 47.0558473289252], [7.696338542404249, 47.05578450180675], [7.696233030814759, 47.05562111799617], [7.696179077032417, 47.05551041999882], [7.696185215710761, 47.05541807221387], [7.696100224490385, 47.05525467847367], [7.69593467757976, 47.05501288386922], [7.695592521163639, 47.05453793583271], [7.69596297512066, 47.05436647269817], [7.695050452271449, 47.05313073563912], [7.694960794245109, 47.05300289973293], [7.694868405060118, 47.052856971795535], [7.694788626598726, 47.05271143849724], [7.694725387173406, 47.05256487893636], [7.6946747199206795, 47.052416195522056], [7.694640518784773, 47.05226504681473], [7.694620749678004, 47.05211269663048], [7.694606411868961, 47.05194837999021], [7.694587227642511, 47.0510837104559], [7.694119439916365, 47.0507201072978], [7.693702057740289, 47.05103223511261], [7.693315105613664, 47.05104830418161], [7.692999179372706, 47.051022064930805], [7.693011354621344, 47.05082762794229], [7.692937366758962, 47.0505996320117], [7.692857143582814, 47.050277355092085], [7.69278633357668, 47.05003919681339], [7.692696337410069, 47.049709215015014], [7.692411053511326, 47.049710215384515], [7.692120469507654, 47.04969526911011], [7.691932357482168, 47.04969273402886], [7.691937863451537, 47.050076755874755], [7.690691403782901, 47.04994521013292], [7.690372461356339, 47.050080061417255], [7.690057028335918, 47.05020300393714], [7.689786273871284, 47.05031769737985], [7.689612137890839, 47.05037770567444], [7.689257085378843, 47.050424110535204], [7.688907089294994, 47.050400092825676], [7.6887224605275115, 47.05039441390901], [7.688563364751588, 47.05033506096159], [7.688243882022727, 47.050227339020665], [7.688114013717522, 47.050346355335385], [7.687958834455202, 47.05042502967217], [7.687907679221051, 47.05047327285439], [7.687630648125379, 47.050478639577314], [7.687088242126594, 47.05039714789087], [7.686574379736673, 47.05043217607063], [7.686249677406768, 47.05040510794215], [7.685986969460602, 47.05044857017076], [7.685743329970028, 47.0504975769213], [7.685427767804789, 47.050589625985275], [7.685113123712474, 47.05073291701083], [7.684873617265837, 47.05081417803896], [7.68457412903088, 47.05083617209619], [7.684283484938669, 47.050835119715956], [7.684073460819889, 47.05096053596815], [7.683912897507528, 47.05111280449584], [7.683788041006015, 47.05125412162671], [7.683576539822429, 47.05117991388226], [7.683276295421071, 47.05103321363093], [7.68310029738846, 47.050920204989694], [7.682848154932249, 47.05082219931425], [7.682529474497355, 47.0507128115069], [7.682331950309709, 47.050638057833524], [7.682324712526051, 47.05042319942049], [7.68226700964644, 47.05022114869258], [7.682104947514139, 47.04997022369955], [7.681785874171017, 47.04958902222719], [7.681581150373673, 47.04940211459948], [7.6813048792804235, 47.04916929379485], [7.6812132668189115, 47.04900490461277], [7.681153538030881, 47.048833783023774], [7.681219473006798, 47.04881972910845], [7.681172488215167, 47.048629178767634], [7.681145266934943, 47.04842622764517], [7.681065028181789, 47.04840834308022], [7.681092001952564, 47.048278812102154], [7.680936977134173, 47.04819400081377], [7.680408890375348, 47.04797059570444], [7.6797143574073985, 47.04762885517562], [7.679459585111034, 47.04738234865366], [7.6789594359833035, 47.04687896895425], [7.6786909585997485, 47.046384908531586], [7.678498351910967, 47.04613025507272], [7.678070638492763, 47.04570939443411], [7.6778913436297245, 47.04556473993472], [7.677763030226201, 47.045435189949394], [7.677980014319965, 47.04534358304959], [7.67843966823009, 47.04511914498652], [7.678866093911079, 47.0448778262726], [7.679268751079834, 47.04468974264832], [7.679706022836461, 47.04445075440504], [7.680149802911175, 47.044214314715035], [7.680570821678306, 47.04391813082675], [7.681027835106674, 47.0436182805876], [7.681656751623746, 47.043245997334], [7.6820145628742775, 47.04301295232022], [7.682396704802103, 47.04262978911933], [7.682584068068732, 47.04239738989722], [7.682430973635789, 47.042404361773194], [7.682399763180809, 47.04221911000256], [7.682396603833581, 47.04204485354879], [7.682277426093059, 47.04201546718077], [7.682221593578644, 47.04168452706363], [7.68220498260274, 47.04146573725206], [7.681811306989746, 47.04117947361549], [7.681597376820409, 47.0410738109408], [7.681326430304576, 47.04117178127908], [7.681078460636565, 47.04113027060662], [7.6809113061408905, 47.04104715807183], [7.680677225650479, 47.04110655961679], [7.680446209868049, 47.04117754875567], [7.680288794353402, 47.04119140828449], [7.679895611733852, 47.04126151417032], [7.679603846676495, 47.04139806817246], [7.679272517633056, 47.04122637354255], [7.6790559417361255, 47.04113979168229], [7.678876878614973, 47.0410706075024], [7.678769180903244, 47.04107404377831], [7.6786058647619395, 47.04097450369935], [7.678224398360867, 47.04084806366067], [7.678061484497114, 47.04075583443112], [7.677947461212944, 47.040650585983045], [7.677746155660858, 47.04050880014227], [7.677532313239777, 47.040337939838636], [7.677261669858729, 47.040137808693366], [7.6772718793613715, 47.04009902756159], [7.67718355156529, 47.03999873447731], [7.677178122665553, 47.03990212890562], [7.677258533465673, 47.03976341036193], [7.6774866778737705, 47.03963880513122], [7.677588389648269, 47.03955034272481], [7.677668897762021, 47.03943101649572], [7.677768706141458, 47.039305228362295], [7.67825949361712, 47.039084088871064], [7.678437256111019, 47.03898697667373], [7.678832768165643, 47.038852350206355], [7.678807939965809, 47.03881713188738], [7.679306735283277, 47.0386644059401], [7.679654264537916, 47.03858138281648], [7.680082754656207, 47.038510835723294], [7.679922068409974, 47.0382546760618], [7.679783473751792, 47.038056329844075], [7.679526055437185, 47.03764916094157], [7.6792436047352295, 47.037398574915585], [7.678884761226706, 47.03730316891603], [7.678781969444968, 47.037280887342085], [7.678271692728492, 47.03720415586799], [7.6780313696100535, 47.03715833287722], [7.677640388234304, 47.03699208220873], [7.6772853375750385, 47.03718127487958], [7.677108992106127, 47.03720525309605], [7.676983155486888, 47.037237850965674], [7.676832562987722, 47.0372481021557], [7.676555709888302, 47.03729932574886], [7.676436951880233, 47.03737368176401], [7.6763878726283155, 47.037370149154775], [7.676261463049213, 47.03751742604686], [7.67613921604143, 47.037567583407444], [7.675934244788762, 47.037607989607025], [7.675735119744669, 47.037709243607516], [7.675568543831527, 47.03780119219522], [7.6753639179303965, 47.037890511735256], [7.675292227769342, 47.03793648894142], [7.675173681737345, 47.03798794179082], [7.675041916478994, 47.03808524284096], [7.674919118312444, 47.03820819714412], [7.674685358399896, 47.038327349133134], [7.674514137084512, 47.03835683552458], [7.67415385531029, 47.03843157623593], [7.674117364141436, 47.038264990420124], [7.673884840156342, 47.03806838432493], [7.673714610084205, 47.03798138999553], [7.673563221673724, 47.03786718289164], [7.67316468478004, 47.03766837706956], [7.672421112883449, 47.03730611982605], [7.672329029729187, 47.03731934070195], [7.672192731390197, 47.03735530079724], [7.6720810900195655, 47.03739740829423], [7.6719226000493315, 47.037434564398595], [7.671731002788939, 47.03747705843785], [7.671594903886665, 47.03749850823607], [7.6714443420178835, 47.03755270239697], [7.671221251935279, 47.037602877881966], [7.670968843779634, 47.03768284078028], [7.670729047809211, 47.03781957273936], [7.6705813324494905, 47.03776235559722], [7.670377341630353, 47.03766814667903], [7.670156196949765, 47.03765099674073], [7.669828648955031, 47.03756346685412], [7.669529426783432, 47.03750893629081], [7.669404577500914, 47.03752757236781], [7.66882479225154, 47.0373231056407], [7.668627530738489, 47.03717366889496], [7.668474992569636, 47.036993675860465], [7.668356142229845, 47.03683934151141], [7.6682023511818, 47.03667974282733], [7.667980718251051, 47.03655608843747], [7.66773088671385, 47.03644385056395], [7.667550131400044, 47.03633177154178], [7.667359354998075, 47.03637544346983], [7.667136862884977, 47.03633070271655], [7.666969122527235, 47.036305696229185], [7.666702043304925, 47.036236441701675], [7.666446234665605, 47.03620316243047], [7.666278864546886, 47.03612242078548], [7.66603796104953, 47.03606050683316], [7.665892598270195, 47.036003360582576], [7.66552028053843, 47.035781296678465], [7.6653690535706405, 47.03567792645568], [7.66497522563947, 47.03538012801193], [7.664779395818289, 47.03517886134727], [7.664383582282985, 47.03495177519675], [7.664047406151831, 47.034855493736785], [7.66389343022037, 47.03479502440411], [7.663472526359612, 47.03461658465937], [7.663315218924986, 47.034558243969755], [7.663075332930916, 47.03449484682149], [7.662935453041468, 47.0344509534887], [7.662811013138866, 47.03438663814276], [7.66271690726641, 47.03429895720485], [7.662675200534942, 47.034197744629616], [7.662633914157103, 47.034074223342174], [7.662548954599148, 47.03393962353975], [7.662373550308438, 47.03400242619248], [7.66217144716619, 47.03408969272068], [7.661976618533913, 47.034161014477995], [7.661759744779363, 47.03422736843126], [7.6613889694211705, 47.03421850603631], [7.661083043768201, 47.03419709528097], [7.660820582145681, 47.03419984175907], [7.660668346709078, 47.03417405865224], [7.660554207725182, 47.034140682046555], [7.660362526931776, 47.03404084617988], [7.660228100374467, 47.03398490377716], [7.660069255885175, 47.03392916919253], [7.659760160163948, 47.033830690240094], [7.659532378038663, 47.0337463750115], [7.659196771525971, 47.033518883629576], [7.6590237362501155, 47.03338020419687], [7.658611092153254, 47.03296955645576], [7.657899643228647, 47.03209488048686], [7.657817528143729, 47.031970077023196], [7.657086853577063, 47.032121610461964], [7.657093845054495, 47.03208084057149], [7.657063007605643, 47.0319837158007], [7.657034671275201, 47.03192252203956], [7.656975890897566, 47.031857814792474], [7.656977343486784, 47.031833273093156], [7.656906666999937, 47.03173555704051], [7.656870111287101, 47.031629735551924], [7.656904955341573, 47.03159256489037], [7.656906968115488, 47.0315698663091], [7.656896747330272, 47.03154749686071], [7.656808766359568, 47.03147434400313], [7.656764261040284, 47.03145195806423], [7.656645954413608, 47.03133295129179], [7.656531295616119, 47.031282921060836], [7.656453966778747, 47.03126372767271], [7.656360561284509, 47.03125422529334], [7.656204994839998, 47.03120575646699], [7.65610227154777, 47.031192124597936], [7.656000920087357, 47.03118911345393], [7.655631540184006, 47.031227461764175], [7.6556652974470625, 47.031092951905556], [7.655659548589066, 47.0308771732685], [7.655668471775418, 47.03077340850503], [7.655632431524417, 47.030536725951286], [7.655558808856265, 47.030143888306704], [7.655507028865473, 47.02993163916148], [7.655464152458938, 47.02971212304917], [7.655463864770353, 47.029578600783836], [7.655431136931281, 47.02934408864991], [7.655457181076662, 47.029183162669064], [7.655470534538927, 47.0290135441351], [7.655433103198908, 47.028780524661904], [7.655135622454759, 47.02879985591057], [7.6548119083916575, 47.02878938052336], [7.6545219584637, 47.028744686943185], [7.65375652197284, 47.02852426198819], [7.653519891359672, 47.028433213652335], [7.653134052095084, 47.02817619456222], [7.652906871961268, 47.02804283240565], [7.652529036316793, 47.027875063947455], [7.652436957380157, 47.027870008403006], [7.652391490833581, 47.027852741087365], [7.652170496987648, 47.02763984935888], [7.651919423539, 47.02749439480627], [7.651678029084245, 47.027430849608024], [7.6514823916534835, 47.027404837030645], [7.6512834815408395, 47.02734953314403], [7.651095711039043, 47.027283423560185], [7.65079614320415, 47.0272554064843], [7.65053782551107, 47.02728659941588], [7.65028502542022, 47.02727917467118], [7.650127763693113, 47.02724692762297], [7.649772353344967, 47.02719184508891], [7.64913940564251, 47.02708036448629], [7.647818761392145, 47.02703143182352], [7.647264519563565, 47.02707116866672], [7.645979684473514, 47.02717207333571], [7.645804762981456, 47.027428046093526], [7.645610516117968, 47.02767740593773], [7.645397440908407, 47.02791945925236], [7.645166139732625, 47.028153548128], [7.644651441176918, 47.02859530929474], [7.643313268029117, 47.029684748540824], [7.643618068272737, 47.029802779928815], [7.644198467450565, 47.030038784601125], [7.644107623349632, 47.0302925984679], [7.64407564374887, 47.030337864656225], [7.6440558919304955, 47.030350286035834], [7.64403191433394, 47.03035850531752], [7.644004287559008, 47.030361936768955], [7.643976034085966, 47.030359729370886], [7.643769779146192, 47.0302798877391], [7.643719173266129, 47.03027047900232], [7.643678786185885, 47.03027061386641], [7.643643143042163, 47.03027629917118], [7.643609309319495, 47.03028730634847], [7.643579769289919, 47.030303073307444], [7.643558260322033, 47.03032046307512], [7.643165032182722, 47.03083113713228], [7.643034739304516, 47.03114343428863], [7.6428276070383925, 47.03133226628413], [7.642678533909318, 47.031515157160285], [7.642287336999345, 47.03176733319345], [7.642191435566426, 47.031883494668136], [7.6418868314884545, 47.03196971873415], [7.641695960634731, 47.03204195302868], [7.64146946421797, 47.03207621823259], [7.641247117798342, 47.032797411483884], [7.640946729513688, 47.03330017831414], [7.640881505408032, 47.03343808833145], [7.640781124796135, 47.033543499574726], [7.640700336754519, 47.0336527646747], [7.640165289382226, 47.03389218212117], [7.639942560718161, 47.034025265955805], [7.639830419881468, 47.03407945020572], [7.6394234967864305, 47.034293109646576], [7.638675088189642, 47.034474384216196], [7.638576086091802, 47.034556302892256], [7.638599865084243, 47.03467789401357], [7.639341964633032, 47.03546284509342], [7.64026247081065, 47.03537857419267], [7.64048164641757, 47.035528533609074], [7.640680190340239, 47.03567072099793], [7.6409638603147485, 47.035977663716906], [7.640824630450774, 47.03612452538742], [7.640747554364088, 47.03621882847383], [7.640457409816136, 47.036533971561745], [7.640274097087342, 47.03653539872907], [7.6400295581661055, 47.03668978663873], [7.6402432970184275, 47.036848122159945], [7.640453204196497, 47.03702641497957], [7.64061387842628, 47.03724669348351], [7.640643454069174, 47.0373792568316], [7.640801764693589, 47.03755132524332], [7.6411135896115265, 47.037714577907664], [7.641876210395873, 47.038144709985204], [7.64239380500869, 47.03829556011651], [7.643293937369631, 47.038586052176626], [7.643031083853555, 47.039059087215705], [7.643149738068562, 47.039393149183944], [7.643221885416271, 47.03954270864944], [7.643219221258821, 47.03967267382603], [7.643363962361973, 47.03991247752149], [7.644288453574859, 47.04015403028653], [7.64516935967364, 47.04054599861343], [7.6446792872721225, 47.04070459408435], [7.644067490006566, 47.040995719865286], [7.643397252887576, 47.04121150432327], [7.642907862226303, 47.041400376232005], [7.642229541374761, 47.04163474393128], [7.641376901226727, 47.041937831562095], [7.640849335922916, 47.04215417972364], [7.640833248022732, 47.04259020592064], [7.641022076832965, 47.04295166389645], [7.641354425370936, 47.043545402280834], [7.64146859382595, 47.043839456449554], [7.641630478441464, 47.044189564099156], [7.641755497556036, 47.04444308475794], [7.6423580470701085, 47.04513108510247], [7.642041143479351, 47.04574356708498], [7.641947379085179, 47.045854101448796], [7.641678836363295, 47.04609876269153], [7.641346175046098, 47.04632865824178], [7.641776943404158, 47.0468286092386], [7.642360946517296, 47.04752227269204], [7.643967925542482, 47.04859393362465], [7.643798118612919, 47.04873145501865], [7.643890562742508, 47.04899937769417], [7.64364229226417, 47.049299379422074], [7.6435626961289, 47.049402548892736], [7.643547449401068, 47.049431836618794], [7.643097145503652, 47.04997617048247], [7.643177331510141, 47.05015960812451], [7.643665082578671, 47.05056349092345], [7.644146351277627, 47.05068428251032], [7.644354898783656, 47.05085428556052], [7.644210344765435, 47.05109957717196], [7.64415094694505, 47.05126053287215], [7.644141815057282, 47.05137128699782], [7.644061593506594, 47.05140054695901], [7.644203031490232, 47.05157613864929], [7.644354706168365, 47.051750839417814], [7.644546917853562, 47.05192222038728], [7.643881959190383, 47.05213383312334], [7.643577360643675, 47.05225393928656], [7.643369251687837, 47.052400497487405], [7.642978679913196, 47.05268641569389], [7.6424370012143426, 47.053090471464586], [7.642125132362076, 47.05330187770525], [7.641864661239651, 47.053493924467205], [7.641626846636828, 47.053632292804885], [7.641425338196929, 47.053818360139935], [7.641136097432496, 47.05395641194583], [7.64295229336549, 47.05578464015451], [7.643246839742666, 47.05602647925043], [7.643513246305641, 47.05628846259737], [7.643691966855247, 47.056473532278304], [7.644054225714681, 47.05667731697302], [7.644214105308604, 47.0571320372802], [7.644260405746459, 47.057750903461944], [7.644169024354478, 47.058299997508556], [7.644156794109979, 47.05876144515031], [7.6442555636284135, 47.058929611008196], [7.644549357110028, 47.05927105145513], [7.644594438997977, 47.0593363913174], [7.644696588327886, 47.059499586063886], [7.644868627160658, 47.05980230272028], [7.644998201248029, 47.060124982094855], [7.6452387443819125, 47.06042796153489], [7.645534620801468, 47.060650327092446], [7.6455483864970395, 47.060714625838784], [7.645797474516614, 47.06083869643758], [7.646154561813044, 47.061094502331166], [7.646458824436707, 47.06126748596535], [7.6467630580760195, 47.061493737308076], [7.646923163994923, 47.06171180201634], [7.64724389162216, 47.06229353230253], [7.647391697742634, 47.062614314895804], [7.647615887836156, 47.062882652917764], [7.647934293072601, 47.063381298787455], [7.648101167670287, 47.06371909104631], [7.648731540129554, 47.064244422928354], [7.649582805566358, 47.0646022552781], [7.649490948977403, 47.06462962412296], [7.650183654827794, 47.06558126798085], [7.650413327532384, 47.065750860954715], [7.650807823832513, 47.06601175560036], [7.6511792800263985, 47.066171048010744], [7.651346810612473, 47.06627102468283], [7.651739055810821, 47.066619460189855], [7.65191069064875, 47.066801067165734], [7.652278957322949, 47.06691079050208], [7.6524827004011495, 47.06701222709064], [7.652883614220554, 47.06724338320202], [7.653249852558452, 47.067371465640434], [7.6534524273499445, 47.06749593882733], [7.653881060755179, 47.06790827003846], [7.65409440444973, 47.06809439147641], [7.654240717073184, 47.068333834553115], [7.6547451886885165, 47.068928269286054], [7.654406227459554, 47.06917457502261], [7.65405339138401, 47.06935310037232], [7.653803263537331, 47.069247120465704], [7.652379484119519, 47.06873493009537], [7.651198903915344, 47.06837015178572], [7.650638063495893, 47.06820617099757], [7.649123617017955, 47.069745827574486], [7.648358691610357, 47.07018943200638], [7.648160397621752, 47.07025103951444], [7.647857989407768, 47.070461216985564], [7.64774611996428, 47.0705147422568], [7.647498776119069, 47.070425340008], [7.647230462100408, 47.07105684943153], [7.647684552953896, 47.07108985701617], [7.648010101416631, 47.07110753476415], [7.647825395507931, 47.07145853857045], [7.647694328360206, 47.07167501440072], [7.647338332151739, 47.071737598498736], [7.647158047558159, 47.07181087385156], [7.646817400422972, 47.07204356811686], [7.6466981373972445, 47.0721371065247], [7.646452950330819, 47.07234158339537], [7.646245686980552, 47.07252787389874], [7.646031054439779, 47.07268479948213], [7.645762813176023, 47.07281204801282], [7.64524031165109, 47.072463548393856], [7.644635899128425, 47.07201536617878], [7.64476725566852, 47.071809272845414], [7.644613168565767, 47.07164548862287], [7.644266385727388, 47.07125326087254], [7.644265831720053, 47.07122886743724], [7.644302598955368, 47.071148503484444], [7.643518396104162, 47.071005643761474], [7.643651441825013, 47.07048573079392], [7.6437245838852395, 47.07016655717586], [7.64372182076983, 47.06999443287463], [7.643486167262142, 47.070307856497195], [7.643056621015639, 47.07080824106717], [7.642702006276768, 47.070981751732276], [7.642325505729132, 47.07112679502891], [7.641993232614634, 47.071381560436215], [7.642584740781806, 47.07205202942736], [7.642093392473828, 47.07254075348343], [7.641916765341211, 47.072758591841286], [7.641918926514257, 47.07306230406867], [7.642021144989099, 47.07323927070565], [7.642358885307493, 47.073327139420975], [7.642507367067208, 47.07344031239697], [7.642880027500985, 47.07396905233837], [7.643439670201204, 47.07418257144956], [7.643790768911124, 47.0743426965088], [7.644349097447621, 47.074441194818355], [7.6446793846629975, 47.074419223351974], [7.644586780963516, 47.074673090199894], [7.644525493175927, 47.074932154170305], [7.644408882103456, 47.07511964557671], [7.644133244107993, 47.07537975758009], [7.64381195446478, 47.07575743286463], [7.643384687405101, 47.07592216051144], [7.642529709579023, 47.076178186267555], [7.643549757932235, 47.078646858553284], [7.644815200823563, 47.07973898630851], [7.645131140864764, 47.079720080797586], [7.645912210464826, 47.08023124842707], [7.646094561381786, 47.08029985993674], [7.6462796642703585, 47.08032742188476], [7.646381811320251, 47.08060432991248], [7.64645789251304, 47.08083862945455], [7.646480578264778, 47.080844750111076], [7.646576910648092, 47.0809594419559], [7.646795047462185, 47.081125336745956], [7.646894365765296, 47.081279941400076], [7.646871292810803, 47.08154475874854], [7.646557739672426, 47.08183629381381], [7.646371800605172, 47.08197180534384], [7.646259774212119, 47.08194364516214], [7.645704419691828, 47.08227045564489], [7.645042466166385, 47.08242028082756], [7.644693288999906, 47.082563905501445], [7.644692001705099, 47.08270268011582], [7.644477346791711, 47.082686602223774], [7.644192119484675, 47.08272834366344], [7.64424595691166, 47.0827743918756], [7.644521237043824, 47.08298259286739], [7.644778165750589, 47.08320882517597], [7.6451375784752775, 47.08341206169222], [7.6451624073775974, 47.0834376618237], [7.645166814901762, 47.083467517152165], [7.645148208015299, 47.08349508399119], [7.6451733655765555, 47.0835308119025], [7.645551398227608, 47.08386283185623], [7.646286927399131, 47.08445027573523], [7.646680783644235, 47.08423604350034], [7.647275016573868, 47.084420068540624], [7.64868134521277, 47.08472649282561], [7.649036788930692, 47.08480743824733], [7.649436422908212, 47.08491712161396], [7.649693423627094, 47.08512047752118], [7.649922614862552, 47.08532088861167], [7.650118274124582, 47.0851813975131], [7.650538867331849, 47.085505470302394], [7.650841799433206, 47.08578300233355], [7.651102038485228, 47.08593684135784], [7.651581981614906, 47.08612704604696], [7.651649379792412, 47.08620623941858], [7.6516849526172415, 47.086379696010795], [7.6517596476828365, 47.086502240595046], [7.651318855500396, 47.086629457769746], [7.651342543544246, 47.08672851113675], [7.651383665666855, 47.08679349629211], [7.651496290780368, 47.08700612910264], [7.651528192400095, 47.087200173789455], [7.651663061878483, 47.087449222086875], [7.651706258595729, 47.087668629006124], [7.651715592395142, 47.08766773033417], [7.6516678632534, 47.08778363719942], [7.651628113257115, 47.08785265625048], [7.651852510975919, 47.08808129997868], [7.651978653452478, 47.08818143286188], [7.652487425777346, 47.08857550908837], [7.65274063578604, 47.08874935037795], [7.652937273840948, 47.088874705860455], [7.653169282585255, 47.08905504399122], [7.653550086177465, 47.08916195954195], [7.6544223817049675, 47.08958971390205], [7.6546646912461656, 47.089784415065395], [7.654873463209324, 47.089973907389606], [7.654961977199335, 47.09016629648838], [7.654936292236906, 47.09049959003261], [7.654909577176709, 47.09070449166261], [7.654938136916515, 47.090837202788435], [7.655076801662471, 47.090848555100244], [7.6551748805261735, 47.0908743125802], [7.655235795483677, 47.090874701874036], [7.655357068026971, 47.09086788971046], [7.655518607838546, 47.0908754296036], [7.655601796769913, 47.09090259982344], [7.655704562942282, 47.09091815663961], [7.655794359196315, 47.090921405645716], [7.656028621676987, 47.090888600503135], [7.656273598349945, 47.090929128391714], [7.656430078332681, 47.09097175702273], [7.656670567235051, 47.09101292232238], [7.656799428608148, 47.091048955127185], [7.656935551414587, 47.09106654357264], [7.6574150097980045, 47.091072767900904], [7.657631866492484, 47.09106729223566], [7.657853657465906, 47.09107687314142], [7.658032433606836, 47.09107354671894], [7.65826229439051, 47.09107894693019], [7.658502803184445, 47.09109875424232], [7.658651730556628, 47.09110718644572], [7.658777818385019, 47.09113449729659], [7.658997887388604, 47.09122836197797], [7.659259140002656, 47.091270444620946], [7.659444455745338, 47.09129106646553], [7.65958391863163, 47.09132950439793], [7.660120837328425, 47.09146544071357], [7.660263134674278, 47.09147873161017], [7.66058746193203, 47.09152997276598], [7.6607218812321936, 47.091526763504426], [7.660856202860121, 47.09149352025952], [7.6610919593480435, 47.09145908263255], [7.661191875663598, 47.091434594473974], [7.661333705268567, 47.09141118571369], [7.6614557345046075, 47.09138344341745], [7.661542366882142, 47.091373012629134], [7.661593337377892, 47.091395320536094], [7.6618539278433175, 47.09156592752958], [7.662079771352006, 47.0916087019212], [7.662261487359072, 47.091678519251225], [7.662409247019327, 47.09174133217506], [7.662675561575031, 47.091811668382896], [7.662817473699904, 47.09183326825271], [7.662928372619572, 47.09184309111171], [7.663048687927353, 47.09187488791021], [7.663226818218706, 47.09190240739121], [7.663596379564292, 47.09189704569765], [7.66375018762047, 47.09191286446181], [7.663890823987631, 47.09190639243909], [7.664154651234144, 47.09193260956144], [7.664349606105867, 47.091923566147834], [7.664390262943337, 47.091942115037064], [7.664456812892118, 47.09198561915477], [7.664532441956361, 47.092005062019986], [7.664839507114925, 47.092030644409014], [7.665006394179827, 47.09205266920271], [7.6653323678259575, 47.09200827735768], [7.665582891591094, 47.09196840456415], [7.665727685624012, 47.091926616959014], [7.66607553930488, 47.09187719635998], [7.6662165841930685, 47.09183661192064], [7.666587399940951, 47.09183223617596], [7.666864473173758, 47.09180765354393], [7.667033071126399, 47.09177966934653], [7.667226954594217, 47.09177915894653], [7.66735666929563, 47.09175663038941], [7.667581215695068, 47.091654326166754], [7.667641462651767, 47.091649249766775], [7.667762443293074, 47.09162026139641], [7.667850981321879, 47.09159050997507], [7.667965005524471, 47.091542439286236], [7.668035820591627, 47.091498403047325], [7.668093993945565, 47.09144564866761], [7.66812334930695, 47.09140818010471], [7.6682058238668, 47.091278650517914], [7.668265533791417, 47.09127431283761], [7.668312232986045, 47.09126112315993], [7.668549563204336, 47.09122642438829], [7.668692085749273, 47.091190412027764], [7.668817924262848, 47.09113668580401], [7.669061683111275, 47.09107183076644], [7.669268229747512, 47.09105492102378], [7.669483761624087, 47.09098961817537], [7.669592091348508, 47.09093495480694], [7.6696267188414575, 47.09091096777733], [7.669690712144821, 47.090907421451504], [7.669979021292403, 47.09090606068333], [7.670344735864966, 47.090941917949564], [7.670580680453379, 47.09093471522733], [7.670774685110122, 47.090944659856014], [7.670927185988004, 47.09089886521282], [7.671320646983527, 47.09070548065534], [7.671562304498829, 47.09060360137795], [7.671754920642348, 47.0904089299021], [7.672131176672249, 47.09021602700041], [7.672378684414708, 47.09002773760727], [7.672570700288437, 47.08986275824095], [7.6726338493851385, 47.08978358234125], [7.6726628229006995, 47.08969860230269], [7.672936255679908, 47.08960041524935], [7.673159467650057, 47.08955303463106], [7.673343626070637, 47.08948367750822], [7.673412514125058, 47.08943127648466], [7.673677802563595, 47.08940780761565], [7.673801107600528, 47.08936410149569], [7.673859912300291, 47.08936414342697], [7.67424270260329, 47.089304291862284], [7.674417851657134, 47.08928026801475], [7.674554091606156, 47.08926719855602], [7.6745831168087335, 47.08926081570792], [7.674706333343006, 47.0891492057809], [7.67476182875641, 47.089112482672114], [7.674791648233898, 47.089083062045376], [7.6748008519813045, 47.089022498766354], [7.674816080686562, 47.08901143981771], [7.675161933227804, 47.08900131259039], [7.675748962681085, 47.08901079263053], [7.675799370861483, 47.08900628150256], [7.6758805937363785, 47.08902791829009], [7.676196855521462, 47.089042171230915], [7.6763533073984735, 47.089034338242016], [7.6766672780875185, 47.088992124319724], [7.677087999453751, 47.08891315133927], [7.677228415360893, 47.088873993495724], [7.677463802720277, 47.08887403674727], [7.677583168570914, 47.08883393283348], [7.677694338870766, 47.088822656492994], [7.677769783653777, 47.08882132158104], [7.677906893101582, 47.08874071200262], [7.678027017749131, 47.08868485566496], [7.678063977697004, 47.08865938609146], [7.678128119418724, 47.0885923212495], [7.678192317583654, 47.08856747887147], [7.67823344319919, 47.08854291819009], [7.678279985584804, 47.08850449387725], [7.678342047092603, 47.088428789199696], [7.678387423981011, 47.08841256682388], [7.678553140353332, 47.08839487046067], [7.678604534882816, 47.08837843764464], [7.678679395942603, 47.08834085389725], [7.678784384337317, 47.08832278915775], [7.6788677643807945, 47.08828483666151], [7.678926872273095, 47.088264600561594], [7.6790488806070245, 47.08824467398597], [7.679185546541835, 47.08820992913137], [7.679302068145945, 47.088167625412595], [7.6794193673791495, 47.08811961714342], [7.679481731600769, 47.08808844518761], [7.679732220072166, 47.08789439470657], [7.679821511688236, 47.087829974804826], [7.679839792056268, 47.08778905439781], [7.679872211161881, 47.08764709101767], [7.679942453844448, 47.08756983001057], [7.680000628952033, 47.087526874136465], [7.680043804270515, 47.08746643645234], [7.6800715536651705, 47.08740207363588], [7.680165633678116, 47.087342644366245], [7.680350576319222, 47.087178997973304], [7.680559485333941, 47.08706489015565], [7.680600566139062, 47.08701622228097], [7.680713521995041, 47.08696081897005], [7.680788261964147, 47.08691764781921], [7.681213018466575, 47.08656455649689], [7.681302131545113, 47.08647021851241], [7.681515899359206, 47.08626954912849], [7.681675761225585, 47.08611204298131], [7.681817493290703, 47.08594112741213], [7.681826650716135, 47.08589560251265], [7.68187383216832, 47.085839410307834], [7.6819263843149415, 47.08581764847237], [7.682073003179432, 47.08581888621549], [7.682162838471009, 47.08580899988763], [7.682308821565381, 47.08576881644973], [7.682420709583371, 47.085748935148395], [7.682516637007513, 47.085737965092434], [7.682533592705801, 47.08570757108327], [7.6825419324705155, 47.08567644878803], [7.682575900216585, 47.08559612385181], [7.682670851168184, 47.0852279024374], [7.682688525970389, 47.08520509878241], [7.682741520604064, 47.08518528754551], [7.682757467342758, 47.085173461358195], [7.682779047555304, 47.085134908104344], [7.68277039164643, 47.08504993307888], [7.682723185810091, 47.084929203827514], [7.682718170450708, 47.08488617328616], [7.682715339572926, 47.08472381106951], [7.682727437167631, 47.08467638183483], [7.68275861006698, 47.08460720742067], [7.682793207957466, 47.08451218319938], [7.682783905103864, 47.08433693586479], [7.682739273573033, 47.08424362657935], [7.682733366695688, 47.084221718397444], [7.682722564638612, 47.08397723099077], [7.682697497356685, 47.083830620944575], [7.682675185536852, 47.083652720832525], [7.682689352834309, 47.08353909319878], [7.682721628190159, 47.08345474185485], [7.6827484737964635, 47.08340717350144], [7.682759930318817, 47.083346199405625], [7.682730327887775, 47.08328252371079], [7.68272667532581, 47.08320314172001], [7.682699705951571, 47.08310737539723], [7.6827149406722945, 47.082973659667594], [7.682678893008659, 47.08287963055391], [7.68263094076299, 47.08279996499643], [7.682700042158718, 47.08260700217455], [7.682707454622302, 47.082571852307815], [7.682709804104993, 47.08252087262364], [7.682693885323657, 47.08247481633768], [7.682667871699366, 47.08243580603234], [7.682597458053224, 47.08236857371031], [7.682583155017964, 47.08233615915858], [7.682585661720632, 47.08229656692299], [7.682607713992935, 47.082266495018615], [7.682685589072063, 47.08222526823953], [7.682817450531604, 47.08217458090596], [7.682847849929895, 47.08215578899493], [7.682872647166128, 47.082129974821214], [7.682890602730429, 47.08209673643214], [7.682905291103372, 47.082045793837906], [7.682910142423989, 47.082003498163516], [7.6829359562668, 47.08193193324604], [7.68291925358774, 47.08185538551985], [7.682933579701778, 47.081823297020335], [7.682964738604505, 47.08179203638357], [7.683071952815005, 47.08173951232623], [7.6831049008141585, 47.08170500061326], [7.683110344088601, 47.08168578476622], [7.68310752805292, 47.081500818191984], [7.683114932857426, 47.081466981516854], [7.683132891433345, 47.08144031816793], [7.683158460021499, 47.08142206708371], [7.683259337517691, 47.081374926210195], [7.683308054213369, 47.08133609946082], [7.683325081051651, 47.08131594152824], [7.683345493931155, 47.081287510008025], [7.683418148187017, 47.0811065296209], [7.6834554913287425, 47.08105701395722], [7.683510679624502, 47.08101095035565], [7.683575803207357, 47.08096923720788], [7.683732317220682, 47.08089960706794], [7.683760274919134, 47.08087981266059], [7.683805997276928, 47.08083424583976], [7.6840380848085434, 47.08071042192515], [7.684083044735338, 47.08066523435067], [7.684157244513947, 47.08062733352965], [7.684239249378097, 47.08057139901834], [7.684278988790685, 47.08055662577588], [7.684319116826839, 47.08055492104018], [7.684365326002513, 47.08056121851529], [7.684467961542766, 47.08059963323721], [7.684489293874438, 47.08060256507688], [7.684696845716091, 47.08061375259806], [7.6847438681839515, 47.08061943597153], [7.684897005414713, 47.08066694430966], [7.685023320461126, 47.08069740113703], [7.685107868401786, 47.08070520796553], [7.6851776583190325, 47.08070513059557], [7.685352026319616, 47.08068737021402], [7.685396757729871, 47.08068731944625], [7.685436355023107, 47.08069331525798], [7.685822457855857, 47.080800185226714], [7.685928607872874, 47.080815087084076], [7.686052959677799, 47.08080496195455], [7.686066904611606, 47.08081069773748], [7.686097642304184, 47.08084007238087], [7.686149867376256, 47.080874465541264], [7.686175990873676, 47.08089691505077], [7.686267113029828, 47.080993812267415], [7.68640011578645, 47.08110611857274], [7.686429654683449, 47.08115236186194], [7.6866230484845355, 47.081262127189206], [7.6869189632081, 47.08135315132459], [7.687121546687965, 47.081393876965585], [7.6877245285878555, 47.08163507215261], [7.687984227587836, 47.0817504294316], [7.688041278732878, 47.0817716511487], [7.688241946043523, 47.08189553723776], [7.688388958684416, 47.08200068594495], [7.688576762212211, 47.082149992638975], [7.688654419614269, 47.08219038287647], [7.68881204284576, 47.082243714022304], [7.688952618349122, 47.08226985406122], [7.689258601019495, 47.08227878707371], [7.689499185547169, 47.08230378271536], [7.690098608582998, 47.08235381266136], [7.690296136317555, 47.08234848881673], [7.690625116124359, 47.08231054944305], [7.690991144622042, 47.08221217235916], [7.691499832657125, 47.08220243206786], [7.691779799629345, 47.08227389483534], [7.691951654667642, 47.08234808638274], [7.692180370210499, 47.08242476152535], [7.6922658889819395, 47.08246720113855], [7.692481042882304, 47.08255798284449], [7.692883669993017, 47.082519415260464], [7.693283896454703, 47.08242727761843], [7.693522572502736, 47.082274186262524], [7.693714981666212, 47.08215884991082], [7.693910996280234, 47.08204865051611], [7.693960505056536, 47.0820533351388], [7.693991021818796, 47.081841129485646], [7.6939716722312514, 47.08180672157064], [7.693972873954119, 47.08149972881228], [7.693992593813876, 47.08138480105295], [7.694032757538777, 47.0812741186092], [7.694251998966258, 47.080796151322104], [7.694288294035758, 47.0806834715254], [7.694334553989766, 47.080459366869114], [7.6943238052259595, 47.08035335789131], [7.694291831608266, 47.08024493144066], [7.694231008302663, 47.080145006307674], [7.693994046295576, 47.07984134881426], [7.693916623587911, 47.079700686058736], [7.693861919664157, 47.07955811989536], [7.693814032577337, 47.07938967801066], [7.693776674392609, 47.079239526417865], [7.693736120761837, 47.078993117411294], [7.69370112511844, 47.07889953905831], [7.693637670836366, 47.07881904844119], [7.693554198108276, 47.07873770261113], [7.693467282098201, 47.078663254478265], [7.693363076735509, 47.07859699396318], [7.6928469052717885, 47.07833654187921], [7.692804478288003, 47.07830834624485], [7.692295627828774, 47.07808856896036], [7.69244587655138, 47.077527264468195], [7.6924471930837095, 47.07755511010976], [7.69261529683409, 47.07696669102336], [7.692627371388768, 47.07685808568937], [7.692588174638731, 47.07668839137564], [7.6925453441492175, 47.07658562783964], [7.692423112598948, 47.07649864549988], [7.692509117218154, 47.07650101966466], [7.692495592752129, 47.076447619132665], [7.69248570112652, 47.076444141868386], [7.692398119541601, 47.07618837414193], [7.692660080375333, 47.07612270920194], [7.693227233543952, 47.07577581645221], [7.693710069180099, 47.07542802865165], [7.694031973493385, 47.075093610714966], [7.694511408687901, 47.0747557039966], [7.694704397210901, 47.07461882157895], [7.695035440416112, 47.07436447989566], [7.695517752554827, 47.074221059737084], [7.696140420285651, 47.074081407506675], [7.696956002673335, 47.07374564106679], [7.697197067045282, 47.0736532339613], [7.697413509362117, 47.073607250908694], [7.698619850041746, 47.07352497345379], [7.698820575574633, 47.073469174010576], [7.698944729227079, 47.07345206406204], [7.699602154331441, 47.07306352177053], [7.699808111117621, 47.07296309355442], [7.699747828024518, 47.07295858873976], [7.699691414532758, 47.07293485276976], [7.6996486590007756, 47.07287954033859], [7.699658912696838, 47.072775957494876], [7.699822697281525, 47.07278107391407], [7.699931138757414, 47.072627850161695], [7.700084388227373, 47.072462021953214], [7.7002081758017455, 47.072370217009556], [7.700320130722212, 47.072271107858874], [7.7004442367446195, 47.072198893158344], [7.700637364950894, 47.072114549334195], [7.700830483931731, 47.07203667172204], [7.701118885905881, 47.072174978835235], [7.701420620359291, 47.0723470937681], [7.701801112876314, 47.0725052383748], [7.701987529957815, 47.07257249043934], [7.702064467168022, 47.07260916674668], [7.702336076317459, 47.07276924020739], [7.702429999642182, 47.07280620119174], [7.702485810190349, 47.07282493573701], [7.7026161134049245, 47.07285692883238], [7.70269820152359, 47.07285917811339], [7.702761047861529, 47.072870880306574], [7.7029370287046195, 47.072844893915665], [7.703160246108576, 47.072764864083716], [7.703389540860855, 47.07270525659408], [7.7037985592338, 47.072567417843366], [7.7038621032294285, 47.07252044310501], [7.704057481215804, 47.07235965530432], [7.704188275068358, 47.07230176738034], [7.704444086977199, 47.07221094754391], [7.704707192336131, 47.07212284495081], [7.705010374185591, 47.072029557670774], [7.7055113961371, 47.071959818660204], [7.705706947130286, 47.07191458772043], [7.706031823861229, 47.07179230141482], [7.706276508356703, 47.07171792862993], [7.7071388943170875, 47.07137054623566], [7.707323818417655, 47.07130449593773], [7.707594333922564, 47.07115729898837], [7.707945588766433, 47.070983089233835], [7.708268511901956, 47.070846175239254], [7.708957438660397, 47.07048230210475], [7.709355078728736, 47.070229461715485], [7.709411438809591, 47.06996012573191], [7.709482008168982, 47.06989014968996], [7.709416064398148, 47.069589924654835], [7.709369144448156, 47.069441149268734], [7.709240535265106, 47.06914083747781], [7.70914494239337, 47.0689785575521], [7.709054430755432, 47.06862751490483], [7.709021910692432, 47.06838105526271], [7.708781960176576, 47.068419342399395], [7.708584737135191, 47.068493060135005], [7.708457184165649, 47.06821298387467], [7.708568230997553, 47.067937871482364], [7.708422382428208, 47.06789663980184], [7.70828771051814, 47.0678449197946], [7.708328820839499, 47.067694651644565], [7.708266147382101, 47.06743299824348], [7.708217762779347, 47.06730621822148], [7.70836906530854, 47.06712039325452], [7.7078559821436565, 47.066898840708916], [7.7080314362804, 47.06671703545309], [7.708223968795189, 47.06650724339314]]], [[[7.723847811997137, 47.081980792306965], [7.7237647807872865, 47.081912833890264], [7.723732451012633, 47.081776027978435], [7.723724952803036, 47.08162607291091], [7.723754776587902, 47.08147672714581], [7.723713116972287, 47.08127162686866], [7.723300513642613, 47.08115070565214], [7.723135769177261, 47.081033972052566], [7.722943778787213, 47.08091686477188], [7.722623959446326, 47.08084064886812], [7.722480866078046, 47.08081135461503], [7.722323766124258, 47.080747904672116], [7.722118502634106, 47.0806329058226], [7.721978864691972, 47.08054454126933], [7.72185118378216, 47.08035122068159], [7.721744739801434, 47.080217196603506], [7.721635615636095, 47.08006421754632], [7.7215244702359405, 47.07988733481492], [7.721365064295628, 47.079507293468126], [7.72126399277245, 47.07935268426018], [7.721137975807274, 47.079191821663315], [7.721046928635408, 47.079042692743656], [7.720947620795407, 47.07883489192614], [7.720833419144636, 47.078679379218606], [7.720619842418115, 47.07849349140977], [7.720413156640683, 47.078295533517796], [7.720196801808833, 47.078134270869754], [7.720145368545321, 47.078103786799], [7.719066435898974, 47.07790433904212], [7.718900859026371, 47.07786934701593], [7.718729268690298, 47.07781988764493], [7.718498844336865, 47.07776478734762], [7.718213037990519, 47.07770436162361], [7.717801009961981, 47.077597927102126], [7.717596089122588, 47.07753950799352], [7.717347228611577, 47.077610354171476], [7.717180628120542, 47.077679749480104], [7.717040314194617, 47.07775525133909], [7.7169101450473665, 47.07781420451698], [7.716736336159525, 47.07787259714061], [7.716467606326584, 47.07789328659474], [7.716258477901519, 47.07786929768819], [7.716016220859114, 47.077822378893146], [7.715778133609424, 47.07775666808039], [7.715554863684531, 47.07770956759954], [7.715346996983201, 47.07765676307056], [7.7150875988745105, 47.07761768229041], [7.714832330833507, 47.07753916635352], [7.714527215692471, 47.07746129080793], [7.714463083142161, 47.0775187511363], [7.714067496792673, 47.07744854800241], [7.713723509816964, 47.077408515108026], [7.713516803470045, 47.077370852375736], [7.713130392694686, 47.077225056984766], [7.71269061609062, 47.07713576782669], [7.712215923862882, 47.07707016280436], [7.711902232424613, 47.07701343882095], [7.711565941059761, 47.076960779036206], [7.711258082858345, 47.07701550527117], [7.710929292814153, 47.07704265560372], [7.710778997944556, 47.07718487788631], [7.710673765470111, 47.07734369747848], [7.710592449898493, 47.07744367022356], [7.710308803250176, 47.07787942438256], [7.7101136017777145, 47.07812814448311], [7.7100132444469125, 47.07830648098091], [7.709919615838876, 47.07845885124211], [7.709735681091949, 47.07869944960294], [7.709557481362394, 47.07912993618501], [7.709580358973572, 47.07932964262689], [7.709615881128123, 47.07955618702277], [7.709612594580141, 47.07960429084243], [7.709652258050321, 47.07976150155728], [7.709717420125778, 47.07991979468256], [7.709866540414021, 47.08010151094894], [7.70989637944753, 47.0802008529795], [7.710039722782671, 47.08050827821133], [7.710346970657491, 47.08085747633794], [7.710342617403713, 47.08103574882847], [7.710392847939118, 47.081120587929135], [7.710504077931352, 47.08133134748635], [7.7108551072942175, 47.08169668553199], [7.71093683712719, 47.08183342275879], [7.710973027665177, 47.08194600831281], [7.710948121226576, 47.082119139698165], [7.710869661016777, 47.08234735667563], [7.7108394756809995, 47.08252874868118], [7.710796273626888, 47.08267772659098], [7.710788236414053, 47.08288751759478], [7.710742166906396, 47.08309448374224], [7.71075423073001, 47.08334969672799], [7.710702379239854, 47.083504532712176], [7.710653789729248, 47.08358317366687], [7.710622755479356, 47.08366734086982], [7.710547762041515, 47.08380321600529], [7.710456001449866, 47.0839176598023], [7.710434898295026, 47.08401009689729], [7.710425702756252, 47.08416825019658], [7.710389239580909, 47.08429614591534], [7.7104266359160105, 47.084597614293635], [7.710606588861726, 47.085433038014166], [7.710686303918084, 47.08606061748432], [7.710807751821076, 47.08674735747664], [7.711059797479758, 47.08699324174944], [7.7114248075831675, 47.08720929132965], [7.711881443088251, 47.08754735498284], [7.7122997283553065, 47.088088677090205], [7.712462651397565, 47.088422065914344], [7.712939264527596, 47.0891358520497], [7.713124682334129, 47.089390453692594], [7.713395458777128, 47.089632348406454], [7.713651311088121, 47.08979868441125], [7.713754870434466, 47.08987108048093], [7.713885030632858, 47.089953109447464], [7.713959729255781, 47.09002704055683], [7.714207296811432, 47.090138624622135], [7.714470956206925, 47.09018279758627], [7.714709066005416, 47.090283501281526], [7.7148990956779855, 47.090369586235134], [7.715153740291109, 47.090445522263835], [7.715097773755027, 47.090575004320286], [7.7153996384257715, 47.090679655017496], [7.7156828404654405, 47.09073548043269], [7.715995469379058, 47.09084556389307], [7.716213204034927, 47.09089409755342], [7.716509370743362, 47.091031977862635], [7.716784498556587, 47.09122958076793], [7.71706312474315, 47.0913876777512], [7.717313854845092, 47.09131650760195], [7.717556399329889, 47.091353385639344], [7.717701358166165, 47.09140722032765], [7.717838317051613, 47.091444748402985], [7.717942961343104, 47.091414911088755], [7.718214381011615, 47.09143742466518], [7.7184108238337075, 47.09136458327617], [7.7186273971903026, 47.091222259954804], [7.718789791286601, 47.09101784078324], [7.718987123802206, 47.09087354971774], [7.719135216731321, 47.09053374533532], [7.719155398775133, 47.09036820650385], [7.719411193730543, 47.09039121074419], [7.719519171058499, 47.09021358449054], [7.7195887417441496, 47.09002824345528], [7.719577686536161, 47.0898886237761], [7.71962275706927, 47.08978071782925], [7.719552402239842, 47.089690112228276], [7.719564475147604, 47.089608642673326], [7.719666470011887, 47.08942584912017], [7.719623596645311, 47.08933174066157], [7.71966664578977, 47.089126990973256], [7.719648293184892, 47.08897708970065], [7.719655289123502, 47.088831533867534], [7.719645619848592, 47.08870261444557], [7.719667366567801, 47.08845140344195], [7.7197315423403525, 47.088224600272], [7.719786877587195, 47.087982131241276], [7.719789145418909, 47.087929783840174], [7.720397837370649, 47.088012648974306], [7.720478404583501, 47.088096932874855], [7.720691366425148, 47.08813312948643], [7.720730298729281, 47.08795041813535], [7.7207943271979, 47.08781689286956], [7.720857019929734, 47.08769993942575], [7.720887467737151, 47.087602053313724], [7.720929177981012, 47.087509626715374], [7.721105258767118, 47.08724446387683], [7.72126826103156, 47.08706208635626], [7.721397272481425, 47.08669715792629], [7.721506760958123, 47.08640650376467], [7.722011520080062, 47.08644878508576], [7.722080380810871, 47.08607404525064], [7.722102116387322, 47.08578564831454], [7.722149222811469, 47.0856333643653], [7.7222262884284625, 47.08551847048585], [7.722195889926151, 47.08533052317064], [7.722209242905781, 47.08523561103144], [7.722299950582174, 47.08505575780311], [7.722520700280383, 47.08488308595175], [7.7226665590991415, 47.08481306023315], [7.7230870945279495, 47.08476497932096], [7.723216086133259, 47.08473290822779], [7.723214651171698, 47.084730519027715], [7.72336594055194, 47.08469642331396], [7.723225423079807, 47.08454159675728], [7.72311449557227, 47.08451565957641], [7.722817944762972, 47.08441119506329], [7.723033580358607, 47.08403193792674], [7.723255635565028, 47.08380123427384], [7.723560440320102, 47.0834337280511], [7.723584058643061, 47.08324636630762], [7.723706098307872, 47.08306622781038], [7.723651343992513, 47.082448164047456], [7.723800645844602, 47.08206071276062], [7.723847811997137, 47.081980792306965]]]]}}]}