{
  "type": "FeatureCollection",
  "features": [
    {
      "type": "Feature",
      "properties": {
        "bfs_nummer": 4082,
        "segment_length_m": 0.22294483244465382
      },
      "geometry": {
        "type": "LineString",
        "coordinates": [
          [
            8.292851545166865,
            47.36159565893083
          ],
          [
            8.292875633289174,
            47.36156309942504
          ],
          [
            8.292984478131423,
            47.361356582773666
          ],
          [
            8.293373689237411,
            47.36096665602676
          ],
          [
            8.293457511994013,
            47.36075770652531
          ],
          [
            8.293557016052695,
            47.360654150229614
          ],
          [
            8.293713511559874,
            47.3606936035172
          ],
          [
            8.29421665291863,
            47.361026662268635
          ],
          [
            8.294261146685018,
            47.36113645638613
          ],
          [
            8.29425524934858,
            47.361282099354234
          ],
          [
            8.294600555262553,
            47.36119826381807
          ],
          [
            8.294837036555974,
            47.36124838438081
          ],
          [
            8.295054584055729,
            47.36124468486067
          ],
          [
            8.29529951299197,
            47.36125119787833
          ],
          [
            8.295715413068278,
            47.36136242800207
          ],
          [
            8.296531799050268,
            47.36163362431124
          ],
          [
            8.297068534446083,
            47.36139810984676
          ],
          [
            8.29738880687295,
            47.36126350524981
          ],
          [
            8.297583947404101,
            47.36116560275273
          ],
          [
            8.297876434136787,
            47.3613048172081
          ],
          [
            8.298364383475294,
            47.361520435578164
          ],
          [
            8.298616054215026,
            47.361573853412054
          ],
          [
            8.298882248602434,
            47.36150176557169
          ],
          [
            8.298992002078718,
            47.36139814620374
          ],
          [
            8.299392819079625,
            47.36079906342045
          ],
          [
            8.299633999340424,
            47.360527555772386
          ],
          [
            8.300034042155259,
            47.35995679202676
          ],
          [
            8.30023906916775,
            47.359654511407854
          ],
          [
            8.300515730304213,
            47.359265075566924
          ],
          [
            8.300648203223027,
            47.35913269036514
          ],
          [
            8.301109531268759,
            47.35935289434906
          ],
          [
            8.301623597180273,
            47.35910569926529
          ],
          [
            8.302146642424622,
            47.35882881468602
          ],
          [
            8.302596849433353,
            47.35853390715474
          ],
          [
            8.303266458252105,
            47.35818011241966
          ],
          [
            8.30393815590447,
            47.357836489210754
          ],
          [
            8.304515856874197,
            47.357627931774914
          ],
          [
            8.30518679946751,
            47.35742124442102
          ],
          [
            8.306312901960093,
            47.35661301284818
          ],
          [
            8.306712704043173,
            47.35611821489314
          ],
          [
            8.307047589904156,
            47.355622023613705
          ],
          [
            8.307802220152212,
            47.35473230520133
          ],
          [
            8.308243328387869,
            47.35434123419095
          ],
          [
            8.308730745515144,
            47.353976230453114
          ],
          [
            8.309067271076314,
            47.353745503907916
          ],
          [
            8.309351314534057,
            47.35355868919632
          ],
          [
            8.309979014072594,
            47.35317554103059
          ],
          [
            8.310584255143315,
            47.35295747986394
          ],
          [
            8.311068246866387,
            47.352771597644576
          ],
          [
            8.311407950641216,
            47.35233416484099
          ],
          [
            8.311422965853604,
            47.35180633108085
          ],
          [
            8.311765102435686,
            47.351386274737585
          ],
          [
            8.312090862579696,
            47.351123094886084
          ],
          [
            8.312433880993753,
            47.35088187491357
          ],
          [
            8.313035254696905,
            47.35051486551546
          ],
          [
            8.314031951576377,
            47.34971675444445
          ],
          [
            8.314364306120913,
            47.34937365230783
          ],
          [
            8.314561007403993,
            47.34901827471231
          ],
          [
            8.314754481207334,
            47.34857936769663
          ],
          [
            8.315117787772573,
            47.347876682506694
          ],
          [
            8.315343797419732,
            47.34757147926204
          ],
          [
            8.31588757387195,
            47.34733507455109
          ],
          [
            8.316651247800541,
            47.34706952506873
          ],
          [
            8.317047974463055,
            47.34680155429755
          ],
          [
            8.317284874502883,
            47.34654862348605
          ],
          [
            8.317512154108213,
            47.34604366536894
          ],
          [
            8.317593703133698,
            47.345909488419785
          ],
          [
            8.317692950318433,
            47.34578521498492
          ],
          [
            8.318294382488022,
            47.345147321996755
          ],
          [
            8.318860270338563,
            47.344200038017654
          ],
          [
            8.31941416781432,
            47.34325793342444
          ],
          [
            8.319138587697859,
            47.34317354914226
          ],
          [
            8.318450896371406,
            47.34307840790464
          ],
          [
            8.31795245577906,
            47.34314676115639
          ],
          [
            8.317266958649308,
            47.34317745289007
          ],
          [
            8.316321999487698,
            47.34336720002542
          ],
          [
            8.315724420237261,
            47.34347418364623
          ],
          [
            8.315119464675071,
            47.3434609852867
          ],
          [
            8.31437399766381,
            47.343433468218684
          ],
          [
            8.313199286615408,
            47.3428200052413
          ],
          [
            8.31272143461982,
            47.34255244524268
          ],
          [
            8.312232636312999,
            47.34227151871912
          ],
          [
            8.311112650024215,
            47.34268777057134
          ],
          [
            8.310475454966944,
            47.34302033052406
          ],
          [
            8.309801642731564,
            47.34305274259758
          ],
          [
            8.309567647084682,
            47.34300815705106
          ],
          [
            8.309325762779485,
            47.342931024018185
          ],
          [
            8.308851143834385,
            47.34266337878072
          ],
          [
            8.308652593029738,
            47.34254433435713
          ],
          [
            8.308550494288838,
            47.34251250608698
          ],
          [
            8.308329739687858,
            47.34268734771863
          ],
          [
            8.30767819416651,
            47.34322534459728
          ],
          [
            8.307537760051154,
            47.34331394872746
          ],
          [
            8.307385462010473,
            47.34338023566325
          ],
          [
            8.306945832346079,
            47.343513041857314
          ],
          [
            8.305563400115343,
            47.34394189830577
          ],
          [
            8.305531783952999,
            47.3439133520215
          ],
          [
            8.305419357629619,
            47.34398142379282
          ],
          [
            8.3051198625201,
            47.34432188830657
          ],
          [
            8.304946964047794,
            47.344502912398
          ],
          [
            8.304734432452646,
            47.34468498005767
          ],
          [
            8.304269442786728,
            47.34502903104051
          ],
          [
            8.304080810825043,
            47.34517622500842
          ],
          [
            8.30385457128878,
            47.34512380715306
          ],
          [
            8.303604084077186,
            47.34503608567237
          ],
          [
            8.303376080537983,
            47.34533931077438
          ],
          [
            8.303313868380636,
            47.34541205950601
          ],
          [
            8.303290558329241,
            47.345500761674984
          ],
          [
            8.303172881738407,
            47.34571887812407
          ],
          [
            8.303077567857583,
            47.34581190613123
          ],
          [
            8.302937855457944,
            47.34588631415709
          ],
          [
            8.302475156542119,
            47.34605363607849
          ],
          [
            8.302320265234176,
            47.3458584454351
          ],
          [
            8.301916369577693,
            47.3454405501891
          ],
          [
            8.301556503781988,
            47.34505582144324
          ],
          [
            8.30219569114876,
            47.344753150670236
          ],
          [
            8.30224661038653,
            47.344710332011466
          ],
          [
            8.302238198775536,
            47.344659151074225
          ],
          [
            8.301554003468489,
            47.34393505082497
          ],
          [
            8.30149291687677,
            47.343873712452755
          ],
          [
            8.301346685948893,
            47.34374780629147
          ],
          [
            8.301185786439149,
            47.34362969114791
          ],
          [
            8.300837629784537,
            47.343419760154546
          ],
          [
            8.300765270444371,
            47.34336666392877
          ],
          [
            8.300723567767287,
            47.343350883432144
          ],
          [
            8.300674790637638,
            47.343353460323314
          ],
          [
            8.300878764022807,
            47.34327181996998
          ],
          [
            8.300996661762788,
            47.34321122250922
          ],
          [
            8.300790856873077,
            47.34307142268913
          ],
          [
            8.300592778581766,
            47.342948646114245
          ],
          [
            8.30038023952856,
            47.342833397901764
          ],
          [
            8.30015954596742,
            47.34272366104201
          ],
          [
            8.299521810198122,
            47.34253078181717
          ],
          [
            8.299154117497519,
            47.3424452917388
          ],
          [
            8.298766114744536,
            47.342367309601016
          ],
          [
            8.298838423053825,
            47.34233866194255
          ],
          [
            8.300071040669089,
            47.341227194364734
          ],
          [
            8.29978680850498,
            47.341123966373694
          ],
          [
            8.29962743751863,
            47.34107197706806
          ],
          [
            8.29923753534702,
            47.34095852588115
          ],
          [
            8.298989699049232,
            47.340863632775054
          ],
          [
            8.298705122266638,
            47.34072153779181
          ],
          [
            8.297668540242615,
            47.34018700645757
          ],
          [
            8.29754141485284,
            47.340155912375856
          ],
          [
            8.29744414937634,
            47.34014824362822
          ],
          [
            8.297372628879904,
            47.34017061515128
          ],
          [
            8.297146888077927,
            47.3403744089374
          ],
          [
            8.294163233351817,
            47.33874281764762
          ],
          [
            8.293561797439803,
            47.339166775989774
          ],
          [
            8.29307065275184,
            47.33954156746858
          ],
          [
            8.293087353929256,
            47.33952266255967
          ],
          [
            8.293094229531825,
            47.33949010416538
          ],
          [
            8.293078342276415,
            47.33945902747222
          ],
          [
            8.29304235266642,
            47.33943608698862
          ],
          [
            8.293010032614188,
            47.33942827572235
          ],
          [
            8.292992879682078,
            47.33942723330855
          ],
          [
            8.292959025390438,
            47.33943103678183
          ],
          [
            8.292928928444292,
            47.339442233225434
          ],
          [
            8.292830460388554,
            47.33952297122329
          ],
          [
            8.292792785525338,
            47.33954023227364
          ],
          [
            8.292755671180924,
            47.33954704610444
          ],
          [
            8.292725946992773,
            47.33954764376286
          ],
          [
            8.292682147512494,
            47.339539413603895
          ],
          [
            8.291210497773019,
            47.33878952918008
          ],
          [
            8.291893734908024,
            47.33817513260432
          ],
          [
            8.291733415185,
            47.338090901805195
          ],
          [
            8.289957660447765,
            47.3372693460164
          ],
          [
            8.289869216304549,
            47.3372535284703
          ],
          [
            8.289821599844068,
            47.33720578385506
          ],
          [
            8.288248026405128,
            47.33647679777414
          ],
          [
            8.2881764470973,
            47.336472134424994
          ],
          [
            8.288135005566952,
            47.33642563894728
          ],
          [
            8.286164872731813,
            47.335510091405595
          ],
          [
            8.284933029091954,
            47.3364449078204
          ],
          [
            8.284435491589907,
            47.33644701549674
          ],
          [
            8.28404116512035,
            47.33647517009708
          ],
          [
            8.283655365081415,
            47.336522887773874
          ],
          [
            8.282791588028429,
            47.33664415188372
          ],
          [
            8.282391113177187,
            47.33668360736488
          ],
          [
            8.281992049423001,
            47.33669601253895
          ],
          [
            8.281551942599403,
            47.3366901505447
          ],
          [
            8.281069699599172,
            47.336651232317756
          ],
          [
            8.280786335385445,
            47.336611644209185
          ],
          [
            8.28050184054247,
            47.33653391637721
          ],
          [
            8.280222071629227,
            47.336426911055305
          ],
          [
            8.280166547193067,
            47.33640906515415
          ],
          [
            8.280108025511279,
            47.33641511347401
          ],
          [
            8.280055359601558,
            47.336393936571824
          ],
          [
            8.280036887666295,
            47.33635532125564
          ],
          [
            8.279995316622243,
            47.336326165970945
          ],
          [
            8.27997770840999,
            47.336319665057104
          ],
          [
            8.279844973465341,
            47.336310018251865
          ],
          [
            8.279793153715858,
            47.33629298170419
          ],
          [
            8.278413394471226,
            47.33562219424411
          ],
          [
            8.27803479182457,
            47.33591200983903
          ],
          [
            8.277283477358312,
            47.336498484422364
          ],
          [
            8.276794430963857,
            47.33614996724856
          ],
          [
            8.276133804917931,
            47.335729951171295
          ],
          [
            8.277127760424436,
            47.33488749086627
          ],
          [
            8.275883594916682,
            47.3340856945727
          ],
          [
            8.275831290387957,
            47.334103317038604
          ],
          [
            8.275647526889388,
            47.334259712098245
          ],
          [
            8.274934826305065,
            47.33385641036008
          ],
          [
            8.274788274067527,
            47.333762467924764
          ],
          [
            8.273793886346441,
            47.33459353284031
          ],
          [
            8.272804825623158,
            47.334048370759525
          ],
          [
            8.27227635527296,
            47.33493159844601
          ],
          [
            8.27208056281329,
            47.33483122599864
          ],
          [
            8.271825012904719,
            47.33474069310698
          ],
          [
            8.27035269582456,
            47.335494167769546
          ],
          [
            8.269615200848827,
            47.3352703787319
          ],
          [
            8.269662789834408,
            47.33544932190534
          ],
          [
            8.268933975831136,
            47.336183662062716
          ],
          [
            8.268182006113246,
            47.33666227785876
          ],
          [
            8.268012956819138,
            47.33676110451774
          ],
          [
            8.267550095196786,
            47.33698024205275
          ],
          [
            8.267104331516135,
            47.33726708524195
          ],
          [
            8.266998072093871,
            47.33750106631036
          ],
          [
            8.26688584063659,
            47.33770158425274
          ],
          [
            8.26672275435022,
            47.337907045179236
          ],
          [
            8.266503096589737,
            47.33808932696206
          ],
          [
            8.265853294659463,
            47.33825618831175
          ],
          [
            8.265452022639625,
            47.3382850125444
          ],
          [
            8.265084876703538,
            47.338448837743904
          ],
          [
            8.264768253547803,
            47.338613766447494
          ],
          [
            8.264472222586319,
            47.33870119125789
          ],
          [
            8.264201715620889,
            47.33880227588794
          ],
          [
            8.264190512482564,
            47.338825670641874
          ],
          [
            8.264162053631116,
            47.33884047275313
          ],
          [
            8.264354652426636,
            47.33896451083565
          ],
          [
            8.262552799172779,
            47.34025559470328
          ],
          [
            8.260713650455182,
            47.34147472224547
          ],
          [
            8.261828988722964,
            47.34172530630712
          ],
          [
            8.262175996004194,
            47.341796985511735
          ],
          [
            8.260829242920092,
            47.342856459906756
          ],
          [
            8.260718610494335,
            47.342986926108914
          ],
          [
            8.260397826911023,
            47.34335775470575
          ],
          [
            8.260047442498756,
            47.343775467085266
          ],
          [
            8.259973001388914,
            47.343896545318124
          ],
          [
            8.259681546672748,
            47.34440497295771
          ],
          [
            8.259388696624137,
            47.344897902576214
          ],
          [
            8.259286681279022,
            47.34505995883111
          ],
          [
            8.259246565237474,
            47.34510616250204
          ],
          [
            8.259296221341582,
            47.34510286832856
          ],
          [
            8.260400290658021,
            47.34581589870074
          ],
          [
            8.258550910337211,
            47.347703286178394
          ],
          [
            8.25854488574783,
            47.34771171212342
          ],
          [
            8.259599556176761,
            47.34809036735134
          ],
          [
            8.25976018770743,
            47.34817732964793
          ],
          [
            8.260341957576125,
            47.34841688850533
          ],
          [
            8.260559511755428,
            47.34843067657307
          ],
          [
            8.26070601151205,
            47.348469570866335
          ],
          [
            8.261360458750715,
            47.34866003523301
          ],
          [
            8.260695239172364,
            47.34923999095826
          ],
          [
            8.260576183096964,
            47.34934173321913
          ],
          [
            8.258713534401801,
            47.35095904675694
          ],
          [
            8.258771613454323,
            47.350969509078176
          ],
          [
            8.258622847778943,
            47.35109007944355
          ],
          [
            8.257332246589874,
            47.352081846096475
          ],
          [
            8.258758113159749,
            47.35285305520121
          ],
          [
            8.257012691311713,
            47.354369330808495
          ],
          [
            8.25771683453095,
            47.354805507603004
          ],
          [
            8.257788660206007,
            47.354856691359025
          ],
          [
            8.257832203032427,
            47.35489343213049
          ],
          [
            8.258419622244542,
            47.35525608142638
          ],
          [
            8.258475909059133,
            47.35528139805711
          ],
          [
            8.258523180919369,
            47.355306652724536
          ],
          [
            8.258928484557531,
            47.35556068454453
          ],
          [
            8.259026124262697,
            47.35562825262807
          ],
          [
            8.259118560082005,
            47.35569912270735
          ],
          [
            8.259205564246688,
            47.355773116516744
          ],
          [
            8.259120833916576,
            47.35582972904293
          ],
          [
            8.259189052365345,
            47.355894915473364
          ],
          [
            8.259255516891011,
            47.35596481860449
          ],
          [
            8.259317075293364,
            47.35603673541156
          ],
          [
            8.25939738884213,
            47.356137805984325
          ],
          [
            8.25945173292177,
            47.35620107601072
          ],
          [
            8.25956319438494,
            47.356322874005855
          ],
          [
            8.2599351936111,
            47.35670928158498
          ],
          [
            8.260012933528644,
            47.35679265027091
          ],
          [
            8.26008688570714,
            47.356877592946546
          ],
          [
            8.260281950697113,
            47.35711772487509
          ],
          [
            8.260352325736228,
            47.357200686983845
          ],
          [
            8.260519889850476,
            47.35737918390098
          ],
          [
            8.26090847489115,
            47.35778009584717
          ],
          [
            8.260996726489182,
            47.357865071063074
          ],
          [
            8.261217400291848,
            47.358060593773
          ],
          [
            8.26131106907102,
            47.358147428072805
          ],
          [
            8.261400178777793,
            47.358236462516025
          ],
          [
            8.261624008916668,
            47.35846905650421
          ],
          [
            8.260539943931612,
            47.35928269960604
          ],
          [
            8.2590671678614,
            47.36038421030709
          ],
          [
            8.25896441633054,
            47.36045908406978
          ],
          [
            8.258318437638652,
            47.36094562825339
          ],
          [
            8.257295268269147,
            47.36171150388596
          ],
          [
            8.254447898725394,
            47.363863580206626
          ],
          [
            8.252652155355735,
            47.36522324107473
          ],
          [
            8.254746859225657,
            47.366668592188354
          ],
          [
            8.250375904259059,
            47.369085883946184
          ],
          [
            8.251372670964486,
            47.37048273258861
          ],
          [
            8.255268844305824,
            47.368590358731886
          ],
          [
            8.255571317289816,
            47.36886841615687
          ],
          [
            8.255898972491083,
            47.36912725275199
          ],
          [
            8.256329110132421,
            47.369384472674504
          ],
          [
            8.256151459079842,
            47.369515083482035
          ],
          [
            8.256728228979545,
            47.369745152496456
          ],
          [
            8.25744718862336,
            47.369968247509966
          ],
          [
            8.256988158906989,
            47.37048971476171
          ],
          [
            8.256860483876807,
            47.37068046235612
          ],
          [
            8.256807631951226,
            47.37084032266477
          ],
          [
            8.257281396681687,
            47.37096612251518
          ],
          [
            8.257082144971221,
            47.371257012365525
          ],
          [
            8.257622685386675,
            47.37132502320854
          ],
          [
            8.257944674820392,
            47.37139875507452
          ],
          [
            8.258072897969651,
            47.37148677691382
          ],
          [
            8.258278820924865,
            47.37160175339999
          ],
          [
            8.258466093090792,
            47.37172475925697
          ],
          [
            8.258532825174022,
            47.37174884141795
          ],
          [
            8.258734764113928,
            47.371859473915315
          ],
          [
            8.258766977972792,
            47.37187235061941
          ],
          [
            8.258162456706875,
            47.37248694312956
          ],
          [
            8.258018579308121,
            47.37265388975676
          ],
          [
            8.258251829241784,
            47.37272623524162
          ],
          [
            8.258487961782743,
            47.37281636941536
          ],
          [
            8.258954237147236,
            47.37301251860859
          ],
          [
            8.258785027075108,
            47.373168888297904
          ],
          [
            8.25961465518767,
            47.373663608442264
          ],
          [
            8.25965582600413,
            47.373711185975424
          ],
          [
            8.259793568246925,
            47.373789981603444
          ],
          [
            8.259987752801175,
            47.373885645785805
          ],
          [
            8.26026062735982,
            47.37401034285238
          ],
          [
            8.260302072438757,
            47.37398458399232
          ],
          [
            8.260374993942698,
            47.37404145192836
          ],
          [
            8.260672754166524,
            47.37418271027548
          ],
          [
            8.260838777808248,
            47.37427323049717
          ],
          [
            8.26096763368837,
            47.37427874475836
          ],
          [
            8.261324428215199,
            47.37410088819773
          ],
          [
            8.261526763333515,
            47.3740277502056
          ],
          [
            8.261820307858466,
            47.373907765023155
          ],
          [
            8.262138601358334,
            47.37378538098911
          ],
          [
            8.26256773429425,
            47.37359358474073
          ],
          [
            8.263185223937109,
            47.37332942924518
          ],
          [
            8.263470767581971,
            47.373225120776915
          ],
          [
            8.263762274759785,
            47.37311094672727
          ],
          [
            8.264037825216024,
            47.37302413104561
          ],
          [
            8.264359062291659,
            47.37291379072131
          ],
          [
            8.264395969394661,
            47.37295599122024
          ],
          [
            8.264688181310431,
            47.37299948790965
          ],
          [
            8.265180274235,
            47.373122138225035
          ],
          [
            8.265694069420833,
            47.373220759015716
          ],
          [
            8.26645995995469,
            47.3734352500902
          ],
          [
            8.266803383374576,
            47.37351822131824
          ],
          [
            8.267096560757752,
            47.37356642726832
          ],
          [
            8.267971303364902,
            47.37360211249698
          ],
          [
            8.268722294111756,
            47.37362830926806
          ],
          [
            8.269294565183968,
            47.37372468603235
          ],
          [
            8.269696660428707,
            47.373780089670845
          ],
          [
            8.270119855125047,
            47.373816316151
          ],
          [
            8.270640088689118,
            47.37385385719372
          ],
          [
            8.270973717505232,
            47.37386861632897
          ],
          [
            8.2713202366457,
            47.37380663720609
          ],
          [
            8.271821499116523,
            47.37390281160663
          ],
          [
            8.272314570237448,
            47.37401273297828
          ],
          [
            8.272790180013859,
            47.37405505671624
          ],
          [
            8.272991104301683,
            47.37409668192766
          ],
          [
            8.273379254581036,
            47.374134606694966
          ],
          [
            8.273672741886276,
            47.37419353351217
          ],
          [
            8.27395391945308,
            47.374212144082726
          ],
          [
            8.274243720608057,
            47.37427574639826
          ],
          [
            8.274665208366146,
            47.37432002791456
          ],
          [
            8.274948506707835,
            47.37436656747021
          ],
          [
            8.275037537477758,
            47.37417473920799
          ],
          [
            8.275068376294529,
            47.37397216962699
          ],
          [
            8.275150867790433,
            47.37369950760709
          ],
          [
            8.275410610690146,
            47.37368298331254
          ],
          [
            8.275831980083206,
            47.3736255125489
          ],
          [
            8.276092056013663,
            47.37360156361612
          ],
          [
            8.276674871623824,
            47.37363081639647
          ],
          [
            8.277082584810758,
            47.37351590053619
          ],
          [
            8.27735770894189,
            47.373425925836834
          ],
          [
            8.277255808450985,
            47.37306998670206
          ],
          [
            8.277135180880517,
            47.37274230102642
          ],
          [
            8.276949228606586,
            47.3725150751299
          ],
          [
            8.276839827262032,
            47.37235804651107
          ],
          [
            8.276853942311725,
            47.372056547122725
          ],
          [
            8.276946718512576,
            47.37179539423242
          ],
          [
            8.276998784586151,
            47.37159943397872
          ],
          [
            8.276989735205133,
            47.37129336233218
          ],
          [
            8.276992120141353,
            47.37110988749619
          ],
          [
            8.27704670615838,
            47.37083341459495
          ],
          [
            8.277257573410958,
            47.370484100961505
          ],
          [
            8.277503746610376,
            47.37016489693094
          ],
          [
            8.277627027124565,
            47.36986706594626
          ],
          [
            8.27772381067091,
            47.36971381152676
          ],
          [
            8.277830781488843,
            47.36958787213948
          ],
          [
            8.277938448289033,
            47.36922271125212
          ],
          [
            8.277869470981246,
            47.36899997971457
          ],
          [
            8.27846224368932,
            47.36886847692888
          ],
          [
            8.278661329494515,
            47.368852341059764
          ],
          [
            8.278825116255097,
            47.36878402194334
          ],
          [
            8.279125940722679,
            47.36870597177607
          ],
          [
            8.279447832048445,
            47.36850217324343
          ],
          [
            8.279480680452217,
            47.36843503092198
          ],
          [
            8.279618554052304,
            47.368231518651925
          ],
          [
            8.279906375968345,
            47.36795981323641
          ],
          [
            8.27986233932962,
            47.36780949811009
          ],
          [
            8.279871703489095,
            47.36758146589173
          ],
          [
            8.27937356515557,
            47.36711801046521
          ],
          [
            8.279212469000415,
            47.36694342444132
          ],
          [
            8.279471532315766,
            47.366781009095234
          ],
          [
            8.279602809841991,
            47.36666824823796
          ],
          [
            8.279760176118502,
            47.36644015489411
          ],
          [
            8.27985201542206,
            47.36632087180783
          ],
          [
            8.279974845310864,
            47.366191387718835
          ],
          [
            8.27991567440401,
            47.36608702924261
          ],
          [
            8.279855628006581,
            47.36590869489862
          ],
          [
            8.27985537093576,
            47.36574804967827
          ],
          [
            8.280019689053596,
            47.36555048758407
          ],
          [
            8.28022941843692,
            47.36543949317934
          ],
          [
            8.280351835043023,
            47.365387178032464
          ],
          [
            8.280578105779272,
            47.36522464817575
          ],
          [
            8.280634841970107,
            47.365168080121755
          ],
          [
            8.280896632557848,
            47.3649310476277
          ],
          [
            8.28100357298156,
            47.36479253048187
          ],
          [
            8.281111110399362,
            47.36451502117871
          ],
          [
            8.28134526962243,
            47.36456638259844
          ],
          [
            8.28205811381686,
            47.364780590556734
          ],
          [
            8.282481307315004,
            47.36496207342106
          ],
          [
            8.282732485739825,
            47.36506385851925
          ],
          [
            8.283213544885271,
            47.365214828271554
          ],
          [
            8.283640017376564,
            47.36540810211623
          ],
          [
            8.284025638034537,
            47.36561396025621
          ],
          [
            8.284245943521293,
            47.365759655766716
          ],
          [
            8.284504402868066,
            47.36597028382592
          ],
          [
            8.284681200158298,
            47.36610636680673
          ],
          [
            8.28513101074164,
            47.36646714537758
          ],
          [
            8.285449646499174,
            47.36676175559086
          ],
          [
            8.285618451342609,
            47.36685610587399
          ],
          [
            8.286152578077749,
            47.36706491573683
          ],
          [
            8.2863853708079,
            47.36680279015981
          ],
          [
            8.286598738969689,
            47.36647821181162
          ],
          [
            8.286962234343896,
            47.366214181084416
          ],
          [
            8.287206223174744,
            47.36604461801836
          ],
          [
            8.287768052890321,
            47.36572350375254
          ],
          [
            8.287880878062788,
            47.36564294441254
          ],
          [
            8.287990824001627,
            47.36555037107273
          ],
          [
            8.288136897543616,
            47.36550341448246
          ],
          [
            8.288332932792397,
            47.3654903784464
          ],
          [
            8.288495696054156,
            47.36541075541728
          ],
          [
            8.28903182716018,
            47.365097073704824
          ],
          [
            8.289537541641788,
            47.36483396643428
          ],
          [
            8.28978268252202,
            47.36468108363181
          ],
          [
            8.290588532348911,
            47.36416310451184
          ],
          [
            8.290867019652408,
            47.36401462371461
          ],
          [
            8.291404045570353,
            47.36368330319378
          ],
          [
            8.29162816696347,
            47.363500672729685
          ],
          [
            8.291975524471603,
            47.363116178237334
          ],
          [
            8.292153540085307,
            47.36290344879904
          ],
          [
            8.292424474803335,
            47.36219874410385
          ],
          [
            8.292851545166865,
            47.36159565893083
          ]
        ]
      }
    }
  ]
}