{"type": "FeatureCollection", "features": [{"type": "Feature", "properties": {"bfs_nummer": 4104}, "geometry": {"type": "MultiPolygon", "coordinates": [[[[8.184575198616603, 47.42678983889651], [8.184628321410692, 47.427096832979025], [8.184730171420124, 47.42742766464856], [8.184894010500852, 47.427891629911535], [8.185083925067541, 47.42861858869534], [8.184054639795745, 47.42890483699107], [8.18380384614689, 47.42919849459178], [8.183511628035822, 47.42945033458696], [8.183016325746873, 47.4296952515547], [8.182739034358116, 47.42986796766781], [8.18226342326024, 47.430097903098314], [8.18192512628753, 47.43027531674995], [8.181678962840326, 47.43044607515681], [8.181660772806216, 47.430733789800215], [8.181691381551774, 47.43103146295566], [8.181769879962555, 47.43125675599261], [8.181786899479452, 47.43155893270751], [8.18170845919117, 47.432001182330126], [8.181545762564372, 47.43242904100333], [8.181339078222383, 47.43283662240022], [8.181342433127178, 47.43289089176007], [8.181371288373049, 47.43295059224013], [8.180990992945745, 47.43309587514474], [8.180688714702432, 47.433201845197544], [8.180491667112486, 47.43323222436156], [8.180094171531461, 47.433470617547485], [8.179709607917301, 47.433611686706996], [8.17947431465528, 47.43370017947498], [8.178877270961712, 47.43388622074257], [8.178160401486421, 47.434120911039464], [8.177424592409418, 47.43411544801728], [8.176790453970634, 47.4341212229939], [8.176213719242126, 47.434239383600286], [8.175964006458969, 47.43430862250372], [8.175528950799691, 47.434548792408094], [8.175229375536983, 47.43467333956559], [8.174689803353678, 47.434885714420766], [8.174425084235445, 47.43503399859755], [8.174227730901322, 47.435158225243875], [8.174002884584803, 47.43536220131683], [8.174047851744849, 47.43575215870383], [8.174263427347642, 47.43612463422288], [8.174295224247967, 47.43654563372389], [8.174396885312193, 47.43686213124959], [8.174341057027233, 47.437100865248645], [8.17423723055894, 47.4373668074998], [8.174165002824216, 47.437522898691356], [8.173866953008417, 47.43775559021418], [8.173511559977099, 47.43798315854699], [8.173255406963253, 47.43816563615426], [8.173060319592363, 47.43832062542771], [8.172700817626229, 47.43845928941717], [8.172546285239529, 47.43862322224423], [8.172242673299142, 47.43870411181905], [8.172048349797098, 47.43902652791889], [8.171978289615785, 47.439370533950026], [8.171535461129826, 47.43970035988575], [8.171612066969818, 47.43988184114945], [8.171956530261829, 47.439953781955055], [8.172024477106637, 47.44009744224153], [8.172022115580608, 47.44030338485427], [8.172092359308134, 47.44049151727689], [8.172181398555004, 47.440859347636355], [8.172267858963474, 47.441147629990084], [8.172325056910733, 47.441423216541295], [8.17262371541104, 47.44159647911418], [8.172623207060585, 47.441700097524], [8.172622501629997, 47.441840237646865], [8.172620179808167, 47.44230756089965], [8.172895328183516, 47.44308676036941], [8.173117479594831, 47.44325376360919], [8.173283026175485, 47.44335695748248], [8.17345956793503, 47.443467000284855], [8.173904669940937, 47.44378525985211], [8.17430830784017, 47.44463360723842], [8.174965755844093, 47.44566232666098], [8.175345188963982, 47.445870731027526], [8.174951726697252, 47.4466543845798], [8.174719613027337, 47.446972826035925], [8.174563600581703, 47.44726416736241], [8.174470289724765, 47.44776665823173], [8.17425597347674, 47.44864469734002], [8.17341426218309, 47.44931807626865], [8.173331908237373, 47.44947011016202], [8.17321091624809, 47.44960398677798], [8.173165960703752, 47.44966516446283], [8.173154490146143, 47.44972662437834], [8.173254117754151, 47.45017110026295], [8.173313147126931, 47.45021021117078], [8.173332454795325, 47.45028814224645], [8.17307636750793, 47.45033740205774], [8.172843957340186, 47.45042285758982], [8.172634874917426, 47.45053169414262], [8.172446179912464, 47.45065551164925], [8.172269315314637, 47.450751650014226], [8.172471913453784, 47.45093524529964], [8.172152932855171, 47.451134937750425], [8.171812391054019, 47.451388732456415], [8.17170750068513, 47.45150227684659], [8.171869561281694, 47.45158555516981], [8.172355728113562, 47.451722445934344], [8.172631390350348, 47.451747870557625], [8.172888976587002, 47.451826971071654], [8.173071087275876, 47.45196773906253], [8.173422566836711, 47.452040657235756], [8.173625851916743, 47.452204126979666], [8.17380577951688, 47.4523565286651], [8.174066953021654, 47.45264889820257], [8.174676022916131, 47.453031410608496], [8.174921367018044, 47.453177745814834], [8.175130355653843, 47.4533665588056], [8.1755084358765, 47.45369638792341], [8.175656783773912, 47.4539147097604], [8.175687797144683, 47.45403703461299], [8.175604522797459, 47.45462937236928], [8.175615319598995, 47.45490924691072], [8.175849003379307, 47.4548916328866], [8.17593104039539, 47.455047011000424], [8.176558033026353, 47.45500226217793], [8.177304962354837, 47.45496067463192], [8.178567671066121, 47.45495065713148], [8.178724594456446, 47.4556645048578], [8.178782613274342, 47.455810482306426], [8.17889866124467, 47.45607164005168], [8.179035826790498, 47.45630066941359], [8.179217254479438, 47.45651972831766], [8.179426332156586, 47.45672054008699], [8.179833917414737, 47.45703985929077], [8.179960841298787, 47.45715197150089], [8.181619966860952, 47.45710474471408], [8.18393742268086, 47.45715758371597], [8.18394156064618, 47.45703730142197], [8.184064010992197, 47.45703387747652], [8.184069191188806, 47.45688008407324], [8.184093153804257, 47.45670290103497], [8.184145569702908, 47.45652908748362], [8.184174624539143, 47.45646839465003], [8.185997881188621, 47.45634972752578], [8.18604506476105, 47.45632415741703], [8.186407326749984, 47.456537306615516], [8.186754970934434, 47.456432910444164], [8.186795767165199, 47.456381270512345], [8.186769412246647, 47.456328121805655], [8.186821439087073, 47.45631881805868], [8.186780075894935, 47.45616118796018], [8.186765887640222, 47.45600180823521], [8.186783525091172, 47.45584324814169], [8.186824665612823, 47.455684032403695], [8.186994796486738, 47.45541804609685], [8.187123088845366, 47.45548896531618], [8.187698082801408, 47.45527852616537], [8.188174603184672, 47.455145012591586], [8.188283859325182, 47.45509864017973], [8.188351585598294, 47.45504034021467], [8.188370035593547, 47.45496997404846], [8.188456579030035, 47.4549276701281], [8.188550467599573, 47.45498976218543], [8.189017706526275, 47.45502226196553], [8.189524774072792, 47.45506826276228], [8.189870189592643, 47.45507113004133], [8.190398183922879, 47.455057915636274], [8.19054551427351, 47.45499676757264], [8.190868000861173, 47.453993596755154], [8.190906606116798, 47.45374884926898], [8.191121411918894, 47.45330549207967], [8.191222613085003, 47.45292988219241], [8.191238003152662, 47.452817855057766], [8.19120852605231, 47.452713818933844], [8.191100096802174, 47.452444753004364], [8.191588658411211, 47.45230055995818], [8.192237573782597, 47.45213743085062], [8.192644182519166, 47.452029007088974], [8.193068797304118, 47.451933677522184], [8.19318942597848, 47.45191111544772], [8.193296688179421, 47.45190633262225], [8.193290543880464, 47.451936872904454], [8.193548775223723, 47.451936708605494], [8.193699810512111, 47.45194505043291], [8.193845217386412, 47.45195950908014], [8.194163471376982, 47.45197470100207], [8.19504826790753, 47.45211795919997], [8.195516001296836, 47.45228468024386], [8.195926271184343, 47.45239674714473], [8.19607851677157, 47.45244157738239], [8.196110910129937, 47.45245540566492], [8.196283342237077, 47.45254056053656], [8.196447340408415, 47.45266852102469], [8.196912682207044, 47.453367804465586], [8.197121131263069, 47.45371519828102], [8.197290040400294, 47.4539100712336], [8.197667275660743, 47.45428782907807], [8.198176849046769, 47.454911894180654], [8.198437152991964, 47.45513676494796], [8.19864263254166, 47.4552452111064], [8.1991966939104, 47.45549992825144], [8.199734058133505, 47.45576437710291], [8.200427107201754, 47.45603830440658], [8.200500134964834, 47.456086267891415], [8.20055071942579, 47.45605326707436], [8.201103568259, 47.455974864286325], [8.201541341228765, 47.45588226829601], [8.202644932813877, 47.45556082005635], [8.2031248322337, 47.45540828848394], [8.203748049556522, 47.455171275954655], [8.20387253539523, 47.45506441722231], [8.20528852627527, 47.45363004809786], [8.205391451826468, 47.45360295867723], [8.205782283674766, 47.453697329157734], [8.206186864662913, 47.45337744905425], [8.206454008746077, 47.4531763164169], [8.207176315000279, 47.453319093835354], [8.207596348997358, 47.453424551831866], [8.207972295448998, 47.453484339700694], [8.208027490197717, 47.4534092919975], [8.208531817747469, 47.453508681590385], [8.208791611171753, 47.45356918570196], [8.209037235598789, 47.45366861271341], [8.209318295084575, 47.45381298266519], [8.209581328968687, 47.4539249387056], [8.20985492365687, 47.45401795317008], [8.210131343613725, 47.45407434069967], [8.210403516425119, 47.454100246695575], [8.210893675961087, 47.45407051498513], [8.211805523020853, 47.45458094472232], [8.212605913718102, 47.45458201629809], [8.212756780166506, 47.45430347391099], [8.212799102026498, 47.45431663761414], [8.215015126685634, 47.454259851589285], [8.215137939239938, 47.45424725387744], [8.215237786594214, 47.454241223238895], [8.21551012710298, 47.454235653705354], [8.215748842392337, 47.45420952304777], [8.216021076967381, 47.45416220067573], [8.216454151057745, 47.45407292584131], [8.217091658100975, 47.45395754869801], [8.219656269125226, 47.453504837929714], [8.219928674774962, 47.45417335324528], [8.22029830373135, 47.455023145716595], [8.220474717974763, 47.45547446052642], [8.220535696822477, 47.45548730651547], [8.220949753467654, 47.45553036312839], [8.221588695322643, 47.45563909485067], [8.221898707967672, 47.45572563832656], [8.22277590363797, 47.45583030544086], [8.22319134613905, 47.45591040181318], [8.223462148693617, 47.45594568612984], [8.223730231970965, 47.455933254275884], [8.22428815318628, 47.45587376514303], [8.223751935071506, 47.45447572998665], [8.22364268822242, 47.4542589646253], [8.223586824477206, 47.45410377378523], [8.223336477742107, 47.453651957227635], [8.22332030880293, 47.45341604993215], [8.223651252817003, 47.45340020705429], [8.224018709878598, 47.453424365104055], [8.224308116853853, 47.4534568053517], [8.224458432432165, 47.45350013728969], [8.22520571896769, 47.45362273920567], [8.226030377741031, 47.453749190839204], [8.226418570920515, 47.45381673377694], [8.2263981908617, 47.4534953336493], [8.226644798559647, 47.453488716932206], [8.226481323222481, 47.453096704697984], [8.22623998277887, 47.452580063403396], [8.22619327840405, 47.452419586537275], [8.226138024212245, 47.452399158242066], [8.226062994927334, 47.451978609544405], [8.225355580711593, 47.452091273754284], [8.224985854619813, 47.45213733794772], [8.224473313078676, 47.45217810168948], [8.224470041664537, 47.452155008101656], [8.224379263590889, 47.45199172683372], [8.22394059381279, 47.45077180472687], [8.223773313158805, 47.45026261941548], [8.223684503902287, 47.4499617985182], [8.223419846450648, 47.4486518457386], [8.225425535732569, 47.44803479391734], [8.225312553184764, 47.44792991268979], [8.227460554260164, 47.44624654813214], [8.227498232917279, 47.44622124158235], [8.229060699668288, 47.447386277936985], [8.22914122675212, 47.44738826427371], [8.229180398584726, 47.447412623630505], [8.230992329265002, 47.44600018970006], [8.231173032668378, 47.445844039624575], [8.231971652701185, 47.445095044262104], [8.232053450402574, 47.44507485737446], [8.232135550534746, 47.44509810287437], [8.23592262771874, 47.44699525871288], [8.235985759393921, 47.44704158616629], [8.236052271104581, 47.447182566586044], [8.236031592566846, 47.44724406065982], [8.238973333069069, 47.44448618828699], [8.240297834153576, 47.44324272668266], [8.23809513306042, 47.44221399043241], [8.23794366006238, 47.442363311778124], [8.237900061375734, 47.442343483174206], [8.23506365882728, 47.442047406249], [8.23501822879909, 47.442028254831094], [8.235270812149938, 47.441759135590566], [8.232481170486366, 47.4414350246797], [8.233404820982113, 47.440482737867654], [8.233360654464228, 47.44046283954341], [8.230582061372399, 47.4402094481168], [8.230491495481742, 47.440168207475566], [8.228951385905722, 47.44171872669952], [8.228886683484152, 47.441748859549115], [8.228821287410081, 47.44175637585175], [8.226964201868435, 47.44155553214141], [8.226130371488411, 47.44143354232367], [8.223085093081247, 47.44126448098193], [8.22218785724278, 47.44119786704633], [8.220201720171204, 47.44103991909283], [8.218974619372084, 47.440952940955505], [8.217993576554793, 47.4408843413128], [8.217380349431556, 47.44086047934809], [8.217355455587509, 47.44083809764216], [8.217310687891764, 47.44096890930936], [8.217192438773058, 47.44095054677684], [8.217142131657805, 47.440902908251395], [8.216261432740032, 47.44082926553462], [8.2131379517789, 47.44058734266431], [8.212739526616234, 47.44052578825973], [8.210874370751794, 47.440073667947146], [8.209837507358596, 47.43982967317809], [8.20913787224203, 47.43967207369684], [8.208951185684233, 47.4396393715408], [8.206982705020964, 47.43919582796398], [8.205852436589165, 47.4389322522967], [8.205803900237909, 47.43892569335251], [8.205759230147763, 47.438926160439514], [8.20570760893939, 47.43893645063377], [8.205671728873375, 47.43894983848813], [8.205536218515979, 47.43892348347202], [8.205520163238196, 47.43888199929509], [8.205495564163682, 47.43885849781882], [8.20541205281209, 47.43881768562195], [8.205339246670084, 47.43879298351883], [8.204774833387317, 47.43864815131687], [8.204506088131, 47.4385820221764], [8.203820556649529, 47.43842293028698], [8.203612078609927, 47.43836775155373], [8.203507952911227, 47.438336041802444], [8.203407207084041, 47.438299659468626], [8.203314083851726, 47.43826048333818], [8.203224893680652, 47.438217305575265], [8.203211872248756, 47.43821155419713], [8.203196737643093, 47.4382091267622], [8.20318129691151, 47.438210308152335], [8.203174032963343, 47.43821221802076], [8.20310025483181, 47.43816307393031], [8.202547461243308, 47.437722028253056], [8.202544907031996, 47.43771216909954], [8.202282901555762, 47.43748222743177], [8.202153679949262, 47.43737723306944], [8.202013660342345, 47.43728188899234], [8.201966719934767, 47.437255197242756], [8.201866339043347, 47.43720705542928], [8.201789825445358, 47.437178687882664], [8.201739762586978, 47.43717184052981], [8.201689144487835, 47.43717527754912], [8.201664922906685, 47.43718072609959], [8.201641809026672, 47.4371885418807], [8.201601824573705, 47.437210608298216], [8.201388724745781, 47.43722747498485], [8.201399333916402, 47.43725643032323], [8.201390153858517, 47.437285606081936], [8.201316339296751, 47.43737164848765], [8.201228493750774, 47.43745641614857], [8.200587251425812, 47.437958028081404], [8.200437138265745, 47.438066150077375], [8.199705558778064, 47.43851570665111], [8.199700966652815, 47.43851256180253], [8.199541907098, 47.43861085660992], [8.19947067930691, 47.43866580463841], [8.199445825153239, 47.43869014523326], [8.198996246077348, 47.43849399901621], [8.198200737828095, 47.43830134601367], [8.197707272928891, 47.4381275461948], [8.1977829887393, 47.43804790699147], [8.197338779584673, 47.43786126188095], [8.197162064196215, 47.43805487526355], [8.197054530198733, 47.43800134348673], [8.19694218772469, 47.437952718154165], [8.196212836855585, 47.43767452991244], [8.194463489456133, 47.43706291535969], [8.195497220500801, 47.43576689622311], [8.195237534202025, 47.435316603799556], [8.195105486137995, 47.435218446977494], [8.194800375089725, 47.435061230333794], [8.194621458271019, 47.43499135228111], [8.194136320551426, 47.434849269817484], [8.193639642178004, 47.43468587182806], [8.193241842561063, 47.43445687730487], [8.192959321804068, 47.43432250727823], [8.192700834868738, 47.434240516827444], [8.192920668725959, 47.43397723495867], [8.192651277564105, 47.43383839800431], [8.192563235858257, 47.43374129153935], [8.192413677079212, 47.43358819939477], [8.192233191380643, 47.43345838850295], [8.192073531641093, 47.43349540657208], [8.191763155735238, 47.433132305114], [8.19130295282974, 47.43272680625888], [8.191229129084373, 47.43247418188187], [8.19099094262459, 47.432297963872195], [8.190754182275212, 47.43201796673256], [8.190383876543034, 47.431784016308534], [8.190022913670349, 47.4315327616293], [8.189886815540282, 47.43140077894302], [8.189541297363492, 47.43137876446856], [8.1889086751844, 47.43130158679821], [8.18881148436872, 47.43124394197209], [8.188759313528085, 47.43108592337794], [8.188634379548743, 47.430910549514536], [8.18842182387668, 47.43081762043116], [8.188302852376548, 47.4308105575721], [8.187972282492227, 47.430635274964416], [8.187709832433697, 47.430461853112256], [8.187942800812294, 47.43031738728729], [8.188287439413305, 47.430150267118634], [8.188334465555561, 47.429235359765485], [8.18860164663294, 47.42848232855259], [8.188527610472573, 47.42792410806201], [8.188381382066277, 47.42763545234351], [8.18833834388785, 47.42729996809508], [8.188176611656388, 47.42690486464607], [8.18807325054978, 47.42663300368627], [8.187923883553925, 47.42631948208268], [8.186169756796488, 47.4266040699059], [8.185389739757337, 47.4266872803874], [8.184575198616603, 47.42678983889651]]]]}}]}