{"type": "FeatureCollection", "features": [{"type": "Feature", "properties": {"bfs_nummer": 4169}, "geometry": {"type": "MultiPolygon", "coordinates": [[[[8.046047591870883, 47.55532148487726], [8.046436499136572, 47.554721743024764], [8.046531631371444, 47.55457452741415], [8.046768203695077, 47.55421339777505], [8.046647104787928, 47.55418444240981], [8.046636539258586, 47.55418182658606], [8.046883907704403, 47.553891606770186], [8.047159134717619, 47.55360267900356], [8.0472817600221, 47.55364900224189], [8.047546128157617, 47.55373342639302], [8.047678205809227, 47.55375936418685], [8.047821282598989, 47.55377009816841], [8.04796529362484, 47.55375569785125], [8.048230473093733, 47.553709145637306], [8.048325577837721, 47.55369808683348], [8.048421107335837, 47.55370205466917], [8.048514331382322, 47.55372046093063], [8.048523059586664, 47.55372273549019], [8.048524884151357, 47.55372312163113], [8.049206881310157, 47.55390162614111], [8.050235152692848, 47.55293033401913], [8.051836426252965, 47.5533947480155], [8.052665977367157, 47.55281504887111], [8.05291998341172, 47.5529819007598], [8.053519343310287, 47.5526004909926], [8.054317891385622, 47.552104085456946], [8.054583857021175, 47.55229968704274], [8.054769641056245, 47.5524706656531], [8.055078556796667, 47.552780387717334], [8.055422190355857, 47.55315988858104], [8.055531426596428, 47.553115461991695], [8.056290991573615, 47.55397575221354], [8.056375104933249, 47.55401931194924], [8.05653598373738, 47.553970310220876], [8.056624784999169, 47.55393369027695], [8.056843392960062, 47.55380842621566], [8.057023527976025, 47.553675461051576], [8.05720870619294, 47.553519282142496], [8.057875775881776, 47.55298429406709], [8.058156094964371, 47.55277299412697], [8.058475808004225, 47.55250515356307], [8.058937642111632, 47.55217225399114], [8.059188028139106, 47.552019599555855], [8.059362010147217, 47.55189657512677], [8.059578751713572, 47.551724241299006], [8.060005316355676, 47.55147454100326], [8.060207942246313, 47.55132239215339], [8.06043747380104, 47.551092264617836], [8.06061654433488, 47.55087098746031], [8.060745368963566, 47.55079835361222], [8.061168909083445, 47.55067037222542], [8.061334904353641, 47.5506080072486], [8.061869140482662, 47.550347091387636], [8.06201470500823, 47.55028952113869], [8.06243646525088, 47.55014062502573], [8.063116567397087, 47.550037708605494], [8.063886052777914, 47.550001994693595], [8.064036435123493, 47.54995446914899], [8.064164272884874, 47.54985386544479], [8.064471684805678, 47.5494568763793], [8.065119073597005, 47.54909849767091], [8.06552740496787, 47.54916300191614], [8.065836264697568, 47.54922999352014], [8.066148048779377, 47.54927343114483], [8.066696788289304, 47.54916031338353], [8.066877244057187, 47.54905785707505], [8.067026400225876, 47.54890816229487], [8.067153309832776, 47.54877690901757], [8.067261635323774, 47.54858399423098], [8.067438278762395, 47.54847284233416], [8.06772577356753, 47.54835107893073], [8.068722617598628, 47.54836219141931], [8.068981068499829, 47.5483972311904], [8.071090814795657, 47.548783787780195], [8.072269051678134, 47.54891065826455], [8.073076701254962, 47.54890893193543], [8.073504061439413, 47.54873968240615], [8.0736661191817, 47.54855845623002], [8.07401750260118, 47.54835815999664], [8.074326206530532, 47.54824166004175], [8.074512151821201, 47.54827313622068], [8.07495181703481, 47.548324787623386], [8.075230711168805, 47.54782483247624], [8.075380788822166, 47.54756810875037], [8.075463138160394, 47.54742726104341], [8.076010882682475, 47.54711714024795], [8.07634620092165, 47.54691919853463], [8.077159671416897, 47.546438984219975], [8.077849749777535, 47.54598337528039], [8.077522513401142, 47.54505786529347], [8.077280468946858, 47.54440404314604], [8.07720691463466, 47.54387740389015], [8.077129464131252, 47.54319313086398], [8.078667569521505, 47.540362627548355], [8.078709216230395, 47.53936707556887], [8.07873009075143, 47.53843648124122], [8.078757016073798, 47.53817972209731], [8.078718463204632, 47.53811057256387], [8.078690659554368, 47.53803956482174], [8.078723521628552, 47.53794603393703], [8.078537042922497, 47.537145638245676], [8.07840420182713, 47.53665984006586], [8.078198571901996, 47.53663057436231], [8.077760569348854, 47.53655035227166], [8.077766154110822, 47.536381817939485], [8.077889078589141, 47.53613366902131], [8.077850544631517, 47.53602715845299], [8.07779538301996, 47.53590522444221], [8.077747167546567, 47.535888266619146], [8.077778355102408, 47.535848754655696], [8.078035172651209, 47.53546867923907], [8.078158799141482, 47.535324479202934], [8.078278845370864, 47.535201785529374], [8.078857900558466, 47.5346469742513], [8.078930057018763, 47.534553316288566], [8.078983667250752, 47.53445255641591], [8.07902563682307, 47.53434685111611], [8.079150555712884, 47.53391456243737], [8.079126881935947, 47.533902911031646], [8.079179675282353, 47.533830342962716], [8.079258326083899, 47.533685022788674], [8.079326943046741, 47.5335711204712], [8.07942813603184, 47.53347476535845], [8.079684292113171, 47.53326537924886], [8.079861805627923, 47.533057677329076], [8.079991081388819, 47.532961040252346], [8.080119174366251, 47.532900700747454], [8.08025520448469, 47.5328631172101], [8.080553343948415, 47.532804201471706], [8.080674405568947, 47.53276875087979], [8.080785360709598, 47.53272121408159], [8.080871331721994, 47.53265689772561], [8.080934359686845, 47.53257326320791], [8.080987505881605, 47.53245986795964], [8.080917464105777, 47.532436700361174], [8.078899185881157, 47.53252231511203], [8.078895386991295, 47.53245056327394], [8.078731185633924, 47.53235545797918], [8.078574728035052, 47.5322935247958], [8.077998061225818, 47.532122769619285], [8.077887001537768, 47.53208328634422], [8.077788780365342, 47.53203024101252], [8.077703436411172, 47.5319690569451], [8.07757657750885, 47.53185473064592], [8.077495172076729, 47.5317897112347], [8.077412506052577, 47.53173470915433], [8.077317323439138, 47.531683562461524], [8.077217561416044, 47.53163811619967], [8.076142506780236, 47.53125057691112], [8.076033903094846, 47.53120410796222], [8.075939711152868, 47.53114678474399], [8.075866001460346, 47.531075408029416], [8.075807408770443, 47.530999945793255], [8.075775356252148, 47.53094387287812], [8.077175349567204, 47.53028685586489], [8.076872997275336, 47.52997174891872], [8.07682214013017, 47.52987915588695], [8.076815491012509, 47.52977989771044], [8.076848046513879, 47.52961008956865], [8.077007058320637, 47.529636709388235], [8.07788834683356, 47.52931710543572], [8.077955381930296, 47.52929277557751], [8.078042398406135, 47.52925262279575], [8.078108565804449, 47.52920252953876], [8.07814546716532, 47.529139367403396], [8.078154635552172, 47.529071357470364], [8.078129900393193, 47.52900547731952], [8.078077752266845, 47.52894919217149], [8.078036052866336, 47.528920326304075], [8.078068692021676, 47.52888703903524], [8.077746309534009, 47.528657479914266], [8.077674938612773, 47.5286005090811], [8.077612770577359, 47.528541337874096], [8.077567270402488, 47.5284779195043], [8.077330961195404, 47.52787064543029], [8.077271159592131, 47.527748565291375], [8.077183974373082, 47.5276329318586], [8.077071775522064, 47.527528687676245], [8.076942031025624, 47.52743513516912], [8.076855889491954, 47.52737870390837], [8.076908513484923, 47.52726573639259], [8.077036701021303, 47.527210796303734], [8.077174045559044, 47.527198554514435], [8.077318511333504, 47.52724632701928], [8.077593116052311, 47.52745794769162], [8.077732272271572, 47.52757209852786], [8.077829248469103, 47.527618369313075], [8.0779268797809, 47.527632959186256], [8.078028579057039, 47.52760815937305], [8.078090811576082, 47.5275556684518], [8.078093681694034, 47.52748623627013], [8.078002849400859, 47.52733354104202], [8.077978573033409, 47.527248294132185], [8.078015485133056, 47.52717397033324], [8.078090201888958, 47.52711174188896], [8.077439078161484, 47.526746942959534], [8.077340282373765, 47.526565537257156], [8.077476288627327, 47.52606831454714], [8.077632637149428, 47.52591821589795], [8.077715996772504, 47.52565476125842], [8.077916024612128, 47.525646787831164], [8.077999273958682, 47.52481896711814], [8.07803972702811, 47.524508857112], [8.080036543137771, 47.524024727687014], [8.07996431882984, 47.523628098468464], [8.079942350103227, 47.52323105881122], [8.080075115507599, 47.52297660846857], [8.080507745785413, 47.52217859006762], [8.081366302210567, 47.52106048801319], [8.081971123929367, 47.52035515573261], [8.082041784654876, 47.519937993005364], [8.082763045214632, 47.5196672210776], [8.083273453967541, 47.51940484065078], [8.084096087388234, 47.519050057663044], [8.084026404783192, 47.518812182739595], [8.083711437623485, 47.51842017761379], [8.082891753931651, 47.51843694195223], [8.082204313967528, 47.518381795986684], [8.081720926600562, 47.51832553123761], [8.08205937394184, 47.51782791281263], [8.082386096431984, 47.51736029993928], [8.08235150231534, 47.5170722731288], [8.08226749333483, 47.51672054607934], [8.081842509002234, 47.5164346344748], [8.081157887153278, 47.51613905306563], [8.080057027871238, 47.51586152850954], [8.08054334674984, 47.51503854072425], [8.08102136695865, 47.514517881319634], [8.08137600466245, 47.514113524577354], [8.080928465033946, 47.51415326683822], [8.080006362802196, 47.5141761170652], [8.079383215619538, 47.51417670240545], [8.07883174205229, 47.51418807774667], [8.077944314120996, 47.51405829817877], [8.07688526145984, 47.513890854498754], [8.075957198722566, 47.513828020022224], [8.07458178846653, 47.51379080329885], [8.073761867836424, 47.5138607960175], [8.072842561980218, 47.514026466915084], [8.0719507710325, 47.51431031612005], [8.071563537198564, 47.514308807254885], [8.071008714895095, 47.514150328129965], [8.069946022301597, 47.513974215630235], [8.069297267599158, 47.51390959970262], [8.068315534439407, 47.51387871038836], [8.067356876974214, 47.5139614266466], [8.066915506387922, 47.51399467921713], [8.06594740014054, 47.51420532165207], [8.06526936856687, 47.51432842289813], [8.06438732934865, 47.51458179532924], [8.06346045458967, 47.51466382210921], [8.06307705967329, 47.51464912331681], [8.062679648792185, 47.514042961518264], [8.062181831639329, 47.51348546835627], [8.061630347155155, 47.51301367904788], [8.061093936285392, 47.51259037415513], [8.060769085148783, 47.51231887636822], [8.060304823468709, 47.511794266369044], [8.060238425311487, 47.51152878276207], [8.060222888713769, 47.51120575101104], [8.060269035841552, 47.511113997055965], [8.060226982430404, 47.510944898457794], [8.060243235328212, 47.510762382665455], [8.060442017527636, 47.51007793050465], [8.060541146408985, 47.50985365967293], [8.06011724610763, 47.50963122053628], [8.059088299618516, 47.509116044010376], [8.059031927199674, 47.50910960012763], [8.059182353183632, 47.50858835651156], [8.059284319897545, 47.508363604054246], [8.059383304939029, 47.50821101872804], [8.059005622670798, 47.508012865638065], [8.058882883630652, 47.50805795360012], [8.058573199149414, 47.50812665271703], [8.058403666635577, 47.50826396445255], [8.058284419714141, 47.50837533786712], [8.057654219424503, 47.50819016498171], [8.056438655376036, 47.50783295727246], [8.055127833017792, 47.508588011347655], [8.053905173308788, 47.50960857403094], [8.053636066743085, 47.509849364707826], [8.052851962622581, 47.51104891819256], [8.052523980543938, 47.5118314549485], [8.052286842383985, 47.512336382099335], [8.052213092898171, 47.51244067284328], [8.052124193403415, 47.51255509925167], [8.052175068831403, 47.512587703363046], [8.052028570166797, 47.51280946490931], [8.05135823560714, 47.513250325516466], [8.050598577238151, 47.51373790086489], [8.049977455235904, 47.514010985888966], [8.04891231849864, 47.514763114229126], [8.048225703924631, 47.51466128179112], [8.047544008539129, 47.51454596356332], [8.046774381899638, 47.51440902187405], [8.046097469318376, 47.514284162963435], [8.044927554044929, 47.51399177461417], [8.044516322587649, 47.513856279453336], [8.043661992845765, 47.51363567347668], [8.04342551862694, 47.51388505153228], [8.042996244119749, 47.51432449590123], [8.042421754617656, 47.51494786130551], [8.041987321179766, 47.51529057555546], [8.040892003405812, 47.51601160535281], [8.040614581139263, 47.51668736750885], [8.040202365679463, 47.51749204830325], [8.040048618612259, 47.51791096311232], [8.039147799706464, 47.51843728788329], [8.0387634704828, 47.51867931204873], [8.03869533906032, 47.51874689554955], [8.038641015711148, 47.51881685395983], [8.038302628402878, 47.51937171467862], [8.038326189299223, 47.51938767434421], [8.038289926671446, 47.51945807879371], [8.038157279808182, 47.51951737927449], [8.037828165576359, 47.51969876459514], [8.037351063171387, 47.519985280674895], [8.037252558040898, 47.52005594315341], [8.037187243526057, 47.52012758545392], [8.037142684626131, 47.520213691021006], [8.03711509384151, 47.52028915900482], [8.03705609271791, 47.520389756654936], [8.036938504214254, 47.52046490636823], [8.036783663656761, 47.52049794012565], [8.03662379506944, 47.52048174799616], [8.036458050098728, 47.52043886447038], [8.036409261844549, 47.52044292960807], [8.036374157935944, 47.52056118529484], [8.036342537640577, 47.52067989075349], [8.036314413552708, 47.52079899182685], [8.036295398827944, 47.520898106054496], [8.036285698534355, 47.520997846765425], [8.036285321199879, 47.521097782267404], [8.036154400600006, 47.52110091259905], [8.036196794743457, 47.521347816196965], [8.036238968632626, 47.52143328567199], [8.036470300031699, 47.52200353259426], [8.036522052401274, 47.52219807749648], [8.03655183827208, 47.5224027819347], [8.036550409428846, 47.522613520308305], [8.036511388811645, 47.52277446350048], [8.0364495452009, 47.52296276731522], [8.036206913645126, 47.523494353354955], [8.035709842603026, 47.524593859545924], [8.035672521394849, 47.524679405601034], [8.035659263772294, 47.52471792359627], [8.035602101762793, 47.52485646599428], [8.035548586338829, 47.52499577208633], [8.035464523503554, 47.525238613473114], [8.035380514685736, 47.52551237610908], [8.035349955379868, 47.525632622390184], [8.035331359119292, 47.52575397628529], [8.035324852702741, 47.525875897493535], [8.033790769781783, 47.5266700083492], [8.033710214412718, 47.52680476669254], [8.03333478013198, 47.52732971586921], [8.033078648557112, 47.52769393152623], [8.032754660728694, 47.52851720299088], [8.032044213295231, 47.52926548741965], [8.031022431297929, 47.529230608832776], [8.030700671247766, 47.52934054128731], [8.03026092326205, 47.52938504032817], [8.029804101716017, 47.5295338840599], [8.029034691044018, 47.529772684358555], [8.028862550433024, 47.5299884014115], [8.02791734466619, 47.529762143148005], [8.028019285944014, 47.529652500271546], [8.02780945996182, 47.529511514555075], [8.02785464130198, 47.5294711621743], [8.027737831093344, 47.52945169892951], [8.027585128653005, 47.52944322887736], [8.027488908603132, 47.529426763811216], [8.02740836196165, 47.5294046157725], [8.02699446945007, 47.53039415583078], [8.026788380312912, 47.53059115387579], [8.025611650020071, 47.53160073032152], [8.02499071317785, 47.53200203612154], [8.02339885307148, 47.53309016665985], [8.022829986926343, 47.533358869712416], [8.021427001749583, 47.53401429022084], [8.020829267737628, 47.53441257076166], [8.020702687072601, 47.53450101500631], [8.020160971455157, 47.534798188197826], [8.019518139290817, 47.53514625798134], [8.019175002801564, 47.53534985550935], [8.01876916341451, 47.53561544771213], [8.019115817139847, 47.53623743260343], [8.019075386666366, 47.5362566843432], [8.017290095458184, 47.536171384520834], [8.015534633223822, 47.536080486699866], [8.015271991787863, 47.53604935144188], [8.013781641878778, 47.53576934785938], [8.01372552888122, 47.53577424003828], [8.01287489137645, 47.53571322173642], [8.011610609272001, 47.53529279950821], [8.011145767617556, 47.5351416220877], [8.010639519557376, 47.535030076277565], [8.010015439050374, 47.534937726335194], [8.009618729152303, 47.534935668591636], [8.009240249172535, 47.53502966654174], [8.008796168839595, 47.53503409016067], [8.008611013766966, 47.535038526010005], [8.008076131374137, 47.53503171957286], [8.008074652098236, 47.535049849781764], [8.0081672747408, 47.5351677567847], [8.008199453381819, 47.535248230502916], [8.008197832577654, 47.535447780584654], [8.008031251922695, 47.535734573408774], [8.00797881912658, 47.53597157202399], [8.007933717238616, 47.53617635361912], [8.007871567953373, 47.53646238052152], [8.007865329025249, 47.536493710274684], [8.007846797518486, 47.53657523292155], [8.007816745534942, 47.53686474433086], [8.007898396340378, 47.53718959305659], [8.007924821162408, 47.53728467334308], [8.007959765768774, 47.53741509394188], [8.00796225618123, 47.53743558788833], [8.007996765687391, 47.53772399708971], [8.008033480895449, 47.538065757484], [8.008080061141401, 47.53844325479948], [8.008111723643081, 47.53873476369525], [8.008023784834469, 47.539081181743335], [8.007924632660975, 47.53954130634042], [8.00791435208613, 47.53959711069142], [8.007915221767979, 47.5396634641498], [8.007900400247836, 47.53993178026885], [8.008017524693875, 47.53993324689543], [8.007993184967434, 47.540346964437354], [8.007807538083496, 47.54037295103656], [8.007755638011256, 47.54097923961393], [8.007750196415422, 47.541041684687094], [8.007707770281387, 47.541528018709585], [8.007705060621237, 47.541578902101826], [8.007702306371993, 47.54163058614819], [8.007695547143756, 47.541757318047935], [8.00769079191929, 47.5418516523308], [8.00768646699823, 47.541936549796745], [8.007665506670998, 47.542369713677], [8.007644506293737, 47.542778072135334], [8.007645516502008, 47.543211343957985], [8.00760073491895, 47.543673935990576], [8.007579650666717, 47.54410309783196], [8.007591850899402, 47.54447113509545], [8.007604696239511, 47.544795170518405], [8.007620357066758, 47.54520850252058], [8.007634682776025, 47.54558767273706], [8.007656353062412, 47.54599897832316], [8.00766993554672, 47.54637816115077], [8.0077467950683, 47.54672561749333], [8.00776739535167, 47.54678366258286], [8.007797035743002, 47.54686718815187], [8.007789829921549, 47.54690262377582], [8.007814262458798, 47.54703696393169], [8.007949115532135, 47.54763442897545], [8.008030553900296, 47.54802085135761], [8.008110223686728, 47.54839583301191], [8.008193356774028, 47.54878150931645], [8.008267845481859, 47.54912402991306], [8.008250840467506, 47.55002414070125], [8.008227604639846, 47.55078789705813], [8.008205087300258, 47.55157909925843], [8.00819592204668, 47.55221787778208], [8.008193655218077, 47.55276275209337], [8.008193193725996, 47.55287591655526], [8.008193055919723, 47.552907701823564], [8.008193154909744, 47.552982674894366], [8.008195775441216, 47.55311938831252], [8.00818509741055, 47.5533716643811], [8.008182727267362, 47.55455175550188], [8.008355299930251, 47.55446403543179], [8.008573549627949, 47.554345439267976], [8.008785981525984, 47.55422210447903], [8.008992411258804, 47.554094184900705], [8.009192601040532, 47.55396180765255], [8.009655197327513, 47.55365530162572], [8.010131377181313, 47.553358476261074], [8.010620665165822, 47.55307159453145], [8.01112262593955, 47.55279493721964], [8.0116367972626, 47.55252874930096], [8.012162690348765, 47.55227327587248], [8.012699829737791, 47.55202876198131], [8.013247713203853, 47.55179543477819], [8.013520472563608, 47.55168630850415], [8.013797187192264, 47.55158185681749], [8.014077685029037, 47.55148213451042], [8.014361780927636, 47.55138721442875], [8.014649316118325, 47.551297151298236], [8.014940092075323, 47.551212009030664], [8.015233949840749, 47.55113182436544], [8.015530677548785, 47.55105665233473], [8.015830089833567, 47.55098654774405], [8.01613201469802, 47.55092156544177], [8.016436253153733, 47.550861724388945], [8.016742606485382, 47.550807070498706], [8.017050889293744, 47.55075764965786], [8.017360915794207, 47.550713471785585], [8.017672473897926, 47.55067457387387], [8.017985391322062, 47.550640983789584], [8.020615090171729, 47.55038153700075], [8.020798090502854, 47.55036598543882], [8.020981875345795, 47.55035535836658], [8.021166126016178, 47.55034966635314], [8.021350577281728, 47.55034894670917], [8.021534909889525, 47.55035315607562], [8.021718858488358, 47.550362322746], [8.021902130712034, 47.55037643024307], [8.022084420563782, 47.55039543511221], [8.022265448934336, 47.55041932078005], [8.022444962983412, 47.55044804355885], [8.022622643543755, 47.55048156908565], [8.022798197713831, 47.55051983588003], [8.022971385743048, 47.55056278221853], [8.023141928096388, 47.55061035553585], [8.023309544860291, 47.550662467320954], [8.023473982795592, 47.55071903793799], [8.025593279071652, 47.55148430682398], [8.025917382007824, 47.55159498314962], [8.02624857521547, 47.55169555841413], [8.02658620519601, 47.55178581997803], [8.026929565604894, 47.551865582472324], [8.027277923659364, 47.551934669726194], [8.027630573588151, 47.551992950355], [8.027986769869056, 47.552040302197824], [8.028345793827778, 47.552076629934824], [8.033370085521643, 47.55250588392331], [8.033874121600164, 47.55255130833735], [8.034375769284175, 47.55260758955444], [8.034874496715991, 47.55267465843297], [8.035369825422665, 47.55275247248382], [8.038786820360336, 47.55330584421072], [8.039280015827092, 47.553391351463176], [8.039768922230175, 47.55348748275832], [8.04025304707993, 47.553594132777704], [8.040731911063299, 47.553711187157326], [8.041204995092883, 47.55383854073113], [8.041671832800235, 47.55397605209409], [8.046047591870883, 47.55532148487726]]]]}}]}