{"type": "FeatureCollection", "features": [{"type": "Feature", "properties": {"bfs_nummer": 423}, "geometry": {"type": "MultiPolygon", "coordinates": [[[[7.621960202140188, 47.153062265307305], [7.621894506294818, 47.152999090958815], [7.62279513087931, 47.15254442763367], [7.6230169846587, 47.15244220740668], [7.624511601354321, 47.151889598866234], [7.624629684120921, 47.15099213001472], [7.624787606237364, 47.14964861495856], [7.62453781738791, 47.147558933105124], [7.62464243560926, 47.14632033795162], [7.624648128438695, 47.14626620684675], [7.624676071475134, 47.14613445101361], [7.624683239485148, 47.145881577652915], [7.624620312687977, 47.14525984172771], [7.624658005149465, 47.144946834966106], [7.624585103261588, 47.14460415404694], [7.624617189455747, 47.14431374847892], [7.6246886954916935, 47.14402380980948], [7.624762166484925, 47.143795185858416], [7.624786178024875, 47.14358338976898], [7.624906176290238, 47.14331039069189], [7.62512099126107, 47.14326257789412], [7.624988621675619, 47.14287226148141], [7.6246823119132, 47.14237032981101], [7.624363055021114, 47.141766956863286], [7.623196096306049, 47.14203879209338], [7.622227227964088, 47.142221880505765], [7.621057027228035, 47.14239934198076], [7.620213509054437, 47.142369360634426], [7.619595959149739, 47.142377291979564], [7.618974949947437, 47.14250590760481], [7.618025077002723, 47.14274362459398], [7.617690061283005, 47.14252881614042], [7.617598778225396, 47.14246460836279], [7.61661118453538, 47.14171464939588], [7.616912313677373, 47.14105913764144], [7.616919352369353, 47.14094349817955], [7.6169153407208965, 47.14089453645624], [7.616742246897709, 47.140742187096365], [7.6165980216007245, 47.14066467551333], [7.616586873349037, 47.14061020189686], [7.616680333964014, 47.140501229424274], [7.616824954952771, 47.140391899292005], [7.617375723406061, 47.13988337978929], [7.617525042864156, 47.13945173761241], [7.617605382493012, 47.13918814495965], [7.61761377509449, 47.13907983390417], [7.617574043060674, 47.13897271273282], [7.617475674807984, 47.13881752387239], [7.617468228923511, 47.13877849778478], [7.617554210082822, 47.138356434328664], [7.617554876611061, 47.13825167027341], [7.617575285892379, 47.13804662809007], [7.617664873357528, 47.137912592101216], [7.617874712493364, 47.13764189064452], [7.617978118465878, 47.137477852909605], [7.616670846862012, 47.137336442365125], [7.616603377801676, 47.1373471332783], [7.616560316201414, 47.13738410544763], [7.616508041098617, 47.13737345506245], [7.616500443262931, 47.13733604816659], [7.616451311139741, 47.13731913247215], [7.615005435999818, 47.13723663488832], [7.612581203797913, 47.13713220909717], [7.61251679706711, 47.13717289087133], [7.609249685138319, 47.137038341002466], [7.609217772122807, 47.13717558657977], [7.608915656181723, 47.137159370055954], [7.608861171935458, 47.13737485000924], [7.608867127770797, 47.13750322483404], [7.608906026418987, 47.13763612938612], [7.608952947038636, 47.13769633471014], [7.609196739353608, 47.13779351528175], [7.609403304756817, 47.137852765087956], [7.609791351342697, 47.13801264109077], [7.610306300585855, 47.138274661648154], [7.611146174032137, 47.13935210885832], [7.611206636539923, 47.139445034314384], [7.6113320362031915, 47.139767986953586], [7.611276549474395, 47.14004679315412], [7.611274644674002, 47.140135125416855], [7.611309234578853, 47.1402579434219], [7.611277071041174, 47.14041056201055], [7.611132304441509, 47.14062595289222], [7.6110997232173405, 47.14061564830397], [7.608701374936668, 47.14111767945202], [7.609019068505083, 47.14192546099841], [7.609118035495668, 47.142084199915054], [7.60923259469481, 47.14220427387291], [7.609082137338949, 47.14227538420422], [7.609125420941853, 47.14231806390988], [7.60528859326204, 47.142019401469334], [7.605206250719539, 47.14200195323628], [7.605154334618053, 47.14203134223548], [7.605163357909356, 47.14208868033919], [7.605104549616842, 47.14251086613669], [7.604969923114798, 47.14269831515064], [7.605198580898512, 47.14286286103893], [7.60554360879766, 47.14297632784533], [7.606315463127517, 47.14305253901682], [7.607007388065838, 47.14321260347696], [7.607720931827099, 47.14346718599782], [7.607906063590008, 47.14351662943579], [7.607802022641802, 47.14372200269462], [7.6077942351704175, 47.144037670075946], [7.607759922712521, 47.14428234348486], [7.607392133959542, 47.14445280229247], [7.606959207645126, 47.14462074632474], [7.606676736517418, 47.14469321516328], [7.606682710225533, 47.144727458804695], [7.606264053237055, 47.144728930469896], [7.605331850887804, 47.14467925988615], [7.605497710473536, 47.145222297904084], [7.605768414408113, 47.14521384784624], [7.606757984425108, 47.145109988926485], [7.607283626310779, 47.1451114706772], [7.607281119581046, 47.14551940552657], [7.606989403017357, 47.145528978565096], [7.606794966635655, 47.145554213333874], [7.606620805714759, 47.145617061663586], [7.6064846727061415, 47.14571559095878], [7.606407588330861, 47.14583887814166], [7.605865643883528, 47.147296646231375], [7.60504886528535, 47.149079610501516], [7.604871935978995, 47.14980830206252], [7.604619390585081, 47.15096183726685], [7.604616151295656, 47.15102306063358], [7.604636551366245, 47.15127166628287], [7.604668100273413, 47.15146701551257], [7.604716625927984, 47.151878144013054], [7.604774454384771, 47.15243646818682], [7.604797914773841, 47.15253994685826], [7.604851537357002, 47.152675412664784], [7.607853466064827, 47.15285184424163], [7.610874637013507, 47.15372753316086], [7.611672169592725, 47.15390228030871], [7.6123153724638115, 47.154054767041735], [7.614334769548047, 47.15444622706595], [7.614408113990598, 47.15447952227518], [7.614442472761408, 47.15453470711076], [7.614544307974279, 47.15453430938829], [7.614582917981871, 47.15543331835404], [7.614624723990164, 47.15555177935277], [7.614726546339109, 47.15565159254887], [7.615374828732161, 47.15613284181032], [7.6154596183464065, 47.15623317519301], [7.615507431468588, 47.15634504241814], [7.615529990474889, 47.156460303403485], [7.615536452338317, 47.156576668401435], [7.616008681368783, 47.156261701719245], [7.616086687355959, 47.15630788749248], [7.617267942438512, 47.155451470005474], [7.617334254382702, 47.15541113363861], [7.619179706333089, 47.15447176051993], [7.619720780848039, 47.15419252408024], [7.621960202140188, 47.153062265307305]]]]}}]}