{"type": "FeatureCollection", "features": [{"type": "Feature", "properties": {"bfs_nummer": 4233}, "geometry": {"type": "MultiPolygon", "coordinates": [[[[8.278944423263185, 47.30323826482988], [8.278962743811043, 47.303251237095395], [8.278923247856959, 47.3033346198943], [8.27898006660498, 47.30336381757488], [8.279104329995876, 47.30345794440832], [8.279101410990599, 47.303475802670164], [8.279135302202189, 47.30350095712607], [8.27916971451169, 47.30355499096233], [8.279120920944747, 47.30365087277509], [8.279158604825755, 47.3036884399865], [8.279196183195639, 47.303746174753506], [8.279337927747402, 47.303852784741764], [8.279344074657677, 47.30393830894406], [8.279189847118525, 47.30400645363814], [8.279159681797873, 47.30404665596301], [8.27915781486283, 47.30412211010754], [8.279127012754623, 47.304199987947484], [8.279112033945298, 47.304304402361154], [8.279000194008741, 47.304383859796424], [8.278944302598914, 47.30444473980726], [8.278989831201697, 47.3045177530041], [8.279057964981343, 47.304641512906194], [8.279030111471261, 47.30470175706156], [8.279063814764719, 47.304895523670744], [8.279033630753007, 47.304918617622306], [8.279050695421889, 47.30496602266907], [8.278970130100152, 47.30508504588704], [8.278960073258851, 47.30519217695464], [8.278925431042262, 47.305204257484654], [8.2789162422351, 47.305330415597616], [8.278998477165262, 47.30535104475678], [8.279010247754169, 47.30538556256741], [8.27898053883204, 47.30541785487865], [8.279018768598128, 47.305549676258124], [8.279035198740814, 47.3056071691861], [8.27897875234004, 47.30568495480896], [8.278966769266587, 47.30571675827693], [8.278981416734473, 47.305752568453265], [8.279003015897827, 47.30579734990527], [8.278985333039435, 47.30585182625061], [8.279002102350313, 47.30594177958436], [8.279030324650167, 47.305986422652424], [8.279022546398384, 47.306123211518724], [8.278936327101267, 47.306161240226366], [8.278921816548596, 47.306187071366324], [8.278902108661383, 47.30627086784767], [8.278881207494162, 47.30635952114008], [8.278845944160818, 47.306506125598354], [8.278860185739534, 47.30650269375641], [8.278918536041843, 47.30648864216975], [8.279017935234103, 47.30646453206311], [8.279405396773914, 47.306371239429225], [8.279535942388337, 47.306339804633936], [8.280243512398558, 47.30616941022175], [8.280284612068266, 47.30617853716693], [8.280914547640856, 47.3062813741257], [8.28096808546498, 47.30629011312319], [8.280977207201262, 47.306291593679134], [8.281495115510895, 47.30634874268021], [8.281509249362756, 47.306351904557886], [8.281516346896533, 47.30633406075327], [8.281664242310182, 47.30596183950502], [8.281805254180586, 47.30562530646605], [8.281815413038316, 47.30559700606744], [8.282067826851197, 47.30562153390086], [8.282133934007845, 47.30515858485455], [8.282104856620792, 47.30492017040453], [8.282034113665903, 47.304740536731416], [8.281804268680789, 47.30458484122141], [8.281646017792362, 47.304420661950694], [8.281539398917825, 47.304217462417476], [8.281771023068929, 47.30418622942946], [8.281741226678246, 47.304069647409136], [8.281692190157893, 47.30387772020885], [8.281633932634342, 47.303608441162915], [8.281610882378665, 47.30349361793987], [8.281582061580234, 47.30327125724116], [8.28185337073795, 47.3032604493272], [8.282112720712867, 47.30323843087193], [8.28217954478379, 47.30277256112567], [8.282238462930465, 47.302454986405365], [8.28229442081557, 47.30212502893018], [8.28252155518188, 47.30165383936825], [8.28339091460726, 47.301851103289444], [8.283409109223308, 47.301855242701535], [8.28319110602206, 47.302201894542456], [8.283162912761917, 47.30224446711449], [8.283118757182672, 47.302311182023324], [8.283082575322323, 47.3023695363505], [8.283051269471452, 47.302534697213595], [8.283020180660419, 47.30259403946627], [8.282965590488411, 47.302620560342326], [8.28285192680216, 47.3027028415523], [8.28277421704913, 47.30286455491262], [8.282689774343819, 47.30306463605502], [8.28267354133999, 47.3031912870858], [8.282721849932765, 47.30319899311019], [8.28285216627342, 47.30321976237936], [8.28286492974405, 47.30321742031299], [8.2828716369735, 47.30330458614352], [8.28287565532603, 47.303345465720106], [8.282869602926723, 47.30337749615056], [8.282873530406977, 47.30339924418939], [8.282896547662851, 47.30343321154339], [8.282936238772294, 47.30347964090805], [8.282962912228168, 47.30351902356358], [8.282983548748588, 47.303560474251725], [8.282997413841155, 47.30362444387987], [8.282964455025315, 47.30368933180839], [8.283019705571071, 47.30375466270216], [8.283010454552283, 47.303871242096555], [8.28301579542524, 47.303896227038656], [8.283057823111456, 47.30393317654776], [8.283077754544708, 47.303971834984566], [8.283116725322566, 47.30411313945589], [8.283124662958297, 47.30419945998608], [8.283199979227676, 47.30424333483599], [8.283210475002896, 47.30428906034778], [8.283199288599272, 47.304303336240686], [8.28314264794711, 47.30431652392681], [8.283161698440418, 47.304338781739645], [8.283210684607766, 47.30437085895162], [8.283226592850157, 47.304386735530926], [8.283224463613628, 47.30441263858614], [8.283197954909618, 47.304464787725955], [8.283241714757503, 47.304495014016375], [8.28323860956058, 47.304515230407965], [8.283213775184874, 47.30455453125046], [8.283221392560328, 47.30458047089506], [8.283273355931442, 47.304674501554246], [8.283282861353188, 47.3047111134378], [8.283276975027922, 47.30474193725794], [8.283263372225083, 47.30476814913056], [8.28335670911865, 47.30497053599929], [8.28342000096643, 47.30513360100693], [8.28343280806085, 47.305166590573975], [8.283430407196498, 47.305173651191005], [8.283424533670482, 47.305191072471665], [8.283358375146737, 47.3053867210734], [8.283294809086323, 47.305788928044514], [8.283416355848042, 47.306778678246694], [8.283421014292015, 47.306816503873016], [8.283461166999603, 47.3071434553211], [8.283473678633973, 47.30714687176101], [8.283526758139178, 47.30716165768101], [8.283830451439542, 47.30724708086571], [8.283951522863251, 47.30728131951402], [8.284180155980954, 47.307345964569656], [8.284197305807954, 47.30735081314241], [8.284560408179068, 47.307459698952485], [8.284733000513636, 47.30751541686208], [8.284884550748892, 47.30756433573822], [8.285308885746673, 47.30766650954805], [8.285581235028003, 47.30776147702002], [8.285749218933775, 47.30781000432091], [8.285836373086061, 47.30783518909801], [8.286036129151684, 47.30788491292512], [8.286587821300252, 47.307968615469896], [8.286682764137867, 47.307987886631494], [8.287067392376477, 47.30809926831198], [8.287328765661412, 47.308174001145005], [8.287407784250322, 47.30822891859537], [8.287693385134784, 47.3084274587497], [8.287759519540773, 47.30847214478252], [8.28780836874368, 47.30850517451025], [8.287793750719791, 47.30851653473862], [8.287824577651055, 47.30853313745655], [8.288149721511047, 47.3087082410904], [8.288169997253277, 47.30871915571644], [8.288474814704893, 47.308887429416856], [8.287108695684314, 47.310608354564], [8.286876462331929, 47.31090087698224], [8.286845240179044, 47.31094020748175], [8.286854373743404, 47.311167109757704], [8.286870609004641, 47.31144140839569], [8.286782039861022, 47.311872782580465], [8.28666084920665, 47.31205159316669], [8.286629549673409, 47.312097760325464], [8.28648154610384, 47.312308861522226], [8.286504293486658, 47.312573577652934], [8.286514203806696, 47.31275119103389], [8.286518231465736, 47.31282323794111], [8.28648586680938, 47.3131446133245], [8.286448636992505, 47.313514444136736], [8.286446054916203, 47.31354007170805], [8.28651237180275, 47.31366918370944], [8.28658172950645, 47.31378237926608], [8.286646199552983, 47.313895934578], [8.286608749815931, 47.313975473178985], [8.286527634859718, 47.31406635135309], [8.28654274859346, 47.314133540597574], [8.286596170976845, 47.314226029980816], [8.286623951256004, 47.31432957361193], [8.286545449086418, 47.314577466371844], [8.286492494520846, 47.314809196568326], [8.286516678371896, 47.31481622385307], [8.286625069237271, 47.31490112238091], [8.286551396688337, 47.31511587833987], [8.286478658675671, 47.315317062975396], [8.28641617816624, 47.31549872516421], [8.286280550065978, 47.315690162405424], [8.286010421943592, 47.316070149242705], [8.285931213449059, 47.31614890574893], [8.285659442824098, 47.31641903928051], [8.285504082805739, 47.31657096138258], [8.285241779449207, 47.31680695195341], [8.285012764863591, 47.317036176558474], [8.284781613134252, 47.317265047538534], [8.284842857617154, 47.31728776053013], [8.284882711830987, 47.31729449337513], [8.285610692696892, 47.317417941756545], [8.287558018200432, 47.31774813911962], [8.287570779819058, 47.31772385782044], [8.28759958465995, 47.317724437452874], [8.287742617781877, 47.31772738792185], [8.288298989545636, 47.317790251308516], [8.288404095961429, 47.31782532226905], [8.288460844846876, 47.317896189253325], [8.2885641759328, 47.31800415905578], [8.288697439743784, 47.318057246059126], [8.288816060789753, 47.31810449512989], [8.288878438961063, 47.31817164145548], [8.289009397195633, 47.31827092501938], [8.289035690458965, 47.318285698834686], [8.28911725327799, 47.318331547479666], [8.289150529931023, 47.318348779127746], [8.289201662915637, 47.31841580046495], [8.28923738065242, 47.31848162269155], [8.289329271859016, 47.318611965165765], [8.289410390121061, 47.31868796783893], [8.289412024666891, 47.31871500342357], [8.289416022520724, 47.318780762785934], [8.289399416726162, 47.31879122032413], [8.289359421105095, 47.31881638612823], [8.289361973667386, 47.3189068291817], [8.2893334054848, 47.319076350998486], [8.289289012952942, 47.319173418336], [8.289253781525153, 47.319217015404156], [8.289286314814037, 47.31931371384872], [8.289237267585872, 47.31937768716966], [8.289215467681439, 47.31946644795903], [8.28918848281465, 47.31957683433593], [8.289182095017429, 47.319599323671326], [8.289170533087361, 47.319620852667555], [8.28915406561905, 47.31964084369825], [8.28913314752367, 47.31965878972556], [8.289100805626397, 47.319698614945544], [8.289096379717016, 47.31974545682341], [8.289115175881701, 47.31978859298992], [8.289041125839763, 47.31984664296567], [8.289015047312661, 47.31987196686511], [8.289004899700634, 47.3198818100958], [8.288995989539162, 47.3198904479119], [8.288907384965876, 47.31989340436653], [8.288209722282318, 47.32134821821814], [8.288182694818712, 47.3214045549139], [8.287609114419249, 47.32260055976027], [8.289285625287215, 47.323095954046], [8.289323406310508, 47.3231059298209], [8.28943601131531, 47.32301650935684], [8.289506359044298, 47.32286537134352], [8.289535876893943, 47.32281258743748], [8.289627956981636, 47.32263899009948], [8.289671805374672, 47.32257653866094], [8.289822413900286, 47.32238850331494], [8.289921936416311, 47.3222354222127], [8.290121575044132, 47.32213407836459], [8.29026995791135, 47.322058738581525], [8.290266950939657, 47.32206593873545], [8.290231540199846, 47.322150599165106], [8.290222962719586, 47.32218257661672], [8.29024028341494, 47.322216044749], [8.29028703105278, 47.3222640562788], [8.290348701746634, 47.3222989057483], [8.290347657823846, 47.322329657852066], [8.290359777048566, 47.32236293963881], [8.29039084320908, 47.32240641665704], [8.290431689345333, 47.32242694736871], [8.290487479087096, 47.32244470535713], [8.290511135471949, 47.322489712217774], [8.290559039745034, 47.322570384449925], [8.29054557257062, 47.32263084863075], [8.290503776928638, 47.32269588453315], [8.290450459005797, 47.32276505316964], [8.290434532151998, 47.322795735430894], [8.290447938930694, 47.32285833034233], [8.29040517242017, 47.32292223101143], [8.290413037894435, 47.32293515256038], [8.290529275512968, 47.32299558571652], [8.29058100313066, 47.32306629936931], [8.290551157140234, 47.32312665062627], [8.290565784622027, 47.323163736632715], [8.290549463084364, 47.32318129824057], [8.290554389139187, 47.32320813857175], [8.290583206700136, 47.32323750115322], [8.290580828205158, 47.32325838687824], [8.290580133079231, 47.323264562533204], [8.290578812416642, 47.3232763016628], [8.29056131061827, 47.32330611405347], [8.290567967823007, 47.3233245494296], [8.29061450867259, 47.323371950835515], [8.290706031587495, 47.32351161386513], [8.290709233650404, 47.32356635117391], [8.290669791877448, 47.32365125744901], [8.290701989257029, 47.32377464575479], [8.290726791487394, 47.32382011192492], [8.290754231033498, 47.323873339089445], [8.290732252204666, 47.32391440118306], [8.290744023382468, 47.32394988012641], [8.29076867915566, 47.32397374151478], [8.290691942834284, 47.32404937079404], [8.290666442896264, 47.32407869362293], [8.2906681361346, 47.324098577870906], [8.290684888182776, 47.32411128097086], [8.290714899069968, 47.324133321852145], [8.290731395924947, 47.324153240731206], [8.290772215035894, 47.324185240099304], [8.29087594553313, 47.32415478227009], [8.290977191326405, 47.324154295771855], [8.29108423049378, 47.32419102339376], [8.291286336264694, 47.324295887074804], [8.29141668508947, 47.3243425434809], [8.29154724772987, 47.32436614416187], [8.2916861585335, 47.324364128417926], [8.291830948009133, 47.324334292786965], [8.291969334045847, 47.32426222823789], [8.292008294993606, 47.32424994101874], [8.292061748928818, 47.3242654217973], [8.292166540205727, 47.32427983921567], [8.292272812342325, 47.32427353025004], [8.29244376134856, 47.32424413846261], [8.292681309344085, 47.3241820068592], [8.29290257516514, 47.32411757584081], [8.293090398776828, 47.32405484018379], [8.293172113837034, 47.32402101696403], [8.293354423088216, 47.32392953796753], [8.293528498501106, 47.32381132378983], [8.293941235036714, 47.32349272368166], [8.294064725962063, 47.323405331231186], [8.294190019533849, 47.32334046654971], [8.29436734254723, 47.323269108348754], [8.294501921844642, 47.323203418823965], [8.29463478309505, 47.32310321042478], [8.29479310477913, 47.3229425471747], [8.294902091927877, 47.32287477146287], [8.294961941197466, 47.322865098604225], [8.295007550441756, 47.32287400690599], [8.295807857508821, 47.32324116487959], [8.295845394955055, 47.32327872758908], [8.295831927086368, 47.32331901687252], [8.295946704355652, 47.32320325436786], [8.29740405300495, 47.3215825170462], [8.29742654367379, 47.32152677914279], [8.297394397366114, 47.321485551841874], [8.297383970431003, 47.321472200042855], [8.297415565880529, 47.321443010350556], [8.297142788712405, 47.32127116782004], [8.297115819446889, 47.32123762841513], [8.297096194723627, 47.3212018036197], [8.29708434965071, 47.32116442779816], [8.297080495505227, 47.32112629995583], [8.297084736994176, 47.32108817487266], [8.297144652992237, 47.32084100749966], [8.297179452279652, 47.32064011704103], [8.29722925209737, 47.32031261034509], [8.297250350516073, 47.32022379939723], [8.297278368186275, 47.320135881468715], [8.297303523368615, 47.320071488522345], [8.297332394079895, 47.32000782361793], [8.297365635692259, 47.31994370329361], [8.297592679153597, 47.31961830447622], [8.297713593061877, 47.31944403629761], [8.297760220678358, 47.31938405279926], [8.297814249951943, 47.319327000515884], [8.297845037139385, 47.319306038018176], [8.29787881077291, 47.319287355979554], [8.297919501720083, 47.319269449997456], [8.297962943885876, 47.31925482464982], [8.298094617146722, 47.31921902482054], [8.298171408799163, 47.31919143216352], [8.29824340339483, 47.31915837925691], [8.298309747184033, 47.319120241278675], [8.298369680453185, 47.3190774826546], [8.298422470191303, 47.319030585542976], [8.298467556538, 47.31898010282984], [8.298503208530883, 47.31892861098733], [8.298530808603054, 47.3188748854325], [8.29855007522172, 47.31881951293736], [8.298560792832195, 47.318763070773166], [8.298562852449743, 47.31870618043486], [8.298556237494713, 47.31864945369129], [8.298553543889605, 47.31859966879351], [8.298556062033548, 47.318549890079225], [8.298563808861681, 47.31850035123541], [8.298592535175375, 47.318356443212444], [8.29862481178023, 47.3182128775107], [8.298659215477233, 47.318074917691824], [8.29869685298319, 47.317937365463145], [8.29876693160811, 47.31774614147606], [8.29880434896103, 47.31761219777547], [8.29882527014973, 47.317515903917645], [8.298828994657867, 47.31746631401651], [8.298838399155908, 47.3174170685534], [8.298853449033816, 47.317368482619074], [8.29888128943651, 47.31730675869959], [8.298918213423892, 47.31724728774106], [8.299244226638269, 47.31678980281421], [8.299430839125392, 47.31650638357142], [8.299628441486194, 47.316175407039516], [8.29965686098887, 47.316134915691144], [8.299669189500916, 47.31604643032231], [8.299654552620238, 47.31605331273028], [8.299638487026316, 47.31605854173591], [8.2996214401938, 47.316061979065545], [8.299603794212219, 47.31606353192741], [8.29958599859783, 47.316063187974756], [8.2995685157889, 47.316060916758275], [8.299551757228015, 47.316056805168074], [8.299470560393825, 47.31602333810398], [8.2997514035789, 47.3156050915665], [8.299915385004962, 47.31529257945849], [8.300020101924998, 47.31490582449004], [8.300153534311185, 47.31421110140499], [8.299604408379814, 47.31409500992551], [8.299382107426228, 47.31398307142295], [8.298699002815408, 47.31336540846964], [8.298946259750553, 47.313164856646885], [8.298964106282755, 47.313150367607726], [8.298980260728912, 47.31313429009693], [8.299289865916208, 47.31282632520067], [8.2997975536585, 47.31205200278461], [8.30055716330283, 47.310528279146276], [8.301344784216681, 47.30894836407674], [8.301110027288233, 47.3088141694751], [8.299733902389045, 47.30828311421797], [8.299687209267814, 47.30826286416242], [8.299010921593796, 47.308000721808554], [8.298201748194394, 47.30789881500215], [8.29809287445911, 47.30782442824278], [8.298078232131576, 47.30781441791648], [8.298017538524027, 47.30777630857839], [8.298015294306806, 47.30777491309299], [8.297959447105955, 47.30773634513819], [8.29822343036974, 47.307584657246174], [8.298326217531416, 47.30752581987802], [8.298438452123147, 47.3074615688057], [8.298531122579497, 47.307408527256115], [8.297476480572035, 47.306957866466874], [8.297425769960261, 47.306949168041754], [8.297239154186636, 47.30749162215137], [8.297158532724522, 47.30746670365786], [8.297136970468866, 47.30744247877626], [8.296545128170566, 47.30727462011411], [8.296649336726292, 47.306634312777646], [8.296764659126541, 47.306147573652076], [8.296811611789545, 47.30583780642867], [8.296904182144882, 47.3055680153566], [8.296920393039963, 47.30533344992646], [8.296984737661118, 47.30501900149379], [8.297093981142734, 47.304504953456444], [8.297039433582261, 47.3042903438884], [8.296969896533218, 47.30433192348739], [8.296896338436047, 47.30437015981466], [8.296823873695008, 47.30439826859031], [8.29674932984282, 47.30442373026627], [8.296686463795917, 47.304442682588224], [8.296622430235804, 47.304459754622044], [8.2966029091584, 47.30446453223111], [8.29646354890896, 47.304497869639235], [8.29632110492006, 47.30452447454956], [8.296179862070497, 47.30454354150965], [8.296037145626316, 47.30455649366615], [8.295480315160516, 47.30460286236734], [8.295347094182782, 47.30461093082463], [8.29521352816147, 47.304615628577174], [8.295079802114266, 47.30461694528472], [8.294922501314208, 47.30461436211955], [8.294765454385832, 47.304607819040164], [8.29425434220965, 47.30457939098108], [8.294252218836936, 47.30457561984814], [8.294254435375409, 47.304518368384045], [8.294257407370328, 47.304511555147016], [8.294520432214982, 47.303909405953064], [8.29457600884314, 47.30378219155989], [8.294305753621387, 47.303669906175244], [8.293904429346584, 47.303560292035435], [8.293570120109992, 47.30337360584261], [8.293265350154376, 47.303241155394566], [8.29296315445129, 47.30306207285915], [8.292507472627928, 47.30301184469818], [8.291990346713463, 47.30293874551771], [8.291425301518117, 47.30280115353033], [8.291413128671602, 47.3028007037756], [8.291105896017793, 47.302523454771176], [8.290992353132623, 47.30260922373812], [8.290695830094185, 47.3028238656256], [8.290620534623631, 47.302730198966906], [8.290435706860743, 47.30244078254321], [8.290320958462374, 47.30231673421762], [8.290078193853802, 47.30205826539242], [8.290040518989096, 47.30202582864607], [8.289749269660769, 47.3019201455054], [8.28966012106861, 47.30186557396637], [8.289535595481949, 47.30179410082604], [8.289467124834694, 47.30175340874224], [8.28934658670808, 47.30167406232047], [8.289281206351843, 47.30164223435781], [8.289181003859763, 47.30159346462261], [8.289214525250852, 47.3015528211728], [8.288965870159592, 47.30140385289397], [8.288547580176552, 47.30119530044134], [8.288362699525017, 47.301120024646366], [8.288180829721874, 47.301071882330675], [8.288112044308797, 47.301053670180984], [8.287903602892166, 47.30139829100982], [8.287858304636966, 47.301376118949484], [8.287895028130395, 47.30132225659577], [8.287418880172261, 47.30120030663437], [8.286800230037324, 47.3010517698743], [8.286799860155066, 47.3010467983737], [8.286802895741175, 47.30090826242325], [8.28697578630691, 47.30049543517031], [8.287019588150635, 47.30044597353927], [8.28728455156665, 47.30013914016601], [8.2874347880498, 47.29977389130632], [8.287519415157156, 47.299413037552654], [8.287132416355114, 47.29917689653626], [8.286032365675778, 47.298743156684516], [8.286410783245758, 47.29828278420863], [8.28645804762847, 47.29801677924223], [8.2864593834254, 47.29760293722569], [8.286478020988774, 47.29749764897235], [8.286514866906462, 47.29719593846985], [8.286426926014833, 47.296816159990634], [8.286569185532116, 47.29645169037941], [8.286705513422287, 47.29623085098695], [8.286715104460562, 47.2962128624599], [8.28686384083835, 47.29593423783026], [8.286867551509149, 47.295927284437596], [8.286960668265818, 47.29543678725538], [8.287025912879127, 47.295200998650884], [8.287089999216503, 47.294935616055874], [8.286749962472632, 47.29479042882721], [8.28610040747319, 47.29453825342667], [8.286037295780652, 47.29451039206191], [8.285785477298898, 47.29439930218383], [8.285572523882875, 47.29433448397629], [8.285430385521114, 47.2942905977748], [8.284911322947258, 47.293994066989136], [8.284780619087327, 47.29387732759927], [8.284740507892042, 47.29384408852895], [8.284562448033956, 47.29370246447863], [8.284410543466333, 47.293424923542425], [8.284184216944638, 47.29329264635916], [8.284359088922809, 47.29313543632669], [8.283682124655043, 47.292874559035305], [8.283645722907552, 47.292891844109306], [8.283581378867952, 47.292865285444684], [8.283551714261561, 47.29298165493574], [8.2834892541218, 47.293094234852056], [8.282963975821042, 47.29382985830785], [8.282883193264233, 47.29394188836099], [8.282519309807338, 47.29445099517154], [8.282320553352879, 47.29472473587761], [8.282109509332553, 47.294995795581166], [8.281891029661379, 47.295257455549184], [8.281650382549396, 47.2955137271568], [8.281395204907893, 47.29576178392202], [8.281219619586894, 47.29591427188792], [8.281088390680061, 47.29602725356705], [8.280878944557223, 47.296229334685385], [8.280703310086398, 47.296446810863955], [8.280570343169131, 47.296671935981855], [8.280459784505712, 47.29690280709334], [8.28014464006134, 47.297606929604925], [8.279937845100731, 47.298050909213394], [8.279803345661268, 47.29830427069517], [8.279679818422954, 47.29851978214762], [8.279546892246888, 47.29873214175319], [8.27937365278391, 47.2989707454213], [8.279182845328036, 47.299205555008335], [8.27891741002751, 47.299511104550795], [8.278761007625505, 47.29969738685232], [8.278606270049133, 47.299908878617316], [8.278478366020774, 47.3001266151895], [8.278375225833331, 47.3003501350417], [8.278294840862674, 47.30057866127902], [8.278283237219048, 47.30062614012944], [8.27824016395441, 47.30080991474744], [8.278135522676683, 47.30145952766341], [8.278121307509043, 47.30154445357198], [8.278083081146656, 47.30162447203944], [8.27799544551974, 47.301681328030064], [8.277982857694646, 47.301743619694854], [8.277967545767916, 47.30181938718209], [8.277950021332318, 47.30223640367838], [8.27804279924279, 47.30245777854353], [8.278176544812652, 47.3026750138235], [8.27846009755506, 47.30291220713623], [8.278654129112736, 47.302892211067515], [8.278701709574271, 47.30288731314186], [8.278944423263185, 47.30323826482988]]]]}}]}