{"type": "FeatureCollection", "features": [{"type": "Feature", "properties": {"bfs_nummer": 4237}, "geometry": {"type": "MultiPolygon", "coordinates": [[[[8.382671978395768, 47.16080821349691], [8.3824398452491, 47.160813401253684], [8.382122864206918, 47.1608077882618], [8.381844007269477, 47.160789231904815], [8.381525186878878, 47.16076380607677], [8.381384953649622, 47.160796061258395], [8.381138274361051, 47.160848501326456], [8.380921047065607, 47.160895815427516], [8.380711438270671, 47.16091292298203], [8.380501672998358, 47.16092339282348], [8.38032662634943, 47.16093196799458], [8.380012649832372, 47.16095173658942], [8.379869544530264, 47.16095123423651], [8.379665175215376, 47.16094231824425], [8.379591856392633, 47.160939130752354], [8.379307995669746, 47.16092849842907], [8.37913963640625, 47.16091986283626], [8.378934990913228, 47.16091247704663], [8.378658817896655, 47.160870206527875], [8.378407678248593, 47.160823493846024], [8.378241856834544, 47.16079787083571], [8.378057309869186, 47.16076710222298], [8.377862352404636, 47.16073305382186], [8.377845339639935, 47.160968333409876], [8.377933314330642, 47.161419644604265], [8.378035730739017, 47.16170102234138], [8.378056971826767, 47.16171345151384], [8.378500585665435, 47.16199260872441], [8.37899772730079, 47.16259545023543], [8.37908345232489, 47.162830951411074], [8.379297172862634, 47.16341735202285], [8.379369054140822, 47.16363873524534], [8.379395298354988, 47.16371964135345], [8.379430343013599, 47.16387651374658], [8.37948913597338, 47.1641223365509], [8.379568287817293, 47.164438328132555], [8.37959210251458, 47.164518291590454], [8.379654578046171, 47.16472817446626], [8.379662878949095, 47.16490774492466], [8.379666676568375, 47.16497895757576], [8.379681404950675, 47.165002710996625], [8.379736235002783, 47.16508827668438], [8.381343530682415, 47.16756515826828], [8.381359082307629, 47.167589138593875], [8.381154231199908, 47.16839174062175], [8.381024793570448, 47.1688989094952], [8.381022991879666, 47.168905958673996], [8.380822745074251, 47.17085406031392], [8.380646640936554, 47.170846362795615], [8.380564623430503, 47.17149793229995], [8.381001425483575, 47.17153098503822], [8.381084945131635, 47.171537317494945], [8.381383505680004, 47.171598172602096], [8.381334864644206, 47.1717102308664], [8.381303504231395, 47.17179983006578], [8.381779872590553, 47.17190562568259], [8.38189910053916, 47.17193210222655], [8.381910068255465, 47.172002787942084], [8.381826651929286, 47.17208321558302], [8.38181315156154, 47.172170473645515], [8.381845989117224, 47.1723608348046], [8.381828989152655, 47.17243590566982], [8.381849722527095, 47.172476124965506], [8.38192997755742, 47.17252467191022], [8.381959945645692, 47.17256567008729], [8.382030285901864, 47.17264219287399], [8.38205744786137, 47.17282708600219], [8.382037902630557, 47.17289096056278], [8.382047268645788, 47.172988996461555], [8.382050745587193, 47.173025345321925], [8.382077211865486, 47.17305629634838], [8.382077436739333, 47.17315511769319], [8.38202646701702, 47.173234613689026], [8.381981288595247, 47.17330513892718], [8.381973328467383, 47.17331754587229], [8.382016322521439, 47.173327412176356], [8.382075259922027, 47.173384859427564], [8.382152350140009, 47.17341991218375], [8.38223467642891, 47.173421980814], [8.38224736175945, 47.17341944804755], [8.382325065731203, 47.17337558799209], [8.38234166249422, 47.1733696948528], [8.382361318830375, 47.17336749171357], [8.382545655412814, 47.173414384167465], [8.382710117406932, 47.17349071947146], [8.38285782269962, 47.17359974632737], [8.382971786914592, 47.17367155702733], [8.383024370574319, 47.17372620429723], [8.38301241166946, 47.17378112032593], [8.382952155543558, 47.17389946351642], [8.382982142516848, 47.17395564554517], [8.383062203574033, 47.173995998660025], [8.383132990288795, 47.174009423347606], [8.383287392028683, 47.174023124422675], [8.383407459168266, 47.174060953809864], [8.383559393509946, 47.17415306066391], [8.383736507904251, 47.17421357565339], [8.383802086711691, 47.174236838888156], [8.383919239600939, 47.17428588209182], [8.384021938507704, 47.17429782099067], [8.384174563865663, 47.1743236613135], [8.38422939060609, 47.17434910858495], [8.384488722460421, 47.17442178327903], [8.384592973264297, 47.17445581961193], [8.384781747333262, 47.17450564957447], [8.384905687791571, 47.17448934731108], [8.384958955441267, 47.17446091558869], [8.385054801204744, 47.174457536728916], [8.385176046580519, 47.174473091130146], [8.385399538890809, 47.17445411649747], [8.38549214756729, 47.174452688952364], [8.385606641756958, 47.17449003132406], [8.385751181909542, 47.174499483429464], [8.385872778699381, 47.17453114501848], [8.385998484916932, 47.174512506319935], [8.386121266629232, 47.17447398478902], [8.38623535219457, 47.17443831407355], [8.386698041318496, 47.17460256456076], [8.38698143774777, 47.174674360805625], [8.387140465877646, 47.174683943719224], [8.387287604067577, 47.17467767553547], [8.387344062606912, 47.17468865227533], [8.387356476454006, 47.17472214774599], [8.387360876710732, 47.17472479211107], [8.387365835395839, 47.17472693715419], [8.387371246171504, 47.1747285387505], [8.387376949604095, 47.17472953520224], [8.387382800462104, 47.17472991873477], [8.387388679741488, 47.174729672370326], [8.387394416278372, 47.174728815496856], [8.387426792308503, 47.17471930128292], [8.38752718223929, 47.17467756243547], [8.387547599931356, 47.17465280968254], [8.387569461276728, 47.17454729320719], [8.387542077404893, 47.17448867105885], [8.387552919685106, 47.17446701067416], [8.387600776449316, 47.17446605836495], [8.387680127281254, 47.17448695691092], [8.38776943670657, 47.17456355392399], [8.387789897263385, 47.17457172390279], [8.387884941546222, 47.17458934463199], [8.388026788749091, 47.174528759835084], [8.388039440786523, 47.174468584095656], [8.388051544578117, 47.17448532364264], [8.388574007672688, 47.17520803245236], [8.388623636061274, 47.175211724626806], [8.388600906259875, 47.17529867325016], [8.388611855927923, 47.17529868183249], [8.389370363557108, 47.175300098411675], [8.389389162780608, 47.17530012294066], [8.389462764298584, 47.175300261393446], [8.38948724966694, 47.17530030193705], [8.389869200157504, 47.17514357577461], [8.39055767737664, 47.17491772051003], [8.39122906518499, 47.17469705783887], [8.391604360984667, 47.17464422412076], [8.391743309783351, 47.17459666616427], [8.392325287951541, 47.1743975170832], [8.39236182377617, 47.174405328176256], [8.392615466029199, 47.17447343507693], [8.392671848850139, 47.17451045155143], [8.393138614901995, 47.17481704887162], [8.393632854950479, 47.17522727745749], [8.393951570632439, 47.17553355283021], [8.39414254014781, 47.17568640976386], [8.39447639234655, 47.17609086890099], [8.394566834266145, 47.17666070566444], [8.394637999873785, 47.17710922837881], [8.394709877817698, 47.177562107922434], [8.394696272697297, 47.17760179172643], [8.394869478348546, 47.17784456909679], [8.394978945045896, 47.178185197276235], [8.395051972173878, 47.17853678771863], [8.394951554874563, 47.17913442235297], [8.394955213845494, 47.179139834299605], [8.39497703113771, 47.179172081466106], [8.3950518065521, 47.1792826251015], [8.39519689269497, 47.180116624696005], [8.395283898364937, 47.1806078332222], [8.395207371061293, 47.180998698677726], [8.395202063120276, 47.181005849143354], [8.395195226421414, 47.181012355673325], [8.395187016848967, 47.18101808203689], [8.395177603280032, 47.18102288285278], [8.395167234441749, 47.181026648127514], [8.395156132808156, 47.18102927704333], [8.39514457452527, 47.18103071343805], [8.395132823219207, 47.181030946068006], [8.395123568825065, 47.18104317575432], [8.39513293890498, 47.18117838869057], [8.395203878754678, 47.181370876447126], [8.395357633909358, 47.18174844878074], [8.395426377433484, 47.18181654827564], [8.395854603660108, 47.18207514079231], [8.3959473888444, 47.18210718432242], [8.395982332432451, 47.182104581885575], [8.39602801243861, 47.182101053546276], [8.396169128703466, 47.18208895926093], [8.396207728833101, 47.1820871988738], [8.396265146487883, 47.182091506759726], [8.396416583231462, 47.182148123167224], [8.396456176009835, 47.18213990465304], [8.396502087704256, 47.18215963630242], [8.396751271764451, 47.18237503505226], [8.396979870147913, 47.182526062682705], [8.39705991790273, 47.18261739215953], [8.397123762945844, 47.18280958694998], [8.397137054585572, 47.18285186254946], [8.39715625260342, 47.182875468511945], [8.39720036265203, 47.182910210241644], [8.397294271588953, 47.18295697786475], [8.397396777665259, 47.18303289077615], [8.39747094705424, 47.18313700629719], [8.397529376512741, 47.18330519225458], [8.397577495764304, 47.183384706501045], [8.39765494159461, 47.183470606012925], [8.397700669625612, 47.18352121999559], [8.397819389586129, 47.18362416366645], [8.397952758020539, 47.18369855044004], [8.398106165953891, 47.18376098631143], [8.398174253296423, 47.18376493445419], [8.39829606179245, 47.18377149308728], [8.398330977159262, 47.1837753577853], [8.398404656655494, 47.18378285733263], [8.39874144801586, 47.18382001530045], [8.398743694746216, 47.183820221446005], [8.398791871292728, 47.1838189830203], [8.398821319409771, 47.1838181616579], [8.399009909077096, 47.18376470280108], [8.399037210969924, 47.183750163344676], [8.399091686337675, 47.18371907948045], [8.399205137947554, 47.18365261014447], [8.399377353892456, 47.183588933661795], [8.39952308803374, 47.18353844934703], [8.399559272442774, 47.18353288522735], [8.399601988908662, 47.183532528562566], [8.39971731293424, 47.18353363440054], [8.399855937624036, 47.18355674636103], [8.399923917524363, 47.18355912911432], [8.400273598128145, 47.1835808017812], [8.40035633231722, 47.183037228820126], [8.400444076201145, 47.18271445111612], [8.40126075609056, 47.180008892719194], [8.401546653091815, 47.179106959778736], [8.402135418930998, 47.17730284077063], [8.402227070714892, 47.17704434563072], [8.40236204788018, 47.17684748409117], [8.402533377001317, 47.17669131909777], [8.402752626419984, 47.176566245403514], [8.403006853097459, 47.17647146262654], [8.403395928414243, 47.17639255935748], [8.407774668811095, 47.175754318964024], [8.408268959254466, 47.175657502703395], [8.408670829471337, 47.175557415345146], [8.409021695578609, 47.175445612793666], [8.409323728942544, 47.175339978093724], [8.409580293740737, 47.17523031844787], [8.410057588295864, 47.17499780671336], [8.410435404861827, 47.17477153021703], [8.410773371775642, 47.174531097396404], [8.410885056194887, 47.1744410991073], [8.411196613891658, 47.174163206176765], [8.411457325194622, 47.173883043539405], [8.411663685345891, 47.17362402032687], [8.411888520612528, 47.173263200949656], [8.412065563596975, 47.172879397165566], [8.412844761040484, 47.17091535807239], [8.413576153978134, 47.16911004633401], [8.413921132835807, 47.16820756846072], [8.414978801286912, 47.16549995166942], [8.415130420679196, 47.165027293648414], [8.41523259395063, 47.16459824226308], [8.415314356338474, 47.16412843459255], [8.415364540334943, 47.16369756638576], [8.41539056525952, 47.163215629000874], [8.415380831518418, 47.16279788094773], [8.415316859024228, 47.16099930215019], [8.415263451383364, 47.15920054297764], [8.415228611091495, 47.15884506747891], [8.415172798155767, 47.158576117576004], [8.415082743967577, 47.15830251971896], [8.415008761311809, 47.158121888619945], [8.414879055876968, 47.157879562537914], [8.4147263021543, 47.15764607650345], [8.414533681088308, 47.15739367811136], [8.41120753131452, 47.15675931765804], [8.410927000812698, 47.155882083845235], [8.405099095130042, 47.155546137672324], [8.4048975562072, 47.154546876865865], [8.404848128883032, 47.154551861982085], [8.403637980883044, 47.154166614085945], [8.402843242311965, 47.15389510159416], [8.401866199758958, 47.153574267866425], [8.401325654789263, 47.15352716747297], [8.40108745382516, 47.15355537329635], [8.400935472381608, 47.15356546924621], [8.40039303810048, 47.15354526784358], [8.400207777078695, 47.153531362304555], [8.39923198872382, 47.153370273545434], [8.398881423921903, 47.15329120653876], [8.398401681967535, 47.15316060182963], [8.397773878727783, 47.15674524123402], [8.397646036045137, 47.15677752125549], [8.397697175900294, 47.156853232689116], [8.397871816560741, 47.15706279224726], [8.397882378723361, 47.157088485149195], [8.39789624589766, 47.1570844564609], [8.397918890511265, 47.157125008039216], [8.39789991832503, 47.15713116629568], [8.39793741120377, 47.15722243629665], [8.397927782341911, 47.157441628122626], [8.397975957572795, 47.157702868468235], [8.398092387280146, 47.15791444233936], [8.398310588081575, 47.158118591458795], [8.398448617857744, 47.15827992497887], [8.398607743206153, 47.15833871367559], [8.39854715745962, 47.158376955116225], [8.398518289578906, 47.158413025011356], [8.398480546347516, 47.15844764845856], [8.398413740796297, 47.15847955501488], [8.39836016851517, 47.158544148534205], [8.398342714466951, 47.15865045855169], [8.398275882751165, 47.1586971087843], [8.398143560786576, 47.15874166059621], [8.398107441046811, 47.15876534987964], [8.398020818903461, 47.15877991634914], [8.397918117968548, 47.158789939022334], [8.397879512472397, 47.15878162532238], [8.397844019003356, 47.158780652879265], [8.39776211658461, 47.15880986025997], [8.397693347481818, 47.15880436157837], [8.397647509415478, 47.158792797726406], [8.397570130056932, 47.15878665106912], [8.397497527099368, 47.15877547221067], [8.397443243244776, 47.15875330093691], [8.397311619752735, 47.158746328882145], [8.397275422499115, 47.15875465452919], [8.397183790174074, 47.15874205975255], [8.397132914351289, 47.15872681346198], [8.397052901629397, 47.15875035547792], [8.397015874382987, 47.158743998398926], [8.396920068788743, 47.15867287772176], [8.39686994176639, 47.15867440167216], [8.396834266435654, 47.15868758020871], [8.396716060501959, 47.158695626059306], [8.396577490508788, 47.15867557764487], [8.396542767281442, 47.15867784573914], [8.396445577637536, 47.1586420973849], [8.396261387842127, 47.158732487743414], [8.396179595839019, 47.15873620895214], [8.396140298195272, 47.15876586121836], [8.396056274909707, 47.15880851546718], [8.395987565596098, 47.15881224468028], [8.395927582699436, 47.15879215308423], [8.395865639194227, 47.158761975993144], [8.395856067826173, 47.15871421779977], [8.39568635437939, 47.15874174348804], [8.395604014545585, 47.15871482138846], [8.395540667471199, 47.15877948578947], [8.395363516708555, 47.15877682117809], [8.395303714215308, 47.158805177330485], [8.395209142565504, 47.15876312740463], [8.395080517225276, 47.1588405321493], [8.394949577020892, 47.15881053226238], [8.394715120703017, 47.1587124424398], [8.39465831282576, 47.15871944527159], [8.393942843068881, 47.15872152040378], [8.393832603627956, 47.15869047478761], [8.393689512963762, 47.15866756390289], [8.393610872317012, 47.15862690055335], [8.393420500731356, 47.15857356338371], [8.393300614294008, 47.158559859691], [8.393020048664729, 47.15848349542551], [8.392851403069802, 47.15837416048486], [8.392735552836822, 47.15837820699767], [8.392638978643511, 47.15837311582452], [8.392479265993591, 47.15832543252366], [8.391867158118828, 47.158805277260534], [8.391138735121949, 47.15881095090173], [8.391214577072118, 47.15907386291355], [8.391088479138318, 47.15942114192764], [8.390456317161648, 47.159382790896906], [8.390278748815197, 47.15957407287228], [8.390151387192237, 47.15962662513699], [8.390110181015187, 47.160289597310374], [8.390066631734813, 47.16052550295384], [8.389999197156467, 47.16077622375746], [8.389843381428372, 47.160696490161534], [8.389141826676966, 47.16059832823311], [8.387926582124125, 47.16061765489525], [8.387649189033851, 47.160654189122525], [8.386994195147095, 47.16067069076551], [8.386985829526056, 47.16158681894358], [8.38666479576108, 47.16163116785045], [8.386508503605908, 47.16167706395149], [8.38631236014122, 47.16170985806809], [8.386164966966858, 47.1617228021593], [8.385908310108904, 47.16166452047628], [8.385815401103729, 47.16166784022571], [8.3855884514013, 47.16155022223394], [8.385507435559653, 47.161463885375774], [8.385441388271223, 47.161427457775], [8.385397043023273, 47.16138318760205], [8.385333502308324, 47.16135873004275], [8.38521521777967, 47.16127323949279], [8.38511716192687, 47.161219650972136], [8.384981824352566, 47.161121428180564], [8.38491462072537, 47.1610941403623], [8.384761399790916, 47.16105934679864], [8.384673856499255, 47.16096025363879], [8.384594563346285, 47.16091902303642], [8.384543155847306, 47.16091240229832], [8.384510563893532, 47.160883129284684], [8.384469825722434, 47.16087350627493], [8.38436369899823, 47.1608198576776], [8.384262921844549, 47.16080847047161], [8.3842319595915, 47.16079080613811], [8.384032998364045, 47.1607199649827], [8.383879980164588, 47.160642035535176], [8.383677206976916, 47.16062265199309], [8.382671978395768, 47.16080821349691]]]]}}]}