{"type": "FeatureCollection", "features": [{"type": "Feature", "properties": {"bfs_nummer": 4259}, "geometry": {"type": "MultiPolygon", "coordinates": [[[[7.94360850278737, 47.513206335921744], [7.9447873908992745, 47.51464049208192], [7.94473885876787, 47.51465766670667], [7.94528350394484, 47.51540582174458], [7.944544943382779, 47.51573891193904], [7.944478892143895, 47.515802841906826], [7.94449561595382, 47.51588202433934], [7.944665406758057, 47.516161582297954], [7.945779547969168, 47.518066703292995], [7.945824724523004, 47.518101132649925], [7.94603702888043, 47.518027127162114], [7.946921254464707, 47.51763697839723], [7.94699110527795, 47.51760117270821], [7.946994339339777, 47.517540844657624], [7.947090011727037, 47.51782313409013], [7.947153192024805, 47.518099332929424], [7.94737649540403, 47.518560816408], [7.946591100237744, 47.518918588967146], [7.9457315175025816, 47.51914555628854], [7.946246275896135, 47.519863787036904], [7.946838312630363, 47.52068979872075], [7.947119130443178, 47.52074996006083], [7.947214164994552, 47.52084403359381], [7.94733930557971, 47.52150463406156], [7.947570620171534, 47.52148599090156], [7.947977129355265, 47.521515801323915], [7.948209773787893, 47.52169025945433], [7.948236278412213, 47.52172103742721], [7.948092456300922, 47.52177651493826], [7.948482672684877, 47.52223574786143], [7.949832757652914, 47.52191638081237], [7.949943122746023, 47.522056164265365], [7.950152118843797, 47.52218669841524], [7.950249078764357, 47.52227301753112], [7.950219453251762, 47.522314142793114], [7.9503470975634825, 47.522292668532764], [7.950503090444161, 47.52247831787731], [7.950585388139565, 47.52251858052704], [7.950104259291802, 47.52272333868294], [7.950165098735342, 47.522788339534124], [7.950133434146803, 47.522801079808985], [7.950635284042484, 47.52323956015163], [7.9508424494500005, 47.52316127897202], [7.950871018144644, 47.523196562464726], [7.950726329587019, 47.523251839932875], [7.951253666969405, 47.52382341983284], [7.951638709348947, 47.52373722692083], [7.951834114843262, 47.52367451048321], [7.9521163215823565, 47.52343602631345], [7.952438312280227, 47.52325037615715], [7.952632358905, 47.52319433802505], [7.952749649437408, 47.52310711554084], [7.953194788166064, 47.523506302233265], [7.953230991376858, 47.52356335252893], [7.953309258664184, 47.52364091138757], [7.9533689133092444, 47.52367348380974], [7.953587905652023, 47.523916042877666], [7.953679904361552, 47.523955279986424], [7.953758943142977, 47.52395742925533], [7.953834941613068, 47.52393493933105], [7.954361083621578, 47.52366760951663], [7.954529135660923, 47.52359149194292], [7.955733861735194, 47.526385010253044], [7.955712970690333, 47.52642562141312], [7.955989818350092, 47.5272695519287], [7.956582810396383, 47.52723641367666], [7.956590703453309, 47.52725060691055], [7.957690031723099, 47.527181762680286], [7.958019323051027, 47.52714098544409], [7.959081519305291, 47.528706405224526], [7.961830928363575, 47.52908695444042], [7.961868918172476, 47.52907724936634], [7.967450696870068, 47.52764663288503], [7.96750984899576, 47.52765271285252], [7.968687303408323, 47.52719197663274], [7.9687350599097515, 47.527161889065816], [7.968822705829933, 47.52714509208388], [7.969102562093008, 47.527150781974775], [7.969520797939692, 47.527117874065034], [7.969364557813773, 47.52673288469586], [7.969819838362455, 47.52658828056408], [7.969851603839304, 47.52646218329863], [7.969942885302601, 47.52621650789203], [7.9700640468697195, 47.525942004403824], [7.971582263810305, 47.526001105001704], [7.971604483737133, 47.52585048794189], [7.971551968776536, 47.525397385138376], [7.971428997691827, 47.52469479737114], [7.972743928916773, 47.524708875058], [7.972703141222577, 47.52460339206686], [7.972770280604608, 47.52458796379877], [7.972782430123284, 47.52462101484007], [7.972946499334105, 47.52466227887735], [7.974043912023897, 47.52474160724705], [7.973961966778078, 47.52436906570728], [7.973888061910299, 47.524154125795214], [7.973671487842045, 47.52364119701319], [7.974527046234343, 47.523564897353076], [7.974756772972952, 47.523519161803456], [7.974880398703545, 47.52350277857015], [7.975201188031695, 47.52349549303217], [7.975027479386386, 47.52341063761822], [7.9753360051505, 47.52327627764329], [7.976135142997794, 47.52324257123152], [7.977429715051735, 47.52325042137833], [7.977439343422818, 47.52325322773386], [7.9776335076194735, 47.523308357945716], [7.97764099429796, 47.52335533488978], [7.97791530268903, 47.52335790774245], [7.9781261357502204, 47.52333096090464], [7.978748548903438, 47.52329911997019], [7.978975523072085, 47.52330314360894], [7.979164598864564, 47.5232715565101], [7.9793564381917985, 47.523223191151175], [7.979488000108942, 47.5231674439129], [7.979775575558382, 47.523085469745766], [7.979847119177195, 47.523111803005456], [7.979958103564246, 47.52310864053507], [7.980409065532705, 47.52319646472166], [7.980698756888524, 47.523246655203884], [7.980947675354636, 47.52321904782286], [7.981089783813235, 47.52314302164802], [7.981257219354991, 47.52309497410977], [7.981415683421553, 47.523029195704595], [7.981726380707918, 47.52300399583118], [7.981953500058689, 47.52305484473859], [7.982372863891072, 47.52324411709989], [7.982512124864779, 47.52328070758715], [7.982744965521297, 47.52329355549652], [7.982951320219318, 47.52324577225078], [7.98292177020813, 47.523215286208334], [7.982854455249025, 47.52305081406156], [7.982811087070823, 47.522918148900295], [7.982791386592367, 47.52283674640388], [7.9835506349705145, 47.52267621498019], [7.983504930345928, 47.52253856017539], [7.983478786670458, 47.52243356973243], [7.983339142409547, 47.52180570438105], [7.983392372687146, 47.521797944533716], [7.9833374032600375, 47.52157228145744], [7.983301361705355, 47.52127857925406], [7.983282822378063, 47.5210084223872], [7.983211394933542, 47.520657405337055], [7.983092038185817, 47.52036224125386], [7.9829572953201895, 47.5201735668045], [7.9829079814680135, 47.520113645960755], [7.982849839023715, 47.520056374883104], [7.982576816845166, 47.51982746195636], [7.982501885946826, 47.519787699927846], [7.982412127766671, 47.51976902647128], [7.982317928599798, 47.51977439693923], [7.982256724608259, 47.51981500429094], [7.982260609101626, 47.51989111166825], [7.982063558306095, 47.51973070945931], [7.981727897016991, 47.51954302112454], [7.981346864894743, 47.519396422075474], [7.980938148214046, 47.51929760174638], [7.98056725624275, 47.51925716336353], [7.980194645007088, 47.51923298404556], [7.98015589060777, 47.519214817260135], [7.980112087871543, 47.519163728855425], [7.980107574415831, 47.51910509078531], [7.980210542332308, 47.51852130077527], [7.980283989265038, 47.51821612229121], [7.980501460669348, 47.51754990592688], [7.980627583922277, 47.51736055819578], [7.98081376829532, 47.51719069837073], [7.981056642678996, 47.51705218715252], [7.981334638781129, 47.51695991141222], [7.981675860725433, 47.516882404029765], [7.981799095084963, 47.5170244102808], [7.982194198475542, 47.51722551092309], [7.983624484659607, 47.51669939830567], [7.983419937892983, 47.516445458355534], [7.9833203836367765, 47.51637846153728], [7.98318270681031, 47.516334146885335], [7.983139210651151, 47.51628842749071], [7.983450639312215, 47.516151801948396], [7.983653628680029, 47.51603480667674], [7.984030995601092, 47.51579830542434], [7.983865930491589, 47.5152577381169], [7.982586228615865, 47.51480901180035], [7.9821922145395385, 47.51438521741426], [7.981793280781794, 47.51387811476511], [7.981384527540654, 47.51346965788402], [7.980335149688704, 47.51248192342538], [7.979506416207163, 47.511701849840414], [7.9792854138864255, 47.5118286719137], [7.9788475951501505, 47.51141080874436], [7.978560557306323, 47.51113685450566], [7.978775803910314, 47.510967527807146], [7.979039422287303, 47.51079163431063], [7.97914009903222, 47.5107433164743], [7.979117485545342, 47.51071523448538], [7.979300200039882, 47.51053232426673], [7.979341538014548, 47.51023976942483], [7.978715433869537, 47.5095568612398], [7.978408692602116, 47.50937300269624], [7.978244170253207, 47.50920431094714], [7.977285284638618, 47.5082265203896], [7.977131479427741, 47.50806019709624], [7.976918907250088, 47.507879090512915], [7.9766902822278665, 47.50771971575939], [7.976053548835846, 47.507374986140896], [7.975983262274422, 47.50743930504492], [7.975286030661674, 47.50717055476369], [7.97539242820202, 47.50651711068235], [7.975043022685166, 47.50622733825051], [7.9740753661970025, 47.50570976816706], [7.972741539445503, 47.50475943778522], [7.970746689965415, 47.50286955460226], [7.970987477881094, 47.502685528448], [7.971072238987527, 47.50259937170308], [7.971195015697259, 47.502553288637934], [7.9713802452615115, 47.502531553137416], [7.971502548211807, 47.50251111395983], [7.971561913633795, 47.50246965711657], [7.971587384334954, 47.50241003516757], [7.97153915907923, 47.50234981695798], [7.971390793239231, 47.502307013034525], [7.971188127765648, 47.50229193540453], [7.971020507449652, 47.50230125923069], [7.970506933781273, 47.5023875420968], [7.970325218301546, 47.50240094094981], [7.970169800530586, 47.50238954803092], [7.96939011003146, 47.50223398085951], [7.969103377935387, 47.50216714561954], [7.968922964571564, 47.502091395787346], [7.968795556009735, 47.50199366450807], [7.968713670991814, 47.501866413233465], [7.9686821309501905, 47.501726007212916], [7.968759772662961, 47.501595112253845], [7.968906013800767, 47.50152225711778], [7.969101484610794, 47.50148559364423], [7.969258352683386, 47.50068492201946], [7.9686900466423305, 47.50049169448539], [7.968683353036539, 47.49983222380579], [7.9680063768108305, 47.49972469146117], [7.967295506935144, 47.49956913672945], [7.966575265087615, 47.49936479136146], [7.966452883979923, 47.499330072433324], [7.9662078860160905, 47.499260558934836], [7.965927303526356, 47.49926202245675], [7.965810319285362, 47.499262638022834], [7.965623645988376, 47.49926361308966], [7.964414190211413, 47.4991429373499], [7.962598677157752, 47.49917562445231], [7.962188028266648, 47.49917399962767], [7.961885025705972, 47.49920726109128], [7.960679292682335, 47.498983394090466], [7.959668162431656, 47.498668842458585], [7.958712624409649, 47.498365049417885], [7.957736334110835, 47.49807282711955], [7.957031290753804, 47.49761618668266], [7.956827565664867, 47.497477752128724], [7.9549877745230475, 47.49626647067733], [7.954064415493755, 47.49565217228417], [7.953675601028926, 47.49536005403905], [7.953242983747172, 47.4950994739844], [7.952704333458601, 47.49473137911239], [7.9519576739956985, 47.49402496271746], [7.951626504375414, 47.49372048545612], [7.951103108117714, 47.4932897704623], [7.950577494018983, 47.49284972682813], [7.950208678180849, 47.49234090256152], [7.949829823138171, 47.491836097256034], [7.949443476723644, 47.491302164415934], [7.949430482446826, 47.491355781723634], [7.949373744102288, 47.49159000394827], [7.949589024485604, 47.49202428858133], [7.949856430267455, 47.492846563861654], [7.950316135398496, 47.49372707013239], [7.950680195340941, 47.494039842009194], [7.9511194340763405, 47.49451346384836], [7.95135519864755, 47.49481352512789], [7.951473942694149, 47.49503779746499], [7.951526928781957, 47.49547955894539], [7.951705551048202, 47.495827504000886], [7.951966763440581, 47.49662285419124], [7.952199631154205, 47.497042080645436], [7.952501458322346, 47.49743078946174], [7.952584931437186, 47.49762690416708], [7.952651984527047, 47.49781853135302], [7.952671911145216, 47.498228779406354], [7.952668375155119, 47.4986900557959], [7.952822446044001, 47.49885346009992], [7.953145869573773, 47.49910503687732], [7.953006575784486, 47.499225357302024], [7.952848525486865, 47.49930981865932], [7.951797407623021, 47.49990420525356], [7.9520625804619, 47.50002079071758], [7.952215834240273, 47.500117148944526], [7.952335357774858, 47.500236249477965], [7.952401872537357, 47.50037322210253], [7.952409021842437, 47.500518543472054], [7.952324569443011, 47.50065735434184], [7.952211946404775, 47.50072808803867], [7.95206123225681, 47.50076175472357], [7.951898830663097, 47.500725804876325], [7.951456014805249, 47.50048485216805], [7.9506786849020505, 47.50110190290732], [7.9502757220142435, 47.501204216260646], [7.950374239406021, 47.50134187654156], [7.950588045092395, 47.50178204724937], [7.950673994648791, 47.50191691133571], [7.950793611604956, 47.50203738901333], [7.950753556592764, 47.502061022530214], [7.950746683682459, 47.50209299974434], [7.950704032291783, 47.502107515629156], [7.950600782510939, 47.50208386740012], [7.95047190522349, 47.50202728795302], [7.950339087417454, 47.501998436581836], [7.950231288590372, 47.50205796727952], [7.950248437237002, 47.50215192446058], [7.950386664672271, 47.502494986045456], [7.950409270718252, 47.50262917650523], [7.950362926595046, 47.50275942612404], [7.950147336033659, 47.50309918373078], [7.9478783309635155, 47.504256143957534], [7.948154532318218, 47.50431158416986], [7.94841164055668, 47.504317802252366], [7.948617275181867, 47.50430182407254], [7.948819517130213, 47.5043196421559], [7.948808408792156, 47.504359939477766], [7.948693492148315, 47.50440870720866], [7.94856652157194, 47.50448774836736], [7.948556807236304, 47.504530854906356], [7.948605834999087, 47.5045609493545], [7.948563805135717, 47.50464752229607], [7.948671604407342, 47.50467179981781], [7.948688249105207, 47.504742429094584], [7.948676339718018, 47.5048154776554], [7.948473048133428, 47.504826778543865], [7.947673814475977, 47.50483556295695], [7.947551933065526, 47.50485575931414], [7.947445308105021, 47.50490152168251], [7.947356682906662, 47.50496963619766], [7.947294069129313, 47.50504842937278], [7.947095090915865, 47.50544881055083], [7.947032535779066, 47.50553800946437], [7.946941353402832, 47.505615110942045], [7.946815903758159, 47.50566357250198], [7.946670215518936, 47.50566793472482], [7.946608511076769, 47.50570451435453], [7.946660307586497, 47.505853607305795], [7.9466740549615285, 47.5060255769984], [7.9466128269616005, 47.506533435399035], [7.946616104979974, 47.50756651689554], [7.946638378839344, 47.50760406850589], [7.9466942564564045, 47.50761735071034], [7.946702162064645, 47.507652905562736], [7.945990764377907, 47.50772494279282], [7.945450947230108, 47.508570803023865], [7.945520668501678, 47.508597804138], [7.945587182682351, 47.508671336518844], [7.945568674739699, 47.50878244900447], [7.945495671499411, 47.508927977116905], [7.9455100610155185, 47.50899768106182], [7.945635396702138, 47.50912299599269], [7.945705169156767, 47.5092305027256], [7.9461154517466515, 47.51016426027877], [7.946128928088588, 47.51027730129005], [7.946103844066798, 47.510354409082225], [7.946027529523545, 47.51041306939402], [7.945884950477955, 47.51045950897556], [7.945308185563739, 47.51055794397479], [7.945099425603576, 47.510617767276536], [7.943554121443312, 47.51112249918476], [7.943346883164091, 47.51118084657699], [7.942353652991502, 47.51142321134316], [7.9422359890569565, 47.51143218585714], [7.9421529505534965, 47.511406544729425], [7.943735307812328, 47.51316701019601], [7.94360850278737, 47.513206335921744]]]]}}]}