{
  "type": "FeatureCollection",
  "features": [
    {
      "type": "Feature",
      "properties": {
        "bfs_nummer": 4303
      },
      "geometry": {
        "type": "LineString",
        "coordinates": [
          [
            8.20569121290168,
            47.557981548966204
          ],
          [
            8.212397849540732,
            47.55997812255665
          ],
          [
            8.212511028355346,
            47.5602159638752
          ],
          [
            8.212731030983045,
            47.560292645578045
          ],
          [
            8.213357577132298,
            47.560353597053606
          ],
          [
            8.213586341651732,
            47.56036493013677
          ],
          [
            8.213808768351793,
            47.56033347503501
          ],
          [
            8.21398768035116,
            47.5602748603391
          ],
          [
            8.214150640499637,
            47.56020215029337
          ],
          [
            8.21419067218646,
            47.560261981427026
          ],
          [
            8.21433792159441,
            47.56037735375221
          ],
          [
            8.214470065023091,
            47.56041274311849
          ],
          [
            8.214615555442968,
            47.56040032910121
          ],
          [
            8.214781192632033,
            47.560888393961044
          ],
          [
            8.214833804798152,
            47.561126206648474
          ],
          [
            8.215080122595616,
            47.56144280632153
          ],
          [
            8.215744763398115,
            47.56109461628743
          ],
          [
            8.21601654355533,
            47.56094516486776
          ],
          [
            8.216634086085852,
            47.56066721477108
          ],
          [
            8.216780642036873,
            47.56064406986907
          ],
          [
            8.217413687909668,
            47.560699100652016
          ],
          [
            8.218089162463027,
            47.56067622333622
          ],
          [
            8.218491325867172,
            47.5606236739287
          ],
          [
            8.218888432358785,
            47.56055165783501
          ],
          [
            8.219428882889108,
            47.56043251734299
          ],
          [
            8.220162488278904,
            47.560360074474374
          ],
          [
            8.22064947717153,
            47.56048731448356
          ],
          [
            8.221220002342283,
            47.56070890398257
          ],
          [
            8.221278768225758,
            47.560699513233985
          ],
          [
            8.22134837225834,
            47.56063659707702
          ],
          [
            8.221421861909105,
            47.56063450006348
          ],
          [
            8.22141169186779,
            47.56157573426608
          ],
          [
            8.221388691848157,
            47.561950117903464
          ],
          [
            8.221330250410702,
            47.56231265256553
          ],
          [
            8.221128898821304,
            47.5628036254918
          ],
          [
            8.221195481752329,
            47.562775375312455
          ],
          [
            8.223284030363487,
            47.563012343284115
          ],
          [
            8.22322132231224,
            47.563041081117575
          ],
          [
            8.223046568380894,
            47.563648576377076
          ],
          [
            8.222278936806596,
            47.564726011235145
          ],
          [
            8.222133468139935,
            47.56504695148777
          ],
          [
            8.222136228791628,
            47.56519809726348
          ],
          [
            8.222351294393508,
            47.56570884205354
          ],
          [
            8.22232756750135,
            47.565807515130054
          ],
          [
            8.221998235599973,
            47.56619287214526
          ],
          [
            8.221947084564365,
            47.56629280965134
          ],
          [
            8.221949137992631,
            47.566399628067465
          ],
          [
            8.22199694090516,
            47.56649709837149
          ],
          [
            8.222207083557878,
            47.56675220035265
          ],
          [
            8.222216716385194,
            47.56684397432724
          ],
          [
            8.222145175400296,
            47.56716709505303
          ],
          [
            8.222086299249986,
            47.567301046596036
          ],
          [
            8.22192879338809,
            47.56740012847305
          ],
          [
            8.221512601380107,
            47.56748152929156
          ],
          [
            8.221431588316507,
            47.56752203702286
          ],
          [
            8.222014546621214,
            47.56816684717559
          ],
          [
            8.222036099232314,
            47.568400045164466
          ],
          [
            8.222163798879963,
            47.568527987382666
          ],
          [
            8.222657602787304,
            47.568885557544334
          ],
          [
            8.222845092795056,
            47.56887286743752
          ],
          [
            8.223415225292356,
            47.569360701796185
          ],
          [
            8.223481139068046,
            47.569363142891625
          ],
          [
            8.223508788217107,
            47.56947600291311
          ],
          [
            8.223622995059694,
            47.56970131524359
          ],
          [
            8.22369785469516,
            47.569942147817734
          ],
          [
            8.22382274263727,
            47.57075328255728
          ],
          [
            8.223881793385019,
            47.570928762766954
          ],
          [
            8.22407343082036,
            47.57131024582979
          ],
          [
            8.224156361996004,
            47.57141806331242
          ],
          [
            8.224281455503071,
            47.57149386390732
          ],
          [
            8.224552195761872,
            47.57160000407451
          ],
          [
            8.224716223137177,
            47.57168064904048
          ],
          [
            8.224850231693889,
            47.57177681424124
          ],
          [
            8.225116436531339,
            47.57202258151453
          ],
          [
            8.225239292650143,
            47.57210596029975
          ],
          [
            8.225402023230252,
            47.57218322231039
          ],
          [
            8.225654838581029,
            47.572238116104806
          ],
          [
            8.225828508599562,
            47.57229476972487
          ],
          [
            8.226480148890316,
            47.57261579738823
          ],
          [
            8.226576949989337,
            47.5725776253758
          ],
          [
            8.226629113551798,
            47.572721716497085
          ],
          [
            8.22673638133791,
            47.57294647016412
          ],
          [
            8.226815179149524,
            47.57315048788067
          ],
          [
            8.226857449702417,
            47.57335777578509
          ],
          [
            8.2268548298011,
            47.57362098831751
          ],
          [
            8.226824463013143,
            47.57377255658802
          ],
          [
            8.22676619240836,
            47.57389058652538
          ],
          [
            8.226670124530608,
            47.574017750411315
          ],
          [
            8.226535713726955,
            47.574145957155444
          ],
          [
            8.226328529552408,
            47.574284641416
          ],
          [
            8.226094724260168,
            47.57439925790426
          ],
          [
            8.225841233935578,
            47.57449594733687
          ],
          [
            8.225879299515958,
            47.57454525552357
          ],
          [
            8.225346501903294,
            47.574741164416395
          ],
          [
            8.224806983895798,
            47.57491971277266
          ],
          [
            8.224078635741268,
            47.57514427405272
          ],
          [
            8.223947346350247,
            47.57519114984391
          ],
          [
            8.22436181477703,
            47.575506023798965
          ],
          [
            8.22438555741788,
            47.57553865547048
          ],
          [
            8.224523424952464,
            47.575493470485966
          ],
          [
            8.224492454149642,
            47.575549039022384
          ],
          [
            8.224866623390902,
            47.576486692961026
          ],
          [
            8.22539408143909,
            47.57783400337208
          ],
          [
            8.225474315404655,
            47.57783873870113
          ],
          [
            8.225548899559048,
            47.57789725203186
          ],
          [
            8.225573163042483,
            47.577938001579824
          ],
          [
            8.226895234643239,
            47.57807305669101
          ],
          [
            8.227659511478041,
            47.57814276351996
          ],
          [
            8.22787201928957,
            47.57817460502659
          ],
          [
            8.229963214348704,
            47.57866057409896
          ],
          [
            8.230032441608687,
            47.57863838107839
          ],
          [
            8.23009011387302,
            47.57865159567812
          ],
          [
            8.23003945832124,
            47.578753349752645
          ],
          [
            8.230106300712912,
            47.57873077721936
          ],
          [
            8.232540313902474,
            47.57929629670693
          ],
          [
            8.232680787797953,
            47.57933366809114
          ],
          [
            8.234129751201587,
            47.57974838824849
          ],
          [
            8.235841888127448,
            47.58024531396528
          ],
          [
            8.241181392624632,
            47.58161350160043
          ],
          [
            8.25100110936417,
            47.57456555637491
          ],
          [
            8.252376083381979,
            47.57333458568476
          ],
          [
            8.252915147212375,
            47.57260541563374
          ],
          [
            8.25328303222138,
            47.57202558787288
          ],
          [
            8.253679308006825,
            47.571174475535926
          ],
          [
            8.253929738122933,
            47.570303421460025
          ],
          [
            8.254036389280532,
            47.56941674727385
          ],
          [
            8.253948594212025,
            47.568504007629606
          ],
          [
            8.253704750840392,
            47.56759776096778
          ],
          [
            8.253446298840768,
            47.566820682474635
          ],
          [
            8.252420262740797,
            47.56420696810498
          ],
          [
            8.251910327522573,
            47.563326867870515
          ],
          [
            8.251402879395108,
            47.56247012366406
          ],
          [
            8.25067786288896,
            47.56172239030919
          ],
          [
            8.249661173989598,
            47.561103510647534
          ],
          [
            8.248494157627553,
            47.56064666791148
          ],
          [
            8.247268673952814,
            47.56027566592892
          ],
          [
            8.246014098178867,
            47.560000200908505
          ],
          [
            8.243413773759611,
            47.5596540129388
          ],
          [
            8.242103959246773,
            47.55950076919134
          ],
          [
            8.238489134449429,
            47.55888718276077
          ],
          [
            8.236141252001994,
            47.5587976819223
          ],
          [
            8.234903580314734,
            47.55866859476221
          ],
          [
            8.232959058863134,
            47.55836308814113
          ],
          [
            8.231501311571066,
            47.55808660960986
          ],
          [
            8.230630616078686,
            47.5577498820689
          ],
          [
            8.2293533607614,
            47.55710022582764
          ],
          [
            8.227950818911117,
            47.55615550028298
          ],
          [
            8.227141729076278,
            47.55544507813975
          ],
          [
            8.226284297001481,
            47.55434012547793
          ],
          [
            8.225442103157713,
            47.553007501177134
          ],
          [
            8.225265607616183,
            47.55221451273293
          ],
          [
            8.225317059427214,
            47.551472143660604
          ],
          [
            8.225482843789278,
            47.550736175838665
          ],
          [
            8.225796987697029,
            47.54997222679734
          ],
          [
            8.226630615196246,
            47.54903115908678
          ],
          [
            8.227717321207473,
            47.54813738097822
          ],
          [
            8.228912592303741,
            47.547310758344324
          ],
          [
            8.229545274204696,
            47.54666468949477
          ],
          [
            8.229976211927442,
            47.54603124598366
          ],
          [
            8.23037504693675,
            47.54507242955815
          ],
          [
            8.230887707450536,
            47.54390866484659
          ],
          [
            8.230224811934397,
            47.54265939080667
          ],
          [
            8.230091998496018,
            47.542482212175784
          ],
          [
            8.229285192302557,
            47.541823045211785
          ],
          [
            8.228980316448009,
            47.54159757054056
          ],
          [
            8.227953613729902,
            47.542116229091995
          ],
          [
            8.227609388782742,
            47.54229012810625
          ],
          [
            8.22602335954747,
            47.542973013424316
          ],
          [
            8.22608294636237,
            47.543103789238934
          ],
          [
            8.22612717010268,
            47.543237619485076
          ],
          [
            8.225715558444538,
            47.54330833918119
          ],
          [
            8.223960162516166,
            47.543862604006854
          ],
          [
            8.223961675913303,
            47.54393805513899
          ],
          [
            8.223947906925417,
            47.54411465969034
          ],
          [
            8.223908249788916,
            47.54419967172748
          ],
          [
            8.22383936613395,
            47.544276418165055
          ],
          [
            8.223716011532849,
            47.544309452867246
          ],
          [
            8.223027716271961,
            47.544337748880196
          ],
          [
            8.222857482200553,
            47.5443347003138
          ],
          [
            8.22268845690902,
            47.54431093866714
          ],
          [
            8.222523657383839,
            47.54428006976277
          ],
          [
            8.222366816303035,
            47.54423398259569
          ],
          [
            8.222323432532793,
            47.54421418283859
          ],
          [
            8.222149744342083,
            47.544215581732615
          ],
          [
            8.22190435607629,
            47.54424342210397
          ],
          [
            8.220968744546472,
            47.54441137464905
          ],
          [
            8.220066241950995,
            47.54462440918697
          ],
          [
            8.219581418666364,
            47.54476562921269
          ],
          [
            8.218868107592684,
            47.54501686419902
          ],
          [
            8.218658721431163,
            47.54507967660951
          ],
          [
            8.218170034893662,
            47.545256002997334
          ],
          [
            8.217829460933064,
            47.54541790355278
          ],
          [
            8.217341387296853,
            47.54567181516224
          ],
          [
            8.216608633430445,
            47.546036547358
          ],
          [
            8.216265937139779,
            47.546219296983836
          ],
          [
            8.216146132844104,
            47.54615421808868
          ],
          [
            8.215759559341006,
            47.54579295909529
          ],
          [
            8.215391912825439,
            47.5459356064021
          ],
          [
            8.214732302018252,
            47.546408908998224
          ],
          [
            8.214548181284387,
            47.5465114879196
          ],
          [
            8.214290002588191,
            47.54660872482334
          ],
          [
            8.214160534310746,
            47.546683289318864
          ],
          [
            8.213949640335928,
            47.546812938971215
          ],
          [
            8.21370230230494,
            47.546772859777626
          ],
          [
            8.213356081163507,
            47.54678406914446
          ],
          [
            8.212604486510768,
            47.54674553935096
          ],
          [
            8.211828429280924,
            47.546771314346955
          ],
          [
            8.211587157693769,
            47.546791999855266
          ],
          [
            8.211176354086055,
            47.54684746191206
          ],
          [
            8.21063516044038,
            47.546960202337026
          ],
          [
            8.210040008259302,
            47.5470512725065
          ],
          [
            8.209444011392142,
            47.546917544703106
          ],
          [
            8.208999345744553,
            47.54682746447814
          ],
          [
            8.208745539396796,
            47.546702854428524
          ],
          [
            8.20851269399097,
            47.546421255131214
          ],
          [
            8.208236318527748,
            47.54632673546503
          ],
          [
            8.208051485118968,
            47.5462588869906
          ],
          [
            8.207964979442915,
            47.54621758416728
          ],
          [
            8.207695624383694,
            47.546718233417685
          ],
          [
            8.207607171278534,
            47.54692246631568
          ],
          [
            8.207507671330134,
            47.54704174144103
          ],
          [
            8.2069050113459,
            47.54683901449386
          ],
          [
            8.206767333263842,
            47.547739677082745
          ],
          [
            8.206857278731455,
            47.54820539302799
          ],
          [
            8.206446537763188,
            47.54825707819403
          ],
          [
            8.206176145530819,
            47.54909969756761
          ],
          [
            8.206193213719514,
            47.54915193962924
          ],
          [
            8.206095373399195,
            47.550071062670504
          ],
          [
            8.205570113177025,
            47.55039701511646
          ],
          [
            8.205472227041607,
            47.550486192120005
          ],
          [
            8.205287304204203,
            47.55070758314729
          ],
          [
            8.205196299868932,
            47.55082723158905
          ],
          [
            8.205112400304746,
            47.550846314230675
          ],
          [
            8.20493118343242,
            47.55083844594894
          ],
          [
            8.204761057208055,
            47.550857126819466
          ],
          [
            8.204689821412599,
            47.55090407932826
          ],
          [
            8.204717658922124,
            47.55096525356926
          ],
          [
            8.204742118509106,
            47.55109990543479
          ],
          [
            8.204753129700476,
            47.551124629579206
          ],
          [
            8.20474511016647,
            47.55122172056749
          ],
          [
            8.20489895911811,
            47.55130318935297
          ],
          [
            8.205065971551921,
            47.55149132260785
          ],
          [
            8.204978236428772,
            47.55158445242848
          ],
          [
            8.205010037153576,
            47.55166152905017
          ],
          [
            8.205058761011625,
            47.5516969767595
          ],
          [
            8.205116834795183,
            47.551720238512914
          ],
          [
            8.205169422315617,
            47.55179787921736
          ],
          [
            8.20519574724511,
            47.55200187258159
          ],
          [
            8.205182315543759,
            47.55206081015979
          ],
          [
            8.205246187642665,
            47.552138780955076
          ],
          [
            8.205225846103612,
            47.552229855376176
          ],
          [
            8.205309930875021,
            47.55228607953427
          ],
          [
            8.205334762820831,
            47.552372726945116
          ],
          [
            8.2053982854419,
            47.55253968815267
          ],
          [
            8.205400902962822,
            47.55270083713649
          ],
          [
            8.205385819531479,
            47.55280827314239
          ],
          [
            8.205318129310287,
            47.552878272554544
          ],
          [
            8.205198339640909,
            47.55293864185771
          ],
          [
            8.205254189055019,
            47.55300653825161
          ],
          [
            8.205234786146912,
            47.5531691459455
          ],
          [
            8.205249854013008,
            47.55325583991531
          ],
          [
            8.205234333007168,
            47.553340343677135
          ],
          [
            8.205115728986144,
            47.55345627991457
          ],
          [
            8.205106881166136,
            47.55353553192387
          ],
          [
            8.205088207603586,
            47.55358479042045
          ],
          [
            8.205111803340792,
            47.55361887518731
          ],
          [
            8.205087606035802,
            47.55366467147046
          ],
          [
            8.20515028218805,
            47.55366605598481
          ],
          [
            8.205127865985919,
            47.55374045989561
          ],
          [
            8.205211137105204,
            47.55379630274004
          ],
          [
            8.205178524891847,
            47.55393385904897
          ],
          [
            8.205233756841883,
            47.55397546061645
          ],
          [
            8.205247587614636,
            47.55401322556121
          ],
          [
            8.205225896103306,
            47.55414062722607
          ],
          [
            8.205251569281387,
            47.5541888370314
          ],
          [
            8.205172740347427,
            47.554254017136095
          ],
          [
            8.205190460393796,
            47.55430442913158
          ],
          [
            8.20514261080948,
            47.554369368427515
          ],
          [
            8.205171394561775,
            47.55440939998962
          ],
          [
            8.20536119633915,
            47.55443774484509
          ],
          [
            8.205394075188467,
            47.55445955410681
          ],
          [
            8.205441537838107,
            47.55451052488792
          ],
          [
            8.205459815148204,
            47.55460137085479
          ],
          [
            8.20563291835057,
            47.55501271565168
          ],
          [
            8.205616379981917,
            47.55504329722412
          ],
          [
            8.205221320169075,
            47.55601348204877
          ],
          [
            8.20530844898415,
            47.55611451286716
          ],
          [
            8.205319890233305,
            47.55622144056451
          ],
          [
            8.20527381337243,
            47.556325555626906
          ],
          [
            8.205174749011121,
            47.55640845299745
          ],
          [
            8.204724441416923,
            47.556593722207936
          ],
          [
            8.20469670136017,
            47.55672843986228
          ],
          [
            8.204837316714526,
            47.55695899305941
          ],
          [
            8.205054118221987,
            47.5572428814838
          ],
          [
            8.205016270726338,
            47.557505877465566
          ],
          [
            8.204973699603714,
            47.55768643735755
          ],
          [
            8.205012330712043,
            47.55794388213492
          ],
          [
            8.20569387142234,
            47.55796598051294
          ],
          [
            8.20569121290168,
            47.557981548966204
          ]
        ]
      }
    }
  ]
}