{"type": "FeatureCollection", "features": [{"type": "Feature", "properties": {"bfs_nummer": 4304}, "geometry": {"type": "MultiPolygon", "coordinates": [[[[8.277541294114243, 47.575012822122225], [8.277294979778452, 47.57496063064288], [8.27696249574821, 47.57477285080778], [8.276704287253965, 47.57428531537617], [8.276692553415094, 47.573715329047786], [8.276513207762786, 47.573260672492644], [8.276253225504439, 47.57315121974182], [8.276174349040403, 47.573136364231054], [8.276089411842129, 47.57310464333516], [8.275927166067968, 47.57302430018557], [8.275686137499216, 47.57292233664182], [8.275580221726708, 47.572867444825135], [8.275480611053812, 47.57280022134954], [8.275228980820723, 47.572592103022984], [8.275123570148633, 47.57247638838965], [8.275050591739067, 47.57237011754473], [8.27499844118019, 47.57226053952987], [8.274904020544525, 47.571937033515624], [8.274637006232648, 47.57116914488435], [8.27459359238901, 47.57107072844237], [8.274533884961658, 47.57097401241519], [8.274446745484143, 47.57088482440219], [8.274524814057784, 47.57089250941029], [8.27465811988798, 47.5708125614469], [8.2749192222538, 47.57063791875057], [8.275031056912423, 47.57057528632234], [8.275108123694578, 47.57050081629391], [8.275099690198497, 47.570404144443025], [8.27478127910169, 47.5700425439823], [8.274640226732394, 47.56985059033931], [8.274585989503159, 47.56975091198844], [8.27412489508902, 47.56942500168145], [8.272320823859687, 47.568404658257364], [8.27222889985898, 47.56828785468228], [8.272053506052291, 47.56810086673439], [8.272013989637202, 47.56803693213999], [8.271917017533626, 47.56794133709436], [8.271871878216801, 47.56787559904799], [8.271772035337891, 47.56777148003851], [8.271741749812694, 47.56775461760913], [8.27172520990658, 47.56772192560771], [8.271536141781946, 47.567530502002235], [8.271491369019316, 47.56746774725187], [8.271411455914448, 47.56738614995944], [8.271335521141909, 47.567338738239066], [8.271305791002025, 47.56731573771792], [8.271277230324623, 47.56727324714734], [8.27119268234205, 47.56719264558394], [8.271002079369152, 47.56698274905089], [8.270935159242045, 47.5669169150053], [8.270891714422717, 47.56685571546833], [8.270783632808564, 47.56675648448753], [8.270674830484317, 47.566643452556804], [8.270628017408324, 47.56656571860842], [8.270483464389276, 47.566507618741056], [8.270417472932559, 47.56642718009902], [8.2703702919219, 47.56640058984271], [8.270261630393355, 47.56630069692464], [8.270206870624891, 47.56621188493051], [8.270176157679636, 47.5661515022163], [8.270116958191615, 47.56609147615877], [8.270103961441816, 47.5660846798652], [8.27000801577458, 47.56593277272279], [8.269901556458194, 47.56584441242868], [8.269772951244942, 47.56571746249922], [8.269495602697825, 47.56549784136719], [8.26911881741135, 47.56502076273274], [8.269024372917508, 47.564693447257454], [8.268859558294515, 47.564267024272816], [8.268999877994894, 47.56425968774371], [8.269285853510416, 47.56434916488997], [8.269396422259685, 47.56439718471858], [8.268653816471389, 47.56301636075878], [8.267635784440378, 47.56087492400949], [8.267759566139915, 47.56074929836313], [8.267843203840188, 47.56069254953236], [8.26796606426664, 47.56066968913497], [8.268076568962424, 47.560694622110496], [8.268126155977118, 47.56068082111706], [8.267614812205181, 47.55925235002618], [8.267641361976043, 47.55919625217122], [8.267831084443314, 47.55909613925492], [8.268010087339544, 47.55898436527826], [8.268399638739522, 47.558705770950915], [8.268359987749575, 47.558680978839504], [8.26836789907864, 47.558620067429004], [8.268115287317354, 47.55834293739504], [8.267764052791943, 47.557945207028084], [8.267352629983565, 47.55749697177576], [8.266066984957385, 47.55607374600451], [8.266135522856015, 47.55608008349962], [8.265009103453176, 47.554833998904584], [8.264210610441312, 47.554234493154134], [8.264163079916383, 47.55416226630862], [8.264018427382048, 47.55370505962653], [8.263889659197924, 47.55336541930034], [8.263871401412027, 47.553128263857225], [8.264640887340834, 47.5527622597402], [8.264002730683293, 47.55225835180037], [8.262681563096073, 47.551226630672076], [8.263813098843052, 47.550246685166734], [8.26445949698142, 47.54993279770832], [8.264330146485761, 47.54923895920045], [8.26419527122661, 47.548584312322184], [8.263982432572748, 47.548425784495144], [8.262697063181765, 47.54793414736792], [8.259733130638978, 47.5476750239886], [8.259651827739015, 47.54770155708283], [8.25750755219629, 47.547767783658], [8.257240425539836, 47.547770227877905], [8.256980477794603, 47.54776439106106], [8.2559130798355, 47.54772276693674], [8.25546899471059, 47.54768747262411], [8.254958947803148, 47.54769777231555], [8.253996262692956, 47.54727646022557], [8.253793803327394, 47.54720334863701], [8.253734203204951, 47.54719426076907], [8.253705603373968, 47.54713545074262], [8.25363489380305, 47.54709926035811], [8.251441128523174, 47.54693114411916], [8.251308540717309, 47.5469260925096], [8.251171680025152, 47.54693698149332], [8.251157815410142, 47.54690336831507], [8.247867368723295, 47.54739257290444], [8.247821821863237, 47.54736761709237], [8.247685852375653, 47.54738655450469], [8.2476540901098, 47.54741103354478], [8.246421584659375, 47.547675360698214], [8.2455257774327, 47.54779890165674], [8.245144833015624, 47.547784103534624], [8.244513994575568, 47.547653666866886], [8.243987457940717, 47.54749886556473], [8.243411088301077, 47.547440996912385], [8.242740527854655, 47.54738010013312], [8.241838133647322, 47.547394117757364], [8.2409257069228, 47.54755405665609], [8.240351226577781, 47.54760009673003], [8.23958920619654, 47.5471673368892], [8.23899906685737, 47.54681115847125], [8.23848980788976, 47.546534323688746], [8.237536686814137, 47.54583994993348], [8.236650646448037, 47.54531448559436], [8.235958339646789, 47.54482441458413], [8.23522511974521, 47.54434503579834], [8.234458413020834, 47.543852417630106], [8.2336731604243, 47.54358420201626], [8.233565979328116, 47.543300215568614], [8.233153139799002, 47.543931613656135], [8.233046685961902, 47.544681651311286], [8.232749104004867, 47.54492160514483], [8.232422773196674, 47.54502104048353], [8.231527437825147, 47.5451335577186], [8.230375102132081, 47.54507250034527], [8.22997626711808, 47.54603131677354], [8.229545329384955, 47.54666476027894], [8.228912647487146, 47.54731082914229], [8.227717376363124, 47.5481374517572], [8.226630670352899, 47.54903122988282], [8.225797042030822, 47.54997229655032], [8.22548289812735, 47.550736245604], [8.22531711375627, 47.55147221341952], [8.225265661920842, 47.55221458246455], [8.225442157450653, 47.553007570895545], [8.226284351296403, 47.55434019519629], [8.22714178337307, 47.55544514785671], [8.227950873196434, 47.55615556998006], [8.229353415037716, 47.557100295502906], [8.230630670344881, 47.55774995172085], [8.231501365830622, 47.55808667924578], [8.232959113124954, 47.55836315776601], [8.234903634587548, 47.55866866438235], [8.236141306282853, 47.55879775154044], [8.238489188712236, 47.558887252331694], [8.24210401351547, 47.559500838735005], [8.243413828032843, 47.55965408247535], [8.24601415245373, 47.56000027042171], [8.247268728222881, 47.5602757354242], [8.248494211905966, 47.560646737406444], [8.249661228271743, 47.56110358013725], [8.250677917174166, 47.56172245979514], [8.251402933672232, 47.5624701931356], [8.251910381796671, 47.56332693733689], [8.252420317014643, 47.564207037569815], [8.2534463531152, 47.56682075194172], [8.25370480511405, 47.5675978304348], [8.253948648490377, 47.56850407710431], [8.254036443552497, 47.5694168167437], [8.253929792388853, 47.57030349092736], [8.25367936227886, 47.571174545017726], [8.25328308648952, 47.57202565735776], [8.252915201464633, 47.57260548510479], [8.252376137620253, 47.573334655146894], [8.251001163607206, 47.574565625863144], [8.252058927637306, 47.575217284902095], [8.252062126712644, 47.575269086673856], [8.252248317656804, 47.57538918365469], [8.252347335408526, 47.575434089376486], [8.2530770036846, 47.5755855561615], [8.253136740884742, 47.57556164399564], [8.252950059262076, 47.57591859190244], [8.252863629646214, 47.576060253643135], [8.252889971927827, 47.57611737035056], [8.254325630073774, 47.576455428167115], [8.254503445072688, 47.57647959505446], [8.254546745655281, 47.5764923320061], [8.254423405417636, 47.57664505650677], [8.254251274852603, 47.57678421901245], [8.254082573736227, 47.57688449350312], [8.254313914813396, 47.576942309658165], [8.254179089059567, 47.57722924374497], [8.254113803153123, 47.577331633271655], [8.254075407931056, 47.57737351897092], [8.25448780049915, 47.577483279913565], [8.254745225378526, 47.57757238184884], [8.254826041911693, 47.57764945951586], [8.254837164045966, 47.57765357253398], [8.254820608327009, 47.577711053579364], [8.254829124565362, 47.577739343108476], [8.254851835354382, 47.57776408800161], [8.25535352706717, 47.57801986622875], [8.255464517966267, 47.57792749821616], [8.255718470869162, 47.577509020591165], [8.256467688854007, 47.57769922832586], [8.256574976618866, 47.57764020784816], [8.257070793464539, 47.57741850431458], [8.25708850748434, 47.57743722187918], [8.25758044190316, 47.577657056467714], [8.257673791079739, 47.5775225736853], [8.257793760460345, 47.57736204463866], [8.258001157605221, 47.577112431489184], [8.258089601376717, 47.57714515702845], [8.258888914268145, 47.57692100444049], [8.258957494451556, 47.57690515753833], [8.259040558138883, 47.57689418192172], [8.259733535512872, 47.5768655795823], [8.259894006661863, 47.57683287429099], [8.26023671200564, 47.576741145090125], [8.260482885368221, 47.57665418180873], [8.260544630645002, 47.57667340567071], [8.260653969428828, 47.576761907071926], [8.260760183285324, 47.57676357403786], [8.260909737746573, 47.576801891000436], [8.26095799564866, 47.576836770503846], [8.261081613441458, 47.57684561702911], [8.261126976540492, 47.576853219426155], [8.261275171616985, 47.57690414623671], [8.26137639542653, 47.576920013853005], [8.261428132270382, 47.576919476267], [8.261530808938574, 47.576945038099524], [8.261620732536853, 47.576948744674695], [8.261757950871173, 47.57701263732396], [8.261955428727585, 47.57707355705531], [8.26208293420333, 47.577101604980925], [8.262235438733148, 47.57717402332708], [8.262272647331944, 47.57722057432569], [8.26233436665563, 47.577323730983274], [8.262377358203947, 47.577385773443794], [8.262377743882016, 47.57742347454868], [8.262460273457256, 47.5775014346577], [8.262680005651738, 47.577636945422874], [8.26275490860468, 47.57765766660957], [8.26284824035056, 47.57766420812619], [8.262993696752973, 47.577690876865894], [8.263189359429981, 47.57768858706716], [8.263401868653649, 47.57773201151115], [8.263531148276808, 47.57775177913344], [8.263701387823836, 47.57780366121334], [8.263828222207785, 47.577832862550835], [8.263975264454096, 47.57782125739752], [8.264068611923184, 47.57780654468203], [8.2641354244247, 47.577806123260984], [8.264201321636062, 47.5777895728647], [8.26428191641915, 47.57779418000347], [8.264416018182073, 47.577766693488236], [8.26457216505913, 47.577710636682696], [8.264695756622713, 47.57771245594456], [8.265050396275, 47.57781808488898], [8.26515163036823, 47.5778822566611], [8.265312885552573, 47.57791871234495], [8.265528394178215, 47.5779283656227], [8.266097812056584, 47.57789750488439], [8.266142253973682, 47.57791413289685], [8.266231967031707, 47.577913583148906], [8.26744132977772, 47.577995117525425], [8.268128060958405, 47.57807477351412], [8.268453407511572, 47.578067662484294], [8.26877768449283, 47.578036346010514], [8.269256498090138, 47.57795168433716], [8.26984295100259, 47.577675186987975], [8.269817646354273, 47.57765160603005], [8.270324616712031, 47.577660114357556], [8.27095052679208, 47.577820604864755], [8.271463964541313, 47.57755737562927], [8.271938932863588, 47.577335829117146], [8.272544316533684, 47.57726411158264], [8.273292676762438, 47.57718459001565], [8.273692222961957, 47.576919454559665], [8.27447173248464, 47.57643683926946], [8.275619300920217, 47.575990978008576], [8.276348349468734, 47.575601168672556], [8.277479095699382, 47.575376672619086], [8.277541294114243, 47.575012822122225]]]]}}]}