{"type": "FeatureCollection", "features": [{"type": "Feature", "properties": {"bfs_nummer": 4313}, "geometry": {"type": "MultiPolygon", "coordinates": [[[[8.205691289847724, 47.55798164810047], [8.205623960802484, 47.55848576569098], [8.20553863603888, 47.55956594120332], [8.205261805309092, 47.56042313235338], [8.205161599847633, 47.56075166683085], [8.20498303264893, 47.561043159576606], [8.204437268587041, 47.561622307713954], [8.203985138956478, 47.562296785971526], [8.203436965808683, 47.56306559544104], [8.202961771311026, 47.56308908196828], [8.202935256734326, 47.56304904402495], [8.202916259585685, 47.56279535528992], [8.202708046337353, 47.56255780750555], [8.202020331769365, 47.561901934090464], [8.201180325251613, 47.56101518090389], [8.20106438250385, 47.56092112728096], [8.199757407365675, 47.5595492154178], [8.199679741412634, 47.559535190775726], [8.199417644551431, 47.55961935063321], [8.199232952279145, 47.559670542470705], [8.199041698876549, 47.559709886803965], [8.198064437098711, 47.55986780573384], [8.19721821229548, 47.56002302512072], [8.196110199404057, 47.560204817449154], [8.195818599625674, 47.56022864966465], [8.195526558866487, 47.5602290092897], [8.194942962108785, 47.56018631728196], [8.1945932805448, 47.56015307048197], [8.194163029792135, 47.56006601416392], [8.193422634511005, 47.56002073894638], [8.193189047439457, 47.55999310907606], [8.19291998155263, 47.5599925119241], [8.192534733301779, 47.55997529240673], [8.191791295075149, 47.55986526634947], [8.190964099513577, 47.559737558220775], [8.190295702142881, 47.559785482911074], [8.190180254494372, 47.55962345491689], [8.190061840906179, 47.55952890927479], [8.18972314223611, 47.55943281323824], [8.18958340823476, 47.5595029907389], [8.18946875747684, 47.55951278114942], [8.189220123067443, 47.55950038700894], [8.189186444225683, 47.55953644660124], [8.1887950769582, 47.55935162565428], [8.188737231811386, 47.55965899616998], [8.188730447488066, 47.56000858728351], [8.188544498781225, 47.559985606169185], [8.187992581533733, 47.56008915757902], [8.187950871470015, 47.56010416865924], [8.187675840927461, 47.56054477772741], [8.187238718690274, 47.56090305693572], [8.186550291875143, 47.56140668946301], [8.186194608583666, 47.56184410236648], [8.18563743086173, 47.562402431321416], [8.184694945682699, 47.56299253978968], [8.184130435118208, 47.563388267167035], [8.183857038721706, 47.5636304739471], [8.182112142185465, 47.56459770968135], [8.181687170241995, 47.56487874581085], [8.18119095140481, 47.56525667069429], [8.18096653771846, 47.5652409292722], [8.180766991293034, 47.56516075690014], [8.180489285229774, 47.56509418844706], [8.180233514993741, 47.564987311503586], [8.179961978615001, 47.56489898182052], [8.179733123676113, 47.564736159605815], [8.179410007917447, 47.56458240252879], [8.179131488745561, 47.56445524287746], [8.178938913758712, 47.56434188828736], [8.178656317967198, 47.56414322331997], [8.17849423764098, 47.56406680039515], [8.178073823910673, 47.566091538866004], [8.176657642863576, 47.5683432565035], [8.176079860229933, 47.56970433012701], [8.17606701365103, 47.569743922744586], [8.175351144816249, 47.57144029272477], [8.176773853577423, 47.571363745144495], [8.178353733020161, 47.57147459404106], [8.178221650931931, 47.571784633925034], [8.178055627644573, 47.57229928935351], [8.178057265652841, 47.57237304818856], [8.178163799352438, 47.57258667071922], [8.178303082697651, 47.573306251747354], [8.178372999036545, 47.57355680330115], [8.178441530089996, 47.57389681813825], [8.17846482384809, 47.57433828681362], [8.178542132111863, 47.57503543521881], [8.178647058662994, 47.575496664768124], [8.178779187759035, 47.57592306650025], [8.178793926417338, 47.57617191000282], [8.178951177578904, 47.576422712999815], [8.179046734577426, 47.576550789993604], [8.179184400940267, 47.576646534291875], [8.179764277738418, 47.57695460026116], [8.180355377048937, 47.57728628195055], [8.18054067995848, 47.577413046191076], [8.181095085945165, 47.5779222137194], [8.181207843948522, 47.57803174999841], [8.181255538566287, 47.57806429993642], [8.181742072930485, 47.57836900539352], [8.182130542978491, 47.57859482124634], [8.182358217875132, 47.578747294910684], [8.183640219604179, 47.57957678279726], [8.184628702243268, 47.58006695532662], [8.185048659340017, 47.58033054927272], [8.18556215551831, 47.58051440064101], [8.185971610124554, 47.58074996072251], [8.186508326538917, 47.58093975625576], [8.18716623576169, 47.58107668277525], [8.187748580336878, 47.581240077374225], [8.188024900590547, 47.581289360581806], [8.188400685296681, 47.5813664754717], [8.188508639281677, 47.58139307458703], [8.188491014506518, 47.58142707797624], [8.188846801337515, 47.58151403432751], [8.189503870033608, 47.581596188632695], [8.190164852152192, 47.58168514930978], [8.190555578799428, 47.58172338726421], [8.191027899666429, 47.58181619212066], [8.191746316311058, 47.58191761450841], [8.191460944139944, 47.58258059333881], [8.191823314913965, 47.582674423264045], [8.192335528079962, 47.58279641042778], [8.192110469238834, 47.583246472333514], [8.191824319315927, 47.58317528978939], [8.191593895090506, 47.58312565435836], [8.19154966617749, 47.583212627244606], [8.191287798305334, 47.583624889660626], [8.191514420752055, 47.583636901154286], [8.191269125200055, 47.58417675003234], [8.191823074061672, 47.58436112127413], [8.192327332896358, 47.58456216411605], [8.192777615066554, 47.58488898678176], [8.192990119950386, 47.58506438317806], [8.193463432807132, 47.585489250004464], [8.193828862724613, 47.58573765239728], [8.193925083867416, 47.58604713871203], [8.194322719384486, 47.586601383286485], [8.194519555356859, 47.58690526692371], [8.195410879108838, 47.58703138934236], [8.195408464412678, 47.58697762078313], [8.195496826997122, 47.58701186021577], [8.19596302596688, 47.58789269659379], [8.195963162178815, 47.5879945439897], [8.195756718842054, 47.588382004192376], [8.195535920922133, 47.588712103688195], [8.195510364622114, 47.588783655816755], [8.195506635051524, 47.588821409978], [8.195443625951484, 47.58891524171025], [8.195107769559785, 47.58933204647362], [8.194973131868867, 47.589429043081836], [8.194670596601961, 47.58952815877213], [8.194375626578605, 47.58957506811487], [8.19476896785583, 47.58983742443334], [8.195501880099947, 47.59022009068895], [8.196065382680203, 47.59038646376516], [8.196744857722974, 47.59049666424757], [8.197652571330714, 47.59054070123392], [8.197692483176102, 47.590741618094015], [8.197763801588378, 47.59085717424712], [8.197934694937324, 47.590991802699115], [8.198317822646999, 47.59121574635256], [8.19848595880027, 47.59132846473515], [8.198527626742676, 47.59139539512488], [8.19850324486303, 47.591443834597314], [8.198515729605077, 47.591491250224045], [8.197742476865008, 47.59228305318802], [8.197748220070457, 47.59237044639711], [8.198029420048893, 47.592367563505285], [8.198216407962132, 47.592385155328955], [8.198467307279678, 47.592419435004224], [8.199111592164037, 47.5925508804133], [8.19932975096784, 47.59258460804774], [8.199553086860334, 47.59259454811818], [8.199739758085451, 47.59258254891479], [8.199933703149485, 47.59255951091394], [8.200489262303634, 47.5930619308738], [8.200704405049027, 47.59333830746671], [8.200873540647097, 47.59369488834568], [8.201267243891506, 47.59363562848517], [8.201940941837893, 47.59363078357089], [8.202381512558256, 47.593559538314466], [8.202434544050433, 47.5935656198292], [8.202450713449586, 47.59380050899592], [8.202502341104784, 47.59400011512794], [8.202577398682498, 47.594215567315764], [8.20287702107635, 47.59451370653839], [8.202991802461788, 47.59465290641736], [8.203083548837734, 47.594853516261445], [8.203135365914173, 47.59507249413121], [8.203315496283277, 47.59555854013077], [8.20340669090116, 47.595790803305164], [8.203677983344372, 47.59653770414274], [8.203799664763281, 47.59680093036698], [8.203875961199444, 47.59681016768748], [8.204401548568805, 47.59734280599278], [8.20454444076527, 47.59742148674067], [8.204951968587793, 47.59758410562073], [8.205311394734432, 47.597696341976345], [8.205693433869603, 47.597839403287004], [8.205953191024077, 47.597975672061594], [8.206199221830577, 47.598121699616044], [8.206316072428322, 47.59822169550617], [8.206374086667246, 47.598220727061886], [8.206434597014649, 47.59853303061424], [8.206468316651922, 47.59850164324638], [8.207504800432137, 47.598293278564554], [8.208230730518714, 47.59816145303424], [8.208302002755016, 47.598417363878426], [8.2083617803043, 47.598713193958964], [8.208598108868655, 47.599642829069055], [8.208630320005827, 47.59979443436012], [8.208665080620273, 47.599810096146], [8.208677245005783, 47.59985665841056], [8.209436116390481, 47.59980807115418], [8.209606160541863, 47.59979958455568], [8.209697830976113, 47.59980126901123], [8.2101109849719, 47.5998874472312], [8.210635557769532, 47.60002102777128], [8.210945057371063, 47.60007680902954], [8.210958705186016, 47.60002593796256], [8.211086333726023, 47.60005878009523], [8.21121009944504, 47.600097556892464], [8.211458917246857, 47.60016751967177], [8.21196672816973, 47.60028832642582], [8.212235570639612, 47.60033798933004], [8.212810250793579, 47.60042088620734], [8.212852736414037, 47.60038713601844], [8.212893204601599, 47.600464880196625], [8.212942742843234, 47.60064388156583], [8.212927426192284, 47.60078078294374], [8.212746781487603, 47.60120056077046], [8.212732396788267, 47.60134123331958], [8.212821719782783, 47.601457128128764], [8.213192433467372, 47.60172019474418], [8.21342299027261, 47.60183478700221], [8.21365379214494, 47.60192419399089], [8.213939050768017, 47.60194991869065], [8.214127181049077, 47.602008418176155], [8.214292054281959, 47.60209154545741], [8.214227886287048, 47.6020948433589], [8.21416616017998, 47.60213694308667], [8.214107519339372, 47.60227100386918], [8.214045244422573, 47.60253410800346], [8.21394764676583, 47.603035627330755], [8.213874508948498, 47.60347472649671], [8.213934709948472, 47.60353386463629], [8.214720713425919, 47.60361954947563], [8.214539433043312, 47.60406834796683], [8.214150154547957, 47.6047817806517], [8.21437339193335, 47.60482947694654], [8.214293793524146, 47.605051180043226], [8.214204368324268, 47.60538861130878], [8.214193657910895, 47.605484774584454], [8.214291021550704, 47.60559506513706], [8.214316716806373, 47.60568164062601], [8.214316930271712, 47.60596289962528], [8.21429768866784, 47.60623880219117], [8.214401633213084, 47.606419822280024], [8.214600964655723, 47.60663300562937], [8.214709770887008, 47.60669343731111], [8.21491048432378, 47.60672632627446], [8.214765275224961, 47.607282485865476], [8.21483915521124, 47.607289915502676], [8.214665371726058, 47.607765777040484], [8.214954600366273, 47.60781802210814], [8.21492934275282, 47.60820093546287], [8.215071198881958, 47.60865505141461], [8.215175257827102, 47.60878796935037], [8.21500073312538, 47.608873958812225], [8.214566487321015, 47.60921995552539], [8.214702171855881, 47.60930183758828], [8.214319284678083, 47.60961869124554], [8.214286005211875, 47.6097240621689], [8.214379944302689, 47.60985886563242], [8.214399602729017, 47.60987076820954], [8.214286075908477, 47.60991275530255], [8.214379009921531, 47.60998422095007], [8.213638167125904, 47.610255247783556], [8.213551204912557, 47.610365104059326], [8.213253398089334, 47.610537068698626], [8.213377508557011, 47.610692456565864], [8.213274376066366, 47.61074329522896], [8.213204278067233, 47.61079027982869], [8.213160679837843, 47.61082946072203], [8.21314033571848, 47.610886330461035], [8.21320435634228, 47.61095331322199], [8.213268099167259, 47.610938371592226], [8.213312694803335, 47.61101856987533], [8.213336135562036, 47.611254073431766], [8.213518141646833, 47.61202787798291], [8.213822326749357, 47.61307080206302], [8.213838218929967, 47.61321909625474], [8.215385516434285, 47.61261198541526], [8.215757984316292, 47.61291879455592], [8.216388108533934, 47.61262844016517], [8.218862222865159, 47.61444645344943], [8.218948317566749, 47.614528538406226], [8.219049313683263, 47.614571992841626], [8.221302878435207, 47.61561123679995], [8.221476727329524, 47.61529646289561], [8.221745564458066, 47.61477204607545], [8.221995886061633, 47.614243454333874], [8.222227590855242, 47.61371100322597], [8.222440537211739, 47.613174972685634], [8.222587859172068, 47.61277078685194], [8.222724539877877, 47.61236490081412], [8.222850474902273, 47.611957432248246], [8.222965679640135, 47.611548507000286], [8.223070089831346, 47.611138260450375], [8.223163694405345, 47.61072682760247], [8.223246442278167, 47.61031433475111], [8.223318322130966, 47.60990089892313], [8.223580843987127, 47.608265383436695], [8.223633024376191, 47.60800499618028], [8.223705585365135, 47.607746836439446], [8.223798311776546, 47.60749166113166], [8.22391094761447, 47.607240164471484], [8.223987250910403, 47.60709757900483], [8.223577741308592, 47.60602927183695], [8.22340030834312, 47.6055661653625], [8.223185981975295, 47.60501179395907], [8.223000654978353, 47.60453328838197], [8.221536448845944, 47.600752460226516], [8.221266936323943, 47.60005644127718], [8.221030505419767, 47.59917301496535], [8.221012305691, 47.59884214867894], [8.220979971091781, 47.5982730360908], [8.22108978503305, 47.597605829428495], [8.221104600320317, 47.597556379295845], [8.221284938838691, 47.59695423621369], [8.221987213006601, 47.595708303247285], [8.223027898242677, 47.594602174927296], [8.223965495168276, 47.593961564396444], [8.224184187638386, 47.59380691678376], [8.241181446760963, 47.581613571086635], [8.235841942504736, 47.58024538381022], [8.234129805681613, 47.57974845824103], [8.232680842248586, 47.57933373805917], [8.232540368323773, 47.57929636663859], [8.230106355014813, 47.578730847020424], [8.230039512652368, 47.578753419592076], [8.230090168206985, 47.57865166552019], [8.23003249593013, 47.578638450904904], [8.229963268667085, 47.57866064392238], [8.227872073637364, 47.57817467490747], [8.227659565833825, 47.578142833413175], [8.2268952890132, 47.57807312661016], [8.225573217447327, 47.57793807155708], [8.22554895395704, 47.57789732200037], [8.225474369788769, 47.577838808652295], [8.225394135798817, 47.5778340732927], [8.224866677352297, 47.57648676236852], [8.224492507978573, 47.57554910825906], [8.224523478779876, 47.575493539720114], [8.2243856112738, 47.575538724742934], [8.224361868683973, 47.57550609313716], [8.223947405064951, 47.57519122536922], [8.224078694471443, 47.575144349596194], [8.224807042573989, 47.5749197882399], [8.22534656052134, 47.57474123979928], [8.225879358081919, 47.57454533083247], [8.225841292489624, 47.574496022630626], [8.22609478275327, 47.5743993331163], [8.226328587958411, 47.57428471651283], [8.226535772065292, 47.57414603216226], [8.226670182834624, 47.57401782537184], [8.226766250691986, 47.57389066145797], [8.226824521307481, 47.57377263153314], [8.226854888117419, 47.57362106328979], [8.226857508052072, 47.573357850798864], [8.22681523749758, 47.57315056289183], [8.22673643967286, 47.5729465451583], [8.22662917187508, 47.57272179147635], [8.2265770083088, 47.572577700350024], [8.226480207165395, 47.57261587230668], [8.225828567021235, 47.57229484483751], [8.225654897064311, 47.57223819129833], [8.225402081783814, 47.57218329759685], [8.225239351261475, 47.57210603566195], [8.22511649519092, 47.57202265693974], [8.224850290392698, 47.57177688971865], [8.224716281852233, 47.57168072453983], [8.224552254502772, 47.57160007960854], [8.224281514298411, 47.57149393951389], [8.224156420793765, 47.571418138923136], [8.224073489627484, 47.57131032145295], [8.223881852279675, 47.570928838502944], [8.223822801634883, 47.57075335842542], [8.223697913900653, 47.56994222395052], [8.223623054588794, 47.56970139179214], [8.223508848211464, 47.5694760800601], [8.223481199275264, 47.569363220312034], [8.223415285528691, 47.56936077925481], [8.222845155097229, 47.56887294755687], [8.22265766548199, 47.568885638170784], [8.222163863656824, 47.568528070691016], [8.222036164583422, 47.568400129212236], [8.222014613347714, 47.56816693299118], [8.221431658690056, 47.56752212753287], [8.22151267165895, 47.56748161967843], [8.221928863546033, 47.56740021869829], [8.22208636953233, 47.56730113697853], [8.222145245756316, 47.567167185528646], [8.222216786760498, 47.56684406482475], [8.22220715390617, 47.56675229081499], [8.221997010859763, 47.566497188328874], [8.22194920783114, 47.56639971787562], [8.221947154427474, 47.56629289949052], [8.22199830559099, 47.56619296214764], [8.222327638448409, 47.565807606354944], [8.222351365340336, 47.565708933277214], [8.222136299407612, 47.565198188061586], [8.222133538876433, 47.56504704243995], [8.222279007877027, 47.56472610261274], [8.223046640125569, 47.56364866860429], [8.223221394138955, 47.56304117344408], [8.223284102215063, 47.56301243564153], [8.221195553022222, 47.56277546694946], [8.221128970078516, 47.56280371711359], [8.22133032117472, 47.56231274354744], [8.221388762068356, 47.5619502081832], [8.22141176166011, 47.56157582399316], [8.221421930675522, 47.56063458846592], [8.221348441015897, 47.56063668546905], [8.221278837280433, 47.56069960200928], [8.221220071513716, 47.56070899290882], [8.220649548576684, 47.56048740628796], [8.220162561165056, 47.56036016818892], [8.219428955520227, 47.56043261074037], [8.21888850454089, 47.56055175066327], [8.218491397721564, 47.56062376634147], [8.218089234021694, 47.560676315374536], [8.21741375887445, 47.56069919193589], [8.216780713880615, 47.560644162292014], [8.21663415827901, 47.56066730764571], [8.216016617026158, 47.56094525939662], [8.21574483685917, 47.56109471080851], [8.215080196462297, 47.561442901376225], [8.214833878059258, 47.5611263009254], [8.214781263795905, 47.560888485538364], [8.21461562184819, 47.560400414554216], [8.214470131464884, 47.56041282862049], [8.214337988084187, 47.560377439317456], [8.214190738760898, 47.56026206710245], [8.214150707054308, 47.56020223594354], [8.213987747062385, 47.56027494619326], [8.213808835248868, 47.56033356113099], [8.213586408760953, 47.560365016508854], [8.213357644485372, 47.560353683742456], [8.212731099121136, 47.560292733285166], [8.212511096708944, 47.5602160518622], [8.212397919084987, 47.55997821207638], [8.205691289847724, 47.55798164810047]]]]}}]}