{"type": "FeatureCollection", "features": [{"type": "Feature", "properties": {"bfs_nummer": 4314}, "geometry": {"type": "MultiPolygon", "coordinates": [[[[8.361776876860436, 47.56942461672413], [8.361831441813248, 47.568441009667026], [8.361688416231374, 47.56826356708725], [8.36161592096658, 47.56805866022454], [8.36142895811828, 47.568126694767805], [8.361403195615768, 47.568014597428274], [8.3612602852722, 47.56780537677452], [8.36116911341934, 47.56771940646789], [8.361036128504772, 47.56763395774793], [8.361094651105194, 47.56748827052331], [8.360795590209943, 47.567469638430225], [8.360489750542266, 47.56747313157977], [8.360290987911776, 47.56745303532329], [8.360145909682917, 47.56737669345445], [8.360086118594, 47.56729236132644], [8.360023106703453, 47.56710585264574], [8.359933733000775, 47.56703910542393], [8.359796231956391, 47.566819495824106], [8.360022137476816, 47.566769537835754], [8.359895269854473, 47.56669559643408], [8.359742716102916, 47.56657348760742], [8.359656398216554, 47.566453739588916], [8.359584034015556, 47.56628338647636], [8.359531128788959, 47.566207480930686], [8.3594540286435, 47.56615254431342], [8.359384823846883, 47.56613524908752], [8.359210722768253, 47.56591439413698], [8.358982272441851, 47.56552428105656], [8.358831670885777, 47.56529976428135], [8.358781847830953, 47.56506177572799], [8.358567845951539, 47.56481655172356], [8.358519248977009, 47.56450657121103], [8.358603071756159, 47.564355918787854], [8.358574866442572, 47.56398726770036], [8.35854321147127, 47.56381304664027], [8.358365088246622, 47.56368248621045], [8.358375729779855, 47.56342293396242], [8.358353736925775, 47.563168154957275], [8.358283715369907, 47.562883905890104], [8.358108310473998, 47.56237730054653], [8.358058362836873, 47.56219245892619], [8.358034676115345, 47.56205999874923], [8.358029313910741, 47.561816205715076], [8.358093617938607, 47.56156146280731], [8.358180980819373, 47.56137224036541], [8.355687495726398, 47.56101049836295], [8.355773300396283, 47.56066746939361], [8.355773024826238, 47.560535299985446], [8.355710186316232, 47.56040676431148], [8.355605096126272, 47.560389247164565], [8.355569046803957, 47.560419294619074], [8.355523365618547, 47.56044098157113], [8.355429423779114, 47.56045963240933], [8.355331829948124, 47.56046917379426], [8.355029439981816, 47.56046307429266], [8.35494082772865, 47.56045176738289], [8.354861992340503, 47.56042256542059], [8.354795464748184, 47.56043823764167], [8.35464308354205, 47.56028354372781], [8.35450502218329, 47.56016862617503], [8.354347145239823, 47.5600642535174], [8.354203602081132, 47.55999972902791], [8.354050836325818, 47.559943614853715], [8.353716290143018, 47.55987253904045], [8.35361042363451, 47.559837613409165], [8.353525371272992, 47.55977909317805], [8.353443232155284, 47.559689114777726], [8.353392644622568, 47.5595917997847], [8.353357090696692, 47.5594971003899], [8.353338573758574, 47.559402527417554], [8.353348405342814, 47.55931679706155], [8.353390774224582, 47.5590085967393], [8.353415607475082, 47.55890667523661], [8.35347098975454, 47.558798657392174], [8.35378884298163, 47.558285191727144], [8.352670095933837, 47.55789280511047], [8.352644276330157, 47.55778374610054], [8.352654786011906, 47.55767095570973], [8.352664925835953, 47.55745016475144], [8.352663200395417, 47.55738230739413], [8.35264080424105, 47.55732240207157], [8.35252013842382, 47.557187638390026], [8.352377571649773, 47.5570935486259], [8.352253983959372, 47.55704687096963], [8.352019291275194, 47.557005628713156], [8.351890256842186, 47.55700844425906], [8.351768959011995, 47.55703002378155], [8.35135672797563, 47.5571605579521], [8.35130089182828, 47.557133241216704], [8.35129818949645, 47.557084990076234], [8.351401655592696, 47.556869238480715], [8.3515226956442, 47.556556605687184], [8.351578152346343, 47.5564404662267], [8.351661221607243, 47.55630670535515], [8.351728232849187, 47.55621272681436], [8.35181801657818, 47.55612566526565], [8.352663423599438, 47.55560809842058], [8.352824660475314, 47.555465472172976], [8.353046590227416, 47.55519398183576], [8.353128221671291, 47.55503260922494], [8.353233022607073, 47.554531562801515], [8.353261162068472, 47.55425752646122], [8.353285289090612, 47.554101581358125], [8.353353895646494, 47.55394317163716], [8.35161219520278, 47.55331518949961], [8.351193814754751, 47.55381934225952], [8.350552905371208, 47.55350674241569], [8.349718185473677, 47.55296549729951], [8.349023475099175, 47.5531902997047], [8.348372876423122, 47.55341167566704], [8.347155970895045, 47.55384629076237], [8.346853911205585, 47.55395674233163], [8.346689972677154, 47.55403913732723], [8.346596205173743, 47.55409161604935], [8.345758943183741, 47.55454897466801], [8.345417868713962, 47.55474198975055], [8.345042539638664, 47.55494592979271], [8.34479862740924, 47.555069026007935], [8.343827408354251, 47.555479720795006], [8.343314305688363, 47.55568091747913], [8.342850182361484, 47.555908388686454], [8.342362325390395, 47.55607107662616], [8.34179308747301, 47.556298831805144], [8.341102911907477, 47.556637094471164], [8.340814007803568, 47.55677120846398], [8.340150914587662, 47.55698037623119], [8.339297324981585, 47.55718904102494], [8.338236184852025, 47.55735141504383], [8.337810710056754, 47.557430852543064], [8.337067035012575, 47.557606142291384], [8.336326082862866, 47.55791298356411], [8.335522249793792, 47.55823413127742], [8.335372772812853, 47.55827769563344], [8.335215750166313, 47.558304040166504], [8.335255925995737, 47.55902406516918], [8.335008688269985, 47.55968723703324], [8.334856812084908, 47.560309538408816], [8.334766419451457, 47.56095650294157], [8.334446756121716, 47.561940221060524], [8.334684672357467, 47.56247399718388], [8.334940486521512, 47.5629419156683], [8.335001643652015, 47.56329656281095], [8.335327258782788, 47.56392132143977], [8.335472377959617, 47.56411067869452], [8.335861961068042, 47.56442467204508], [8.33623145880636, 47.56470409558696], [8.336407158819949, 47.564784050840544], [8.33650426080804, 47.56484779556755], [8.336903139016243, 47.565131679892716], [8.336967853737086, 47.56551836758374], [8.336806047481529, 47.566380914392965], [8.336813557570306, 47.56639045286951], [8.336392201826131, 47.56643657248193], [8.336435778495375, 47.56668433219379], [8.337058327885183, 47.56932875150618], [8.337349416798514, 47.57038361396224], [8.338572981503187, 47.57035176728622], [8.339162456734053, 47.57034379138235], [8.339751969711381, 47.57035058076552], [8.340340709564298, 47.57037209677455], [8.340927879009921, 47.57040831864443], [8.34544499472503, 47.570744043682666], [8.345948203777864, 47.570776399522316], [8.346452611858124, 47.5707987781488], [8.346957753119462, 47.5708111562112], [8.347463228459677, 47.570813527826346], [8.347968585619137, 47.57080588753211], [8.348473398938106, 47.57078822969414], [8.348977230355738, 47.570760602699956], [8.349479641075694, 47.570723010019506], [8.350539809537517, 47.570635897222594], [8.351600977836153, 47.570554568113856], [8.352663053767314, 47.570479050389636], [8.353726010654425, 47.57040931728117], [8.355144499429604, 47.57032525231139], [8.356564238356063, 47.57025147648869], [8.357985055193597, 47.57018797315123], [8.358363254066155, 47.57016632002206], [8.358739500860931, 47.57013250284083], [8.359112920085511, 47.57008662761835], [8.35948271519246, 47.570028763555236], [8.359848024582071, 47.569959052500145], [8.360208000341768, 47.56987766308041], [8.360561861259951, 47.569784772507035], [8.360908760078413, 47.56968058539212], [8.361230228672664, 47.569580709945825], [8.361554903355483, 47.56948567400148], [8.361776876860436, 47.56942461672413]]]]}}]}