{"type": "FeatureCollection", "features": [{"type": "Feature", "properties": {"bfs_nummer": 4324}, "geometry": {"type": "MultiPolygon", "coordinates": [[[[8.35492777623322, 47.545660212881074], [8.354206559716946, 47.546177827087], [8.35338196558878, 47.545639163957894], [8.352764609051068, 47.545301450402846], [8.351457728010782, 47.54454686199525], [8.351037008772881, 47.54432444356276], [8.350597583340592, 47.544120249211375], [8.349542888355904, 47.54364334260108], [8.34903875951163, 47.54342919117603], [8.348779723209582, 47.543348118218475], [8.348511102509669, 47.54331081445648], [8.347939144441078, 47.54330948468858], [8.347276307217333, 47.54336370321648], [8.347075514556776, 47.54338941833029], [8.346640371301222, 47.54342124170104], [8.345530396732372, 47.54347493985183], [8.344575848714962, 47.54409039322358], [8.344377167417575, 47.54411554682635], [8.344197847215542, 47.5441831911498], [8.343482188262541, 47.54413500305295], [8.342378536439448, 47.54392180431381], [8.341939947972602, 47.54388108821791], [8.34122660161453, 47.54389514546427], [8.340736299305334, 47.54400219147008], [8.34039799611136, 47.5444838736328], [8.340257852094364, 47.544725779024255], [8.339567344368481, 47.544666317124445], [8.338982725722058, 47.54460853804657], [8.33814382401384, 47.54457712242815], [8.337873114644944, 47.54454269695096], [8.337532533439315, 47.54448710939588], [8.33673683305478, 47.544366070499166], [8.33603731012443, 47.54432679573213], [8.335444062635007, 47.54426572883749], [8.334524457842411, 47.544244607517754], [8.33338477878757, 47.54402603476042], [8.332323938423771, 47.5444585543737], [8.331542037167715, 47.54474134504439], [8.33085006006316, 47.544983017387025], [8.329449745828654, 47.54541394827382], [8.32868365647007, 47.545577324785725], [8.328006147622347, 47.545700647868856], [8.327461148326929, 47.54576938951202], [8.324931972708969, 47.545857822336544], [8.324595179308925, 47.54608565948167], [8.324322866736287, 47.54626020649638], [8.323853138221747, 47.54666060642182], [8.323707701402094, 47.54675870281534], [8.32355496139884, 47.54685224064889], [8.322753039063272, 47.54726036986317], [8.322667126174295, 47.547308946828224], [8.322584626404867, 47.54729358418937], [8.322249111801552, 47.54681412876536], [8.32210669365086, 47.546546671182796], [8.322005323823761, 47.546148087083054], [8.32195145489077, 47.54615918288179], [8.320588424242406, 47.546449393042046], [8.319879873409706, 47.54669725056442], [8.318893943901946, 47.547052947071585], [8.31822530378767, 47.54744005563001], [8.317241710254933, 47.54810963066288], [8.316764290942709, 47.54806494886408], [8.316197760761199, 47.547981769439616], [8.315672170804895, 47.54792888508776], [8.314351128151234, 47.54773593316651], [8.313515915073172, 47.547648941150335], [8.313175718584978, 47.54768413917336], [8.31295483083284, 47.547712077772495], [8.312697068565429, 47.54774752509288], [8.312104392763226, 47.547927911675764], [8.311507617156034, 47.548096723419874], [8.310495702349632, 47.54843872769133], [8.309394198359072, 47.54917912929352], [8.309049728624014, 47.549085602773204], [8.308442691532198, 47.549198595010054], [8.307552129334246, 47.54900731776032], [8.306874348883452, 47.54876511604097], [8.306240498510926, 47.54849794655581], [8.305801586450002, 47.548688670543264], [8.30526137544896, 47.54893899830802], [8.304778951359477, 47.549209047793546], [8.304753345171461, 47.54920297003158], [8.304640394346432, 47.549516626614135], [8.304409173868677, 47.54947617936948], [8.304197375376344, 47.54940141734057], [8.304008701329156, 47.54930104641907], [8.303367344469992, 47.54892480679206], [8.30298126518656, 47.54872097022487], [8.302257109269803, 47.54921354772354], [8.30221140740984, 47.549230608563896], [8.302068183087547, 47.5491047479102], [8.301917665681326, 47.54901812034948], [8.301492637330972, 47.54886894769422], [8.301182880770739, 47.54878914359707], [8.300626737848107, 47.54878752301606], [8.300508979962322, 47.549655477323405], [8.301441442207256, 47.54972001881505], [8.301579454252801, 47.54973680028984], [8.301720377669854, 47.549778231259445], [8.30182218100391, 47.54985427544112], [8.30187579840548, 47.549882001351946], [8.301918655950672, 47.55014693233973], [8.301972618417055, 47.55033325148545], [8.301922280468842, 47.55034549880643], [8.30190152815886, 47.550391245250694], [8.301786630896297, 47.55045054543207], [8.301703866262937, 47.550530859676066], [8.301394100965949, 47.55104518133347], [8.301382278586548, 47.551135292820675], [8.301419745535636, 47.55121970385832], [8.301486399928859, 47.55129588374866], [8.30172721661836, 47.551488402744994], [8.301701448845511, 47.55155013314222], [8.301879609699965, 47.55159605362991], [8.302158645472733, 47.55172440123308], [8.30242129676053, 47.55186798955171], [8.302527546872435, 47.551963103628864], [8.302560357212975, 47.55208045022748], [8.302530946311947, 47.55221630314776], [8.302509227446496, 47.55225735306708], [8.30245127003382, 47.552281547791004], [8.302118913980422, 47.55224226291283], [8.301895602572102, 47.55223702707766], [8.30167728114271, 47.55227970231092], [8.301488599776821, 47.552360004542244], [8.301320268635449, 47.5524573071272], [8.301182447634911, 47.552577929554516], [8.301108105872737, 47.55272311973555], [8.301023977437772, 47.553054447209334], [8.300975631495866, 47.55318059178202], [8.300896872842179, 47.55329930844839], [8.300519444906005, 47.55376529268274], [8.3004305772287, 47.55388670118123], [8.300386997726111, 47.55401770267344], [8.300408340602376, 47.5541490941311], [8.299851072816688, 47.55396765439898], [8.29968393908437, 47.55406802151796], [8.299407881709135, 47.554460953408146], [8.299385532001605, 47.55464614947081], [8.299498557712596, 47.55500526948796], [8.299625848317985, 47.55527710189934], [8.299753035880384, 47.555474462331624], [8.29967600726407, 47.55556831404344], [8.299695269018134, 47.55559513586292], [8.299633740934425, 47.55563952074538], [8.299449520468025, 47.55567133429129], [8.2988929534586, 47.555830076777994], [8.298861945048715, 47.556916634551456], [8.299497626090876, 47.55732889186063], [8.301145576985341, 47.557258984292474], [8.301778804425943, 47.557217170661744], [8.30253597077373, 47.55748094490874], [8.303007268604961, 47.558188688471255], [8.302971477626759, 47.55885869382167], [8.302965776333874, 47.55942546323219], [8.303076376281727, 47.55987099667319], [8.303179494095666, 47.560219987734705], [8.303467022669652, 47.560598480289215], [8.303637699700419, 47.56089443108683], [8.304006721568818, 47.56163136337741], [8.304313690306056, 47.5619111408743], [8.304561059333343, 47.562157984820104], [8.304802018987354, 47.56248916137012], [8.305621173395442, 47.563247964009214], [8.30639966813557, 47.56360208993585], [8.306846969590165, 47.56379215254013], [8.307276323713381, 47.56394823265959], [8.30799433404013, 47.56428595519413], [8.308463889299647, 47.56455462359305], [8.308875226641744, 47.564807662419994], [8.309323709029407, 47.565217003384575], [8.309498008302786, 47.56562483285414], [8.30946601147375, 47.565705257217815], [8.308969566371779, 47.565674888014726], [8.308217941976002, 47.565713232337544], [8.307465465923176, 47.56597251349988], [8.306995785238698, 47.56623392691455], [8.306467149213605, 47.566565446201366], [8.306330626404824, 47.566712622978706], [8.30630193846962, 47.567053842474124], [8.306116439910754, 47.56746615723799], [8.306112970803483, 47.56779161242802], [8.306165633339079, 47.56810866147929], [8.306263306685723, 47.568326408340766], [8.306417040203167, 47.56851596842676], [8.306596312020394, 47.56869775705816], [8.306801744810953, 47.56884821926942], [8.307038429170428, 47.56909409279348], [8.307571611015668, 47.56946890676877], [8.306917884708879, 47.569550749299395], [8.30708301988315, 47.56973888666001], [8.306733307195332, 47.569869080259394], [8.30610370426577, 47.569922953861706], [8.305400294710708, 47.56997314163245], [8.305213096782628, 47.569545234563016], [8.304866338917977, 47.56949017192317], [8.304756174317927, 47.569531513641515], [8.304629940723096, 47.56972438420169], [8.304464833057562, 47.569799882449495], [8.304228798330339, 47.569798073905424], [8.3036713313449, 47.56971720261754], [8.302757648592411, 47.570591944999975], [8.302738874216427, 47.57063063409867], [8.301976020478811, 47.570515839479775], [8.301581987280189, 47.571066995619184], [8.301130924264802, 47.57163343170067], [8.300384740798616, 47.57213227604488], [8.300129738905058, 47.57252014057343], [8.300393971767296, 47.57294685931868], [8.300983625673755, 47.57379761858486], [8.300290210718124, 47.57420745338231], [8.299703074350933, 47.57449360344579], [8.299932979654875, 47.57508975129737], [8.300453230434716, 47.575798947291894], [8.29924252807177, 47.5763066932245], [8.298220026919257, 47.57636933752089], [8.296919750752952, 47.57629530280074], [8.295286670503241, 47.57607718830551], [8.294552072001665, 47.576371855869894], [8.294058460518439, 47.57648838364605], [8.292808570884086, 47.57605277982649], [8.292421119369571, 47.575927069945536], [8.291525623370573, 47.57556117341926], [8.29026511580853, 47.57498876401777], [8.289601339116718, 47.574852346241855], [8.288949141106258, 47.57480384756048], [8.288273733408229, 47.57479992000449], [8.287605817992828, 47.57483647051654], [8.286343534739386, 47.57489765386658], [8.285643620843377, 47.57552844206625], [8.2848559874655, 47.575638137297176], [8.28444821429806, 47.57562209809706], [8.283869032838481, 47.57567778537591], [8.283384273393668, 47.57574100272587], [8.283155264968466, 47.57575299590569], [8.280909711299428, 47.57519636955906], [8.28001556866846, 47.574979677698366], [8.279071135018757, 47.57494665385297], [8.278283841141347, 47.57492425814661], [8.278026193019151, 47.57505239139034], [8.277541294114243, 47.575012822122225], [8.277479095699382, 47.575376672619086], [8.276348349468734, 47.575601168672556], [8.275619300920217, 47.575990978008576], [8.27447173248464, 47.57643683926946], [8.273692222961957, 47.576919454559665], [8.273292676762438, 47.57718459001565], [8.27288310967003, 47.57795175261556], [8.272572096349926, 47.57855488971641], [8.273586856783368, 47.57936341477758], [8.273773049344273, 47.57981848326374], [8.273588692679198, 47.58027995978703], [8.273401492666316, 47.58087353757866], [8.274659943458065, 47.581478585669075], [8.27447124683668, 47.582073916401846], [8.276298623678308, 47.58272606066162], [8.27679672714018, 47.58351974756432], [8.274940044195294, 47.583602645903355], [8.274926046469814, 47.583890505217944], [8.274941151362361, 47.584008902864646], [8.274611395695601, 47.58419584837226], [8.274404040815538, 47.58499568829371], [8.274056440777406, 47.585369658114416], [8.273607458728835, 47.58573538023191], [8.273349078030925, 47.58596130142516], [8.272978451742729, 47.58645534414544], [8.27245631686866, 47.58674201737782], [8.271582705361011, 47.587196010440394], [8.270538190288892, 47.58735374262418], [8.269013213988673, 47.587448969880796], [8.267766162263785, 47.588076089687895], [8.267018332833377, 47.588528942329454], [8.266479121441643, 47.58909320419819], [8.26797783633729, 47.58925837834631], [8.269390834697406, 47.58905134115247], [8.269305162906026, 47.58948890859524], [8.269046278721328, 47.59011168870474], [8.268836547982938, 47.59068307413256], [8.26853836773914, 47.59133842192794], [8.268277645929231, 47.59203964066657], [8.268209154298994, 47.593099589025734], [8.26805054562785, 47.593624619030216], [8.26796714541817, 47.59416212557708], [8.268503533798444, 47.594766765927474], [8.269092347987486, 47.59540618658769], [8.269164648374169, 47.59564382341248], [8.269675743936167, 47.59640527201876], [8.269811170626143, 47.596663475131656], [8.269591919807045, 47.59731168299729], [8.269442365135399, 47.59778473532381], [8.269443474158262, 47.59824140972889], [8.268889218022158, 47.5989937001102], [8.268662644729908, 47.598910354040505], [8.26814954866298, 47.598748289326856], [8.267834413387485, 47.59867487451632], [8.266682922871933, 47.59846592626357], [8.266395828463656, 47.59840572666661], [8.26615061038523, 47.59832523398039], [8.265188572624856, 47.597875057103344], [8.264950950825602, 47.597744122880925], [8.264763273254351, 47.59760717541182], [8.264309747143335, 47.597234001914984], [8.264151014708, 47.597142024572975], [8.263936377209156, 47.59707790365935], [8.263860697207027, 47.5979885680088], [8.263933196893953, 47.59840543927131], [8.263842333851782, 47.59887153579735], [8.263297599700516, 47.59944622380748], [8.26256333388312, 47.600286329876056], [8.262594939844572, 47.600817384110194], [8.263381800868055, 47.60225140088637], [8.26329043210607, 47.602290958504526], [8.262182105508803, 47.6038410354155], [8.261309237303776, 47.60686203070233], [8.258655510591897, 47.60778243580434], [8.25720860736733, 47.60749733938746], [8.255851713743954, 47.607732930237816], [8.255096676497933, 47.60782302164094], [8.252841189509766, 47.60812093510447], [8.252255520941823, 47.608254123426676], [8.252409159778546, 47.60896466299404], [8.252374153830926, 47.609242212176554], [8.25243649051787, 47.60963083853981], [8.25252021810463, 47.61001969253441], [8.252494619415236, 47.61027499573341], [8.252478186637028, 47.61050886286489], [8.253112955848204, 47.61065214563655], [8.253899591517957, 47.6108525772236], [8.254127363742649, 47.6111914968657], [8.254248807433548, 47.611296098315286], [8.254784741729917, 47.611571685024785], [8.255250270690551, 47.611766144038185], [8.255979170151756, 47.6121049986415], [8.256531070735264, 47.61236772946632], [8.257142886657729, 47.61263412739323], [8.257823773662581, 47.612555578709156], [8.257855442486646, 47.61257194013418], [8.25796776439138, 47.61248561402583], [8.2578943374384, 47.612581666692165], [8.25784429247555, 47.61268457869549], [8.257823504983273, 47.61277257896442], [8.25782012645274, 47.612849267760645], [8.257843719192397, 47.61297141157446], [8.257937706113777, 47.61292682139877], [8.25795689761518, 47.61307323357351], [8.25818334417971, 47.612957806183935], [8.258610483094339, 47.61271563877581], [8.258759652533438, 47.61261071302869], [8.259211127239368, 47.61296911718501], [8.260371568891799, 47.61327915052076], [8.261324618711601, 47.61352370110636], [8.26263427301754, 47.6107805874476], [8.262726562710428, 47.610610916392424], [8.262838715557587, 47.610446806401306], [8.262970003194042, 47.61028932392371], [8.263119576563442, 47.61013947322694], [8.26328645355335, 47.60999825056876], [8.26346959707115, 47.60986653566225], [8.263667783774775, 47.609745200589394], [8.263852542094957, 47.609648172582624], [8.264046936117724, 47.60956015971333], [8.264250001972131, 47.60948160951543], [8.264460708185043, 47.60941289804044], [8.264678049738347, 47.60935439213501], [8.264900940343022, 47.60930636034943], [8.265128279982804, 47.60926904432622], [8.265358928065112, 47.609242641042805], [8.26573090023015, 47.609217065053336], [8.266104487686302, 47.60920725189715], [8.266478254678802, 47.609213220798374], [8.266850751731125, 47.60923496411096], [8.267220501640532, 47.609272402449704], [8.267586078998528, 47.60932536615748], [8.267946058069816, 47.60939366757119], [8.26829903847482, 47.60947703797524], [8.26864360559067, 47.60957515471199], [8.268978463425087, 47.609687622468236], [8.269473157338592, 47.609886412211466], [8.269976121589767, 47.610075472047875], [8.270486941022531, 47.610254633919695], [8.271005214225221, 47.610423756714255], [8.27153047340046, 47.610582708777045], [8.272062290345483, 47.61073134018752], [8.272600237404644, 47.61086953700459], [8.273143860164355, 47.6109971764891], [8.273692691191778, 47.611114154007815], [8.274246289901352, 47.611220382706], [8.274804202270031, 47.61131576686008], [8.2753659344943, 47.61140022001916], [8.275931046391172, 47.61147368235039], [8.276499071166066, 47.611536094215616], [8.27706950225235, 47.611587405255676], [8.277641899444452, 47.61162755566736], [8.278045554840729, 47.61166273583091], [8.278450920583605, 47.61168745114144], [8.278857370666527, 47.61170166113715], [8.27926433270103, 47.61170535195637], [8.279671207707063, 47.61169850994789], [8.280077397128979, 47.611681148444], [8.280482302556592, 47.61165328977961], [8.280885339465627, 47.61161499218976], [8.283206870059775, 47.611363611337936], [8.283652360073926, 47.61131207965659], [8.284096111616893, 47.61125416416901], [8.284537965084683, 47.611189875042996], [8.284977681934794, 47.611119276978016], [8.28541507554925, 47.6110423533718], [8.285849974046938, 47.61095917745816], [8.286282138194482, 47.610869768998576], [8.286711408989461, 47.610774174157946], [8.287391717209806, 47.61060845026438], [8.288063287185818, 47.610427199584265], [8.288725363552686, 47.61023062565004], [8.288924905664194, 47.61016582773645], [8.289377191147976, 47.61001894102873], [8.290017988820692, 47.609792394457976], [8.292015522934376, 47.60905666025027], [8.292463406966693, 47.60888530281969], [8.29290289958975, 47.60870425582333], [8.293333498640333, 47.60851372990547], [8.293754808085566, 47.60831391696073], [8.29416636556576, 47.608105018366416], [8.294567748781438, 47.60788724419969], [8.294958536034182, 47.607660840509496], [8.295338331967372, 47.60742603517995], [8.296555401089885, 47.60664880572089], [8.296731818537376, 47.60652883343057], [8.296896787066181, 47.60640161535176], [8.297049636662047, 47.606267660163766], [8.297189750657136, 47.60612748513074], [8.297316619666237, 47.60598166069748], [8.2974297072849, 47.60583073051476], [8.297528597994571, 47.60567530932196], [8.297612889246098, 47.605515993701566], [8.297682232499136, 47.6053534249005], [8.297736385373579, 47.60518823427012], [8.297775119008849, 47.60502106213555], [8.297798271748395, 47.60485259326519], [8.297805774427891, 47.604683475745134], [8.29779758433888, 47.60451434847076], [8.297773753037127, 47.604345921610786], [8.297734330889758, 47.60417883335634], [8.29564445783922, 47.59681044943746], [8.295542397412504, 47.59641377112953], [8.295460607700843, 47.596014937310684], [8.295399162417546, 47.59561442415595], [8.295358135708819, 47.59521273481692], [8.295337574400905, 47.59481032766867], [8.295335148765991, 47.594558663003696], [8.295340714815373, 47.59430703823324], [8.295354287186406, 47.59405554319532], [8.295375867659793, 47.593804294806986], [8.29540543185091, 47.59355343714357], [8.29544296765278, 47.593303051226954], [8.295488450691085, 47.59305328113987], [8.295541895745679, 47.592804225698124], [8.295601307357375, 47.592574769320144], [8.295673216085119, 47.5923469384566], [8.295757560951348, 47.59212108428611], [8.295854173364644, 47.59189747788183], [8.29600189850398, 47.59160340235035], [8.296170887335524, 47.59131462888529], [8.296360725042714, 47.59103183500182], [8.296954110126313, 47.590202737883935], [8.297138314019744, 47.589955187279564], [8.29733368185378, 47.58971161009458], [8.297540030872579, 47.58947222344733], [8.29775721826431, 47.58923724422538], [8.298063206357261, 47.588931182571514], [8.298387546621582, 47.588633879259916], [8.29872963558392, 47.58834584228549], [8.29912804713128, 47.588046125809896], [8.299539522537202, 47.587754594568956], [8.29996366736336, 47.58747152117558], [8.30040012620875, 47.587197123996525], [8.30084850469331, 47.586931675649964], [8.30130839458901, 47.58667541288299], [8.30177940070185, 47.586428554368034], [8.302261087975424, 47.586191319062436], [8.302669579881751, 47.58596101275823], [8.303042624914788, 47.58579268705924], [8.303427235175459, 47.58563671284306], [8.303822486076296, 47.58549344766514], [8.304125373657401, 47.58539455494079], [8.304433353735712, 47.58530312452996], [8.304745989688413, 47.58521927659505], [8.305062924776733, 47.58514313966653], [8.307793951648005, 47.584524309139596], [8.308346803087042, 47.5843856935956], [8.308885575514452, 47.584223670225974], [8.309408098637276, 47.584038876118626], [8.309788045750231, 47.58388578460982], [8.310156839278857, 47.58372066046507], [8.310513607576906, 47.58354386112126], [8.310857546370311, 47.58335579746815], [8.311659390031528, 47.582874296906695], [8.312428524661954, 47.582368977547425], [8.313163411355694, 47.58184084099761], [8.313587305117041, 47.58151345771088], [8.313998028134884, 47.581178482168056], [8.31439526518679, 47.58083614172357], [8.314778768293326, 47.58048670821932], [8.315148235886582, 47.58013042691285], [8.316459358424698, 47.57882918717712], [8.318539474349688, 47.57676458972399], [8.31894020639009, 47.57637783770624], [8.319355806336446, 47.57599831958878], [8.319785999855602, 47.57562633408139], [8.320230458323286, 47.57526210839307], [8.32068889360066, 47.57490590538867], [8.320982260323014, 47.57468744375729], [8.321281036088129, 47.57447229502415], [8.321584981978342, 47.57426047896203], [8.321894032736296, 47.57405206797966], [8.322208082937241, 47.5738471167975], [8.32252706719448, 47.5736456888454], [8.322850893087622, 47.573447820763334], [8.32317929587998, 47.573253577477445], [8.323473693319276, 47.57308936360201], [8.323777783416919, 47.57293344860205], [8.324091079039093, 47.57278610596306], [8.324331744542196, 47.57268136519185], [8.324577065619252, 47.57258168808265], [8.324826804599743, 47.57248716635107], [8.325080710403428, 47.57239788285227], [8.328326135123216, 47.57129916309971], [8.328540919341428, 47.57122914088055], [8.328758700373283, 47.57116350243426], [8.328979279532922, 47.5711022852463], [8.329202445607487, 47.571045571877114], [8.329428039772303, 47.57099339949409], [8.329655823340692, 47.57094579690902], [8.329885611541803, 47.57090283749716], [8.330117192099344, 47.570864540848895], [8.330871082511297, 47.57075569589666], [8.331629299368226, 47.57066168017409], [8.332391206658572, 47.57058257048182], [8.33315620824811, 47.570518443324616], [8.333923627764577, 47.57046934877726], [8.33469282879281, 47.570435336726995], [8.335463161148915, 47.57041643015996], [8.336233987638295, 47.57041263399055], [8.337349416798514, 47.57038361396224], [8.337058327885183, 47.56932875150618], [8.336435778495375, 47.56668433219379], [8.336392201826131, 47.56643657248193], [8.336813557570306, 47.56639045286951], [8.336806047481529, 47.566380914392965], [8.336967853737086, 47.56551836758374], [8.336903139016243, 47.565131679892716], [8.33650426080804, 47.56484779556755], [8.336407158819949, 47.564784050840544], [8.33623145880636, 47.56470409558696], [8.335861961068042, 47.56442467204508], [8.335472377959617, 47.56411067869452], [8.335327258782788, 47.56392132143977], [8.335001643652015, 47.56329656281095], [8.334940486521512, 47.5629419156683], [8.334684672357467, 47.56247399718388], [8.334446756121716, 47.561940221060524], [8.334766419451457, 47.56095650294157], [8.334856812084908, 47.560309538408816], [8.335008688269985, 47.55968723703324], [8.335255925995737, 47.55902406516918], [8.335215750166313, 47.558304040166504], [8.335372772812853, 47.55827769563344], [8.335522249793792, 47.55823413127742], [8.336326082862866, 47.55791298356411], [8.337067035012575, 47.557606142291384], [8.337810710056754, 47.557430852543064], [8.338236184852025, 47.55735141504383], [8.339297324981585, 47.55718904102494], [8.340150914587662, 47.55698037623119], [8.340814007803568, 47.55677120846398], [8.341102911907477, 47.556637094471164], [8.34179308747301, 47.556298831805144], [8.342362325390395, 47.55607107662616], [8.342850182361484, 47.555908388686454], [8.343314305688363, 47.55568091747913], [8.343827408354251, 47.555479720795006], [8.34479862740924, 47.555069026007935], [8.345042539638664, 47.55494592979271], [8.345417868713962, 47.55474198975055], [8.345758943183741, 47.55454897466801], [8.346596205173743, 47.55409161604935], [8.346689972677154, 47.55403913732723], [8.346853911205585, 47.55395674233163], [8.347155970895045, 47.55384629076237], [8.348372876423122, 47.55341167566704], [8.349023475099175, 47.5531902997047], [8.349718185473677, 47.55296549729951], [8.350552905371208, 47.55350674241569], [8.351193814754751, 47.55381934225952], [8.35161219520278, 47.55331518949961], [8.353353895646494, 47.55394317163716], [8.353285289090612, 47.554101581358125], [8.353261162068472, 47.55425752646122], [8.353233022607073, 47.554531562801515], [8.353128221671291, 47.55503260922494], [8.353046590227416, 47.55519398183576], [8.352824660475314, 47.555465472172976], [8.352663423599438, 47.55560809842058], [8.35181801657818, 47.55612566526565], [8.351728232849187, 47.55621272681436], [8.351661221607243, 47.55630670535515], [8.351578152346343, 47.5564404662267], [8.3515226956442, 47.556556605687184], [8.351401655592696, 47.556869238480715], [8.35129818949645, 47.557084990076234], [8.35130089182828, 47.557133241216704], [8.35135672797563, 47.5571605579521], [8.351768959011995, 47.55703002378155], [8.351890256842186, 47.55700844425906], [8.352019291275194, 47.557005628713156], [8.352253983959372, 47.55704687096963], [8.352377571649773, 47.5570935486259], [8.35252013842382, 47.557187638390026], [8.35264080424105, 47.55732240207157], [8.352663200395417, 47.55738230739413], [8.352664925835953, 47.55745016475144], [8.352654786011906, 47.55767095570973], [8.352644276330157, 47.55778374610054], [8.352670095933837, 47.55789280511047], [8.35378884298163, 47.558285191727144], [8.35347098975454, 47.558798657392174], [8.353415607475082, 47.55890667523661], [8.353390774224582, 47.5590085967393], [8.353348405342814, 47.55931679706155], [8.353338573758574, 47.559402527417554], [8.353357090696692, 47.5594971003899], [8.353392644622568, 47.5595917997847], [8.353443232155284, 47.559689114777726], [8.353525371272992, 47.55977909317805], [8.35361042363451, 47.559837613409165], [8.353716290143018, 47.55987253904045], [8.354050836325818, 47.559943614853715], [8.354203602081132, 47.55999972902791], [8.354347145239823, 47.5600642535174], [8.35450502218329, 47.56016862617503], [8.35464308354205, 47.56028354372781], [8.354795464748184, 47.56043823764167], [8.354861992340503, 47.56042256542059], [8.35494082772865, 47.56045176738289], [8.355029439981816, 47.56046307429266], [8.355331829948124, 47.56046917379426], [8.355429423779114, 47.56045963240933], [8.355523365618547, 47.56044098157113], [8.355569046803957, 47.560419294619074], [8.355605096126272, 47.560389247164565], [8.355710186316232, 47.56040676431148], [8.355773024826238, 47.560535299985446], [8.355773300396283, 47.56066746939361], [8.355687495726398, 47.56101049836295], [8.358180980819373, 47.56137224036541], [8.358093617938607, 47.56156146280731], [8.358029313910741, 47.561816205715076], [8.358034676115345, 47.56205999874923], [8.358058362836873, 47.56219245892619], [8.358108310473998, 47.56237730054653], [8.358283715369907, 47.562883905890104], [8.358353736925775, 47.563168154957275], [8.358375729779855, 47.56342293396242], [8.358365088246622, 47.56368248621045], [8.35854321147127, 47.56381304664027], [8.358574866442572, 47.56398726770036], [8.358603071756159, 47.564355918787854], [8.358519248977009, 47.56450657121103], [8.358567845951539, 47.56481655172356], [8.358781847830953, 47.56506177572799], [8.358831670885777, 47.56529976428135], [8.358982272441851, 47.56552428105656], [8.359210722768253, 47.56591439413698], [8.359384823846883, 47.56613524908752], [8.3594540286435, 47.56615254431342], [8.359531128788959, 47.566207480930686], [8.359584034015556, 47.56628338647636], [8.359656398216554, 47.566453739588916], [8.359742716102916, 47.56657348760742], [8.359895269854473, 47.56669559643408], [8.360022137476816, 47.566769537835754], [8.359796231956391, 47.566819495824106], [8.359933733000775, 47.56703910542393], [8.360023106703453, 47.56710585264574], [8.360086118594, 47.56729236132644], [8.360145909682917, 47.56737669345445], [8.360290987911776, 47.56745303532329], [8.360489750542266, 47.56747313157977], [8.360795590209943, 47.567469638430225], [8.361094651105194, 47.56748827052331], [8.361036128504772, 47.56763395774793], [8.36116911341934, 47.56771940646789], [8.3612602852722, 47.56780537677452], [8.361403195615768, 47.568014597428274], [8.36142895811828, 47.568126694767805], [8.36161592096658, 47.56805866022454], [8.361688416231374, 47.56826356708725], [8.361831441813248, 47.568441009667026], [8.361776876860436, 47.56942461672413], [8.361882599088387, 47.569395532956406], [8.362213170879258, 47.569310350911685], [8.362546446208798, 47.5692301382027], [8.362882279922028, 47.56915494992342], [8.363220486564101, 47.56908481454643], [8.3635609075145, 47.56901977824705], [8.363903370598779, 47.568959869378006], [8.364247730076865, 47.56890510710417], [8.364593787469113, 47.56885553792006], [8.364941370149165, 47.568811163218676], [8.365290332670385, 47.56877202012237], [8.36564048941369, 47.56873812809223], [8.365991681015865, 47.56870948838288], [8.366343722181798, 47.56868613845417], [8.370570278410348, 47.5684376609641], [8.371096617323273, 47.56840019565231], [8.37162058996918, 47.56834986720968], [8.37214154528869, 47.56828671662064], [8.372658754202916, 47.568210858013664], [8.373171592988893, 47.56812236828815], [8.373679345830421, 47.568021370216606], [8.37418135024028, 47.567907995150144], [8.37467697075865, 47.56778240116215], [8.375262383252297, 47.56763471826166], [8.375855869488415, 47.56750267121276], [8.376456542954156, 47.56738645590467], [8.377063476897762, 47.56728624167592], [8.377432349856353, 47.5672242259916], [8.377796427660902, 47.56715036648513], [8.37815487613145, 47.56706484982361], [8.378506914411314, 47.56696787124107], [8.37885170871025, 47.56685963545257], [8.379188493001207, 47.56674041862503], [8.381471199168201, 47.56588477733933], [8.381644516076246, 47.565827054382495], [8.381825255056881, 47.56578095441721], [8.382011749373623, 47.56574690473114], [8.382202237677312, 47.56572524341978], [8.38239492933937, 47.565716155921024], [8.382515675083456, 47.56571689996062], [8.382636137013318, 47.56572261105433], [8.382755849164614, 47.56573323905226], [8.382874425413556, 47.565748742097426], [8.382991360413772, 47.565769097350675], [8.383106280060886, 47.56579419092428], [8.383218757914847, 47.56582395435084], [8.383328340145944, 47.565858274400256], [8.383612794219893, 47.56596196369463], [8.383887420531671, 47.56607714621957], [8.38415120216885, 47.566203425617985], [8.384403160230967, 47.566340306217874], [8.38464236899838, 47.56648729199945], [8.384867942073866, 47.56664385960972], [8.385027673002853, 47.56676719947443], [8.385178931927918, 47.56689534828593], [8.385321394809269, 47.567028020919594], [8.385454778069954, 47.567164967858545], [8.38557879688348, 47.56730586769523], [8.385693207367, 47.567450461606576], [8.385797764323977, 47.56759841879703], [8.385892236851449, 47.56774946238488], [8.387877174159179, 47.571135478618544], [8.388218280725317, 47.57166194779414], [8.38861374242638, 47.57217070152312], [8.389061560809383, 47.572659174349376], [8.389354457544979, 47.57294149761634], [8.389664891947646, 47.573215113719044], [8.389992244132927, 47.57347954191356], [8.390335973592563, 47.5737342828209], [8.390695434254265, 47.573978882881335], [8.39211125156994, 47.57490205713223], [8.392697637318859, 47.574558202814295], [8.393296390198003, 47.57420833712453], [8.393701732933607, 47.573117174953076], [8.393835639523768, 47.573095673087494], [8.393960545650849, 47.57303193577363], [8.394093389824375, 47.57293366689991], [8.394235810545629, 47.572739799081056], [8.39442199956988, 47.57245817253853], [8.394569479801126, 47.57218962760463], [8.39458622353175, 47.572139265272426], [8.394579155862498, 47.57210325626681], [8.39452356643374, 47.572040835135034], [8.394151273991124, 47.57153908769716], [8.394051662282065, 47.57145350885366], [8.39412950608374, 47.571407724942155], [8.394446699758092, 47.57157157818823], [8.394595019297846, 47.57162742467779], [8.394715957452831, 47.571639559435006], [8.394899564872143, 47.57160390317219], [8.395894430998732, 47.571270739425486], [8.397636592761454, 47.570697960239336], [8.39784009540069, 47.57061766670693], [8.398016300588186, 47.57051540059058], [8.398867247129148, 47.569895619104344], [8.39899565202815, 47.569790176700195], [8.398359730263067, 47.56927763254948], [8.398264005677877, 47.56896157258809], [8.398226914758474, 47.56862106668309], [8.398228058084072, 47.56836140035068], [8.398080720591505, 47.567903468164324], [8.397887787895513, 47.56790100776345], [8.397750142102897, 47.56791775147177], [8.397631023940411, 47.56796991453632], [8.39750742916872, 47.56805238057104], [8.397395655958448, 47.56810285481451], [8.397263535503647, 47.56813048962804], [8.396973352037616, 47.56814965398848], [8.396874688301853, 47.568166605214685], [8.396906072104848, 47.56823400105682], [8.396690173251926, 47.56835163178441], [8.396584745873614, 47.568360561562685], [8.396235865633425, 47.568403683622215], [8.396012461173488, 47.56704689200793], [8.395532702396729, 47.567161689401885], [8.395304260903236, 47.567187157481015], [8.395074179904773, 47.56718211175961], [8.394713505916235, 47.56714111267466], [8.394574868897717, 47.567141122304655], [8.394523726484781, 47.56708034645584], [8.394606047938721, 47.56693814234049], [8.39474057442928, 47.56667653163172], [8.394715945006059, 47.56630856230991], [8.394570107731434, 47.56597780131105], [8.39445919690759, 47.56574602284808], [8.394480342030459, 47.565454458313646], [8.394364137549681, 47.564785911747606], [8.394261935123241, 47.56455270295762], [8.39378987976917, 47.56402106927008], [8.393480278752468, 47.563382439921206], [8.393283087854938, 47.56286401236512], [8.393087134989218, 47.56256449448347], [8.392910874612603, 47.562251458293844], [8.39283495762861, 47.56202653213203], [8.392864052355778, 47.561776896776], [8.393387229645692, 47.5612575529496], [8.393701805237196, 47.56091275328118], [8.393836748393532, 47.560840514094], [8.394429629828286, 47.56045925885264], [8.394708644117461, 47.5602854274255], [8.395437451944556, 47.55991774194618], [8.395484988702641, 47.55987014712064], [8.395257680780833, 47.5595531822807], [8.39507402795424, 47.559321248881524], [8.39486940736024, 47.55916748695004], [8.394626288005929, 47.559047366159376], [8.394006376317874, 47.558784749182486], [8.393777128927628, 47.55861858721494], [8.393584396138692, 47.55842059889315], [8.393235429219141, 47.55808492481369], [8.392680786597454, 47.55752172120787], [8.392445206085386, 47.557299772066834], [8.3923194093439, 47.55719720999294], [8.39216282690361, 47.5571131506247], [8.391987056385663, 47.55703711895536], [8.392028279471113, 47.5569745569018], [8.391871748035925, 47.55691622967461], [8.39172729268044, 47.55649854201645], [8.391741537875077, 47.55616309789253], [8.391624518357093, 47.55567332825118], [8.390993817690124, 47.555374232475735], [8.390691852947391, 47.55498499981527], [8.39008060645259, 47.55448641647199], [8.389967307715471, 47.55454843615846], [8.389931510411602, 47.55451558563266], [8.389974028523532, 47.554434799974096], [8.389905745531422, 47.5543410635497], [8.389545817701345, 47.554035222395164], [8.387461625767987, 47.554425981005515], [8.38668207091966, 47.5533626936338], [8.386531361401813, 47.55318445216181], [8.386342802054308, 47.55302266467295], [8.386212549023329, 47.55292602339286], [8.385887491561236, 47.55318750174788], [8.385809350287648, 47.553264682317995], [8.385577241266763, 47.55346441861462], [8.385463525070735, 47.553581464765394], [8.385374414879362, 47.553718664141655], [8.385310705812728, 47.55385800352957], [8.385206689620178, 47.55399532436219], [8.38510043937971, 47.554057983180186], [8.38496942640586, 47.55409471542502], [8.384912028180757, 47.554139391389185], [8.384756324014154, 47.55382822403032], [8.38436991275034, 47.55284646369496], [8.384276403944792, 47.55286128470313], [8.384236060566096, 47.552728775605004], [8.384192715823563, 47.55274337619458], [8.384077764997308, 47.55272020862483], [8.383959454989133, 47.552712088978694], [8.383841553279774, 47.552727666000884], [8.383736134831546, 47.552763846187844], [8.383658315122114, 47.55279949553827], [8.383224395745447, 47.55156744479133], [8.38315039352575, 47.55133871792751], [8.383062136618582, 47.55100837125007], [8.382996610362424, 47.55067568057449], [8.382953931336571, 47.55034126522105], [8.382909047333545, 47.54965251618981], [8.382873429350312, 47.54947908830751], [8.382828431201547, 47.54937136918479], [8.382410072948199, 47.54954137847967], [8.38210517343208, 47.54968327293937], [8.38193429187618, 47.54979736297796], [8.381794612844958, 47.54996587560512], [8.381663875318683, 47.550059608154676], [8.381479163099177, 47.55012886507513], [8.38095385869624, 47.55024557457806], [8.380751537473335, 47.55030559240082], [8.380921991743866, 47.550102777561015], [8.381118988961378, 47.549978618338905], [8.381170900046351, 47.5499032910636], [8.381182429148286, 47.549802046621096], [8.381150871553066, 47.54968567312024], [8.381175501879058, 47.5495688246618], [8.38131596096687, 47.54934765288353], [8.38132854120904, 47.549266745002114], [8.381270470614542, 47.54921200074297], [8.380743415962774, 47.54941460140293], [8.380538638374022, 47.54944681011215], [8.379776164306723, 47.54943712663862], [8.379789608580566, 47.5493313605316], [8.37966442784842, 47.54932338249896], [8.379686853208547, 47.54919587598927], [8.379284234645473, 47.54916059297853], [8.37925822366716, 47.549225941452534], [8.379220300337465, 47.549362091207456], [8.379235222398005, 47.54945305619512], [8.379216803925088, 47.549512046810385], [8.379195943792999, 47.549529170460296], [8.379081580234141, 47.54954314930292], [8.379060789028573, 47.54956342038439], [8.378270570520458, 47.549363214111004], [8.377882284592284, 47.549685438089824], [8.377768307751348, 47.54975589738806], [8.377412611468992, 47.54975220476956], [8.377442997340701, 47.54968016572433], [8.377433426358404, 47.54960615670014], [8.377371725310965, 47.54951865569162], [8.377287716845926, 47.54944157979095], [8.377192787501816, 47.549390783863224], [8.376998711560722, 47.549277542276734], [8.37683369624789, 47.54914278450019], [8.37679954413212, 47.54908430969704], [8.37680069499057, 47.54902233804031], [8.3765254645332, 47.54933135548721], [8.376409779757575, 47.54940672019983], [8.376289302694646, 47.54944994164763], [8.376157584718522, 47.549468987037805], [8.376018462897486, 47.54946823254651], [8.375763081976986, 47.54944632789708], [8.375535978850252, 47.54940823805791], [8.375367384966582, 47.54934460749445], [8.375200957054899, 47.54921917693361], [8.37516603121306, 47.54912649357379], [8.375145990618298, 47.54899646215193], [8.37518602817127, 47.54865632288376], [8.375187243435292, 47.548508193980716], [8.37516394555889, 47.548365192113266], [8.375107823372845, 47.548229111195326], [8.375008869698485, 47.54810424156948], [8.374513297765636, 47.54762849407325], [8.37434962601403, 47.5475075192912], [8.374161749132638, 47.54740684206301], [8.373604294667787, 47.547168672795166], [8.373333535878357, 47.547012735660175], [8.373381964823166, 47.54708788883161], [8.373404824982227, 47.54725914656557], [8.37347625278966, 47.54761532395803], [8.373478073348418, 47.547779195989364], [8.373429705843304, 47.547959024006225], [8.373255233344583, 47.54829185591489], [8.372876472943716, 47.548830749360064], [8.372400863636582, 47.54862159710785], [8.371668523552561, 47.54828778646577], [8.371649576193025, 47.54831333002907], [8.370989665309926, 47.548586662744405], [8.370347235467749, 47.54867841726548], [8.37006231485384, 47.548707303008264], [8.369734121643933, 47.54816886681608], [8.369676316596546, 47.548032230073616], [8.369553911321958, 47.547824490093056], [8.369131378882305, 47.54716227297743], [8.369061834105162, 47.547060601256824], [8.368974852866328, 47.5469645739684], [8.36867381249539, 47.54668904571499], [8.368302882956042, 47.54635866287419], [8.366255095500586, 47.54445366381173], [8.366022187955437, 47.54420695907789], [8.36582494801075, 47.54394494793197], [8.365249627057253, 47.54313275140306], [8.365171834705183, 47.54300072417898], [8.364917304607662, 47.5425264431835], [8.364857355357271, 47.5424021432128], [8.364731067566668, 47.54228535294914], [8.364519555418138, 47.54226313573045], [8.364329091420874, 47.54230081440248], [8.363346615913546, 47.54257480026137], [8.363129874489735, 47.54258570339481], [8.362998034694849, 47.54246873977244], [8.362927559125731, 47.54280740919409], [8.362847279624392, 47.543125460829366], [8.362836875972679, 47.543250565623566], [8.36289811037158, 47.543369540729856], [8.362837925951162, 47.54338807235781], [8.362769632647948, 47.5433833551388], [8.362649616242978, 47.543828004476815], [8.362530684174825, 47.54413495916755], [8.36236222050789, 47.54443533783193], [8.362149164354353, 47.54489948138525], [8.36196877974266, 47.5453726100023], [8.361910121607986, 47.54562823797739], [8.361895859397022, 47.54588697481181], [8.361893374245698, 47.54615300245405], [8.361916446894407, 47.54619951736926], [8.361960117123878, 47.54623342905017], [8.362024780543058, 47.54622781417505], [8.361749477967146, 47.54629594457515], [8.361621229959482, 47.546300464618206], [8.361321802864332, 47.54622635992741], [8.360846123499785, 47.54613636017702], [8.360204510521095, 47.546164235453965], [8.359709930932619, 47.54617544189291], [8.359483884390084, 47.546156235452486], [8.35882881255426, 47.546045993208914], [8.35833642514161, 47.54602721647324], [8.357986485215951, 47.546002298351794], [8.357530023904216, 47.54605828282525], [8.357142803312547, 47.546116037454055], [8.356382628774874, 47.5461347140512], [8.35615949193273, 47.54610774318828], [8.355862718858248, 47.54601521977197], [8.354944384092004, 47.54566653056028], [8.35492777623322, 47.545660212881074]]], [[[8.425679292083688, 47.56785957006679], [8.425015927152536, 47.567399973410055], [8.423628675466722, 47.566463700843165], [8.423579030100592, 47.566435259630374], [8.418829695618111, 47.56518188136252], [8.418731457517147, 47.565218356591465], [8.417443022850573, 47.565512734669426], [8.416474814147909, 47.565690574469976], [8.41637022788362, 47.565689873434344], [8.416361055555635, 47.56569550032074], [8.416267915719864, 47.56559251750387], [8.41614491384641, 47.56557537692438], [8.416050477522106, 47.56559327138949], [8.414078161591753, 47.566391843478925], [8.414160849317657, 47.56741204545387], [8.41422945781522, 47.56758678648054], [8.413941715736788, 47.56766463397042], [8.414379353966698, 47.56858441173997], [8.414921946987363, 47.56844572046587], [8.415036305745625, 47.568462278369275], [8.415547457140928, 47.569403307567775], [8.415546581213714, 47.569428661088274], [8.415629527082196, 47.56958047052273], [8.415655488556725, 47.56959956258215], [8.415776685724898, 47.56983456980885], [8.415807876516308, 47.56985543463452], [8.41625739447035, 47.57064179661115], [8.4163830899283, 47.570605361967], [8.416771629401413, 47.57049882080065], [8.417163173916755, 47.570397487684716], [8.417557604654792, 47.570301399589084], [8.418470570780785, 47.570079865339785], [8.419377352759604, 47.569846998225465], [8.420277619392577, 47.569602882149326], [8.421171105444582, 47.56934757348429], [8.422057480065453, 47.56908117410774], [8.422936452140432, 47.568803776594095], [8.423807717286277, 47.56851547363575], [8.424670997552267, 47.568216348715815], [8.425679292083688, 47.56785957006679]]]]}}]}