{"type": "FeatureCollection", "features": [{"type": "Feature", "properties": {"bfs_nummer": 4401}, "geometry": {"type": "MultiPolygon", "coordinates": [[[[9.421334082142037, 47.49624148565588], [9.421280501296959, 47.49617166218277], [9.421226993869212, 47.49617676240138], [9.420758069185204, 47.496281528359916], [9.420500730567108, 47.496358764533724], [9.42049297002793, 47.49635000865235], [9.420247846095265, 47.49642053943036], [9.419862168059916, 47.49652286850396], [9.419779351658525, 47.496555118197215], [9.41956447831067, 47.49660244885981], [9.41934320699539, 47.49666583978459], [9.418800590917657, 47.496775062154896], [9.418741710248076, 47.49692102528771], [9.417748254353082, 47.49766823098888], [9.417352209852192, 47.498052352327285], [9.417633828909404, 47.49815126007253], [9.418209374845159, 47.498436707268496], [9.418964864475043, 47.498854653811435], [9.4189805553427, 47.49899429370328], [9.418954601223819, 47.49902458001178], [9.419009623002651, 47.49905647660285], [9.419017407297622, 47.499081543252004], [9.41900970053686, 47.49910202576215], [9.418934546109625, 47.499202500860264], [9.418912975723522, 47.49924889728158], [9.4189080718386, 47.49930862059819], [9.41891170702091, 47.49932815329848], [9.418924734386156, 47.49936245986878], [9.419552618290934, 47.500536890908265], [9.419574025187417, 47.50060828251214], [9.419594448394841, 47.500716325699656], [9.41959859890656, 47.50077033403776], [9.419595330755108, 47.50081836057803], [9.419583836971317, 47.50087188098698], [9.419566777007663, 47.500918542194235], [9.419505708351675, 47.50101833565801], [9.419458966942525, 47.501069391430256], [9.419399886673117, 47.50111888599649], [9.419325287019449, 47.50115308179362], [9.419124821521132, 47.50117535164659], [9.418474331082157, 47.501151007132016], [9.41827015104559, 47.501153402226336], [9.41807392959171, 47.50116558427128], [9.417895689415975, 47.50118539357029], [9.417719824560669, 47.50121337597534], [9.417547192693986, 47.50124939089858], [9.417378584474479, 47.501293280901116], [9.414304381826133, 47.50226715495349], [9.414069566671225, 47.50232700576408], [9.413880205485762, 47.5023656577801], [9.413686727211548, 47.50239677755181], [9.413490832437592, 47.50242003908786], [9.413245339292253, 47.50218825282871], [9.41150267024038, 47.502250729463874], [9.411459120203792, 47.50224564198892], [9.41140905190522, 47.50222483138049], [9.411388090500372, 47.50220736620075], [9.41137397816142, 47.50218699530006], [9.41142658330689, 47.50183407535748], [9.411348272870944, 47.50183069591271], [9.410974644138392, 47.501674268831444], [9.410833702450182, 47.50182598007763], [9.410604865252099, 47.50209923172302], [9.410484913785673, 47.502211997940805], [9.410099300046866, 47.50254100011702], [9.410288318916336, 47.502545651948424], [9.410146327966535, 47.50273898093891], [9.409983150476224, 47.50270763636199], [9.409382619369351, 47.50343298420059], [9.409328631678457, 47.50342319779676], [9.408937764732743, 47.50385551374184], [9.408887564630124, 47.503892400121885], [9.407924058313789, 47.50502109502389], [9.40838938934322, 47.50522182698101], [9.408113611573837, 47.505474163137116], [9.40814338036525, 47.50548958994311], [9.408030157944422, 47.50563809962355], [9.407953935246955, 47.50562563169219], [9.407789570374348, 47.50583118692701], [9.407418106545622, 47.505824703767274], [9.406908580178332, 47.5064207356366], [9.40667536244507, 47.50677539212606], [9.406480269614779, 47.507021250773846], [9.40625238158356, 47.50722234192367], [9.406042074849513, 47.50755479074187], [9.405778485563012, 47.507905300981285], [9.405711224735095, 47.508079054244504], [9.40558107081024, 47.50827662877316], [9.40548962189847, 47.50837125330834], [9.405721097587039, 47.50847993938437], [9.40592110774397, 47.508381013453985], [9.406284330845525, 47.50817917081785], [9.406815015049952, 47.50784545824259], [9.406969994995201, 47.50775942364184], [9.407166196994966, 47.507693317213594], [9.40729148072739, 47.50820387171574], [9.407269219963108, 47.50831551234633], [9.407766807386656, 47.508929106626475], [9.407815060826028, 47.50891371111114], [9.408318449564067, 47.50966023696715], [9.408641646810798, 47.51017353008411], [9.408747180152071, 47.51074933767433], [9.408690572968698, 47.510770462641446], [9.408571963366446, 47.51089641942441], [9.408467601645935, 47.51094143342538], [9.40807438211919, 47.51088311425846], [9.407587019472643, 47.5109861041119], [9.407482290930142, 47.511049197763576], [9.407378234356637, 47.51104047743565], [9.407257671516334, 47.510978687506714], [9.407063296457345, 47.51093026219091], [9.40679301175414, 47.510939671298516], [9.406706374546378, 47.511026603703264], [9.406746450585908, 47.51108434671264], [9.406904843137532, 47.51112997471057], [9.406942668371165, 47.51119398161968], [9.406870240253564, 47.51131750492853], [9.406707635996538, 47.51139300765703], [9.406710902795568, 47.51154287265088], [9.406789185980575, 47.511597123122336], [9.406850123241558, 47.511620081139235], [9.40682659633729, 47.51167967925676], [9.406363256632902, 47.51177973626321], [9.406259499969224, 47.51173719135172], [9.40605270047206, 47.51173879003216], [9.405929450618617, 47.51205560659639], [9.40581676751434, 47.51208579808943], [9.405628463983978, 47.51206263769695], [9.405303268648273, 47.51213529609422], [9.405147404095148, 47.512233722567906], [9.40511787388796, 47.51228043106162], [9.405007963529687, 47.51233031331336], [9.404836097813854, 47.5123218338763], [9.404759369260749, 47.51234904748185], [9.404447668125908, 47.51239134448036], [9.404354118468982, 47.51245204116374], [9.404384469250857, 47.512636038253824], [9.404496980156104, 47.512731786398035], [9.404646492003392, 47.51279859353721], [9.404681734178904, 47.51286245606374], [9.404552731598418, 47.512944771180436], [9.404441364033826, 47.51291727033952], [9.404367467728159, 47.51295107511669], [9.4043711554721, 47.5130048124883], [9.404450022131787, 47.513080943475984], [9.404413933061956, 47.513148527472204], [9.404402598042546, 47.51318815254293], [9.404582509709039, 47.51320298268918], [9.404905346583483, 47.51330250869444], [9.405014627996694, 47.51332025621979], [9.405125560773525, 47.51333238866298], [9.405285215141504, 47.51333949187773], [9.405423615562283, 47.51333348796993], [9.405549592532003, 47.51331796058788], [9.405700161087712, 47.51328768351843], [9.405806079387935, 47.513258344880526], [9.405897862062634, 47.51322668231813], [9.406741930854695, 47.51289573329622], [9.406906393790942, 47.51284053144558], [9.407077404015011, 47.512792883207176], [9.40751930735536, 47.51268714234959], [9.407543155259793, 47.51272974977108], [9.408495600878396, 47.51250440035333], [9.408835567804026, 47.51243623167993], [9.409196419211742, 47.512395920057], [9.409438951323931, 47.51238561945232], [9.409684300756867, 47.51239256197221], [9.410187949713809, 47.512434438359215], [9.410179171798857, 47.51247308438003], [9.410338305632346, 47.51251058879374], [9.41055597468174, 47.51252521569487], [9.41056014658308, 47.51251525729635], [9.410639679098267, 47.51249423639033], [9.410661872655504, 47.512541936528265], [9.410754842896282, 47.512681555533426], [9.41079733963793, 47.512732094596046], [9.410858195642934, 47.51278998606436], [9.410977109200216, 47.512874013298855], [9.411044559386138, 47.51291028123882], [9.411116629637878, 47.51294222399989], [9.411316900563108, 47.513010011125004], [9.411552396066982, 47.51307084594786], [9.411812187907206, 47.51311759125656], [9.412310636886064, 47.51317081123719], [9.412362203230337, 47.51320520801546], [9.412407772225244, 47.51329907614647], [9.412405345449034, 47.513439654736764], [9.412253078226588, 47.51482230637254], [9.412185577355736, 47.51491990165027], [9.412033434419923, 47.515056914768465], [9.411801114653937, 47.51523953986297], [9.411487935347392, 47.515468022132225], [9.411011453922534, 47.5158590127371], [9.410805672309987, 47.51603515569618], [9.410835180782493, 47.516082389322065], [9.410706550684669, 47.516208329835045], [9.411253881187566, 47.517274421928335], [9.412119715491473, 47.51713849885549], [9.41245308585501, 47.51834628562917], [9.412806150814886, 47.51899501530746], [9.412745892614826, 47.519061403504104], [9.412617224873278, 47.51914101362982], [9.412389183220709, 47.5192418945623], [9.4121094325473, 47.51935012504223], [9.411636635291789, 47.51948888679545], [9.411396928069113, 47.51956790472524], [9.40990841764676, 47.52009720635541], [9.408556619370426, 47.52050038649743], [9.408580971336823, 47.520537128296915], [9.408347661344981, 47.52061663362821], [9.407106089023268, 47.521102696209574], [9.40708595925999, 47.521142605777484], [9.406679470083228, 47.52122246998594], [9.40653833509982, 47.52125595236198], [9.406048642598327, 47.521383309256464], [9.40587266273224, 47.52142377054046], [9.405369948737835, 47.521523069378986], [9.404570126239081, 47.52167469763947], [9.404062350702187, 47.52177803512056], [9.404139773934338, 47.521873686425806], [9.403833324378143, 47.5219438620429], [9.403026112017983, 47.52214519419701], [9.401860632265171, 47.52239849673502], [9.401846663721663, 47.52243884948198], [9.401949447846278, 47.52266701498591], [9.401946073735463, 47.52276259820997], [9.401861619707137, 47.52283854015711], [9.402980114213868, 47.52415772449429], [9.403503555697476, 47.52489851252164], [9.403513051184337, 47.52492002422957], [9.403516392462603, 47.52494428537799], [9.403658467602916, 47.52608784374453], [9.40351106481564, 47.52609339507951], [9.403479955453179, 47.526097656541275], [9.403446066183669, 47.5261359274492], [9.403388772193134, 47.52614436685925], [9.403302152352353, 47.52613777561686], [9.403261931363533, 47.52613916878486], [9.403193756241336, 47.52615794988246], [9.403081901696368, 47.52617691418744], [9.403046002388662, 47.52619675799578], [9.402792004368068, 47.52617026250574], [9.402385493132456, 47.5263775660298], [9.402254219516818, 47.52652770552334], [9.401992116004356, 47.52665353230345], [9.401991652805492, 47.52670784369067], [9.402114333580505, 47.52686889898517], [9.401985607376293, 47.52708513803389], [9.40197603714861, 47.52724308284652], [9.401963999269164, 47.52727820275649], [9.401948965786962, 47.52752192427517], [9.40041092102236, 47.52759458549158], [9.400636466663748, 47.52872062117443], [9.400980844740154, 47.53006970814259], [9.401149917178344, 47.53121016522798], [9.401251618619307, 47.53126412148251], [9.401152989168223, 47.531348678590454], [9.401262089495619, 47.53140729565138], [9.401181064611036, 47.531477213847175], [9.402553236415292, 47.5332569108004], [9.402581888092664, 47.533287382124314], [9.402198920893177, 47.53346934563203], [9.403998695282562, 47.53464083986455], [9.404033381319548, 47.53466776275207], [9.404198699180942, 47.53456628238386], [9.404409507458736, 47.53462393497555], [9.404756900619203, 47.534847522667484], [9.404985060167181, 47.53475589608092], [9.405290408528593, 47.53482551761829], [9.405582796817757, 47.535114092547225], [9.405588216749955, 47.53510799064824], [9.405598685350846, 47.53508396287714], [9.405627094087356, 47.53508340832273], [9.405653837327662, 47.535076980358795], [9.405690007443077, 47.53505642056569], [9.405722506572621, 47.53505188309987], [9.405754392400272, 47.535070243324704], [9.405766390577536, 47.53508357039746], [9.405813525563216, 47.53513595758513], [9.405836619862345, 47.5351465051432], [9.40585666553803, 47.535151139776616], [9.40587495858558, 47.53514683453607], [9.405909270295963, 47.53515321502746], [9.40594387389704, 47.535168551170045], [9.405968009721812, 47.53516812315401], [9.405991727310253, 47.5351567623997], [9.406008235339849, 47.535181375540716], [9.406034979631027, 47.535214784379676], [9.406062654517198, 47.53523422368268], [9.40616777705638, 47.53523637827276], [9.40620552915978, 47.53521979493266], [9.406230569313927, 47.535205406785586], [9.406266850534044, 47.53518784977413], [9.406321364107276, 47.53516399125989], [9.406365016388953, 47.53515427096662], [9.406426057419301, 47.535154205428874], [9.406512631483887, 47.53515269837727], [9.406607297006701, 47.535140104911186], [9.406671140665528, 47.535099156080626], [9.406726348616852, 47.5350155301806], [9.406756861290397, 47.53495523826565], [9.406758193028677, 47.53491338146652], [9.40672277432106, 47.53479646087368], [9.406703340900878, 47.53476891067807], [9.406655167936814, 47.53473190764554], [9.406592019183579, 47.53471308029385], [9.406603685653907, 47.534642159802814], [9.406650362811227, 47.53463736311179], [9.406696426572232, 47.53461565422969], [9.40674062981255, 47.53458102185049], [9.406761909390587, 47.53454080529385], [9.406800098456037, 47.534497314486174], [9.406890401705807, 47.534441962102534], [9.406944779895472, 47.534414120070025], [9.406991908310433, 47.53438243372821], [9.407036807270167, 47.53432787094097], [9.407087316181201, 47.53431105244348], [9.407160453387363, 47.534291852078105], [9.407139352183355, 47.53421751199582], [9.407146365821097, 47.534175558623375], [9.407166396025248, 47.534140356301016], [9.407180054111912, 47.534108141232835], [9.40718342674773, 47.53410021188198], [9.40719919530524, 47.534065082040115], [9.407242957201014, 47.534058346447175], [9.407251029396512, 47.534085100009754], [9.407241691780929, 47.53410413359613], [9.407229847382576, 47.534128292870406], [9.407197609796365, 47.534179653627035], [9.407197330095384, 47.53421153334934], [9.407215466929895, 47.534242092379486], [9.407414052004809, 47.53423764592029], [9.407462539816898, 47.53420393901921], [9.40746401864292, 47.534166065204595], [9.40744957721342, 47.53407966447877], [9.407456590281207, 47.53403770212346], [9.407462834347513, 47.534013700984495], [9.407549548830929, 47.53397732892104], [9.407542117035577, 47.53409041653191], [9.407585953847452, 47.53411974686326], [9.407657751505166, 47.534118535118814], [9.407813004305165, 47.53406398495262], [9.40791291728468, 47.534034972297654], [9.407993786209895, 47.533965276919886], [9.408078887367965, 47.533853162543394], [9.408193975947007, 47.5337637492962], [9.408263265278496, 47.53369562710054], [9.408293164328713, 47.53361312354506], [9.408300473582164, 47.533498211514974], [9.408225912862704, 47.533427039006796], [9.408206757404072, 47.53338227381308], [9.40821970440778, 47.53334415992415], [9.408361591494078, 47.53314348851613], [9.408396241975895, 47.533119984800244], [9.40841804699531, 47.53309470230492], [9.408444113564517, 47.533069347335335], [9.40848202123746, 47.5330577356528], [9.408523736832406, 47.53303310408044], [9.408553917134206, 47.53300369359654], [9.408574278130333, 47.53297744602799], [9.408659287778654, 47.532933140064266], [9.408745251199596, 47.5328758717122], [9.408764339265248, 47.532853631245246], [9.408788555096063, 47.53281635118492], [9.408836352348233, 47.532763726573414], [9.408918886439675, 47.53268958481644], [9.40893207053675, 47.53266146201292], [9.40897361843674, 47.53255318267811], [9.408989716857077, 47.532526989537246], [9.409045476118179, 47.532498142303325], [9.409078100530033, 47.532417895235625], [9.409106184834778, 47.532369600451005], [9.409160153129456, 47.53233079740377], [9.409228646317645, 47.53230073482628], [9.409320390682899, 47.53228618244566], [9.409355543915781, 47.5322766145502], [9.409391576542461, 47.53225207938976], [9.409409656596937, 47.53220196656173], [9.409493142608598, 47.53211486191083], [9.409642682497102, 47.53200966537091], [9.409711920018907, 47.5319606609262], [9.409926290569796, 47.53184237708223], [9.409956265453397, 47.53184684195143], [9.409976286752746, 47.531850486583984], [9.409991492047636, 47.531839260879615], [9.409997831900803, 47.531818235824254], [9.410022661447316, 47.53179788561561], [9.410056282651484, 47.53178534773745], [9.410065782539318, 47.531773229514435], [9.41006951625208, 47.53175822257726], [9.410060244057872, 47.53173746331626], [9.410275580018517, 47.531606225194885], [9.410296580336574, 47.531596880030776], [9.410317213854443, 47.5315905369662], [9.410338628808535, 47.531580195101874], [9.410352232269316, 47.53156268098539], [9.410383465594746, 47.53153556416303], [9.410596471381512, 47.53142282616712], [9.410618926474148, 47.531394347347074], [9.410635452973022, 47.531381146769526], [9.410643432874876, 47.53136709312631], [9.410664479808242, 47.53136079694216], [9.410702641276925, 47.53135821278526], [9.410738828141756, 47.531340727868766], [9.410755183612814, 47.53132256406652], [9.410786366467047, 47.53132307660534], [9.410807141717099, 47.531309821651014], [9.410960992974744, 47.53125467908503], [9.410977986495036, 47.53125441663942], [9.410994869173154, 47.5312511692017], [9.411016523859077, 47.531222964828935], [9.411049442930299, 47.53119260733473], [9.411171439788665, 47.53115787158804], [9.411364428854165, 47.5310881890246], [9.4116322419338, 47.53097158244355], [9.411760134406718, 47.530903907927886], [9.41189967354787, 47.530844023817274], [9.411994624006827, 47.53080572656598], [9.412040334130694, 47.530777148042425], [9.412079861687905, 47.53073375850458], [9.412110761539635, 47.5307263045185], [9.412129833409631, 47.530705116327574], [9.412147299401546, 47.53067896236271], [9.412180425772208, 47.53065456583909], [9.412286270054135, 47.53060416210324], [9.412370301550045, 47.53057697245142], [9.412411370195253, 47.530537532963], [9.412445190947189, 47.53049322387928], [9.412485282071577, 47.53046573056877], [9.412516839609644, 47.530437375083494], [9.412553445475789, 47.53043084031386], [9.412585840030879, 47.53042536695464], [9.412627559731673, 47.530403810595395], [9.412669672772557, 47.53039319641122], [9.41269622694944, 47.530382838450194], [9.412713877683768, 47.53036166538329], [9.412728516337305, 47.53033557751816], [9.412761863351273, 47.53031713272799], [9.412768274047204, 47.5302991201551], [9.412820484844737, 47.530253543806545], [9.412844086435163, 47.53024023127916], [9.412952683099688, 47.530187791822755], [9.4130889394744, 47.530077203147926], [9.413130481945075, 47.53008948591123], [9.413156346979632, 47.53006023769509], [9.413201926847673, 47.52998888193472], [9.413196941907554, 47.52996805877202], [9.413196178781744, 47.529947172621036], [9.413210497489539, 47.52991212952137], [9.413231110327366, 47.529816278911106], [9.413267929086004, 47.529776893583175], [9.413335280708166, 47.52979774176626], [9.413400915841336, 47.52981064821389], [9.413453130178622, 47.52980485454765], [9.413540233553096, 47.52978459304026], [9.413597575415375, 47.52976379556848], [9.413630761068703, 47.5297413857515], [9.413653311832723, 47.529738050197224], [9.413677884950557, 47.529751593795886], [9.413709066591723, 47.52975209657416], [9.413752821639642, 47.529747436725316], [9.413796280820074, 47.52973481990792], [9.41381822929047, 47.52971457197816], [9.41382628196719, 47.529702505081296], [9.41381605909241, 47.5296937188054], [9.413782754309965, 47.52967434134891], [9.413705229544998, 47.52964568693345], [9.413721237867946, 47.52961858591107], [9.413911246661868, 47.52970118171698], [9.413989171127602, 47.52971378823192], [9.414108301964273, 47.529680348754354], [9.41419776142723, 47.52963237292089], [9.414254518162881, 47.52954121334333], [9.41430196410546, 47.5294611525123], [9.414383994006444, 47.52937093815797], [9.414493539907523, 47.52928982664401], [9.414575264210693, 47.52919141243744], [9.414656873575415, 47.52909027412633], [9.414757992103748, 47.5289915377932], [9.414864652324455, 47.528936439429756], [9.415076892865454, 47.52890005128379], [9.415366934884503, 47.52881588495776], [9.415504186389766, 47.52874796536413], [9.415770407799247, 47.52865052978008], [9.415965194042798, 47.528563867856434], [9.416134351119418, 47.52846671242003], [9.416341300081859, 47.52839351703937], [9.416513643984425, 47.52827852914577], [9.416671604825874, 47.528190380763974], [9.416689700806653, 47.528142344468606], [9.416645852039562, 47.528105208607705], [9.416590976119258, 47.52807621418701], [9.416529183298646, 47.52805230419536], [9.416468847890748, 47.52802936770517], [9.416455487538515, 47.52801266421591], [9.416468494364251, 47.52798062996552], [9.416482018895222, 47.52796250449608], [9.416507981212643, 47.52789742006696], [9.416589542378665, 47.52784115630811], [9.416618414699416, 47.52780464054443], [9.416704720002015, 47.5277627083076], [9.416794373873085, 47.527724380438144], [9.416898253650036, 47.52768105923666], [9.416962905696414, 47.52767189368474], [9.416984776411189, 47.52759432890651], [9.41702701153375, 47.52756318057194], [9.417127014755485, 47.52753312344847], [9.417311968632763, 47.52741231390859], [9.417775351149535, 47.527245369838255], [9.417978049358863, 47.527179126458805], [9.418147951946043, 47.52708294471061], [9.418288110621157, 47.52704512874409], [9.41876369361292, 47.52681297110252], [9.418819304299104, 47.52674373547255], [9.4188232137993, 47.52673886440839], [9.418946175997332, 47.52666272806491], [9.418989413737995, 47.52666101691372], [9.419238531449828, 47.526517829660904], [9.41964895445684, 47.52627961246077], [9.419861786925432, 47.52617256331925], [9.420046212227133, 47.52607918003085], [9.420248878913947, 47.52592860736029], [9.420274342677658, 47.5258713127041], [9.420316964247663, 47.52585132140231], [9.420366504287916, 47.525823096666414], [9.42039228174321, 47.52577492818888], [9.42038980509645, 47.52570284433342], [9.42093794159462, 47.525230763029654], [9.421037070738764, 47.52517531983715], [9.42116856770699, 47.525137648450794], [9.421244575205272, 47.5251232208485], [9.42136209438915, 47.52505731414175], [9.421496949809137, 47.524949500902096], [9.421532550610406, 47.52489303986563], [9.421509479334995, 47.52485176240609], [9.42137571940372, 47.5248234375363], [9.421395033151526, 47.5247893151732], [9.421419257071735, 47.524746535069085], [9.421520046490686, 47.524697180634966], [9.421631853481273, 47.52467505029831], [9.421713018631221, 47.52464225282159], [9.421733207636654, 47.52460027045072], [9.42172339520341, 47.524566907931906], [9.421672925705767, 47.52452606376261], [9.42164321193105, 47.52445948447451], [9.421655162447953, 47.52438716250768], [9.421970577517724, 47.52386395674169], [9.42200135972627, 47.523877688991], [9.422029336082849, 47.52385183912884], [9.421991359580767, 47.52383823005554], [9.422027247362408, 47.52379091347708], [9.42201458222529, 47.52377114882051], [9.421974495868891, 47.523708498936436], [9.422022125026901, 47.52363770690377], [9.421997297837606, 47.52354974888971], [9.422144318009364, 47.52339365700385], [9.422431051808896, 47.52324759567862], [9.422592962103593, 47.52314458047518], [9.422758073710677, 47.523089957241304], [9.423047546373475, 47.522994192823056], [9.42318518651635, 47.52305572809255], [9.423257465893078, 47.5230624782143], [9.423389754842386, 47.52300281176721], [9.423523483253998, 47.52289494323605], [9.423740106392959, 47.52277758329304], [9.42399567079357, 47.52267444472858], [9.42419464531926, 47.52259985092591], [9.424381996403824, 47.52255755617566], [9.42451031715565, 47.522564477949366], [9.424662087039916, 47.52259965178023], [9.424761305913218, 47.52259906536681], [9.424832282971968, 47.52257028195324], [9.42488249206564, 47.5224982838506], [9.424880547736095, 47.52244556963927], [9.424798371972214, 47.52243094723943], [9.424768371415992, 47.52235463918766], [9.424704609058352, 47.522282239022864], [9.42465345406245, 47.522287722820415], [9.424629041169943, 47.52227134480252], [9.424611695336539, 47.52220916932761], [9.424634553918585, 47.5221189542939], [9.424742071472705, 47.5220320013133], [9.425163598598907, 47.52179608276488], [9.42532881221014, 47.521708849999406], [9.425448593649572, 47.52163096155829], [9.425538768475892, 47.5215061503138], [9.425667339645663, 47.52137423861797], [9.425764320364122, 47.5213117474021], [9.425828307495937, 47.52131061321316], [9.425939193690601, 47.52136600082864], [9.426056194572153, 47.52136968739049], [9.426202058993406, 47.52133156551957], [9.426312179843887, 47.52127915861268], [9.426458746322377, 47.52121579758598], [9.426596705610663, 47.521180105112805], [9.426763882052896, 47.52115537250334], [9.426888627951884, 47.521152024757804], [9.42697977028729, 47.5211056919743], [9.427047389537783, 47.52102879648143], [9.427103131385861, 47.520977349670424], [9.42723254207868, 47.520926904678795], [9.427492477496315, 47.5208557921688], [9.427566536333952, 47.52077993742902], [9.427672150789336, 47.520735649506136], [9.427831163490616, 47.52070646726621], [9.427894447159677, 47.52068585710911], [9.427943215146344, 47.520664911568815], [9.427980048526027, 47.520671062206524], [9.428032687944862, 47.52071555503717], [9.428058857712424, 47.52074762842152], [9.428120035319692, 47.520760153199674], [9.428209564302106, 47.520756608473135], [9.428230834048458, 47.52072982864667], [9.428390304792968, 47.52071359302391], [9.428420956845098, 47.520679877408405], [9.428463936804587, 47.520639859109366], [9.42852782571759, 47.52061981400736], [9.428595460485623, 47.52056787411924], [9.42868939020298, 47.520552053826975], [9.428777900654412, 47.52054650189948], [9.428750550033602, 47.52062012420994], [9.428800920631959, 47.520626725618236], [9.428835606000012, 47.52065459496666], [9.428841422632585, 47.520682942562495], [9.428816632564773, 47.520719265524114], [9.428785189001431, 47.52075772712825], [9.428799895649604, 47.52076493259857], [9.428865907741468, 47.5207225030048], [9.429073285528341, 47.520641089473216], [9.429371071351898, 47.520554099483604], [9.4296082778116, 47.52049927915938], [9.429702903870822, 47.52050311285252], [9.42975638151284, 47.52051642595625], [9.429802422136015, 47.52050955236162], [9.429892831302729, 47.52050328315373], [9.430254343757051, 47.52055815252123], [9.430449511988058, 47.52059820418014], [9.4305688901557, 47.52064903299771], [9.430640428786583, 47.52071082405494], [9.43073497104065, 47.5207573927016], [9.430838539039009, 47.520808412346234], [9.43113196685009, 47.52090166992309], [9.431473196926316, 47.520983289915414], [9.431860163982474, 47.521049906758435], [9.431975062344424, 47.52108251198153], [9.432132531685129, 47.52111982712426], [9.432302599981698, 47.52113116744147], [9.432530341245403, 47.521109027219964], [9.432792282729155, 47.521072757468296], [9.433023176499196, 47.52103023835385], [9.4335669821866, 47.520892333357544], [9.433708242645743, 47.52085132131933], [9.433898823820583, 47.52073023408906], [9.434135093974529, 47.520565012807104], [9.434302917440876, 47.52045581481005], [9.434425859323733, 47.52035888809471], [9.434568388983433, 47.520214903635946], [9.43473545064971, 47.520083361259225], [9.434857045600504, 47.519992692029675], [9.43507097126229, 47.519833135093215], [9.435292901773678, 47.519699314215394], [9.435491610920266, 47.519618713182396], [9.435739463207941, 47.519565072963786], [9.435964539861699, 47.51949487527806], [9.43623717888996, 47.51937780226045], [9.436284453186971, 47.51937835403097], [9.436339437913812, 47.51937945655157], [9.436417860714045, 47.51938896235648], [9.436512679170638, 47.51937110504355], [9.436591060423556, 47.51932370713179], [9.436656603275868, 47.51929549582046], [9.436650834578343, 47.519267822516106], [9.43671959192264, 47.51922126530959], [9.436868261771028, 47.519115776834774], [9.43705321536321, 47.5190279701785], [9.437209832105513, 47.51895689146953], [9.437284134206443, 47.518903472694454], [9.437385778763897, 47.51883198409376], [9.437501160909376, 47.51876769866024], [9.437685309517796, 47.51868396269655], [9.437784592071223, 47.51862808757907], [9.437810419516966, 47.51859446164135], [9.437783991019884, 47.51855493654392], [9.437691507935051, 47.5184738624679], [9.437698159263237, 47.51846780077329], [9.437762548572792, 47.51840897488145], [9.437890030672909, 47.51830452556827], [9.43798935163868, 47.51824932510084], [9.438127689762972, 47.51834655638618], [9.438209443607642, 47.51831333190356], [9.438156916221795, 47.518244451784895], [9.43844834027961, 47.518057278870074], [9.438775391955541, 47.51781395302881], [9.438990493412845, 47.51762267251405], [9.439288001704602, 47.51733378324325], [9.439446852444856, 47.51716036969919], [9.43962024958418, 47.51693455937883], [9.439835740145357, 47.51661521962697], [9.439918495373425, 47.516472234214845], [9.440070308373704, 47.516151952489096], [9.440094347931328, 47.51612240540412], [9.44015531912064, 47.51612951129316], [9.440188209730762, 47.51604901578952], [9.440298909310682, 47.516072193448075], [9.440330796879254, 47.516074359182376], [9.440365310705058, 47.51606903911038], [9.440390764156206, 47.51605235087869], [9.440553270657215, 47.51567903656249], [9.440554228851349, 47.5156512469949], [9.44054595908059, 47.51563513282518], [9.440517538480139, 47.51562205713272], [9.440390336081052, 47.51559509826856], [9.440399772589828, 47.515533972999506], [9.439911496960063, 47.5154349848927], [9.439771023842198, 47.515401903107936], [9.439707510682084, 47.515372061177644], [9.439655682221192, 47.515312201976826], [9.439600652123898, 47.515165210566884], [9.439540546526262, 47.515011442325374], [9.439479037836952, 47.51489410817559], [9.439567550410743, 47.51484656893147], [9.43961374363328, 47.514872823671034], [9.439649782698579, 47.51488686541535], [9.439694369826062, 47.51487152898462], [9.4397341121309, 47.5148146482869], [9.439810652624724, 47.514749304277785], [9.439975353462055, 47.51466904891562], [9.440164587112749, 47.51459740190876], [9.440238071240895, 47.514536608822155], [9.440328018954, 47.514484545745184], [9.440447386719311, 47.51444214919226], [9.440599946662669, 47.51442283095886], [9.440642112466152, 47.51442889428755], [9.440675431441614, 47.51441374333421], [9.440726452190704, 47.51431506619952], [9.440828352189744, 47.51419643589995], [9.440932071714691, 47.514125043017685], [9.441080389559927, 47.51403829483637], [9.441197275219727, 47.51397342151913], [9.44128312248107, 47.5138989367047], [9.441392471989928, 47.51380606967188], [9.44147421937972, 47.51370914572221], [9.441542176523878, 47.5135888168275], [9.4415699577925, 47.51347363640972], [9.441574543657032, 47.51338357144223], [9.441551260853759, 47.513282715717025], [9.44150854330682, 47.51317991108466], [9.441420294906623, 47.513067700826454], [9.441188485854635, 47.51287344949217], [9.440863618442297, 47.51260980490806], [9.44083436958001, 47.5126046608531], [9.440807260848317, 47.51261296591991], [9.440518480418758, 47.512772731636325], [9.4401624822869, 47.51249124312167], [9.439386062009657, 47.512902178052066], [9.43906771093678, 47.512608213847265], [9.439068457180516, 47.51258570905755], [9.439044178935873, 47.51254222441403], [9.438993847477995, 47.51249240642674], [9.43890415624678, 47.51242635465448], [9.43881997013236, 47.512377076618414], [9.438719773745404, 47.512331439932595], [9.438598889412743, 47.512292881181686], [9.438439856543475, 47.51226955610125], [9.43830576291472, 47.51226495408555], [9.438145068168437, 47.51228215170897], [9.437965909419297, 47.51232213292111], [9.437853219645598, 47.51237006162301], [9.437396248105426, 47.51265296571353], [9.4373314810845, 47.51268886548464], [9.437262757258203, 47.51270571540535], [9.437190203172744, 47.5127068780688], [9.437110792320773, 47.5126980288175], [9.437042069637505, 47.51267325051665], [9.437044324689195, 47.51264847053015], [9.437025891258685, 47.51263076826114], [9.436995260920984, 47.51263125204438], [9.436976571852119, 47.512648416578635], [9.436990542225091, 47.51267632623494], [9.437057136250818, 47.5127292470897], [9.43714548717921, 47.51280207995394], [9.436956198974318, 47.512914226473704], [9.436746346929242, 47.512756762058125], [9.436735844060662, 47.51268369180927], [9.436612393805067, 47.51260159506389], [9.436445066896948, 47.51251696252638], [9.436173628923164, 47.51240894451414], [9.435796295153684, 47.512271012489585], [9.435745610366881, 47.512210645992276], [9.435650666195873, 47.51213790782357], [9.435589675028433, 47.51211387708566], [9.435469728476969, 47.51206662610456], [9.435248192114749, 47.51191075503073], [9.435020343983537, 47.511711259402354], [9.434857634342505, 47.51148075274353], [9.434819839221243, 47.51141068104726], [9.43477635580343, 47.511370873583054], [9.434748041187985, 47.51130608144225], [9.434715241247321, 47.51116713441106], [9.434690499703382, 47.51098642047544], [9.43468257764774, 47.51090667493257], [9.434657306229878, 47.510837340884635], [9.434655238201803, 47.51080066977954], [9.434697581017536, 47.51072317030146], [9.434745314124635, 47.51040068630319], [9.434744827077408, 47.509997829118184], [9.434736862179198, 47.50997173190931], [9.434724573226013, 47.509931620407365], [9.434755747938421, 47.50972792704877], [9.434756664952356, 47.50962296410758], [9.43474857807351, 47.509362440567664], [9.434851008632108, 47.5088177737842], [9.434968752291299, 47.50846693879318], [9.435140274998766, 47.50799888383909], [9.435551465950697, 47.507157448757816], [9.435677343628337, 47.50693848188808], [9.435730232105918, 47.50679758866874], [9.435743596215305, 47.506722864845436], [9.435734130729273, 47.50668580856632], [9.435675497426933, 47.5066293128628], [9.435114885614036, 47.50645334487791], [9.43472257910564, 47.50632847040969], [9.434753887243447, 47.50628533073833], [9.434679803148626, 47.50626567295969], [9.434607913635798, 47.506235864818485], [9.434317792532791, 47.50614028363186], [9.434229612577965, 47.506115092620206], [9.433956615263527, 47.506058612146205], [9.43373864011749, 47.50602686837175], [9.433424514161327, 47.50598960194998], [9.433250168982926, 47.50597304763135], [9.433256163336184, 47.50586778175752], [9.43324567727555, 47.50586751265541], [9.433270615793337, 47.505507491131866], [9.433287514993841, 47.50547698879076], [9.433304885716673, 47.50545869591063], [9.43332656333239, 47.50544265896704], [9.433384859121642, 47.50541067842622], [9.43342426287738, 47.50537627043435], [9.433442282885817, 47.50535051701193], [9.4334560617456, 47.505309758081395], [9.4334542542155, 47.50526797226137], [9.433436974167762, 47.50522783861823], [9.433405341183844, 47.505191946889425], [9.433361406847572, 47.505162600905756], [9.43329649601817, 47.50513789886279], [9.43325425089744, 47.505129855038405], [9.433210579656972, 47.50512697289745], [9.433145383356148, 47.50513251384848], [9.433064520189147, 47.505151864821144], [9.433008848745313, 47.505152941082315], [9.43284930508911, 47.50512137644955], [9.432599097789783, 47.50509035694206], [9.432522137997353, 47.50508493517903], [9.43162406688955, 47.50506144678266], [9.431481987890484, 47.50505405973371], [9.431485154445019, 47.504994752527324], [9.430510800006111, 47.50468521190034], [9.430407095497088, 47.504638558023665], [9.430468157785128, 47.504575852943844], [9.430367180372995, 47.504517996142475], [9.430277242757882, 47.50445109639364], [9.430200291127262, 47.50437606503154], [9.430168445476108, 47.50433655045827], [9.430116744581081, 47.50425365319899], [9.429872634560967, 47.50376828553896], [9.4298123754177, 47.50366672321128], [9.42975488412922, 47.50359615203757], [9.429710044711754, 47.50354964546668], [9.429631266055413, 47.50348320110223], [9.429570682508016, 47.50344561117802], [9.429505987022038, 47.50341131279978], [9.427325113360316, 47.502360540748114], [9.427287641628862, 47.502265315266115], [9.427163088595767, 47.502283982572365], [9.42607464354038, 47.50175142060669], [9.425897319076377, 47.501676760561146], [9.425708675105403, 47.50161536689507], [9.425610737675262, 47.5015898781774], [9.425510877876507, 47.50156801203087], [9.42511493270676, 47.50149869629371], [9.4250302719269, 47.501344613514924], [9.42493688290337, 47.50118823338541], [9.424834213710653, 47.501031481667226], [9.42471988726324, 47.50087256375029], [9.424596638890431, 47.50071788332614], [9.424466798953741, 47.50056691463904], [9.424324898257591, 47.5004178980721], [9.424178467263383, 47.50027410525071], [9.423625524754115, 47.49976670012138], [9.423456411413223, 47.49959844639718], [9.42331052186425, 47.499438098202184], [9.42317415352919, 47.49927316914812], [9.42304830628086, 47.499102706445925], [9.422901011431696, 47.49888473077067], [9.422664742532893, 47.49848641075128], [9.42191176391199, 47.49705486183475], [9.42183287691049, 47.49691454188039], [9.421746331924666, 47.49677781688442], [9.421647655479322, 47.496641848444824], [9.421439148272663, 47.4963758334069], [9.421412724687643, 47.496329763919675], [9.421403969748038, 47.49633243301076], [9.421334082142037, 47.49624148565588]]]]}}]}