{"type": "FeatureCollection", "features": [{"type": "Feature", "properties": {"bfs_nummer": 4446}, "geometry": {"type": "MultiPolygon", "coordinates": [[[[9.297562429994596, 47.578980102561395], [9.297631211219244, 47.57848797157824], [9.298023584220195, 47.57801837598406], [9.298345607619794, 47.577430807607655], [9.298771112348506, 47.57736864426731], [9.299648269144788, 47.57753053769311], [9.299473066271146, 47.57672358889175], [9.299136227158941, 47.575226628194606], [9.299157026295939, 47.57519117330235], [9.29907212838309, 47.574834290838545], [9.298933277737072, 47.574514411472656], [9.29867679173228, 47.5736752987285], [9.299026066159971, 47.57360444343507], [9.299085158488467, 47.5734470784157], [9.297869778669515, 47.57265547914654], [9.29815564330297, 47.572428498107186], [9.297929031120194, 47.57221194351097], [9.299484501784999, 47.57097781896051], [9.299417599302863, 47.57091191660612], [9.299418213468634, 47.570689413250754], [9.299326129962388, 47.57059343607174], [9.299033180765413, 47.57048400455607], [9.298809571686785, 47.570298772815406], [9.298150543538481, 47.570001805392074], [9.297984774188354, 47.569879085442956], [9.297971349307486, 47.56972202030921], [9.29777619353146, 47.569497682562904], [9.297632830360717, 47.56924987029319], [9.297314538894378, 47.56878200037623], [9.29736536422882, 47.568743868978686], [9.297352940505384, 47.568715919233654], [9.297401640005173, 47.568667188501415], [9.297502253620202, 47.56864103303765], [9.29759185049918, 47.56861154575182], [9.29772803402397, 47.56863317418033], [9.297802261898498, 47.56859906611973], [9.297819661983622, 47.568523920811415], [9.29790672833569, 47.568450284542436], [9.29793135341228, 47.56839128828863], [9.297904564147402, 47.56836155398795], [9.297904672356102, 47.56822803073035], [9.2979568179033, 47.56815323647478], [9.298012479360795, 47.56815263136905], [9.298015924310759, 47.56810450050711], [9.297952025418999, 47.56811584421019], [9.297808840101656, 47.568076057288884], [9.297771408597468, 47.56804456833732], [9.297797178009576, 47.56797156468452], [9.29779693294313, 47.56792813502225], [9.29782148325191, 47.56786510970004], [9.297800131322061, 47.56783728523386], [9.297726339963626, 47.56784208545365], [9.297700052137989, 47.56781982779784], [9.29775774971733, 47.56771493331576], [9.297728475684416, 47.56769432484146], [9.297719380781697, 47.56766501732195], [9.297739673752917, 47.56761820832809], [9.297805377319397, 47.5675566999056], [9.297803715771447, 47.56753620626944], [9.29776653583251, 47.56747621339479], [9.297776981520151, 47.567386965592604], [9.297815763740859, 47.56731396003569], [9.297844575597058, 47.567197662830054], [9.297774577643308, 47.56714565432904], [9.297599211402986, 47.56710730101863], [9.297472799602401, 47.567106486007496], [9.297413065350405, 47.56708678882607], [9.297427709313672, 47.56703011185179], [9.297470508871674, 47.566986414551934], [9.297560132098022, 47.566928912662064], [9.297590284363158, 47.566873273322976], [9.297592992505274, 47.56683787488795], [9.297584403243246, 47.56680250475216], [9.297562433490247, 47.566783974101305], [9.295280196855796, 47.567184002068124], [9.29476954844319, 47.564937908550135], [9.294293219161979, 47.564977276029545], [9.294627869942062, 47.562810139355705], [9.294253606554566, 47.56275360085984], [9.29451840861478, 47.56194613460219], [9.295475188515649, 47.56209586815557], [9.295519925788948, 47.562079138013694], [9.295651462409399, 47.562076346112136], [9.29572134881855, 47.56205968962442], [9.295810438391122, 47.56206082554285], [9.29696904567146, 47.56015141012483], [9.296855323724747, 47.56009992252781], [9.296758215640594, 47.56003553771339], [9.296687855202544, 47.55995578116352], [9.296658000210021, 47.55986527229051], [9.296602406486691, 47.55942856121403], [9.296445885042735, 47.558832660757304], [9.296398911320571, 47.5588043831475], [9.29566875947574, 47.5587698023157], [9.292780340737874, 47.55863229459676], [9.292746313204608, 47.55864928418895], [9.292601490643067, 47.55862455900213], [9.292518881207625, 47.558846125914364], [9.29249378385725, 47.55885700805464], [9.290109311513616, 47.558569823463486], [9.289774981007163, 47.56042785057041], [9.287650760938455, 47.56021196173232], [9.287521533056378, 47.561609340877524], [9.2874268953561, 47.56163777643698], [9.287360418281912, 47.56166498896942], [9.286447152208414, 47.562101198150124], [9.286397992440369, 47.56208183059776], [9.28637564836879, 47.56209170484433], [9.286313056620829, 47.56214274867383], [9.28631246249727, 47.56220968970686], [9.284914968932982, 47.563589072776914], [9.282078962628349, 47.56315544794123], [9.281394776277068, 47.563981562165665], [9.281330255123727, 47.56397262942553], [9.279732816508325, 47.563819186627256], [9.279482917306389, 47.56379981177845], [9.278003190252486, 47.563723253777944], [9.27715479505064, 47.56537476479335], [9.276869854348286, 47.56531590739376], [9.276508800234238, 47.56524921534298], [9.275707113716226, 47.56516642436334], [9.27512872894906, 47.56512854206534], [9.274568665413291, 47.5651069284112], [9.273892668208738, 47.565044830513195], [9.27362072238588, 47.565037594962206], [9.274048412229781, 47.566481495601984], [9.272578810437942, 47.56652251137814], [9.272301919764026, 47.565941405980865], [9.271707882808753, 47.565936949811864], [9.271693767179196, 47.56602434519192], [9.27106729448728, 47.5658542145361], [9.270866722246476, 47.56710536658709], [9.270739716326283, 47.56708999403384], [9.26923917129158, 47.56706487626519], [9.268943586677173, 47.567083974665024], [9.268887214781293, 47.56706856398249], [9.268873425293767, 47.56702831704312], [9.268803638393496, 47.56720633696418], [9.268780856997989, 47.56742149718343], [9.268721872090246, 47.56741743586318], [9.268639075239511, 47.56786970097474], [9.268259065385339, 47.56781049712289], [9.26615779286815, 47.56799924864977], [9.265964336870049, 47.567985412950996], [9.265906412267277, 47.568151944511186], [9.265350905361947, 47.568046081306925], [9.2653533803834, 47.56807396625365], [9.265314227453052, 47.56810853464888], [9.265297043017322, 47.5681723450053], [9.265269765152219, 47.56820010511622], [9.265143680962602, 47.568213472467406], [9.265103306085226, 47.56819785294468], [9.265067839352724, 47.568303243489055], [9.265123856742484, 47.5683311392067], [9.265123105534553, 47.56836918646919], [9.265052946169035, 47.568441379469895], [9.265046269501385, 47.56849535329886], [9.264986279511314, 47.56850382847998], [9.264922227142614, 47.56847999972932], [9.26488041830693, 47.56850345471932], [9.264919794126618, 47.56855300538019], [9.26488180834044, 47.568613787860464], [9.264773511780712, 47.56873775141796], [9.264746748715128, 47.56878937889616], [9.264650830040209, 47.568879429907696], [9.264689902643848, 47.56899086974901], [9.264632214363543, 47.56903149642528], [9.264658454005527, 47.56906897455244], [9.26473524514816, 47.569117638990754], [9.264666033311597, 47.56918689307312], [9.264569276522751, 47.5691876888793], [9.264519170330903, 47.56914114095871], [9.264440479864115, 47.56918255721814], [9.26442532269096, 47.56925433301959], [9.264482898359296, 47.5693302166134], [9.264538622766063, 47.56937314086456], [9.264528475746717, 47.569408556435874], [9.264453431544695, 47.56940682381543], [9.26448528053486, 47.56948796160528], [9.264439908987569, 47.56953887467423], [9.26438819606912, 47.56950784318271], [9.264310734852051, 47.569515450708494], [9.264277239948566, 47.56954104152304], [9.264319277761478, 47.569590298591876], [9.264295193657224, 47.56962631153361], [9.264220539318528, 47.56966567602542], [9.264160005883506, 47.569641386516764], [9.264075702501055, 47.56969896700985], [9.264070775888044, 47.569728488817425], [9.264148580756109, 47.56972467266678], [9.264118322758044, 47.569762833963296], [9.263953782539641, 47.569776715427494], [9.263945010337295, 47.569826997810196], [9.263972633670262, 47.569861035770295], [9.26406497689873, 47.569894980977466], [9.264026177240103, 47.56995727828225], [9.264037602485182, 47.57003129810577], [9.263911630016763, 47.570052299980425], [9.264298457664882, 47.57050494559669], [9.26432200073013, 47.57052120853361], [9.265312805132668, 47.57078368431962], [9.265277502315586, 47.5709916006934], [9.265162097089437, 47.57119187325444], [9.264977409506402, 47.57144940902794], [9.26484345955462, 47.57162422667344], [9.264726413806024, 47.57189629533672], [9.264580397023652, 47.57248937761061], [9.264504409634567, 47.572652405268656], [9.264669952527118, 47.572951804707884], [9.264737215434597, 47.57344975782463], [9.264641911079318, 47.57377468627671], [9.264502163523654, 47.57401690322838], [9.264550813248256, 47.57441861207164], [9.26577014580386, 47.57438789016445], [9.266645802752327, 47.57468839634967], [9.266736680835814, 47.574670248256], [9.266850866705136, 47.574989112652325], [9.267673164201804, 47.57501999450798], [9.267633121963003, 47.575705498152494], [9.267643305184345, 47.57574136678063], [9.270102568817697, 47.575693410621014], [9.270174388438747, 47.57571239093262], [9.270210563252878, 47.57576056909481], [9.270296821714568, 47.57577842162228], [9.270335630759932, 47.575715330432764], [9.270428364024989, 47.57568928753181], [9.273270014728908, 47.57567571074159], [9.273797987876511, 47.575659975469186], [9.274698960232836, 47.5777074150851], [9.275249985462978, 47.577584263970806], [9.275265593068722, 47.57761882257249], [9.275242155960374, 47.579634993019724], [9.27524109889833, 47.579717782629146], [9.275394415402198, 47.58020393081682], [9.275285385235062, 47.580403491312694], [9.275257922467071, 47.58080857034249], [9.275162269181084, 47.58121798626236], [9.276092536581853, 47.58152448564579], [9.27704467904274, 47.5818369356835], [9.277554682340815, 47.58196658484896], [9.278411596022066, 47.58187693425868], [9.278855992152662, 47.58185180701976], [9.278896186485865, 47.581849522841075], [9.278899147752673, 47.58185976735619], [9.279001220076777, 47.58184709967288], [9.278995813423698, 47.58182806880842], [9.279027513488986, 47.58181243373333], [9.279216320960753, 47.58171943901228], [9.279657664996583, 47.58139099979955], [9.280089554517161, 47.581024745543814], [9.280224992083813, 47.58077975324654], [9.280235776825185, 47.58076026739627], [9.280811170502455, 47.58067669085211], [9.281417927552894, 47.5805885549778], [9.282509537503786, 47.58080473456331], [9.282574983568011, 47.58082056108782], [9.283727121262862, 47.581163196084184], [9.284290059522725, 47.5812475416903], [9.285033701380694, 47.5811904482332], [9.286074306544066, 47.581200676213506], [9.286478783852312, 47.58114700845083], [9.286832680602416, 47.581072267190784], [9.28699339322048, 47.580867472003895], [9.287394229814918, 47.58021783932393], [9.287502388520567, 47.57998312375718], [9.287754034561159, 47.57965389094814], [9.2877182480118, 47.5792762648947], [9.2878573277765, 47.57912319017416], [9.288564432268682, 47.57881601548889], [9.289232032829437, 47.578494083698466], [9.289335004267386, 47.5782817502769], [9.289683685148415, 47.578368392945315], [9.290322628555009, 47.57866505455201], [9.290993254489916, 47.579191956974775], [9.291277240383799, 47.57944325923436], [9.292160755537035, 47.57990303256569], [9.293023179305063, 47.579570451029745], [9.293229954250155, 47.57958428046201], [9.294097064110234, 47.57973741650503], [9.295107830570858, 47.57996295829014], [9.295782907386606, 47.579957550713814], [9.296320978952464, 47.5799120262707], [9.296511772666763, 47.579774260026944], [9.29659017668438, 47.57962693288611], [9.296792527728151, 47.579409958742524], [9.296991657462488, 47.5793094819469], [9.297250185536257, 47.57924038455027], [9.297423125335373, 47.57916011854567], [9.297562429994596, 47.578980102561395]]]]}}]}