{"type": "FeatureCollection", "features": [{"type": "Feature", "properties": {"bfs_nummer": 4656}, "geometry": {"type": "MultiPolygon", "coordinates": [[[[9.313824117253464, 47.60114577698881], [9.313702574530707, 47.60096479789092], [9.313695410435828, 47.60095402845376], [9.313684428372516, 47.6009368435813], [9.313031960153268, 47.60019768329561], [9.313005391868888, 47.60018958443093], [9.312979764401302, 47.60018025588687], [9.312955171452737, 47.600169714157666], [9.31293173495049, 47.60015802031882], [9.31289881511789, 47.60013353409149], [9.312867824056585, 47.60010791929333], [9.312838831299866, 47.600081264642384], [9.31281193241478, 47.6000536405373], [9.312255462656028, 47.599427813606354], [9.312216625185515, 47.59938412628476], [9.311342970597874, 47.599815110473486], [9.310453229903807, 47.59915358082667], [9.309721904552896, 47.59952114428908], [9.308992101798005, 47.59988690615773], [9.308902134301219, 47.599794788710376], [9.308862211884383, 47.59976439603411], [9.306908629360393, 47.59831227915339], [9.305733878483277, 47.598986801181724], [9.305695182064076, 47.59895602786184], [9.305024632424335, 47.59837156012428], [9.30434297766908, 47.59777569023693], [9.30425240724059, 47.597818124771834], [9.30417471326234, 47.59774224220364], [9.30422276971322, 47.5976485482869], [9.303276680628613, 47.59660166978184], [9.302569975157567, 47.5958222854662], [9.302120373639786, 47.59532746732927], [9.301908706646232, 47.59516633034132], [9.301164438758958, 47.594751252579165], [9.300405898957445, 47.59433198267641], [9.299505710459128, 47.59383195675211], [9.299436400748826, 47.593816165518184], [9.29936619989093, 47.59383563523166], [9.299280391322021, 47.59382719756746], [9.299497195693103, 47.593698771304105], [9.29978385595385, 47.59355662868792], [9.30004211957013, 47.59346181095919], [9.300310868276473, 47.59338157794213], [9.300906015049744, 47.59322341380979], [9.301115943390014, 47.59315348869948], [9.301318586262681, 47.59307303785948], [9.30150576517143, 47.59298358710645], [9.30168953588249, 47.59287700815435], [9.301979123431856, 47.59268218564071], [9.302135119726266, 47.592576232103326], [9.302816963379941, 47.592118802474175], [9.30332473948053, 47.59177624222265], [9.303525221805405, 47.591640999619415], [9.30422753927057, 47.59116894633355], [9.304749188381887, 47.59081601746093], [9.304782029991598, 47.590781843331335], [9.304757455997462, 47.59074482401361], [9.304449193844182, 47.59046020914788], [9.303821196572889, 47.58986090743083], [9.30318331448728, 47.58925574415166], [9.302540425911289, 47.58864390256917], [9.302465360571304, 47.58861173379715], [9.302375410937637, 47.58861767804685], [9.30260711159455, 47.58853973492161], [9.302577515105778, 47.588499728248244], [9.302296946122691, 47.58825360701782], [9.302178518726352, 47.588122638082325], [9.302125603278633, 47.5881493975135], [9.301808835091277, 47.58785724800868], [9.301385080794113, 47.58746741863175], [9.301138962709992, 47.587240613310215], [9.301020292053352, 47.58711810333553], [9.300973763310221, 47.587069192145194], [9.300486765794414, 47.586483800848484], [9.300281798197739, 47.58625436272179], [9.299943675488278, 47.58589868755648], [9.29983204105952, 47.58583596867525], [9.299782359570385, 47.58576534599914], [9.299490821292917, 47.58542177689647], [9.299262464902547, 47.58509806412036], [9.299000723558624, 47.58473189376373], [9.298978798785505, 47.58470121791368], [9.299006746528322, 47.58469509287276], [9.29898489557962, 47.584310760281475], [9.298907531810428, 47.5836279358293], [9.298839878425635, 47.583037336831076], [9.298663260683725, 47.582603669634594], [9.298495202654324, 47.582208916763484], [9.298388976770173, 47.581609768776175], [9.298482330520564, 47.58125742130115], [9.298531271183366, 47.58103432316118], [9.298406353761631, 47.58020831301415], [9.298049014551461, 47.57964386982304], [9.29775095689893, 47.57935239841848], [9.297562429994596, 47.578980102561395], [9.297423125335373, 47.57916011854567], [9.297250185536257, 47.57924038455027], [9.296991657462488, 47.5793094819469], [9.296792527728151, 47.579409958742524], [9.29659017668438, 47.57962693288611], [9.296511772666763, 47.579774260026944], [9.296320978952464, 47.5799120262707], [9.295782907386606, 47.579957550713814], [9.295107830570858, 47.57996295829014], [9.294097064110234, 47.57973741650503], [9.293229954250155, 47.57958428046201], [9.293023179305063, 47.579570451029745], [9.292160755537035, 47.57990303256569], [9.291277240383799, 47.57944325923436], [9.290993254489916, 47.579191956974775], [9.290322628555009, 47.57866505455201], [9.289683685148415, 47.578368392945315], [9.289335004267386, 47.5782817502769], [9.289232032829437, 47.578494083698466], [9.288564432268682, 47.57881601548889], [9.2878573277765, 47.57912319017416], [9.2877182480118, 47.5792762648947], [9.287754034561159, 47.57965389094814], [9.287502388520567, 47.57998312375718], [9.287394229814918, 47.58021783932393], [9.28699339322048, 47.580867472003895], [9.286832680602416, 47.581072267190784], [9.286478783852312, 47.58114700845083], [9.286074306544066, 47.581200676213506], [9.285033701380694, 47.5811904482332], [9.284290059522725, 47.5812475416903], [9.283727121262862, 47.581163196084184], [9.282574983568011, 47.58082056108782], [9.282509537503786, 47.58080473456331], [9.281417927552894, 47.5805885549778], [9.280811170502455, 47.58067669085211], [9.280235776825185, 47.58076026739627], [9.280224992083813, 47.58077975324654], [9.280089554517161, 47.581024745543814], [9.279657664996583, 47.58139099979955], [9.279216320960753, 47.58171943901228], [9.279027513488986, 47.58181243373333], [9.278995813423698, 47.58182806880842], [9.279001220076777, 47.58184709967288], [9.278899147752673, 47.58185976735619], [9.278896186485865, 47.581849522841075], [9.278855992152662, 47.58185180701976], [9.278411596022066, 47.58187693425868], [9.277554682340815, 47.58196658484896], [9.27704467904274, 47.5818369356835], [9.276092536581853, 47.58152448564579], [9.275162269181084, 47.58121798626236], [9.275257922467071, 47.58080857034249], [9.275285385235062, 47.580403491312694], [9.275394415402198, 47.58020393081682], [9.27524109889833, 47.579717782629146], [9.275242155960374, 47.579634993019724], [9.273147747101032, 47.57995906601821], [9.272745890129551, 47.580521410041136], [9.272250495993283, 47.58055061349572], [9.272002673704236, 47.581009168433226], [9.270882514754991, 47.58105313970813], [9.270854674830998, 47.58085293133104], [9.26998424795342, 47.580823613711516], [9.268796003790904, 47.580982844699484], [9.266692944982868, 47.581294224115204], [9.26619423424432, 47.578282460261164], [9.266144539253125, 47.57822266432582], [9.265779584983749, 47.578127068155354], [9.2646894412803, 47.57786823901054], [9.264565096400927, 47.57784434314065], [9.263683549065458, 47.578598863392386], [9.262790250521876, 47.57908068437088], [9.262645580715361, 47.57919542081559], [9.263223663631681, 47.5799191592635], [9.263318690981775, 47.57988606015873], [9.26374614991596, 47.58002288962307], [9.263873376465533, 47.58024678640685], [9.263870706901574, 47.580791917560525], [9.26366652813446, 47.581124064117475], [9.263342094435231, 47.581430917252405], [9.263663435044, 47.58165075972599], [9.263836277448524, 47.581715994557015], [9.264416781078168, 47.58206980744546], [9.26464592988796, 47.58228059190843], [9.264599482268707, 47.582428831894994], [9.264449880660383, 47.582619880574676], [9.26430303406956, 47.58273645227287], [9.264033559876323, 47.58288751175348], [9.263642686978882, 47.58304195726381], [9.263325167336562, 47.58295668035563], [9.263057981288288, 47.58286386342447], [9.2628042395693, 47.58273626263078], [9.262576883908926, 47.58259334860676], [9.262280256358446, 47.582330473041814], [9.26190473885167, 47.58187696107537], [9.26111558380933, 47.58112999680485], [9.26045467044778, 47.58033571658088], [9.260336164193568, 47.58038557296573], [9.260050657999367, 47.58078343857726], [9.259737512169977, 47.581069134041634], [9.259415420135023, 47.581194551696456], [9.260116793156062, 47.58197814406014], [9.260547032995001, 47.582357223049414], [9.260956614826503, 47.58265377169841], [9.262342490008468, 47.58346004444181], [9.26266109759747, 47.583745585794944], [9.262804073138097, 47.583891788785294], [9.26254421541199, 47.584253290405705], [9.262532212499073, 47.58441316793835], [9.262456662253905, 47.58481629060465], [9.262210977801871, 47.585691412107174], [9.261875833921618, 47.58618604983474], [9.26189834703471, 47.58654057084747], [9.262119961802666, 47.58700469835638], [9.262105348064782, 47.58702016762487], [9.263425490029434, 47.58791412043528], [9.264542590022106, 47.58801149171523], [9.266032710516736, 47.588316080426175], [9.267643733583405, 47.589185331002874], [9.268753924430442, 47.59066705334721], [9.268715309722564, 47.59068294712252], [9.268630509930224, 47.59069997476878], [9.268542131215764, 47.59069574723728], [9.268457239360242, 47.59067501981372], [9.268425160404405, 47.59071384927274], [9.26839554806119, 47.59070312558475], [9.267935139863242, 47.5909815932427], [9.268318808344437, 47.59122423414917], [9.269047825266957, 47.59171824069866], [9.268929246293492, 47.59180427953823], [9.268808617997694, 47.591922673325776], [9.268255463452293, 47.592542962314674], [9.268269649944648, 47.59263002683077], [9.268853711563812, 47.59303793558093], [9.26896502532872, 47.59311976929994], [9.269063491046266, 47.593210801765785], [9.269146873543944, 47.5933079197588], [9.269215258127781, 47.59341205747134], [9.269267905109727, 47.59351835082785], [9.269307032152721, 47.59362863598479], [9.269319925540684, 47.5937425289907], [9.269312554703406, 47.59385381823641], [9.269301664600837, 47.59392594035291], [9.272084086132475, 47.59516611162708], [9.27153780927746, 47.59564813726977], [9.271903889631025, 47.5958964509624], [9.274365350789312, 47.59493530471533], [9.274423410916697, 47.59489214005661], [9.274415612186983, 47.594832026116876], [9.274541939487438, 47.595041054681595], [9.274620570059191, 47.59518840593689], [9.274674780372923, 47.595323747485736], [9.27471627691768, 47.59540221949136], [9.274772599986314, 47.5954771641843], [9.274835623126114, 47.59554817948674], [9.274909598279734, 47.59561553982216], [9.275297347153503, 47.59591342841652], [9.27542156723767, 47.59601800958775], [9.275533046307544, 47.59612987232394], [9.27575917823454, 47.59638183966089], [9.275851674562439, 47.596458972367955], [9.274013618167317, 47.5973984434981], [9.274925109821435, 47.59815664334759], [9.273378033949708, 47.5991416913596], [9.271746042524043, 47.60009516878355], [9.27187738708209, 47.600179904057306], [9.27172449842424, 47.60036659536337], [9.271919113830334, 47.60044439276774], [9.272334604497434, 47.60080938520373], [9.2716742623223, 47.60164260828344], [9.271655140684029, 47.601690868213424], [9.271677138094411, 47.60174084406081], [9.2735542232314, 47.60389990023248], [9.273647180688151, 47.60391817553651], [9.273676459299363, 47.60395284162826], [9.272209620252495, 47.604485531808066], [9.273916150728557, 47.60645715635483], [9.27394911298481, 47.60652519316625], [9.273200570541139, 47.60668881747183], [9.275481009237359, 47.60814502892974], [9.274287828370301, 47.608665095858555], [9.274324014158871, 47.608703223813315], [9.27439025616302, 47.608747272268815], [9.273822844294775, 47.608993314328536], [9.275824775687603, 47.610314570839684], [9.275864419675496, 47.61034493406442], [9.273478353357948, 47.611768374782905], [9.275802879887811, 47.61324175254617], [9.275091141673553, 47.6139921235199], [9.274843436296658, 47.614235391806446], [9.274969026384873, 47.61429494501732], [9.274997955327011, 47.614265915836214], [9.27507466161615, 47.614252331847574], [9.275141003128198, 47.61427368139306], [9.275258104134885, 47.61430169372369], [9.275378964253713, 47.6143157026368], [9.275890282998835, 47.614341176929535], [9.276269325858319, 47.61437027417927], [9.278196703792675, 47.615824477353435], [9.278351997916108, 47.61598301478566], [9.278825042394054, 47.61576993512232], [9.28082979813926, 47.61744110269867], [9.280806287891213, 47.61745257708851], [9.281056789771895, 47.617686892426164], [9.281078728762724, 47.61770754947983], [9.281097738697506, 47.61769291694461], [9.28115641804656, 47.61767045751044], [9.281312877194773, 47.61761129755991], [9.281394260250678, 47.61757713342051], [9.281527407181782, 47.617491895351506], [9.28158960048494, 47.61745149587444], [9.281657099179844, 47.61740181816802], [9.281726765178318, 47.617361290904135], [9.281858519594193, 47.61733018534436], [9.28198287862381, 47.61730182397327], [9.282240032879923, 47.61721873440709], [9.282438034385482, 47.61715633976351], [9.282615439271312, 47.61714673676148], [9.28274819500074, 47.617144455340096], [9.28295069475346, 47.617156717938855], [9.28314337105078, 47.61716731914777], [9.283226367109432, 47.61718072581705], [9.283271793275427, 47.6172060737316], [9.283278428211126, 47.617207101701695], [9.283346164448108, 47.617208291440235], [9.28335028976363, 47.61723202917101], [9.28338163157743, 47.61723152174157], [9.283380462950515, 47.6171975445463], [9.283414459139705, 47.61717772549616], [9.283522858372487, 47.61714689051146], [9.283642347933771, 47.61713960137175], [9.283841637179679, 47.617113887401594], [9.284001524100066, 47.617084922683134], [9.284056424410512, 47.61704988264114], [9.284162692535014, 47.617038880980914], [9.284229714123391, 47.617029862182775], [9.284383441789531, 47.61698526099898], [9.284520517730378, 47.61694618717899], [9.284623118453382, 47.61688411037936], [9.284716964022694, 47.616839220223305], [9.284838496857903, 47.61683714199482], [9.284896137942296, 47.61682696768649], [9.285006302196372, 47.61676738798195], [9.285092811286763, 47.61672655456959], [9.285161629115994, 47.616714879789434], [9.285294534075977, 47.616716533291935], [9.285417014863878, 47.61668819803569], [9.285451480874498, 47.61665744976265], [9.285477639190292, 47.616603237320895], [9.285569804795434, 47.61656362686221], [9.285720569354343, 47.61654136298127], [9.285859746721721, 47.61650882117064], [9.285931452264666, 47.61647349452272], [9.2859628561931, 47.61640870903471], [9.286033492145588, 47.616341922327514], [9.286124603852764, 47.61632593364102], [9.286217348778761, 47.616303360809944], [9.286291229343801, 47.61627587070741], [9.286328915318343, 47.6162306412891], [9.286326573279682, 47.6161638024447], [9.286373208744955, 47.61610660974597], [9.286443878231701, 47.616044248254006], [9.286451805018576, 47.61603271507098], [9.286451025132457, 47.61601071431314], [9.286445918308724, 47.615984428414166], [9.286455347143173, 47.61597591191249], [9.286480607831894, 47.615983416966074], [9.28652189300738, 47.61601170833075], [9.286533044054279, 47.616012907067066], [9.286601382611853, 47.61598216756502], [9.286701099621668, 47.615934816252754], [9.286815934420293, 47.61588338265648], [9.286889074898735, 47.61583124597165], [9.28691193288855, 47.615809894095285], [9.286954268651675, 47.61578968917385], [9.287032015767053, 47.61574948859994], [9.287086144680664, 47.615709592398225], [9.287124120436026, 47.615684158256364], [9.287162756136865, 47.61567689449863], [9.287219781307787, 47.61567925124043], [9.287240327735148, 47.61567098029961], [9.287266998864702, 47.61565330091476], [9.287351589882977, 47.61559723905753], [9.287369312373036, 47.615587726692404], [9.287394747473634, 47.61556092704932], [9.28742961178366, 47.61552562881166], [9.287457491305362, 47.615489569281245], [9.28747515464307, 47.61543905411357], [9.287475650196273, 47.61541434320357], [9.287493258988361, 47.61540195389692], [9.287521023235383, 47.61540113351902], [9.28753087234843, 47.61540506071023], [9.287578789822978, 47.615385459262825], [9.287649217938293, 47.61533493958398], [9.287667815523017, 47.6153112265442], [9.287705845012969, 47.61524766628393], [9.287737717299247, 47.61520631635163], [9.287776614420954, 47.61516764317978], [9.287784393907426, 47.615152279913346], [9.287782491437037, 47.61513778171802], [9.287791820226593, 47.615126405982586], [9.287811164564884, 47.61512373163602], [9.287847708865984, 47.61513624719798], [9.287872949429765, 47.615142798708256], [9.287893182234699, 47.61512592350024], [9.287921816454254, 47.615071841845996], [9.287937421891172, 47.615042068181516], [9.287947058928308, 47.61500023607352], [9.287977728774015, 47.61496447375076], [9.288043562146237, 47.61490201739905], [9.288097148273833, 47.614885896783704], [9.288146687499674, 47.614873142168676], [9.288180929000893, 47.61485968689188], [9.28821283980347, 47.61485836840262], [9.28824214641425, 47.614862489033314], [9.28825542820201, 47.614845823563336], [9.288274018374766, 47.61482114795015], [9.288306477192371, 47.61479701584011], [9.288333827977926, 47.61478473194905], [9.288369771623671, 47.614780029579016], [9.288377751293638, 47.614770411543965], [9.28838449632031, 47.614725395948085], [9.288400669021113, 47.61471189593196], [9.288443409351466, 47.61470180449934], [9.288491156308607, 47.61469526760326], [9.28855804289645, 47.61469850094576], [9.288622841878867, 47.61470176752938], [9.288694216829409, 47.61471352938409], [9.288773615737929, 47.614716563014284], [9.28884040196163, 47.61471691903948], [9.28888037655983, 47.6147263209582], [9.288918440711054, 47.61474007139007], [9.288947677077683, 47.61474103534736], [9.288972374545851, 47.61473202317012], [9.288980437081234, 47.614723258382085], [9.288983883620851, 47.61470307034673], [9.288973221885207, 47.614677376930025], [9.288969761387513, 47.61465827065905], [9.288971537494616, 47.614629482075955], [9.288977508759261, 47.614601580162066], [9.288969338251208, 47.61456721087624], [9.288965764101766, 47.61454522771871], [9.288955149260424, 47.61452049611421], [9.28900252744589, 47.61444200584855], [9.289025946747493, 47.6144348762367], [9.289079085007442, 47.61444064052008], [9.289133999814116, 47.614456901784884], [9.289173237349289, 47.61446386839872], [9.289217510990008, 47.61445540746581], [9.289274856248394, 47.61442274562568], [9.289321487307221, 47.614401778602264], [9.289382360259914, 47.61439014709333], [9.28952870134873, 47.614392309956045], [9.289570349826757, 47.614388685659996], [9.289607448975863, 47.6143736460313], [9.289612525536754, 47.6143601430099], [9.289606319083322, 47.61434203415313], [9.28961970473681, 47.61432645534087], [9.289657838866985, 47.61430180944012], [9.289755750479955, 47.61427417644743], [9.289788213066037, 47.61424675127099], [9.28980991508395, 47.6142300681604], [9.289830588754544, 47.6142239447712], [9.28987088811363, 47.61422131345755], [9.289887186070981, 47.61420951145494], [9.289918600308003, 47.6141916927608], [9.28994896623251, 47.61418348051643], [9.289980868670781, 47.6141800296019], [9.290017740417186, 47.61415924503854], [9.290079253028134, 47.61412555370198], [9.290117072193334, 47.61409227653057], [9.290153977420214, 47.61407245396876], [9.290235255262695, 47.61404702021719], [9.290279662444997, 47.61404239805152], [9.29029942151849, 47.61404971123281], [9.29031433840948, 47.614077234722465], [9.290352558922342, 47.614055456973226], [9.290386665063078, 47.6140347254497], [9.290433917455305, 47.61403195595354], [9.290445895412157, 47.61405570306601], [9.290461359549072, 47.61405927048048], [9.290647985639508, 47.61405880057838], [9.290683908488957, 47.61405047249185], [9.290721495852827, 47.614049809308376], [9.290762909740362, 47.61403947730517], [9.29079861216119, 47.614024459587846], [9.290830380684692, 47.6140171782808], [9.290883317788227, 47.61401718754462], [9.290937483376435, 47.61401237333064], [9.29097261324421, 47.61402133912972], [9.291002419025862, 47.6140370918977], [9.291029680772322, 47.61405961434633], [9.291097107301999, 47.61407565688715], [9.291145635353566, 47.614069034435815], [9.291164912687988, 47.61406293313772], [9.291194250602233, 47.61406528929752], [9.29121764912368, 47.614057196983026], [9.291262535123666, 47.61402667624978], [9.291290061861645, 47.61401755541779], [9.291317836203229, 47.61401514165161], [9.29136656487621, 47.61401426434559], [9.291387104482624, 47.61400431052455], [9.291409619577824, 47.61397131333935], [9.291452473807666, 47.61392262606647], [9.29147954477686, 47.613900081425726], [9.291548083873405, 47.61386914675545], [9.291598272207237, 47.61383084959616], [9.29168491680946, 47.61376028601936], [9.29177754662845, 47.613701105682246], [9.291810108402409, 47.613676557106075], [9.291864538726745, 47.61364011721337], [9.291915477004446, 47.61362291257022], [9.292021782328906, 47.61359607903743], [9.292114716143166, 47.613584824329635], [9.292176253466485, 47.613584632601096], [9.292244242425829, 47.61358441869973], [9.292327765137566, 47.61358291295516], [9.292372204751247, 47.613579234046654], [9.292407180315163, 47.61358340694902], [9.292456611945877, 47.61360265103203], [9.292498775128989, 47.61361339306778], [9.292536395178725, 47.613613673369485], [9.292590513564756, 47.61360790552062], [9.292670541205752, 47.61358634029263], [9.292767401523257, 47.61354051357697], [9.292832584275047, 47.613479063334196], [9.292836253573945, 47.61337016182776], [9.292876660077667, 47.61329603640027], [9.2929574418432, 47.61325267954785], [9.293070027241168, 47.613208778167056], [9.293159730335313, 47.61315347579603], [9.293185754576076, 47.61309532321885], [9.2932105934631, 47.61300441706821], [9.293303934183369, 47.612945107142274], [9.293439269674485, 47.612909999554084], [9.293656329756109, 47.61280527805473], [9.29377698176852, 47.61277828535606], [9.293893365451616, 47.61278938704378], [9.294001456860956, 47.612830793934826], [9.294066129678578, 47.61288944799221], [9.29408766334895, 47.61297372007778], [9.294090916714563, 47.61301651609758], [9.294119148472983, 47.6130184484114], [9.294130420321318, 47.6129885092438], [9.294112059136287, 47.61291620506067], [9.294085128923827, 47.612876180778315], [9.294048282232957, 47.61282916325172], [9.294009105275238, 47.61273036588576], [9.294008873086089, 47.61268341935573], [9.294029851352668, 47.61264572330019], [9.294068884435664, 47.612605795260144], [9.294126114310448, 47.612568454824014], [9.294159831184624, 47.612536285423296], [9.294210529390833, 47.61251150893997], [9.294273597927688, 47.61248173067081], [9.294341887565372, 47.61248254524727], [9.294424486450467, 47.61249460970185], [9.29450551548121, 47.61250096879012], [9.294570804504628, 47.6124951112216], [9.294613239556648, 47.612473336547296], [9.294657995927333, 47.61247835979168], [9.294693712068149, 47.61246341264959], [9.294717479402445, 47.61246589304324], [9.29474482990207, 47.61249130989634], [9.294801372209507, 47.61251530601375], [9.29486046530016, 47.61253159671393], [9.294895264769584, 47.61253987387868], [9.294926452432426, 47.61252591679901], [9.294963206684152, 47.61256153747218], [9.294963608547617, 47.61257301895176], [9.294930517552858, 47.61258314731213], [9.294879920317182, 47.61261080122828], [9.294862313686549, 47.612625458658634], [9.294872448710738, 47.612636793366704], [9.294878790855087, 47.61265873215302], [9.294866688288066, 47.612671385308374], [9.294857398002359, 47.61268494704337], [9.294868102341786, 47.61271254648944], [9.294892976260227, 47.61274663917201], [9.294925985588824, 47.61277484419598], [9.294939536850213, 47.61280434117394], [9.294956060481745, 47.612838558516835], [9.295007615058513, 47.61287891721085], [9.295110766468458, 47.61292131073526], [9.295226268375426, 47.6129577490455], [9.29542025626206, 47.61300729747866], [9.295453870488114, 47.61301248978551], [9.295478800012686, 47.61300825837539], [9.295489653759969, 47.61299945741978], [9.29548782164629, 47.61298702724764], [9.295474907794944, 47.61297574606653], [9.295428406253425, 47.612961170283185], [9.295290565811934, 47.612923173624644], [9.295238117575991, 47.61289719607285], [9.295177487358314, 47.61287615332477], [9.295163969869389, 47.61284762732604], [9.295140994465969, 47.61282787095635], [9.29511593284325, 47.61278804185921], [9.295084326604657, 47.61276077701091], [9.295054263537043, 47.61273731073904], [9.295027012831293, 47.612714753084454], [9.29502041611275, 47.61268516278337], [9.295023231796243, 47.612605592873635], [9.295049724709038, 47.612606122425426], [9.295076150612662, 47.61260473691957], [9.295552555617022, 47.61267577187707], [9.295578197597274, 47.61265883568693], [9.295638607690174, 47.61263294046185], [9.295673148746143, 47.61262471381123], [9.295710616157828, 47.61262027264288], [9.29575556047792, 47.61263103209382], [9.295798644810407, 47.61266770266524], [9.295903929195152, 47.612771378197884], [9.295981158352735, 47.61282952429537], [9.29603072731846, 47.61285266903793], [9.296055824655568, 47.61285322980672], [9.29609598319969, 47.61284585753665], [9.296120610519662, 47.6128330035392], [9.296125658068531, 47.612817584483345], [9.296115140669333, 47.61279572162308], [9.29633168023844, 47.612605657947796], [9.296335792876965, 47.61260912750941], [9.296382301480122, 47.61262466540842], [9.296432514891618, 47.61262671285266], [9.296483728732435, 47.61261630276484], [9.29657671274232, 47.612565919891594], [9.296688879977918, 47.61250564887174], [9.29674583919597, 47.61246063782703], [9.296822237168495, 47.612373160033364], [9.29696022562487, 47.612213779621314], [9.297016077560022, 47.612137183138], [9.297057933801213, 47.61205792319154], [9.29709326625627, 47.61195195046154], [9.297116187867767, 47.611808816011695], [9.29713032303265, 47.611653362761416], [9.297135390890901, 47.611638914876714], [9.297161393139435, 47.6116250761191], [9.297244118459908, 47.61159976702571], [9.29739631397078, 47.611569512254626], [9.297408771363886, 47.611567387467176], [9.297426141865657, 47.61154602237097], [9.297457835966771, 47.61153592465237], [9.297489899384756, 47.61153636436289], [9.297526560582945, 47.61154918088549], [9.297592049463136, 47.61154906683942], [9.29763875827368, 47.61153010121985], [9.297717986388875, 47.61148473273082], [9.29782684739022, 47.611409184249965], [9.297885254697169, 47.611366074537294], [9.297937366537704, 47.611342236273586], [9.297987323229398, 47.61133661353514], [9.298002922302748, 47.61134403707697], [9.298026890699985, 47.611352262019224], [9.298051919800782, 47.61135089818569], [9.298078042667589, 47.61134088960419], [9.298084439196645, 47.61132450424774], [9.298090922970124, 47.611310987214], [9.29811854212924, 47.61130381537974], [9.298179889511543, 47.61130472996406], [9.29820799943732, 47.61131193490643], [9.298233720728456, 47.61133069304862], [9.29828697361884, 47.61133940199548], [9.298297443782326, 47.61132006355738], [9.298319170081728, 47.611303423352574], [9.2983170687593, 47.61128333289933], [9.298291770312668, 47.61123679720711], [9.298271318306314, 47.61120934535836], [9.298299779712794, 47.61120494877434], [9.298326758846311, 47.611200773790905], [9.298360305416411, 47.61120405921731], [9.298444938373624, 47.61127453549551], [9.298476344308114, 47.611296063206666], [9.298503058195553, 47.61130329046104], [9.298527999978567, 47.611299058190255], [9.29856624419963, 47.61127734918066], [9.298572385206887, 47.61125330324605], [9.298570987137383, 47.611172847093755], [9.29858056363286, 47.611127650342944], [9.298591248740404, 47.61111406589242], [9.298694913143239, 47.6110500967984], [9.298751245966855, 47.611027144087736], [9.298798276108512, 47.611017744590654], [9.29884135978475, 47.61101416586954], [9.298871758133124, 47.61100696725052], [9.298925029677692, 47.61097638990101], [9.298967764135133, 47.61096323593823], [9.29908153138271, 47.61094988713094], [9.299178881034445, 47.61094446619415], [9.299225723106748, 47.610929330084375], [9.299435408012956, 47.61086937198788], [9.299567987131015, 47.61083558771783], [9.299629923692853, 47.610813498200706], [9.299646287210486, 47.61080365485053], [9.299650829683884, 47.61077387700364], [9.299668132141587, 47.61075060548043], [9.299744625277615, 47.61070623301005], [9.299842548756558, 47.6106375691141], [9.2999013366513, 47.61060499557138], [9.299969634575351, 47.61056554937607], [9.30002801873387, 47.61052147631235], [9.300069778101854, 47.61048055777582], [9.300069957142824, 47.610445101490825], [9.300095965218418, 47.61043222453643], [9.300136119602213, 47.610384620688386], [9.300141219987305, 47.61037112572828], [9.300186933779123, 47.61036366295054], [9.300207451410351, 47.61035279024746], [9.300226162519017, 47.61032948703402], [9.300257754354067, 47.610316511411796], [9.300273828245379, 47.61029804540413], [9.30030817869941, 47.610284071924184], [9.300368651345023, 47.61026009831483], [9.30041488711475, 47.61022771700375], [9.300487170885859, 47.6101824669781], [9.300512775043229, 47.61015809046507], [9.30051733062158, 47.61012832139385], [9.300514582864304, 47.610089079808574], [9.300506943367314, 47.61007003187015], [9.300543581259117, 47.61004164585732], [9.300612470370346, 47.6100194531426], [9.300659122810062, 47.60999857099829], [9.300715941472939, 47.60994972778104], [9.300734202033523, 47.60991398116963], [9.300757565709254, 47.60990498783041], [9.30079194891879, 47.60989195824909], [9.300808056257797, 47.60987445418282], [9.300825926315376, 47.609827207925775], [9.300834811084234, 47.609802155169184], [9.300829640986871, 47.60977349580307], [9.300817873698634, 47.60975547673152], [9.30082002713189, 47.60973724313629], [9.300842142140768, 47.609732093141396], [9.30092709340421, 47.60973166468535], [9.300940757806892, 47.609723771639295], [9.300948680304964, 47.609670936545584], [9.300960760535542, 47.60965732944893], [9.300981378770299, 47.60964933373121], [9.30102143359876, 47.609639091743695], [9.301050320523094, 47.60962903807914], [9.30108436787674, 47.60960645100488], [9.301104743353163, 47.609590785534195], [9.301151691580104, 47.609579479211654], [9.301182559630924, 47.609585685616665], [9.301202622014427, 47.60960163732974], [9.301320574927123, 47.609536734633096], [9.301391398286087, 47.60959237113233], [9.301437169115628, 47.60956723869569], [9.301366569767048, 47.6095115445334], [9.30134616729848, 47.60952264953088], [9.30125565966464, 47.60944364241227], [9.301344270331318, 47.609387577249045], [9.30146155528119, 47.60927451121597], [9.301589624757922, 47.60915073746575], [9.301721130789018, 47.60909338020059], [9.301889119119572, 47.609045665230354], [9.30201301862623, 47.60901907042847], [9.302190690875674, 47.608969840959254], [9.30235171618494, 47.608943944693145], [9.302496632347323, 47.609005136945804], [9.302561852815412, 47.608975517277685], [9.302633573970212, 47.608962049052806], [9.302803930812983, 47.608975323839516], [9.3028897739013, 47.608973809047306], [9.30299320567345, 47.60892316285418], [9.303176214764601, 47.608761269367065], [9.303374673881494, 47.60859502494156], [9.303493052026571, 47.60847765702567], [9.303572485266843, 47.60836234565976], [9.303591423038027, 47.6082982590656], [9.303623568018029, 47.6082719414009], [9.30367420359159, 47.60826832033308], [9.303727547672345, 47.60829178782482], [9.303756816882276, 47.608292261709586], [9.30379429382167, 47.608287817677514], [9.303825816548319, 47.60827293499835], [9.303860705441492, 47.60823499523535], [9.303879313321156, 47.608208823277934], [9.303910343990594, 47.608179572771675], [9.303962685258208, 47.60816242107565], [9.304027348716367, 47.60813933165253], [9.304060300483904, 47.60812537051535], [9.304101783387152, 47.608116067038885], [9.304137568485565, 47.60810399445492], [9.304172975371506, 47.6080804129764], [9.304206116475742, 47.60807221522338], [9.304231325405018, 47.60807563303878], [9.304261195112522, 47.60805309418321], [9.304247896645165, 47.60803127673137], [9.304218757018528, 47.60799439381801], [9.304222675203617, 47.60798665714247], [9.304236258009409, 47.60797684883728], [9.304252478136004, 47.60796222119187], [9.304265488511977, 47.60793613920916], [9.304274909949884, 47.60792639784312], [9.304306115736315, 47.60790289289264], [9.30432349555385, 47.6078815265202], [9.304360129941228, 47.60785313933459], [9.304404445629535, 47.6078457153341], [9.304479594514262, 47.607843525761716], [9.304522796666399, 47.607843775288224], [9.30454934136462, 47.60784621795645], [9.304576991999872, 47.60784001559368], [9.304600144422556, 47.60782430478982], [9.304643887202156, 47.60780059803149], [9.304674161158129, 47.607789558534336], [9.304695303510552, 47.60779687400009], [9.304762595263423, 47.60780918639071], [9.304826494999634, 47.607803354266686], [9.304896896247094, 47.60778494893669], [9.30495186043838, 47.6077629686515], [9.305008409740877, 47.607746720309976], [9.305056103864915, 47.607716229748014], [9.305090586157997, 47.60770608498308], [9.305112093396753, 47.60768369848766], [9.305144943969186, 47.60766687789651], [9.305185219241988, 47.607663341949056], [9.30520743390713, 47.607661059251306], [9.305223741000493, 47.60764929082085], [9.305269682308042, 47.607608311934264], [9.305275549926039, 47.60757659628812], [9.30528293469178, 47.607548679553204], [9.305300098505402, 47.6075215680067], [9.305328774326698, 47.60750481457568], [9.305362649529295, 47.6074774250585], [9.305413337650926, 47.60745264361773], [9.305430649783288, 47.60742937098318], [9.305433792789573, 47.60739961538129], [9.305432950092202, 47.60737567240791], [9.305426529856696, 47.607350865604054], [9.305437097893952, 47.60733440360732], [9.305470905836614, 47.607305107961466], [9.30552798714972, 47.60726393167078], [9.305580186161782, 47.607202718731074], [9.30560678405766, 47.60716586543845], [9.305619557547798, 47.60713307610087], [9.305648698529822, 47.607089488768274], [9.305662024479917, 47.60707201975109], [9.30566799311269, 47.607043181228995], [9.30565286001848, 47.607008933877246], [9.305603636104388, 47.60695512015934], [9.305586763500543, 47.606910375459705], [9.305583209501691, 47.60688839224863], [9.305589434464743, 47.60686721422395], [9.305617839891227, 47.60684279141586], [9.30565228794417, 47.60683169341714], [9.305694349620762, 47.60683962544336], [9.305744741154973, 47.60686463297993], [9.305793373694716, 47.60687670539311], [9.305856440242948, 47.606882760864664], [9.305977929795876, 47.606854032395304], [9.306008292199023, 47.60682474706663], [9.306015565379612, 47.60679443012669], [9.306014578095555, 47.606767142946595], [9.306067662363086, 47.606728837468886], [9.306068610681686, 47.60669720998101], [9.306046331242335, 47.60666023503842], [9.30604617766706, 47.60659844344848], [9.306027540710502, 47.606547043114965], [9.306021580873885, 47.606498290376805], [9.306057624300133, 47.60645165908555], [9.306084127120718, 47.60637358718681], [9.306117258513408, 47.6063054571481], [9.30617222659285, 47.60626135479891], [9.306247094921659, 47.606188171509025], [9.30631876297033, 47.60614235176062], [9.306401372349676, 47.60605178020882], [9.306482464091307, 47.60597704812128], [9.30653388848772, 47.60589277222857], [9.306550484509374, 47.60583068387433], [9.306567663400047, 47.605784392241304], [9.306626083751585, 47.60572011883109], [9.306682784337092, 47.605665939684954], [9.306748062031033, 47.60561735285336], [9.306809671205217, 47.6055832008373], [9.306866725173986, 47.60553906450937], [9.30690797972086, 47.60552108243303], [9.306923856971915, 47.60549638429822], [9.306998762877228, 47.60548210619188], [9.307081359833049, 47.605449019272896], [9.307163690319983, 47.605408748709955], [9.30731497906912, 47.60530545588871], [9.307402089938426, 47.605223429278574], [9.307504530957111, 47.6051023284188], [9.30754792253766, 47.605085742054584], [9.307599550414539, 47.605064695809666], [9.307638387370895, 47.605038143175626], [9.30765446594932, 47.6050191721957], [9.307648656543742, 47.60497472619651], [9.307670237593785, 47.60493411187167], [9.30769572594911, 47.60488622870322], [9.307764454142783, 47.60481746142681], [9.307766918361024, 47.604769994360005], [9.307801529935027, 47.60474207039245], [9.30786907067565, 47.60469774650581], [9.30794448824043, 47.604612345445425], [9.307988459229781, 47.60455408872002], [9.308008293313211, 47.60452355111562], [9.308015274763122, 47.604484620441895], [9.308029882873505, 47.60442544265411], [9.308089816765035, 47.604345328894496], [9.308140125468592, 47.604288391212194], [9.308195140816768, 47.60424573544229], [9.308240581551214, 47.604227685374056], [9.308280199769282, 47.60422483359582], [9.30830584339717, 47.604238741883904], [9.308332953747435, 47.60423539006176], [9.308365781431478, 47.604216121920686], [9.308375406603023, 47.604192954736746], [9.308396141331096, 47.604186844937935], [9.30846349376019, 47.60419569964629], [9.308507265219355, 47.60418916438675], [9.30853353881428, 47.604162832004185], [9.3085683103822, 47.60408173833864], [9.308623333720746, 47.603981597177125], [9.308633869864199, 47.60395484386152], [9.308644417680494, 47.60392804534695], [9.308672639347636, 47.6038973633473], [9.308707654988384, 47.6038809295867], [9.308788782486493, 47.603865119545254], [9.308870860616855, 47.603875139927766], [9.308925131279898, 47.603869865581665], [9.308959373926495, 47.603831889553], [9.30898319224578, 47.603795539040014], [9.308991300228259, 47.60378820240189], [9.309081132404163, 47.603780852037325], [9.309139488759053, 47.60377262391859], [9.30921789445115, 47.60373961201496], [9.309276994491302, 47.60369401105423], [9.309329236287413, 47.603632723543164], [9.309405858581835, 47.60360836750652], [9.309480710755265, 47.6035926582478], [9.309543355287865, 47.60358722151322], [9.309592931530856, 47.60356765580424], [9.309637432860354, 47.60352375655489], [9.309701479133945, 47.603499612220176], [9.309744628914187, 47.603475850000784], [9.309870496375753, 47.60342331494468], [9.309915516858462, 47.603393764959996], [9.3099517948919, 47.60335431641202], [9.310001357486522, 47.60333475075667], [9.310159942081587, 47.60331754585216], [9.310220093954051, 47.603300660932014], [9.310268870005622, 47.60325956218397], [9.31032704287725, 47.60318810281621], [9.310350546003702, 47.60316773413251], [9.310408263101623, 47.6031176658441], [9.310537569357896, 47.603043510870314], [9.310653442378172, 47.60300407264846], [9.310752414328928, 47.60296063399738], [9.31080550437398, 47.60292231712773], [9.310842136517637, 47.6028929291935], [9.310912634713976, 47.602872989114395], [9.311001779338959, 47.602846963446865], [9.31104888582551, 47.60281737932431], [9.311099659323252, 47.60277336020432], [9.31114503373247, 47.6027538706472], [9.311234279287255, 47.60273071291378], [9.311312884961422, 47.602703444813756], [9.311347594895173, 47.602678396880016], [9.311360632158095, 47.60263361964045], [9.31137857932367, 47.602608860394405], [9.31142778578451, 47.602579242189535], [9.311484003193577, 47.602569626023495], [9.311529427440421, 47.602551556884464], [9.311616895813456, 47.60247958772188], [9.311745780066257, 47.60240261334766], [9.311887957427224, 47.602295664968096], [9.31206373654241, 47.602198986872224], [9.312279719757209, 47.60208259616424], [9.31242944541139, 47.60196873306755], [9.312594340100368, 47.60184375731525], [9.31282806834106, 47.601682305091956], [9.313084671292678, 47.60150688048444], [9.313213996165384, 47.601397709207575], [9.313295645697323, 47.60132078590783], [9.313343921632939, 47.60127092264478], [9.313419412345299, 47.60122259849507], [9.31354555877418, 47.601151864588545], [9.313586508744903, 47.60113746540063], [9.313636263018264, 47.60112981486611], [9.313738061553789, 47.60113903610729], [9.313816973630221, 47.60114762876752], [9.313824117253464, 47.60114577698881]]]]}}]}