{"type": "FeatureCollection", "features": [{"type": "Feature", "properties": {"bfs_nummer": 4776}, "geometry": {"type": "MultiPolygon", "coordinates": [[[[9.010442801037508, 47.505522026232335], [9.010453873277893, 47.50553325542299], [9.010496477781734, 47.505576431771416], [9.010670493711078, 47.50594976345389], [9.010841574134746, 47.506478247188696], [9.010916470890283, 47.506707339419265], [9.010991173396448, 47.5070694082994], [9.01096890005899, 47.50761841897807], [9.010932961044892, 47.50806048604115], [9.01079674456745, 47.50872832180141], [9.010743450438811, 47.50884361440359], [9.010653274099292, 47.508948163050135], [9.010597538093434, 47.50901278904125], [9.010036567594453, 47.509409647207356], [9.00951338597666, 47.50982980082894], [9.009573536048226, 47.50985694309355], [9.010965474330272, 47.51048203704261], [9.010904292564662, 47.51055964590192], [9.012066317921578, 47.51116055681803], [9.011960410270747, 47.51136656701969], [9.013475147936743, 47.51200263810171], [9.013928012768364, 47.51219064869495], [9.01468554922998, 47.51257703871239], [9.015316638253791, 47.51288415812026], [9.01564975363332, 47.512985428129284], [9.01572219201337, 47.513048346678694], [9.015867783445264, 47.513130247977195], [9.016328084466325, 47.51330827942143], [9.016975801563206, 47.51367304126266], [9.017577818227226, 47.51403400596565], [9.019041592056542, 47.51494103804196], [9.019197010532416, 47.51507887998786], [9.019383176551091, 47.5153437522648], [9.019520747202831, 47.51550736673118], [9.019484274548612, 47.51557710418363], [9.019508693547408, 47.51561950914509], [9.019713527371035, 47.515562423441665], [9.019866358323128, 47.515555172853794], [9.020003941050863, 47.51557989403066], [9.023803320812934, 47.517017839045316], [9.023825562278692, 47.51708325692351], [9.023888333835847, 47.51711139059329], [9.0241190925358, 47.51704329140476], [9.024322145072059, 47.516950509387854], [9.02455159037365, 47.51679928066138], [9.024725513744608, 47.516715595689455], [9.024892740073755, 47.516652683204924], [9.0263280379068, 47.51809149650539], [9.026593243262909, 47.51882590880868], [9.026890124724222, 47.519501144234994], [9.027078635008527, 47.52004164402888], [9.028778761757604, 47.52054444761684], [9.02916994618222, 47.52111205340275], [9.029442379007383, 47.52141581858382], [9.029975041028438, 47.52173926994286], [9.03210945924117, 47.52263801920536], [9.03225393277715, 47.52267338113573], [9.032415618720062, 47.52243958973303], [9.033528847707549, 47.52281408198844], [9.03413036236885, 47.52296042293401], [9.034203010692872, 47.52286594821909], [9.035345654136771, 47.52316234826694], [9.035515383383059, 47.52304372872217], [9.035783808523577, 47.523015628408025], [9.03587323066025, 47.523000361732514], [9.03581467391708, 47.52285664508509], [9.035740163858547, 47.522741070930465], [9.035646087862846, 47.52263948498391], [9.035494274623133, 47.52251375016307], [9.035548742468599, 47.52247859073417], [9.036216683780504, 47.52271143260802], [9.03662510741645, 47.52283565762115], [9.036787978193127, 47.522867503466884], [9.036928247029218, 47.5228750939799], [9.036662154894818, 47.52240189672057], [9.0367929693397, 47.52241088635218], [9.036812260094269, 47.522440287974725], [9.036998931093862, 47.522516387628784], [9.037441324175655, 47.52261535917918], [9.038099587356205, 47.52276852435185], [9.038693806378348, 47.52292088897894], [9.039060048616134, 47.52294726840994], [9.039136937567479, 47.52281221551958], [9.040278495817624, 47.523105164264685], [9.04055299230914, 47.5231264656342], [9.041356046636576, 47.52331023549117], [9.04193692202822, 47.52342702647697], [9.04192391606476, 47.52346340531736], [9.042189522560765, 47.523501188158924], [9.042231681857855, 47.52349746485292], [9.042749226623902, 47.523635325569664], [9.042735994500921, 47.52366111963973], [9.04358095834309, 47.523918932274235], [9.044693672210977, 47.52423136277218], [9.045661736854745, 47.52455008979838], [9.046530127656034, 47.524862249135005], [9.04636674175004, 47.52471634981465], [9.04612705937461, 47.524562999559926], [9.045982321934757, 47.52445925550361], [9.046055262659944, 47.524415459582016], [9.04618772517718, 47.524470347984796], [9.046744769930937, 47.52461203244908], [9.047682113276823, 47.52284955814022], [9.047643885938411, 47.52278706546441], [9.047808681903641, 47.52284102575191], [9.048043335153857, 47.522909973342536], [9.048360115103144, 47.52297805776557], [9.049082590598537, 47.52307262413897], [9.049100077618565, 47.52302037683535], [9.049048597470264, 47.52297243504852], [9.049097953307884, 47.522852573913696], [9.049101645189316, 47.52273557872606], [9.048965247516987, 47.522595487675744], [9.04872702083941, 47.52240640944218], [9.048472145926157, 47.52208857290328], [9.048251905227003, 47.521766251152535], [9.04822063948161, 47.521594688012726], [9.048244210105672, 47.52145918195243], [9.048307220625462, 47.521398151852466], [9.048625701352723, 47.52146171460207], [9.049601592789408, 47.52173675253247], [9.049610534081445, 47.52172549142337], [9.051442670227887, 47.522313784397305], [9.051903215013638, 47.52248484539491], [9.052302550336924, 47.52198285139119], [9.05295889760215, 47.521384160376705], [9.053058987675227, 47.5213080736673], [9.05340403276783, 47.52098094652239], [9.053513677278364, 47.52067614502803], [9.055047360680364, 47.521130584651964], [9.056109167727318, 47.52142108213655], [9.05616323117543, 47.52143855231209], [9.055985819966402, 47.52171940257008], [9.05589130981799, 47.521813783062306], [9.055410224553523, 47.52218212782643], [9.057810391062283, 47.522763080700216], [9.058239744662352, 47.52263284528864], [9.058108475564476, 47.5225428447015], [9.058341818595483, 47.5222952308282], [9.058478191910796, 47.52210786784068], [9.058637156103202, 47.521958915130924], [9.058898027367444, 47.52176325181909], [9.05932014791372, 47.52163219628863], [9.05946640530235, 47.52157182094983], [9.05967253392307, 47.52144457878495], [9.060052033114786, 47.52129126830319], [9.060224073959331, 47.52142923538628], [9.06023181044978, 47.5214172976788], [9.060595958437235, 47.521313218128945], [9.060669411512626, 47.52133806115158], [9.060881403520296, 47.52120943018207], [9.060968851733811, 47.52119811192655], [9.061053518970462, 47.52114181794245], [9.061134510955444, 47.52113999959436], [9.061177035084512, 47.52110265624515], [9.061158919300906, 47.521021696754254], [9.06116244962842, 47.520997268996894], [9.061341365633545, 47.52077315340439], [9.061605946463303, 47.52067514197686], [9.06169258451913, 47.52060907738997], [9.061820537177448, 47.52060043825281], [9.061885637131457, 47.52054052283303], [9.061921647014163, 47.52056948803957], [9.061985703037585, 47.520560170182556], [9.061989285412063, 47.52050442738623], [9.062097808239912, 47.52043881138038], [9.062268184196629, 47.52039654453759], [9.062241852973845, 47.52034099626838], [9.062299199362506, 47.52027030432712], [9.062286218728902, 47.52019360872691], [9.0625234847138, 47.520025794799174], [9.062635367034007, 47.51992198914082], [9.06269713569458, 47.51993344719447], [9.062814791359498, 47.51992947605245], [9.062889311912262, 47.5199062923868], [9.063110924417105, 47.519864646383986], [9.063184103108126, 47.51989227122079], [9.063345648874085, 47.51988355481308], [9.063384567162487, 47.51984736761874], [9.063531617906666, 47.51979456829253], [9.063630521205505, 47.51969197851505], [9.06380729624746, 47.51960765448921], [9.063961296240494, 47.519578469722155], [9.06418526194282, 47.5194809965835], [9.064279167847785, 47.519395667985684], [9.066954442913447, 47.52036715108788], [9.067025393047876, 47.52038523334761], [9.067231369113069, 47.520415791726116], [9.067324676941567, 47.520418527449515], [9.067320519831828, 47.52037388600215], [9.067489851371956, 47.52035270305364], [9.067882873530527, 47.52028149590714], [9.068313070050587, 47.5201883814078], [9.068221184135965, 47.52016531411765], [9.06745711746798, 47.51959761982953], [9.068056987586425, 47.51939901056462], [9.068290324632839, 47.5189327256609], [9.068614651490265, 47.518497353729394], [9.06871050910059, 47.518345235173435], [9.06883662122388, 47.51819673879791], [9.069277810751975, 47.517804707277904], [9.069406878041484, 47.517756921252804], [9.071013981479013, 47.51662260535219], [9.071108859216254, 47.5166204581398], [9.070968662952719, 47.516535355506726], [9.070879838801282, 47.51644925865152], [9.070878623396887, 47.51633619889916], [9.07093685095769, 47.51624326139035], [9.071178401023246, 47.51594101648501], [9.071143572024402, 47.5159008467478], [9.0708722798662, 47.515896215699726], [9.07060318086527, 47.51588084798918], [9.07061084210722, 47.51584061888088], [9.070191280721453, 47.51579489601656], [9.06993546260594, 47.515754061328735], [9.070269263715446, 47.515333392861464], [9.070439849767242, 47.51518022831564], [9.07194620571437, 47.51407096778989], [9.072019438630692, 47.51374925269843], [9.072070066458252, 47.51320186476434], [9.07156242853775, 47.51298383399871], [9.071212237547835, 47.512838296856046], [9.071722940545166, 47.5125006970896], [9.071779283973687, 47.51233107845925], [9.072255439700887, 47.51187458024429], [9.073026041181178, 47.51158423194061], [9.073316731209056, 47.511562775104395], [9.073473274894825, 47.51136944018598], [9.074050067429647, 47.51136393876434], [9.074256442537843, 47.51122984675349], [9.074837824979685, 47.511176383165456], [9.07502892626046, 47.51090165804434], [9.075395271714164, 47.51085105068983], [9.075631228048842, 47.51080849285921], [9.075841656018694, 47.510364821891585], [9.076137093312036, 47.51007234692937], [9.075554034244751, 47.5098497614584], [9.075521349477755, 47.50979340611426], [9.07536889344789, 47.509455574486054], [9.074092357057092, 47.50936058431284], [9.073633026544636, 47.50926912647345], [9.07335607035156, 47.50893292481568], [9.07265573903146, 47.508439299591714], [9.071924215574185, 47.508343867586575], [9.071919681045761, 47.508373878524985], [9.071860223707382, 47.50852238307436], [9.071902476954687, 47.509124864741956], [9.071268066858826, 47.50913836483955], [9.071198973801883, 47.509398139203505], [9.070844831693869, 47.509394991231225], [9.07009783151891, 47.50941159266374], [9.070130819761632, 47.510031207518686], [9.069109451465154, 47.510079861167654], [9.065918557699698, 47.51028108278071], [9.06574441104291, 47.51035473177037], [9.06558104359283, 47.51041229707205], [9.06555389546606, 47.51049440493374], [9.065480510784134, 47.510539911254135], [9.06535788207975, 47.510528212631975], [9.065268972005017, 47.51062521277386], [9.065104830673029, 47.51065621537255], [9.065034821532558, 47.5107343825989], [9.06487776391565, 47.510773435534034], [9.064714133284056, 47.510859772403194], [9.064462276578817, 47.510941419962855], [9.06441023511022, 47.51105836713501], [9.064039449323193, 47.511111322485874], [9.063994880098194, 47.51109970486975], [9.06393704380201, 47.51112315903286], [9.063768638130446, 47.51109771705104], [9.063607741721071, 47.5111372178372], [9.063544264174112, 47.5111233913781], [9.063351724021514, 47.511137158217124], [9.063229083950949, 47.511189399373656], [9.063116865720291, 47.511181672327915], [9.062927760407659, 47.5111987994195], [9.06293617175087, 47.5113063159789], [9.062815822015331, 47.51131536253109], [9.062788632273437, 47.5114292706869], [9.062739067524582, 47.51148576644508], [9.062701586118408, 47.51169131463851], [9.062610166300686, 47.51174333313992], [9.062394076496934, 47.511949848151474], [9.062331831960725, 47.51197248179229], [9.062231650038578, 47.5119463501738], [9.062154418650014, 47.51204603562572], [9.062008359186388, 47.51216714245534], [9.061865783590617, 47.51224932901511], [9.061794597330053, 47.51236134370254], [9.061722237440694, 47.5124205965635], [9.061646845113836, 47.51262924846691], [9.061573031241611, 47.51271438448404], [9.061618500461886, 47.51276066886904], [9.061591865114577, 47.51282153870281], [9.061611745357002, 47.512921643769424], [9.061468880575168, 47.513033565335455], [9.06150536966248, 47.51308796392411], [9.06150827282492, 47.51317955401853], [9.061560405911033, 47.51325185971796], [9.061551474639943, 47.51331897627049], [9.06159025097378, 47.51338304030443], [9.061638506051445, 47.51352096131999], [9.061627563069608, 47.513594376163105], [9.061674216446347, 47.513641147695225], [9.061695124646905, 47.51370188966579], [9.061638902361766, 47.51383353003371], [9.06151365215259, 47.51391490718777], [9.06130637006387, 47.51397152611665], [9.061220948946039, 47.51403840136696], [9.060679148489257, 47.51427770570167], [9.06048942415683, 47.514299290436995], [9.060222455965445, 47.51446606885154], [9.06011138135203, 47.5144951604431], [9.05997244946836, 47.514457686611586], [9.059882420497393, 47.514406276178015], [9.05925385130669, 47.51439874868623], [9.058929295868825, 47.514276522918045], [9.058427831331791, 47.51428523968402], [9.058122171214658, 47.514253136548255], [9.057921491950415, 47.5141553347897], [9.057838233593406, 47.51416391168759], [9.057604339072627, 47.51423540624354], [9.057568155296329, 47.51430468468742], [9.057156090046782, 47.514352105445816], [9.056584421325647, 47.51423297694011], [9.05598365970496, 47.51423635966812], [9.055654178533008, 47.51425306104031], [9.054582417232742, 47.51411685073684], [9.054599160128012, 47.51397142539275], [9.054593555538046, 47.51385042122662], [9.05462331275079, 47.51373473470373], [9.054690730024507, 47.513627032389905], [9.054701680271243, 47.51356620330608], [9.054736357315344, 47.51352979044269], [9.054781039548546, 47.51338924736153], [9.054828037956119, 47.51333317755952], [9.054938989629953, 47.5133030853775], [9.055012400843454, 47.51323052662525], [9.054997141186673, 47.51311341729076], [9.055062488138534, 47.51302411366416], [9.055086152986886, 47.51287886207938], [9.055166003317416, 47.512840792947], [9.055192949558664, 47.51271872336217], [9.055192423347357, 47.51261282345608], [9.05488117555163, 47.51246076041687], [9.054789118709053, 47.512344102510994], [9.054693584809433, 47.512288619060556], [9.054613656281088, 47.512302256896305], [9.054506688337902, 47.512251943414704], [9.054450317452881, 47.51219843181501], [9.054227472021903, 47.512131833737655], [9.054170624678246, 47.51213339167046], [9.053987637882555, 47.512038350189094], [9.053785764250414, 47.51186182752831], [9.053701268668354, 47.511800755779156], [9.0536222348504, 47.51173019897744], [9.052696076356321, 47.51271919799044], [9.052668619482192, 47.51275553675003], [9.051955988368812, 47.51250759740204], [9.05176580138025, 47.51247183569272], [9.05048451344041, 47.51233039390105], [9.047431563467336, 47.511683927226485], [9.046156939500834, 47.51143474635943], [9.044090039834716, 47.510917016432956], [9.043677573209596, 47.51077301978444], [9.04366101789127, 47.5107106390367], [9.041397870595627, 47.51096647058034], [9.043366422918165, 47.50863555167517], [9.043392451939088, 47.50859355860625], [9.04348841140724, 47.50736803345219], [9.043674253474174, 47.506517354594685], [9.04369076146076, 47.50647797621293], [9.043476441005527, 47.50643435851518], [9.043269948041265, 47.50638175313286], [9.04366024348087, 47.50558700949483], [9.043791732002086, 47.50534751059212], [9.044072358507718, 47.504903980838705], [9.04361064006903, 47.50447671469674], [9.043082220809051, 47.504160723707024], [9.042168948264292, 47.50418705104157], [9.042712364688699, 47.50310589098672], [9.04292540448419, 47.50286473200132], [9.043035871906355, 47.50264625972957], [9.04303139414719, 47.50238181034115], [9.04293916814048, 47.50232320374462], [9.043207629583529, 47.502300708435776], [9.043525336297337, 47.50222703649394], [9.043833634662283, 47.502091531441664], [9.04390593642025, 47.50190094314026], [9.04399217072665, 47.50194795559901], [9.044062655215885, 47.50194994677028], [9.045091692398122, 47.500920069062154], [9.04540506280405, 47.500678681742954], [9.046059625418804, 47.50021807057436], [9.046321798039024, 47.500095991488365], [9.046718971412314, 47.49987297467325], [9.04638948789709, 47.499615945075035], [9.046544994319218, 47.49950040170481], [9.046714345065546, 47.49943355777604], [9.046742584606731, 47.499362629649184], [9.046792679923882, 47.49932613052163], [9.046921674244883, 47.4992890569306], [9.047069632272512, 47.49917414946907], [9.047427865281593, 47.498927562142896], [9.047456578135629, 47.49888634923905], [9.047449658427915, 47.498805519490254], [9.047198270629247, 47.498501538129815], [9.047200534692884, 47.4984881839741], [9.045981386991109, 47.49867857704662], [9.045749177210146, 47.49861525061388], [9.045342130779826, 47.498527238043856], [9.045298607785762, 47.49840524783741], [9.04519570718433, 47.49839297574327], [9.045075940997355, 47.49820167904518], [9.044830272954377, 47.49805833181871], [9.044164871769178, 47.49778457628501], [9.04379085065597, 47.49762193963485], [9.043496954843263, 47.497522231494635], [9.043241750652497, 47.497465525510755], [9.042974087852341, 47.4974164670349], [9.0427183384007, 47.49733285228763], [9.04271773143226, 47.49606677520593], [9.04246275126092, 47.49601459818955], [9.042096538577473, 47.495789902304665], [9.040946092186086, 47.49670941957836], [9.04003007970331, 47.49924231275373], [9.040016343742591, 47.499290441232375], [9.040510467306282, 47.499367012431385], [9.040972549240305, 47.499480179093545], [9.041342833546555, 47.499588282006094], [9.04120986101846, 47.499591292584086], [9.041108595818532, 47.49965005141823], [9.040785899064016, 47.500153683126214], [9.040746280174316, 47.500215537577056], [9.040673832374088, 47.500327143109494], [9.040499766737307, 47.500487211617305], [9.040241016189416, 47.5005814960113], [9.039954271777468, 47.50062874160728], [9.039946182841541, 47.50067662959334], [9.039678726618371, 47.50067585826477], [9.039543734493419, 47.500675377339185], [9.03954817386524, 47.50063985492385], [9.039177877251797, 47.50062272910888], [9.038469898517011, 47.50043974679369], [9.038221151170564, 47.50040468269186], [9.037887506075513, 47.500385283136126], [9.037872189766674, 47.50042994248336], [9.037466874413042, 47.50040655732601], [9.037474434974058, 47.50035030166326], [9.037243711706958, 47.50036410315966], [9.036533460034969, 47.50051145445132], [9.036503642681534, 47.50046588881083], [9.03632043800302, 47.50029101086165], [9.036031115805988, 47.50039478404957], [9.035406455632833, 47.500683547452844], [9.035245491120575, 47.50034952719847], [9.035004921704907, 47.500471768456926], [9.034551488564855, 47.50078051098016], [9.034291449601138, 47.50087692272729], [9.03417056555099, 47.5009528578453], [9.03400638106568, 47.5010965427855], [9.033971782309347, 47.501075600837595], [9.033486227012222, 47.50130739988264], [9.033081466108186, 47.5014991858603], [9.032886807701757, 47.50159456619107], [9.03278283897947, 47.50164551859507], [9.032716566006743, 47.50159269964], [9.032516144497222, 47.501599462524794], [9.03247394496101, 47.50163314829617], [9.032404872125483, 47.501687938838145], [9.032370317808306, 47.50171540184871], [9.031758429485677, 47.502201897746325], [9.031737862351285, 47.50224915651926], [9.030909407828304, 47.502048562112826], [9.030054937532011, 47.50179421020372], [9.030028730722902, 47.50184867987999], [9.029647684342178, 47.50177014968711], [9.029674819145576, 47.50171518162413], [9.029156185257275, 47.50166965766579], [9.028559216432672, 47.50152602969707], [9.028084563918929, 47.501395228942286], [9.027919441266473, 47.50139179298455], [9.027792418754023, 47.50146122074749], [9.027557322547947, 47.501714879627855], [9.027458588491807, 47.50186250501145], [9.027327222786873, 47.50210559084555], [9.027113518962793, 47.50216727448823], [9.026628671844636, 47.50230720660617], [9.02643999977677, 47.50234033484485], [9.026161451664079, 47.5022937967124], [9.025878662207056, 47.50220345298646], [9.025523538250011, 47.50253823834657], [9.025291581586156, 47.502667248731846], [9.024335629827794, 47.50319894624932], [9.024223514677884, 47.503261967702706], [9.024153616327332, 47.503214222352824], [9.024085541017586, 47.503165282549226], [9.024019355906875, 47.503115174367885], [9.02395507504166, 47.50306392457556], [9.02330926966913, 47.502543729885815], [9.023186335001721, 47.50244241199578], [9.023066535916952, 47.502339386825824], [9.022949953109473, 47.502234689276904], [9.022836601196174, 47.502128364154636], [9.02277971995102, 47.50207320731469], [9.022723702551115, 47.50201763380994], [9.022668575826167, 47.501961652297815], [9.022630934621766, 47.50227996702591], [9.022572828457177, 47.50227636328832], [9.021578364748098, 47.501965626418574], [9.021322811595576, 47.5018618739824], [9.021029534099041, 47.5016431408338], [9.02098701718767, 47.50160934038208], [9.020940713059481, 47.50168512300899], [9.020855587984776, 47.50223795597109], [9.02069262814354, 47.50216407961661], [9.020666972047444, 47.5024273925529], [9.02044683944792, 47.50242010064609], [9.020258594841984, 47.50233788842122], [9.020221498968265, 47.5023631424214], [9.018927262596055, 47.50145731161725], [9.018008535418836, 47.50202918453233], [9.016955603036594, 47.501232079906224], [9.016816198554732, 47.50131102859786], [9.015812899613845, 47.50188054609651], [9.015568118845703, 47.502002129361806], [9.015310410853365, 47.50211265247286], [9.014664246658064, 47.5023471800708], [9.013986093276623, 47.50260354830079], [9.013961600456856, 47.502669837887666], [9.013809007308422, 47.50256875196359], [9.013410830288562, 47.50227783396038], [9.012038165657586, 47.501208706332925], [9.011855957405256, 47.50106656821736], [9.011491497110953, 47.500782957354446], [9.011411362765001, 47.500830230020725], [9.011336173504532, 47.50083511962183], [9.010414419202265, 47.501530078523366], [9.00936887168031, 47.50231291364404], [9.009332928757361, 47.50239712406888], [9.010714308979992, 47.50331599311857], [9.010677169681234, 47.50334129855387], [9.010428068245979, 47.503519404146935], [9.010290267640832, 47.503673769730746], [9.010205840383202, 47.50381669666557], [9.00999899227828, 47.5043850978471], [9.009898471137014, 47.504665831623605], [9.009291886905354, 47.504530366194714], [9.008988461413987, 47.50454570015574], [9.00891481051221, 47.504490053409675], [9.00868912618823, 47.504548059802666], [9.008433314318776, 47.504759176187655], [9.008415748091052, 47.50477347461769], [9.008471825642198, 47.50480003403958], [9.010348362654767, 47.50541851797999], [9.010498038668356, 47.50538769061793], [9.010442801037508, 47.505522026232335]]]]}}]}