{"type": "FeatureCollection", "features": [{"type": "Feature", "properties": {"bfs_nummer": 4821}, "geometry": {"type": "MultiPolygon", "coordinates": [[[[8.8993344474134, 47.627896380532285], [8.900553437561625, 47.62844617814208], [8.902666189364586, 47.62931155166188], [8.903260090979485, 47.62865317736524], [8.903758137869692, 47.62885944275173], [8.904479191522498, 47.62761388053509], [8.906933320974222, 47.62740942099894], [8.908358094714353, 47.62856983579929], [8.908594403691653, 47.62845805653161], [8.90876614289651, 47.62832203471054], [8.909082794932925, 47.628018847840885], [8.90926241609775, 47.62787445008227], [8.90963568922056, 47.627616688379455], [8.909875611897265, 47.62747809155805], [8.910203108503516, 47.6272736193167], [8.910495125436709, 47.627056553465515], [8.910910903718465, 47.6267059682777], [8.911164287526306, 47.626448643051496], [8.911379282101711, 47.62619900029738], [8.911444473574234, 47.62609814793535], [8.91165390524454, 47.625825557272755], [8.911770083699832, 47.625720900196285], [8.912009063184813, 47.62546744385748], [8.912221750013508, 47.625144608959204], [8.912469521082723, 47.62474424002378], [8.913158113839765, 47.624143183969494], [8.914108335501416, 47.62334844305342], [8.914359809105015, 47.62314888238503], [8.912742145753548, 47.62252073152828], [8.912508674526553, 47.62255527019729], [8.912311176157228, 47.622610759870135], [8.911302463656346, 47.621962181774286], [8.910711403159043, 47.62195738626387], [8.910540071700476, 47.62197246794697], [8.91038721781156, 47.62201910345554], [8.910073856988802, 47.62216840237433], [8.909926758599873, 47.62222734159475], [8.90975538814039, 47.622249690562484], [8.909125789326799, 47.622255270270536], [8.908933796985513, 47.622291569815346], [8.908772672785318, 47.62236967376804], [8.908008048059216, 47.62280524887002], [8.907827774248265, 47.62287707261433], [8.907585769270737, 47.62298315701518], [8.907597969215242, 47.62302156423459], [8.907443417108134, 47.622903311072996], [8.907232649852405, 47.62273115113211], [8.907134018017887, 47.62255951434954], [8.90702580410569, 47.622336817056805], [8.906901852976326, 47.62195942387939], [8.906840602781955, 47.62183318878519], [8.906758235006146, 47.621713076651226], [8.906404549444838, 47.62126995823615], [8.90583692454331, 47.620695626285794], [8.904953320290522, 47.61991860485214], [8.904816686176195, 47.61982859100612], [8.9044744185878, 47.61966471732554], [8.90401429984769, 47.61935232038958], [8.903849460109335, 47.619268418316636], [8.903634657748386, 47.61919583296582], [8.903033363585102, 47.61903895767818], [8.90286088214913, 47.618948989070624], [8.902549072205023, 47.6187068006718], [8.9023999604754, 47.61865851645387], [8.902252611804249, 47.61863939882786], [8.901995623155946, 47.618668861053784], [8.90172760028445, 47.61872031998634], [8.901624873719097, 47.61871763065472], [8.90153814121476, 47.61868272619022], [8.90147693742192, 47.61862606452171], [8.901141090947414, 47.61814726434157], [8.90104753555316, 47.618032776097444], [8.900921718930833, 47.61790379863735], [8.900786203348252, 47.61779600970359], [8.900597625379083, 47.61769950347719], [8.90035978152196, 47.617612522830946], [8.899916700193252, 47.617471772983045], [8.899234329498366, 47.61720969549734], [8.899081925441733, 47.617157526813706], [8.89891400370174, 47.61714137164109], [8.898737701516792, 47.617151335385415], [8.897610524224385, 47.61726242878374], [8.897281177454472, 47.61727719333092], [8.897027910382976, 47.617256540561115], [8.89679786521928, 47.617192598952926], [8.896554924252342, 47.61708829608621], [8.896290564993258, 47.61692103554494], [8.89577392069022, 47.61651690102487], [8.895296188338504, 47.61623262038335], [8.895102855698287, 47.61614164290732], [8.894876946035833, 47.616077375653134], [8.893953498244795, 47.615893770482145], [8.893583169270354, 47.615803670577556], [8.893406491357103, 47.615728987498905], [8.893250119739665, 47.61563267707952], [8.892891714253478, 47.615376690940614], [8.89229131921851, 47.61492170684663], [8.892168649751888, 47.614813323948205], [8.892067558067708, 47.6146957205478], [8.891989974298346, 47.61456991594576], [8.891536046028248, 47.61362642340637], [8.891448737896855, 47.613567042876], [8.891135575627889, 47.613400156380756], [8.891092428837364, 47.61337221812844], [8.891019979722607, 47.613316698950946], [8.890775907716193, 47.613096172350794], [8.890694786757017, 47.613030956884884], [8.890624671740516, 47.61298194768711], [8.890244513429487, 47.61274367572202], [8.890154252667346, 47.61269392887924], [8.890069910104703, 47.61265336385769], [8.889788285275065, 47.61253806178341], [8.88968635921739, 47.61247956429264], [8.889617192896964, 47.6124228697817], [8.889482890788958, 47.61228271488752], [8.889379891852201, 47.61213292152], [8.890092287082807, 47.61117033502008], [8.890310489570293, 47.610905362223974], [8.890410865008926, 47.61080668943666], [8.890531336696185, 47.61070452681979], [8.890697226223855, 47.610585577461265], [8.890889528157965, 47.61046890581807], [8.891299048431144, 47.610252744795], [8.891493646167735, 47.61013937140515], [8.891514627259825, 47.610156523290634], [8.891575150996164, 47.61012111616374], [8.891553782342681, 47.610103897217996], [8.891769073751897, 47.609952071025766], [8.8919650921938, 47.60978867530364], [8.892138953613122, 47.60961476283338], [8.89237766257663, 47.609402653738385], [8.892848643236887, 47.60905484678148], [8.892780093432629, 47.60901234980682], [8.893065327895629, 47.6087862712177], [8.89332802664476, 47.60854560563898], [8.893477914155886, 47.60842177045206], [8.89361293151694, 47.60831738006804], [8.893760092844326, 47.60821882788657], [8.89392445968912, 47.60813122252647], [8.894122199099458, 47.60804218176521], [8.894107516095993, 47.608026723476236], [8.894173857194891, 47.60799794323551], [8.894188834718316, 47.60801298409068], [8.894958170092835, 47.60767909036213], [8.895205087900196, 47.6075806509314], [8.895462545622857, 47.6074974601854], [8.8957320205887, 47.60743003018539], [8.896010407056782, 47.607381017462735], [8.896294622718141, 47.60735005592204], [8.89660756131429, 47.607337721261786], [8.896608349876924, 47.60731995497377], [8.896688174651235, 47.60732161413054], [8.896687039433557, 47.60733983448801], [8.896868796062305, 47.607344637611185], [8.897436454863149, 47.60738141325094], [8.897638552583116, 47.60738731755894], [8.897835583739747, 47.60737778669826], [8.898024824525125, 47.607344228680056], [8.898106429481581, 47.607082846300294], [8.897376098861079, 47.60706620076684], [8.89683692609492, 47.60708769650304], [8.896656113177553, 47.60695800182366], [8.895567055333128, 47.606933942582906], [8.894292458606373, 47.60703037803351], [8.89388219237032, 47.60698866153497], [8.892890179267246, 47.60719558518987], [8.890407428105103, 47.60692637201301], [8.889713932307771, 47.60691364068029], [8.889465896940738, 47.607038096018584], [8.889171939745244, 47.60734960243521], [8.888635237545243, 47.60705641398741], [8.887906924454478, 47.60726683513651], [8.887571614783605, 47.606520616160985], [8.887090702877757, 47.60617290002413], [8.88673644870704, 47.60583409744007], [8.886327519109448, 47.605643882477985], [8.886264718373111, 47.60537744853553], [8.885227621218506, 47.60531618653672], [8.88489201470413, 47.604845069613454], [8.884613522898807, 47.60355757178944], [8.884605514384354, 47.60349455309225], [8.885682943668565, 47.59928012623139], [8.885729474052386, 47.599177640097146], [8.8861293771681, 47.59828763368702], [8.886084018288008, 47.598186825155054], [8.885828386112669, 47.59824025286142], [8.885774858485732, 47.598191465992144], [8.885655419582118, 47.59705993610093], [8.885189778871695, 47.597082899060034], [8.884576692860003, 47.59713639275598], [8.88370300495735, 47.5972194682848], [8.882858269216515, 47.59732420517955], [8.882598249125422, 47.59664554410882], [8.882552131343981, 47.59669541137174], [8.879979899037389, 47.596979658571385], [8.87976864193548, 47.596995821393264], [8.878918294833047, 47.597033108706135], [8.87882034841481, 47.59704667521998], [8.878732387955507, 47.597079313145], [8.878663687746474, 47.59712828081875], [8.87837717744714, 47.59739549277181], [8.878271041734825, 47.59742339086883], [8.878202705581332, 47.59741178998272], [8.878018708330364, 47.59740148079574], [8.877834414498158, 47.597418475128876], [8.871947138595997, 47.59825038089999], [8.87116053291879, 47.59837576708217], [8.870954075719533, 47.59840548213525], [8.870292699567335, 47.59848899069853], [8.870159239052981, 47.598512343100616], [8.869873331115839, 47.59858138254454], [8.869753144147078, 47.59862501652373], [8.869659290725197, 47.59868994051457], [8.86956526691705, 47.59877765095859], [8.869484631951421, 47.59884010896784], [8.86937233275904, 47.59887594542987], [8.868457093112063, 47.5990987964705], [8.868390557039868, 47.59907601378764], [8.868256080943796, 47.59894723453372], [8.868164197909088, 47.59876452637075], [8.868088325378107, 47.598782174407496], [8.86807105148478, 47.59884244712674], [8.867999443560086, 47.598877717670696], [8.865506275431814, 47.5990978458589], [8.86524560513487, 47.59911068642626], [8.863151118184977, 47.599139706128945], [8.863074585242156, 47.599096174696186], [8.86304760658463, 47.59889128324796], [8.860574453402602, 47.59900388470777], [8.860497402340346, 47.59901785419873], [8.860453774382975, 47.59907611918157], [8.85935816018819, 47.59927798295236], [8.859223404004737, 47.599313778803825], [8.858939428078164, 47.5994178932791], [8.858295960235598, 47.59969217741714], [8.85786427270042, 47.59989089015245], [8.856717241492554, 47.60036924553564], [8.856283005202991, 47.60054416456365], [8.856344627641718, 47.600611143795774], [8.855845323527044, 47.60228966845977], [8.85619615942088, 47.602306834103494], [8.856200790638237, 47.603289095185836], [8.855533581936719, 47.60325487220285], [8.853807927143837, 47.60310117521779], [8.853817053199444, 47.60305589094108], [8.852618738148967, 47.60295983095414], [8.852548200748222, 47.603302374557984], [8.851901188694859, 47.60321091020492], [8.851710997514445, 47.60317480083687], [8.851528429177788, 47.60312177767724], [8.85130690112275, 47.60304508616263], [8.851080690376456, 47.60297831872889], [8.850824948923036, 47.602927318848145], [8.850561799424352, 47.602895783921916], [8.850314745337078, 47.602886341879596], [8.84978562381503, 47.60289063048335], [8.849573625581906, 47.60287860145462], [8.849399135480017, 47.60283466928157], [8.849372193994329, 47.60288432560794], [8.849335061365045, 47.602911843178255], [8.849354245360411, 47.60329620921255], [8.848719276699969, 47.603713706785065], [8.848529357530692, 47.60381844158364], [8.848310334069838, 47.603894026059784], [8.848073476278708, 47.60393712990804], [8.84731485090633, 47.604047529775684], [8.846761727376986, 47.60415667107824], [8.84627268395289, 47.60426943038288], [8.846025091760444, 47.6043542347276], [8.845892363827023, 47.60435399197746], [8.845811843597874, 47.604618198195766], [8.84579776892347, 47.60477152662206], [8.845985598157982, 47.60629994227257], [8.846020070013124, 47.60643519535517], [8.846072780316394, 47.60656605346587], [8.846141158339297, 47.60669337530697], [8.846224263593902, 47.60681830562028], [8.846378072977162, 47.60700578348242], [8.845108521998283, 47.60675106433021], [8.843003706234397, 47.606782242042534], [8.842502995569253, 47.60684982866481], [8.841960202255905, 47.60686016555591], [8.841415157871417, 47.607001673852764], [8.841206615618704, 47.60790270357864], [8.840385318180614, 47.60861936596204], [8.84046602243634, 47.61007280485823], [8.839570159963547, 47.61140273811507], [8.838158659661554, 47.61189514043424], [8.837240439739558, 47.61199500336892], [8.836954150775092, 47.61196204289513], [8.836114610864003, 47.61044418726455], [8.836021150707912, 47.610288531070275], [8.835936571688077, 47.61016955717472], [8.835844820639352, 47.610095419502244], [8.835708334893129, 47.610011098528865], [8.835513614366878, 47.60990247265172], [8.833117290738475, 47.60869085462201], [8.832890315350243, 47.608588423032685], [8.83265357020929, 47.60850190336669], [8.832404009454972, 47.608428264955], [8.83215119229365, 47.60836633170108], [8.831891779463751, 47.60831861722719], [8.831625663910403, 47.60828460095662], [8.831359292419922, 47.60826210071541], [8.831090968606691, 47.608253889366736], [8.830820471827444, 47.60826018536794], [8.830553133448952, 47.60828192313368], [8.830288910763482, 47.60831494754897], [8.830028319906194, 47.60836271549705], [8.829775017297466, 47.6084216302112], [8.829523568300303, 47.608487340386176], [8.82928281054481, 47.60857326822903], [8.829058754181785, 47.6086722447019], [8.828720232661574, 47.60883740120465], [8.828612937554954, 47.608883796506], [8.828496421593261, 47.60892449152813], [8.828038889908289, 47.60906878249713], [8.82788319770709, 47.60912407721736], [8.827731376630958, 47.60918600852059], [8.827584377441026, 47.60925228035425], [8.827446282609346, 47.60932437318579], [8.827340520238623, 47.60938874786175], [8.827173758946333, 47.60919654297115], [8.826413429493323, 47.609318896624764], [8.826086161822063, 47.609056839966605], [8.826062344965484, 47.60888819993272], [8.826134725219632, 47.60857831301571], [8.826021178038266, 47.60836230842635], [8.8259720222686, 47.608037990066435], [8.826097235300704, 47.607817195762074], [8.826361344494055, 47.60756118868913], [8.82683984693501, 47.607180688854314], [8.827287404404302, 47.60701407949619], [8.827206151492526, 47.60667766209685], [8.827122793570998, 47.606572852390194], [8.826670985886844, 47.60674516081017], [8.825578136812611, 47.60541642570817], [8.825606397781199, 47.605357836545906], [8.825281500703811, 47.60548053524624], [8.824698061222195, 47.60566040908134], [8.824490679869303, 47.60571631694211], [8.824275425237056, 47.605759527749434], [8.824053758685734, 47.60578793710177], [8.823833599556545, 47.60579869791982], [8.823692878474066, 47.60580162863441], [8.823690508672515, 47.605747534410675], [8.823392719726687, 47.60443607521335], [8.823083420947691, 47.604469954564564], [8.822587918953147, 47.60453993899848], [8.821882342068093, 47.60467013855914], [8.821764784182786, 47.60471151407021], [8.821764942706757, 47.60480126370194], [8.821654155318585, 47.604563598108605], [8.82105335688409, 47.603654653013876], [8.820993118338041, 47.603540163850255], [8.820875288033806, 47.603248369160035], [8.82076208145365, 47.603055400519224], [8.820457954979664, 47.60266819401835], [8.820366079394685, 47.602525108786054], [8.820311563229845, 47.60237336606833], [8.820214641037014, 47.60197820372495], [8.820196402035428, 47.60192180681571], [8.819986806558775, 47.6016864139065], [8.81982410131136, 47.601597466543026], [8.818908341925052, 47.601765310870945], [8.8187958651413, 47.60177946692354], [8.81870150172634, 47.60175424329736], [8.818679080450607, 47.6016873177259], [8.818569170567288, 47.60180016267274], [8.818322833967837, 47.60200399517764], [8.81811725466337, 47.602157555490095], [8.818063377204233, 47.602124762001985], [8.817975872604295, 47.60213060591458], [8.817157287792485, 47.601659007771225], [8.81319761266385, 47.60113141511659], [8.813148376008872, 47.60106198218535], [8.81300325332659, 47.60095200311075], [8.812945186712145, 47.600873850665295], [8.812894501264905, 47.6006575744393], [8.812878510594853, 47.600361092969706], [8.812870871341724, 47.60000605447539], [8.812905454545277, 47.599737235645144], [8.813274476545839, 47.59810152985851], [8.810291940022541, 47.59858255094605], [8.80989442310527, 47.60033689240362], [8.809929190588822, 47.60038079030513], [8.809988741742641, 47.60038741710471], [8.809992430031059, 47.60043235714442], [8.809585195993849, 47.600421826013815], [8.809488259822402, 47.600397633071715], [8.809385721565645, 47.60038566738281], [8.808966543771355, 47.600382273339875], [8.808196626372844, 47.60033019297839], [8.807990183391215, 47.60032026261863], [8.807782347115493, 47.60031714851691], [8.807575384457529, 47.600320059328304], [8.807368884931513, 47.60032855018969], [8.807163638854576, 47.60034284558948], [8.806961474670219, 47.60036371551181], [8.806771479239215, 47.60038821039604], [8.806089549022499, 47.60050636882091], [8.806153056449023, 47.6011086251121], [8.80646976168576, 47.601101391546145], [8.806472026668226, 47.60113301805188], [8.806188903603678, 47.6024096859319], [8.806082434929934, 47.60302660721709], [8.80604364046943, 47.60301527229361], [8.806039354209329, 47.603042991207424], [8.80587518697457, 47.60299253129113], [8.805458986900137, 47.60301821604903], [8.805309239168025, 47.60344646569775], [8.804664397944407, 47.60447843657394], [8.804567926591258, 47.60446681772882], [8.804630884694827, 47.604507992523374], [8.804713144941859, 47.60452451879219], [8.805139493260535, 47.60454276604286], [8.805279976416294, 47.60456221279219], [8.805410122793527, 47.60460323407206], [8.805873204225215, 47.604788090223536], [8.805988477875982, 47.60483720170797], [8.806097786064552, 47.604891708394575], [8.80606471232782, 47.60491971266967], [8.805272659760183, 47.60683914470407], [8.805396593172935, 47.60699708304694], [8.8053331231927, 47.60735079032419], [8.805233428673176, 47.607543690793904], [8.80517198192839, 47.607631575353324], [8.804344144929994, 47.607988820844945], [8.80405301265776, 47.60808691832364], [8.80406096622403, 47.60812463024832], [8.804022623184366, 47.608127348241254], [8.803805984241794, 47.608326615170256], [8.80331684557521, 47.60849276607602], [8.80413840380055, 47.60943632057288], [8.803816091430798, 47.60957805945464], [8.804047917472777, 47.609884988819225], [8.804074226309888, 47.609938693308116], [8.80412974205379, 47.610171079449685], [8.804142178435203, 47.61038963531665], [8.8041810577672, 47.61065158575797], [8.804104921950138, 47.61069145683745], [8.803999040367056, 47.61070276847001], [8.804021382319064, 47.61073153194726], [8.804115700943896, 47.6112833288243], [8.804118452813112, 47.611365950431036], [8.80409070157117, 47.61155338869214], [8.804088514445835, 47.61163120222655], [8.804114880477153, 47.611708274907045], [8.80431475960275, 47.61212237687926], [8.804470245087577, 47.61236568442019], [8.804508944285963, 47.61243609056002], [8.804531615960837, 47.612510679110684], [8.804689607234865, 47.61324486893009], [8.80471465603919, 47.6133213540977], [8.804764628755567, 47.61339146525489], [8.805050897853748, 47.61373096955106], [8.806752865059716, 47.614195365906696], [8.808373249848056, 47.61404461350014], [8.808431222245371, 47.614081725578906], [8.808532697652224, 47.61408603221045], [8.808502444707615, 47.61423888882698], [8.80849368413089, 47.61439158157778], [8.808502131015095, 47.61454404416511], [8.808528447868124, 47.614696169807736], [8.808634071553652, 47.615151017343095], [8.808690393992796, 47.615108229200516], [8.810456181334919, 47.61514508948249], [8.810621337137778, 47.615187921400604], [8.810596360609543, 47.61573641028594], [8.810759785184386, 47.61573074438844], [8.811345048745148, 47.61637970125839], [8.811721261393695, 47.616467743934386], [8.813173807086756, 47.616529501136306], [8.813796960837594, 47.616820450200166], [8.814005181827072, 47.617213990958525], [8.813406223709148, 47.61714282560581], [8.812734887945616, 47.61725563194026], [8.812446700088172, 47.61736398793906], [8.81218813453073, 47.61761967051557], [8.812380259820678, 47.6178523066614], [8.812339824639846, 47.61786696130789], [8.812861792799422, 47.61819597537348], [8.811556395606692, 47.61897270980029], [8.812142182449074, 47.61945516982844], [8.812979719849542, 47.619540894670955], [8.812864606659861, 47.620633193277506], [8.813138529193077, 47.62059438303977], [8.813626150508293, 47.62065908112394], [8.813793958050798, 47.62074130277057], [8.814061349225682, 47.620943657233234], [8.814305073137321, 47.62108135704717], [8.814290318960774, 47.62111162873539], [8.814324868829521, 47.62166142702047], [8.813093435922076, 47.621588033185716], [8.813049725874404, 47.621573961261234], [8.813018250639233, 47.62155250350512], [8.812972567052874, 47.62155160541385], [8.812956511562456, 47.62205330559511], [8.813235172291904, 47.622162125829966], [8.813759781040002, 47.62235254694038], [8.811712087531934, 47.622645376248464], [8.812313585015595, 47.62440101756381], [8.812374737101907, 47.6244247327355], [8.813321711498057, 47.624115356745165], [8.813343536687247, 47.62414327013413], [8.813319232731535, 47.624192706029675], [8.813549173988545, 47.62452342103833], [8.813506561242459, 47.62453688764069], [8.813325215772466, 47.62469506113824], [8.813534108195222, 47.625569249944554], [8.813534785881346, 47.62560514041453], [8.812962781435136, 47.625597074681984], [8.813119218516576, 47.627369484104804], [8.813149148483308, 47.627438479929246], [8.81389707076859, 47.62723498822048], [8.813904728742745, 47.62724758018076], [8.81397922822265, 47.62722811389378], [8.81397106710579, 47.627215617851824], [8.814066401851118, 47.62718994099814], [8.814527014201731, 47.627933800386025], [8.81544365098468, 47.62781775159379], [8.815821880502995, 47.628713582163954], [8.816647634123221, 47.628557568349116], [8.817604935235632, 47.62824889890892], [8.81784745928892, 47.629730252548455], [8.817864259129864, 47.629765825592024], [8.81790494819857, 47.629792353742516], [8.817961253594515, 47.62981150948052], [8.817818118514127, 47.62983919676324], [8.817828360436794, 47.6298656458897], [8.818192935725962, 47.629799931681234], [8.820239979484738, 47.62929654880978], [8.820793123181064, 47.63043921667613], [8.820579740448904, 47.630460179496005], [8.820392797469696, 47.63049083836632], [8.82020214766843, 47.630531939110924], [8.820216886687453, 47.630565467417284], [8.820916487780039, 47.63158213627519], [8.820929553628451, 47.631613219752325], [8.821397598392618, 47.63151997118488], [8.822328729034338, 47.632629040456116], [8.822609356068744, 47.63287196544714], [8.822693662101033, 47.63293894340835], [8.822955753802288, 47.633111478503864], [8.823224358955839, 47.6330115527312], [8.823244235011298, 47.63303531398021], [8.823715757593401, 47.63325415541365], [8.823784135013554, 47.633213582167116], [8.82429464180268, 47.63359141706438], [8.824687332196163, 47.63388992549757], [8.823755132061406, 47.634417089087485], [8.824405768329397, 47.63503993413924], [8.824434245953418, 47.63502971776874], [8.82467620535454, 47.63531879347835], [8.824776020304363, 47.635539972126416], [8.825384131817334, 47.637311095934486], [8.825336041794543, 47.637411063449484], [8.825530349925119, 47.63743167866138], [8.825733356637485, 47.63742869504842], [8.825930134032474, 47.63740125666324], [8.828423005155027, 47.63686963876017], [8.831789663644372, 47.63618253275254], [8.8347603039249, 47.635554132906364], [8.834828509266881, 47.6355067191653], [8.834813360675705, 47.63544186848818], [8.834889579277279, 47.63540515204002], [8.834983973079765, 47.635462303271154], [8.835108707359929, 47.635478972182796], [8.83641133318141, 47.63519424690222], [8.836646652940082, 47.635160362436814], [8.838517339216448, 47.634744460245315], [8.838977935811757, 47.6341253544369], [8.839587670560478, 47.63268978037987], [8.839872222258027, 47.632072084259114], [8.840114996121791, 47.63138939125482], [8.840393883476617, 47.63091531132424], [8.840667304226873, 47.63023918164289], [8.841004403229077, 47.62953142771041], [8.842107012211828, 47.62942245506531], [8.84293687291614, 47.62985297659161], [8.842927767769671, 47.62985987792104], [8.843591042262522, 47.6303967968369], [8.84495744705918, 47.630100961745256], [8.844963337309762, 47.63005162509725], [8.844928688648734, 47.6298595177503], [8.844596993017525, 47.62903726406406], [8.844516630327044, 47.6288729111494], [8.844468506919192, 47.62880585232596], [8.84453360099092, 47.628766709462276], [8.844352524431379, 47.62867764062578], [8.843915063995883, 47.62852774970955], [8.844092059180479, 47.62854973054884], [8.844216661426337, 47.62854484826469], [8.844349417901226, 47.628523811193716], [8.844534017412203, 47.628463719657375], [8.844546022126396, 47.628356921356854], [8.844643386813484, 47.62813977380313], [8.844862109410109, 47.627844662687245], [8.844981745595728, 47.62773286326401], [8.845756869413533, 47.62743902909147], [8.846485093224189, 47.62734860318567], [8.84698746648441, 47.627065463317585], [8.84723730495824, 47.6267667675404], [8.847329800170527, 47.626803108564054], [8.847432534763017, 47.62682970067475], [8.84744685519173, 47.62679126252637], [8.84838275741535, 47.626942632640294], [8.848602417267191, 47.6269749812934], [8.850836756528713, 47.62704830339841], [8.851027376463996, 47.62633700119107], [8.854512552160003, 47.62655770390869], [8.856931635349452, 47.62623849938798], [8.858241862284359, 47.626110211691845], [8.861021596082242, 47.625703492171496], [8.861138974367341, 47.625742089756564], [8.860805004512736, 47.62517387168147], [8.860710737521746, 47.624983371943046], [8.86063543280999, 47.6247969033364], [8.860612738186733, 47.6246591001438], [8.860646748510586, 47.62451626649762], [8.86092723929654, 47.62392158172078], [8.861004644500388, 47.623936338063054], [8.861076303693764, 47.623798862348785], [8.861210821893964, 47.623719676696204], [8.862106067448476, 47.623515719441876], [8.865059999960032, 47.62286174063154], [8.866030399330262, 47.62208326425], [8.867100963302223, 47.62154722052754], [8.86776718611547, 47.62108072281143], [8.868989541788965, 47.620461837110355], [8.869562847169083, 47.62017637358304], [8.871025836685154, 47.61993361791717], [8.872826995694576, 47.61962574040678], [8.873716784811913, 47.61950157131893], [8.874415629925766, 47.619436274780696], [8.875038413576986, 47.619334560036116], [8.87574984944057, 47.61925387995921], [8.877213725785953, 47.619035949576045], [8.878691726479799, 47.618789400228934], [8.88068418943123, 47.61842220329304], [8.881330807724122, 47.61818469256629], [8.882342561300064, 47.61774089277317], [8.882635514249065, 47.617575154322346], [8.882673000421603, 47.61748269540423], [8.88276449701579, 47.617410216748546], [8.882885667888454, 47.617341443478914], [8.882961282719918, 47.61723682549349], [8.88303628818671, 47.6170448644845], [8.88317987369429, 47.616999522813245], [8.883255729022093, 47.61709426737559], [8.883426698676109, 47.61719907135326], [8.884724862858196, 47.61695222409281], [8.885252439713945, 47.61739582146344], [8.885591688497225, 47.61777269189747], [8.886159365203044, 47.61818852973055], [8.886394012265777, 47.61847550237863], [8.886538218978643, 47.61853035372769], [8.886749736598093, 47.61859422346815], [8.887129958447783, 47.618697489954336], [8.887503621610826, 47.61884210611611], [8.887731910344085, 47.61890813924224], [8.88868844994942, 47.61909228084746], [8.889045520737698, 47.61918108743397], [8.890067334119127, 47.61952059191639], [8.890356190628589, 47.61959883312597], [8.891940773316335, 47.619883116730726], [8.892343812996517, 47.61989205442211], [8.892883960772584, 47.620075980338015], [8.89336271732975, 47.62014652712458], [8.894099749885042, 47.6205128269965], [8.894463265630181, 47.62083379693486], [8.89484712033516, 47.621371551890675], [8.895829364009868, 47.621694016182694], [8.896496608420165, 47.62188784356009], [8.89670156014972, 47.62198441159837], [8.897452798511434, 47.622237560650056], [8.89710060043704, 47.62325118246592], [8.897296249970728, 47.62326376267489], [8.897743408310014, 47.62326975275838], [8.897941523597257, 47.62328490039121], [8.898137164259596, 47.62331068394299], [8.898289085571708, 47.62336549545016], [8.898297000517976, 47.62349499625264], [8.898200142343459, 47.62356905630413], [8.898068904817087, 47.62361560114173], [8.897924379095674, 47.62359845722283], [8.897734964544812, 47.623542713121445], [8.897606349864146, 47.623523074983], [8.897478056264191, 47.62354847978085], [8.897294690820127, 47.62361976763211], [8.897153794659925, 47.62365911984917], [8.896742268114817, 47.623707989099415], [8.896385962084382, 47.62375703593666], [8.89638704458125, 47.62378141670343], [8.896886799408614, 47.62386326155291], [8.89687322622865, 47.62390238944982], [8.89667340892875, 47.62438878598203], [8.896629602893496, 47.62439876316579], [8.896642913457633, 47.62447881343549], [8.896235536953885, 47.625451057665565], [8.8961975465037, 47.625517747257156], [8.896129802305085, 47.62557321587825], [8.895824634135504, 47.62580303903344], [8.895754334048465, 47.625827497731464], [8.895675052446357, 47.625833062716794], [8.89559880076642, 47.625820086882065], [8.89739980792142, 47.626614298471324], [8.897551196986182, 47.626698774465545], [8.898072708209378, 47.62703004271929], [8.898212176222986, 47.627134780608436], [8.898327375021799, 47.627251616062445], [8.898484983651567, 47.62742849931547], [8.898656857951579, 47.62756625443563], [8.898859296182543, 47.627682225569174], [8.8993344474134, 47.627896380532285]]]]}}]}