{
  "type": "FeatureCollection",
  "features": [
    {
      "type": "Feature",
      "properties": {
        "source": "swisstopo swissBOUNDARIES3D",
        "source:date": "2026-01-01"
      },
      "geometry": {
        "type": "LineString",
        "coordinates": [
          [
            9.196277848269963,
            47.57334422952038
          ],
          [
            9.196235163344733,
            47.573329790692156
          ],
          [
            9.196240643031421,
            47.57323834522426
          ],
          [
            9.19621016666751,
            47.57317106824047
          ],
          [
            9.196093408113954,
            47.57310114139874
          ],
          [
            9.196065537051744,
            47.57306074960577
          ],
          [
            9.196085956128943,
            47.57302262121987
          ],
          [
            9.19608900200786,
            47.572992159891186
          ],
          [
            9.196011459593414,
            47.57294351635373
          ],
          [
            9.195936620447444,
            47.572905851758456
          ],
          [
            9.195881133017028,
            47.572935938716235
          ],
          [
            9.19585796074927,
            47.572980450917655
          ],
          [
            9.195824659308116,
            47.572977996151636
          ],
          [
            9.195562684433675,
            47.572790786755085
          ],
          [
            9.195555212175597,
            47.57276343553876
          ],
          [
            9.195620290760207,
            47.57272632147653
          ],
          [
            9.195590570927592,
            47.57266419651239
          ],
          [
            9.195514134995909,
            47.57266100116285
          ],
          [
            9.195457430076695,
            47.57262940348953
          ],
          [
            9.195382940790685,
            47.57261915274855
          ],
          [
            9.19533137859689,
            47.57257183319329
          ],
          [
            9.195375445883075,
            47.57252564600573
          ],
          [
            9.195365383034813,
            47.57248187154279
          ],
          [
            9.19539471917745,
            47.572436825207504
          ],
          [
            9.19538244575211,
            47.572321440887634
          ],
          [
            9.195350653289372,
            47.57228503957248
          ],
          [
            9.195354117999358,
            47.57221380248293
          ],
          [
            9.195328183144722,
            47.571946306588
          ],
          [
            9.195338511747533,
            47.57179889609334
          ],
          [
            9.195273608148234,
            47.57170349771094
          ],
          [
            9.195293048620112,
            47.57164061855477
          ],
          [
            9.195292812274326,
            47.571604557557016
          ],
          [
            9.195306338498906,
            47.57149833580873
          ],
          [
            9.195287397514928,
            47.571404795606824
          ],
          [
            9.195352187728972,
            47.571371464305365
          ],
          [
            9.195395514138037,
            47.5712719965599
          ],
          [
            9.195381121689127,
            47.57122953813923
          ],
          [
            9.195318075752237,
            47.57118181690178
          ],
          [
            9.195332587950801,
            47.57110298171694
          ],
          [
            9.195353510207882,
            47.57106600627434
          ],
          [
            9.195418894716127,
            47.5710614888008
          ],
          [
            9.195507873780368,
            47.571091499754374
          ],
          [
            9.195568909398796,
            47.571057199701585
          ],
          [
            9.195589909622374,
            47.57099969437129
          ],
          [
            9.195556781576089,
            47.57095344484149
          ],
          [
            9.195592122664632,
            47.57090270293517
          ],
          [
            9.195587601819517,
            47.57083439357648
          ],
          [
            9.19566636770704,
            47.57063618911141
          ],
          [
            9.195639035623737,
            47.570573479179444
          ],
          [
            9.195666571402358,
            47.57052347628458
          ],
          [
            9.19572642411246,
            47.57051811591095
          ],
          [
            9.19575360170388,
            47.57049825471872
          ],
          [
            9.19573898895418,
            47.570469221565716
          ],
          [
            9.195666199452079,
            47.570426703935084
          ],
          [
            9.195620827765442,
            47.570379209685356
          ],
          [
            9.195624170702306,
            47.570270173565184
          ],
          [
            9.195642647898724,
            47.57021797805531
          ],
          [
            9.19567588362056,
            47.57013497270186
          ],
          [
            9.195934243583347,
            47.570004186224864
          ],
          [
            9.19594760754735,
            47.56996699240274
          ],
          [
            9.19586283984387,
            47.56990995719984
          ],
          [
            9.195918480584497,
            47.56989624040442
          ],
          [
            9.19602570129984,
            47.56985616608002
          ],
          [
            9.196051935660615,
            47.56982629766296
          ],
          [
            9.19603347218355,
            47.56980421380057
          ],
          [
            9.195957604047653,
            47.56981443209237
          ],
          [
            9.195919226835878,
            47.569805955116
          ],
          [
            9.195802291718524,
            47.5697433083812
          ],
          [
            9.195764509966349,
            47.569762052950736
          ],
          [
            9.195711680233753,
            47.56975868880095
          ],
          [
            9.195706875832967,
            47.56972237317792
          ],
          [
            9.195728603038225,
            47.56966998443219
          ],
          [
            9.19565656825742,
            47.56962694259029
          ],
          [
            9.195626264327743,
            47.56956358500939
          ],
          [
            9.195451536162562,
            47.569408220603016
          ],
          [
            9.195435326330832,
            47.56936786777183
          ],
          [
            9.195412122963026,
            47.56898727858655
          ],
          [
            9.19547974092392,
            47.56894951426841
          ],
          [
            9.19547723692619,
            47.568880283692074
          ],
          [
            9.19541587491492,
            47.568825124347526
          ],
          [
            9.19532996443904,
            47.56879574153653
          ],
          [
            9.195200609910168,
            47.56873809528019
          ],
          [
            9.19507952048615,
            47.56876632454939
          ],
          [
            9.195023926695898,
            47.56875170312486
          ],
          [
            9.195006878944174,
            47.56867636882874
          ],
          [
            9.194938094037482,
            47.56861699469836
          ],
          [
            9.194872179023614,
            47.56858730853101
          ],
          [
            9.194803479068613,
            47.56858714413524
          ],
          [
            9.194723593774789,
            47.56857030883842
          ],
          [
            9.194671289138022,
            47.56852532118253
          ],
          [
            9.194639819562376,
            47.56845198654804
          ],
          [
            9.194619065179557,
            47.56834414315314
          ],
          [
            9.194571571587684,
            47.56833006448209
          ],
          [
            9.194495063323698,
            47.568377534627544
          ],
          [
            9.19442582050922,
            47.568380238936896
          ],
          [
            9.194311349827379,
            47.568349353952506
          ],
          [
            9.194293209154731,
            47.56832131863102
          ],
          [
            9.194353888715796,
            47.56826748541862
          ],
          [
            9.194348854012784,
            47.56820327689811
          ],
          [
            9.194281728107232,
            47.56820165800411
          ],
          [
            9.194147272460654,
            47.568244104430946
          ],
          [
            9.19408978738663,
            47.568308927129166
          ],
          [
            9.19401401622006,
            47.56825529872447
          ],
          [
            9.194007138392198,
            47.568114841771184
          ],
          [
            9.193973422750126,
            47.56806600086883
          ],
          [
            9.193904205809831,
            47.5680602303311
          ],
          [
            9.193797948471147,
            47.568117317420224
          ],
          [
            9.193747941977877,
            47.5681265219104
          ],
          [
            9.193731969052259,
            47.56810132337095
          ],
          [
            9.193736786052458,
            47.56804037508477
          ],
          [
            9.193700529025616,
            47.56800833197793
          ],
          [
            9.193590111027111,
            47.56802963317683
          ],
          [
            9.193463086261321,
            47.56796474401586
          ],
          [
            9.193261818420448,
            47.56791251156034
          ],
          [
            9.193139003046504,
            47.56782254069098
          ],
          [
            9.192812244765413,
            47.56769184675565
          ],
          [
            9.192758603439268,
            47.56771292646859
          ],
          [
            9.192682955595544,
            47.56785363399853
          ],
          [
            9.192633544627805,
            47.567780291521935
          ],
          [
            9.192521087585341,
            47.56770286546614
          ],
          [
            9.192464929766976,
            47.56768157640611
          ],
          [
            9.192365581925735,
            47.567708439307744
          ],
          [
            9.192257786326445,
            47.56768438716135
          ],
          [
            9.192223492770811,
            47.567600290549464
          ],
          [
            9.192038800589815,
            47.56765302134132
          ],
          [
            9.19196829399615,
            47.56763997348743
          ],
          [
            9.191924931184984,
            47.56757746924632
          ],
          [
            9.191851194796142,
            47.56755476360004
          ],
          [
            9.191784169470607,
            47.5675988229745
          ],
          [
            9.191566310226115,
            47.56757136144477
          ],
          [
            9.191514850129321,
            47.56753935871528
          ],
          [
            9.191492161500483,
            47.56750074060708
          ],
          [
            9.191437359187521,
            47.5674766058395
          ],
          [
            9.191393700714455,
            47.567510191172325
          ],
          [
            9.191285301121283,
            47.567502843671534
          ],
          [
            9.191249443229808,
            47.56747679405319
          ],
          [
            9.1911297359725,
            47.567429297756554
          ],
          [
            9.190992371149864,
            47.56739490549631
          ],
          [
            9.190958003750108,
            47.56740715581697
          ],
          [
            9.190748772133585,
            47.567405866342604
          ],
          [
            9.19052160762001,
            47.56733765715634
          ],
          [
            9.19043289564449,
            47.56728243190269
          ],
          [
            9.190403904006567,
            47.56722678965784
          ],
          [
            9.190396493638458,
            47.56713515242171
          ],
          [
            9.19035241009698,
            47.56706201635118
          ],
          [
            9.190204031737489,
            47.566967319163204
          ],
          [
            9.190128021525503,
            47.56696065052337
          ],
          [
            9.189860062077505,
            47.56684796913483
          ],
          [
            9.189675472003579,
            47.566813119493546
          ],
          [
            9.18960143786321,
            47.56681315858777
          ],
          [
            9.189421510770625,
            47.566785479796565
          ],
          [
            9.189341096415749,
            47.56676455569969
          ],
          [
            9.189190623774266,
            47.56668486706264
          ],
          [
            9.189147081278149,
            47.56667362320148
          ],
          [
            9.18904853479112,
            47.56669978747862
          ],
          [
            9.188806161762393,
            47.56682242790416
          ],
          [
            9.188729272971644,
            47.5668350588372
          ],
          [
            9.188666202285967,
            47.5667967261681
          ],
          [
            9.188717777203063,
            47.566762941359485
          ],
          [
            9.188704594454935,
            47.56672996354374
          ],
          [
            9.188587150498414,
            47.566653022879194
          ],
          [
            9.188560286357205,
            47.56656265986379
          ],
          [
            9.188467600192581,
            47.56640491285795
          ],
          [
            9.188465322662037,
            47.56633501308804
          ],
          [
            9.188530723578975,
            47.5662791415484
          ],
          [
            9.188480831704828,
            47.566216392807945
          ],
          [
            9.18838807580012,
            47.5662157872482
          ],
          [
            9.188327462882837,
            47.56627497787367
          ],
          [
            9.188218723792625,
            47.566310471164286
          ],
          [
            9.188145902401816,
            47.566306955639746
          ],
          [
            9.188026524257252,
            47.566287428488614
          ],
          [
            9.187974603133963,
            47.56626512876545
          ],
          [
            9.187991946112353,
            47.56624326780666
          ],
          [
            9.188080971084256,
            47.56623229830305
          ],
          [
            9.188198743423476,
            47.56616156674691
          ],
          [
            9.18825065221349,
            47.566108885693744
          ],
          [
            9.188264869852032,
            47.56606156848555
          ],
          [
            9.188212847109712,
            47.56603779507497
          ],
          [
            9.188039970874545,
            47.566026740114026
          ],
          [
            9.18787431754981,
            47.56600496070516
          ],
          [
            9.187886756749311,
            47.566032336393114
          ],
          [
            9.187996198961036,
            47.56610450476674
          ],
          [
            9.187929748695403,
            47.56612007220289
          ],
          [
            9.187785657545772,
            47.56611775817429
          ],
          [
            9.187721848436937,
            47.566086012154656
          ],
          [
            9.187628188198335,
            47.56608013904399
          ],
          [
            9.187555308063192,
            47.56602601309007
          ],
          [
            9.187578575822009,
            47.565971371666386
          ],
          [
            9.187710211557151,
            47.56588491344348
          ],
          [
            9.187730053009956,
            47.56582996385994
          ],
          [
            9.187688020648217,
            47.56580280090705
          ],
          [
            9.187640965637495,
            47.56584507216205
          ],
          [
            9.187568779444637,
            47.56587130514676
          ],
          [
            9.187535302838286,
            47.56585894621829
          ],
          [
            9.187504757895333,
            47.56581816995857
          ],
          [
            9.18740846324029,
            47.56574683726058
          ],
          [
            9.187254947796621,
            47.56569363104346
          ],
          [
            9.187216028096518,
            47.56570930442687
          ],
          [
            9.187174522008714,
            47.56576509356869
          ],
          [
            9.18711323582751,
            47.565790954899576
          ],
          [
            9.187073608124305,
            47.565743973457614
          ],
          [
            9.18709116259481,
            47.56562683383317
          ],
          [
            9.187081838767082,
            47.565585071590284
          ],
          [
            9.18704820669806,
            47.56554215578638
          ],
          [
            9.186952054093297,
            47.565586489897434
          ],
          [
            9.186866186732258,
            47.565546404145614
          ],
          [
            9.186848193209373,
            47.565494031565756
          ],
          [
            9.186789929111487,
            47.565435681473424
          ],
          [
            9.186740432391614,
            47.56541834636015
          ],
          [
            9.186656603177331,
            47.56541673217613
          ],
          [
            9.186584915253903,
            47.565397140905944
          ],
          [
            9.18651890642139,
            47.56534455692423
          ],
          [
            9.186502803842627,
            47.56531730831622
          ],
          [
            9.186471444969486,
            47.56529981646893
          ],
          [
            9.18639860356756,
            47.56530654650202
          ],
          [
            9.186275021771817,
            47.5652537151792
          ],
          [
            9.186170583441614,
            47.56518120887989
          ],
          [
            9.186069802361812,
            47.5651450987369
          ],
          [
            9.185890878160365,
            47.56503579760919
          ],
          [
            9.185848852970084,
            47.565023342196234
          ],
          [
            9.185805289644476,
            47.565032401167855
          ],
          [
            9.185795645912428,
            47.5651165772805
          ],
          [
            9.185684892684812,
            47.565087211148835
          ],
          [
            9.18563389305518,
            47.56509648111629
          ],
          [
            9.185582432243253,
            47.565097391825226
          ],
          [
            9.185568159974387,
            47.5650740467104
          ],
          [
            9.185599971612701,
            47.5649740455007
          ],
          [
            9.185575203181244,
            47.56493426117632
          ],
          [
            9.185522133355995,
            47.564935951772064
          ],
          [
            9.185431125285765,
            47.564987988532245
          ],
          [
            9.185360114556696,
            47.564990966020055
          ],
          [
            9.185267320118848,
            47.56503800086406
          ],
          [
            9.185222806342432,
            47.565050897197764
          ],
          [
            9.185142314517613,
            47.56498142952733
          ],
          [
            9.185116401821038,
            47.56498119034128
          ],
          [
            9.18499975311002,
            47.56500167773097
          ],
          [
            9.184905588644469,
            47.56497919462199
          ],
          [
            9.184866425164676,
            47.56493129686813
          ],
          [
            9.184896762002067,
            47.56487976101008
          ],
          [
            9.184825336291272,
            47.5648628454947
          ],
          [
            9.18475917885787,
            47.5648674946899
          ],
          [
            9.18467957992862,
            47.564903139335065
          ],
          [
            9.18456887775843,
            47.56492338376461
          ],
          [
            9.184475814504788,
            47.56490689297994
          ],
          [
            9.184432992491349,
            47.564913439405956
          ],
          [
            9.18438137758953,
            47.564973922745125
          ],
          [
            9.184303268019843,
            47.56498252100985
          ],
          [
            9.184260862024672,
            47.564968172628696
          ],
          [
            9.184204726751235,
            47.564930803626915
          ],
          [
            9.184156921416085,
            47.564949506504156
          ],
          [
            9.183973353260754,
            47.56472549376272
          ],
          [
            9.183937594202177,
            47.564667514005265
          ],
          [
            9.1838456439837,
            47.56458823258166
          ],
          [
            9.183722453876134,
            47.56453182131474
          ],
          [
            9.183610585675497,
            47.5645194092953
          ],
          [
            9.183541768893495,
            47.564554342053
          ],
          [
            9.183471340306918,
            47.5645600533739
          ],
          [
            9.1833379287829,
            47.56448298809418
          ],
          [
            9.183297194824497,
            47.5643900800092
          ],
          [
            9.183273266027234,
            47.56427831539088
          ],
          [
            9.183217920043948,
            47.56419009822063
          ],
          [
            9.18314246099984,
            47.56414827878865
          ],
          [
            9.183131138229221,
            47.56410018624755
          ],
          [
            9.179766173595421,
            47.56575718858101
          ],
          [
            9.179697632378108,
            47.56582131547683
          ],
          [
            9.17853650950678,
            47.56732214740248
          ],
          [
            9.178572619333549,
            47.567359324978156
          ],
          [
            9.179085432266955,
            47.56734871002392
          ],
          [
            9.179153116485434,
            47.56869100258634
          ],
          [
            9.17948253514696,
            47.56868928435951
          ],
          [
            9.179174257959872,
            47.569459409308166
          ],
          [
            9.179137908739872,
            47.5695017410189
          ],
          [
            9.178851994390216,
            47.56939935246318
          ],
          [
            9.178730362474361,
            47.56936712938479
          ],
          [
            9.178604385744197,
            47.56934347250718
          ],
          [
            9.178474904666874,
            47.5693288819629
          ],
          [
            9.177706695362833,
            47.569269200613505
          ],
          [
            9.17757500973083,
            47.569263988856044
          ],
          [
            9.17744290963667,
            47.56926965917057
          ],
          [
            9.17685168043788,
            47.56931927030634
          ],
          [
            9.176590393148551,
            47.56933149202084
          ],
          [
            9.176503942038288,
            47.569301122957995
          ],
          [
            9.176319632001986,
            47.56920495905244
          ],
          [
            9.176003412197703,
            47.569193759220965
          ],
          [
            9.175352481088382,
            47.56924482440681
          ],
          [
            9.175414664469926,
            47.56917865456776
          ],
          [
            9.175469342644623,
            47.569023673066305
          ],
          [
            9.175411785137037,
            47.56892733533042
          ],
          [
            9.175412928254136,
            47.568869645722906
          ],
          [
            9.175355443196027,
            47.568747074934834
          ],
          [
            9.175287656872744,
            47.56864522302376
          ],
          [
            9.175286553810308,
            47.56861597600918
          ],
          [
            9.175300709944562,
            47.56856803182864
          ],
          [
            9.175188511639837,
            47.56848477411937
          ],
          [
            9.17517940125323,
            47.56845535921705
          ],
          [
            9.17518652065334,
            47.568445042234636
          ],
          [
            9.170936717855158,
            47.56778056390909
          ],
          [
            9.171925355345936,
            47.56528045925299
          ],
          [
            9.171977799310303,
            47.565193638383896
          ],
          [
            9.172094739200036,
            47.56490024321156
          ],
          [
            9.171955792396796,
            47.56487501008756
          ],
          [
            9.173076967015975,
            47.56204858946275
          ],
          [
            9.1730592796875,
            47.562045408776946
          ],
          [
            9.17308221860109,
            47.56198640330589
          ],
          [
            9.1729293675897,
            47.561988547097705
          ],
          [
            9.172448756514946,
            47.56198127373154
          ],
          [
            9.172359566635393,
            47.561991945897276
          ],
          [
            9.172165860063327,
            47.5620425130202
          ],
          [
            9.172052495436487,
            47.562056470252834
          ],
          [
            9.171814807582546,
            47.56202188301304
          ],
          [
            9.171735088282821,
            47.562023839975645
          ],
          [
            9.170797877911273,
            47.5620959215086
          ],
          [
            9.170782158963155,
            47.56210499941702
          ],
          [
            9.170634077765257,
            47.562132365271005
          ],
          [
            9.170557712899972,
            47.562125932108856
          ],
          [
            9.170410154131373,
            47.562092720655585
          ],
          [
            9.170181786008932,
            47.56213521136532
          ],
          [
            9.170103824645269,
            47.56214421168892
          ],
          [
            9.169994440951374,
            47.56217022485177
          ],
          [
            9.169704738681029,
            47.562137795795444
          ],
          [
            9.169450885578708,
            47.562147075177485
          ],
          [
            9.168972221493318,
            47.56213145510708
          ],
          [
            9.168715700929456,
            47.56219142844142
          ],
          [
            9.168522054239373,
            47.56222274635132
          ],
          [
            9.168324845920456,
            47.56224143292419
          ],
          [
            9.168119654597918,
            47.562250882602854
          ],
          [
            9.167590950813032,
            47.56221321711122
          ],
          [
            9.167330435584388,
            47.562183630146365
          ],
          [
            9.16697880189411,
            47.561970374727125
          ],
          [
            9.166030159679355,
            47.56186443406054
          ],
          [
            9.165789875787162,
            47.56191534290966
          ],
          [
            9.165948059050656,
            47.56021642798065
          ],
          [
            9.165949472024897,
            47.560159777930664
          ],
          [
            9.16468076272366,
            47.56022354550932
          ],
          [
            9.164799349878232,
            47.55843234800852
          ],
          [
            9.162632028454846,
            47.55901813018777
          ],
          [
            9.157886878021715,
            47.56028989333096
          ],
          [
            9.15762356982344,
            47.560349654931215
          ],
          [
            9.15395963933834,
            47.56106529694851
          ],
          [
            9.153220478534445,
            47.56119254336726
          ],
          [
            9.153110296267657,
            47.56120470773423
          ],
          [
            9.152835189200452,
            47.561212169164264
          ],
          [
            9.151332190569288,
            47.561174229250376
          ],
          [
            9.14909906000024,
            47.5611075668426
          ],
          [
            9.1421490226225,
            47.56091062897215
          ],
          [
            9.142527068330256,
            47.56447297648488
          ],
          [
            9.142479195681446,
            47.56447551549463
          ],
          [
            9.14248628197039,
            47.5645476385468
          ],
          [
            9.14196437095404,
            47.564561814855466
          ],
          [
            9.14170238760212,
            47.56456255270809
          ],
          [
            9.14144296552623,
            47.56455861050456
          ],
          [
            9.140914726773586,
            47.564540841044355
          ],
          [
            9.140914186156014,
            47.56455133807818
          ],
          [
            9.140847816843008,
            47.56454904749722
          ],
          [
            9.140848520950383,
            47.564538260197125
          ],
          [
            9.138732494926256,
            47.564453735477805
          ],
          [
            9.138010874893057,
            47.56440859076835
          ],
          [
            9.138081714501524,
            47.56452728583688
          ],
          [
            9.137928921588218,
            47.564470433095664
          ],
          [
            9.137716821061609,
            47.56444752721299
          ],
          [
            9.13768949434766,
            47.564492367033594
          ],
          [
            9.137561066124325,
            47.564505755499006
          ],
          [
            9.137615051210666,
            47.564538050543355
          ],
          [
            9.138105417498279,
            47.56617986814204
          ],
          [
            9.138164473287436,
            47.56633768764461
          ],
          [
            9.138202930351433,
            47.566395542254355
          ],
          [
            9.138209395672005,
            47.56662488476009
          ],
          [
            9.138275167914015,
            47.56667736409214
          ],
          [
            9.138147254483004,
            47.56674477421061
          ],
          [
            9.13801217257918,
            47.56686396103713
          ],
          [
            9.137961499854791,
            47.56704359406674
          ],
          [
            9.1379737458781,
            47.56724220314942
          ],
          [
            9.138001480074037,
            47.56730181629044
          ],
          [
            9.138063692469984,
            47.56737012652687
          ],
          [
            9.138192210112786,
            47.56761298095361
          ],
          [
            9.138223250208021,
            47.567797838701715
          ],
          [
            9.138161725285773,
            47.56797147779283
          ],
          [
            9.138188116010829,
            47.5680136048086
          ],
          [
            9.138195497981188,
            47.56820348727676
          ],
          [
            9.138258017501656,
            47.5682722157027
          ],
          [
            9.138262940655657,
            47.56844050837608
          ],
          [
            9.138403687259766,
            47.568684505562565
          ],
          [
            9.138367352103538,
            47.56881377694163
          ],
          [
            9.138337336024064,
            47.568846080173465
          ],
          [
            9.13833288890484,
            47.5690903535714
          ],
          [
            9.138491302854245,
            47.569155444527425
          ],
          [
            9.138501095350373,
            47.569136229867965
          ],
          [
            9.138547787618247,
            47.56914857989175
          ],
          [
            9.138608776103899,
            47.56917360214445
          ],
          [
            9.138774351579322,
            47.56925933192162
          ],
          [
            9.138870591947029,
            47.56934537697681
          ],
          [
            9.139152966898314,
            47.569468839150176
          ],
          [
            9.13919325490239,
            47.569544739052084
          ],
          [
            9.139242036295654,
            47.569552578254424
          ],
          [
            9.139301337717017,
            47.56959420411061
          ],
          [
            9.139323455214589,
            47.569660556211815
          ],
          [
            9.139372495485748,
            47.56970385288951
          ],
          [
            9.139444925673706,
            47.56978350904498
          ],
          [
            9.139492153457162,
            47.56981254698797
          ],
          [
            9.139552589421983,
            47.569874630442214
          ],
          [
            9.139704483623095,
            47.569986269618255
          ],
          [
            9.139913840364494,
            47.57017002981621
          ],
          [
            9.14006656432375,
            47.57025981461849
          ],
          [
            9.140118993250823,
            47.57031880383926
          ],
          [
            9.140187017761793,
            47.570343479101105
          ],
          [
            9.140299683517666,
            47.570391526602
          ],
          [
            9.140344742200158,
            47.57053033545535
          ],
          [
            9.140430127579851,
            47.570611824840555
          ],
          [
            9.14045219214112,
            47.57067646830926
          ],
          [
            9.140488423312325,
            47.57072027645438
          ],
          [
            9.14053440927245,
            47.57075075354929
          ],
          [
            9.14056883230835,
            47.57074894368421
          ],
          [
            9.14062799333204,
            47.570806844287276
          ],
          [
            9.14069035667908,
            47.57087672517753
          ],
          [
            9.140680694353222,
            47.571045492773536
          ],
          [
            9.140692843794218,
            47.571127985473055
          ],
          [
            9.140665537652419,
            47.571265113161374
          ],
          [
            9.14061918979196,
            47.571411579196294
          ],
          [
            9.140530416724555,
            47.57160258551162
          ],
          [
            9.140460563628427,
            47.57169755399772
          ],
          [
            9.140432268323398,
            47.57180012538428
          ],
          [
            9.140414273639859,
            47.571919241658236
          ],
          [
            9.140386128950913,
            47.571952714336234
          ],
          [
            9.140317357252547,
            47.57206816818422
          ],
          [
            9.140301526468724,
            47.572121277715446
          ],
          [
            9.140315534803031,
            47.57217759243743
          ],
          [
            9.140236272231006,
            47.572292561546924
          ],
          [
            9.140250356932894,
            47.57232928237781
          ],
          [
            9.140307891679704,
            47.57240151027173
          ],
          [
            9.140268434318038,
            47.572445350195615
          ],
          [
            9.140181576763828,
            47.57252038161601
          ],
          [
            9.14018989366315,
            47.57253848493469
          ],
          [
            9.140211558948112,
            47.572564533453274
          ],
          [
            9.140148494944148,
            47.57265654136869
          ],
          [
            9.14014854851665,
            47.57270133947994
          ],
          [
            9.140101616125625,
            47.572887296171444
          ],
          [
            9.140162547572467,
            47.57293318864982
          ],
          [
            9.140157494451673,
            47.57321553182937
          ],
          [
            9.14018060398544,
            47.57325386534994
          ],
          [
            9.140279296489922,
            47.57320131154312
          ],
          [
            9.140606489931391,
            47.57284417043148
          ],
          [
            9.140767000562537,
            47.57250661318755
          ],
          [
            9.143650792026547,
            47.57288297998924
          ],
          [
            9.143699583565873,
            47.57282356482811
          ],
          [
            9.143756773130512,
            47.57252363209237
          ],
          [
            9.143796927503024,
            47.57244281705808
          ],
          [
            9.14388842702542,
            47.57237506409996
          ],
          [
            9.143986819093358,
            47.57233773230958
          ],
          [
            9.144767636347433,
            47.57208662962446
          ],
          [
            9.144789722653867,
            47.57206078348783
          ],
          [
            9.14477078604802,
            47.57203573913358
          ],
          [
            9.14533056751021,
            47.57216684217544
          ],
          [
            9.14545397447283,
            47.57220264526122
          ],
          [
            9.145571302724575,
            47.572249485601425
          ],
          [
            9.145686373942159,
            47.57230591258287
          ],
          [
            9.14594131864349,
            47.57245461786698
          ],
          [
            9.14599853555209,
            47.572474564269065
          ],
          [
            9.14597671353563,
            47.572511093728814
          ],
          [
            9.145925934267373,
            47.57253176737662
          ],
          [
            9.145905081532026,
            47.5725752902537
          ],
          [
            9.145873556752854,
            47.57258045040569
          ],
          [
            9.14585622621845,
            47.57259007028266
          ],
          [
            9.14586014362329,
            47.57262176767339
          ],
          [
            9.145835838631069,
            47.572660456678854
          ],
          [
            9.145825141831478,
            47.572703982874714
          ],
          [
            9.14576940413621,
            47.57277343261543
          ],
          [
            9.14574893516854,
            47.57281236195915
          ],
          [
            9.14575340607239,
            47.572847217711015
          ],
          [
            9.145709996153435,
            47.57286433733288
          ],
          [
            9.145691823794856,
            47.572881678960755
          ],
          [
            9.145698110863181,
            47.57289902017714
          ],
          [
            9.145694230526644,
            47.57291517976539
          ],
          [
            9.14563431197327,
            47.57297657681677
          ],
          [
            9.145631071522535,
            47.57302048793996
          ],
          [
            9.145551425589147,
            47.57307816336135
          ],
          [
            9.145516637357751,
            47.57312611939076
          ],
          [
            9.145439911439459,
            47.573258074811186
          ],
          [
            9.145438444827294,
            47.57329927906008
          ],
          [
            9.145427287994059,
            47.5733512500122
          ],
          [
            9.145465114170422,
            47.573380810839375
          ],
          [
            9.14547476864099,
            47.573407790924
          ],
          [
            9.14546516548193,
            47.57345805678877
          ],
          [
            9.145425471954113,
            47.57351428915934
          ],
          [
            9.145487802730628,
            47.573596087415
          ],
          [
            9.145451703394265,
            47.57375499858159
          ],
          [
            9.145478378781,
            47.573801572688915
          ],
          [
            9.145460747754427,
            47.57385891049465
          ],
          [
            9.145463423414045,
            47.5738689463577
          ],
          [
            9.145445293876126,
            47.57391987751497
          ],
          [
            9.145505224135759,
            47.57392907924604
          ],
          [
            9.14549876358491,
            47.573960911467424
          ],
          [
            9.14554119095566,
            47.573995882937126
          ],
          [
            9.14552954564117,
            47.57434972316527
          ],
          [
            9.145470505012367,
            47.57461251343159
          ],
          [
            9.14542087397619,
            47.57510799354248
          ],
          [
            9.145335209988295,
            47.57526883983235
          ],
          [
            9.145096963987228,
            47.575636577158036
          ],
          [
            9.145031706984634,
            47.57566188040497
          ],
          [
            9.144830667753238,
            47.57564380775573
          ],
          [
            9.144745771231554,
            47.57565160630794
          ],
          [
            9.144706366434749,
            47.57570572909315
          ],
          [
            9.144851014157018,
            47.5757383056207
          ],
          [
            9.144774137417333,
            47.57576069421337
          ],
          [
            9.143656310080726,
            47.57733250015877
          ],
          [
            9.143121301709282,
            47.5786350191926
          ],
          [
            9.143270198092253,
            47.57866016776715
          ],
          [
            9.143666674019082,
            47.578717810706245
          ],
          [
            9.143953941429432,
            47.578749576944254
          ],
          [
            9.14394626410109,
            47.5787940659321
          ],
          [
            9.143891332887247,
            47.57880158486301
          ],
          [
            9.143848014283709,
            47.57882585394907
          ],
          [
            9.143824605409065,
            47.57885946459128
          ],
          [
            9.143820977749442,
            47.57891082971942
          ],
          [
            9.143827648282533,
            47.57894134413456
          ],
          [
            9.14385133405181,
            47.57896724530852
          ],
          [
            9.143889084173832,
            47.57898606682681
          ],
          [
            9.144112207194508,
            47.57903937656127
          ],
          [
            9.144211878431111,
            47.57909524900205
          ],
          [
            9.144235329616986,
            47.5791862378115
          ],
          [
            9.144176511780064,
            47.57927057479959
          ],
          [
            9.144045605354327,
            47.57930968921258
          ],
          [
            9.14384593499,
            47.5793251217032
          ],
          [
            9.143868705867035,
            47.57939578118945
          ],
          [
            9.14398283241925,
            47.579486515607385
          ],
          [
            9.144208801572736,
            47.579627491867065
          ],
          [
            9.144282684445143,
            47.57969543815806
          ],
          [
            9.144337578453534,
            47.579771121292005
          ],
          [
            9.14445001236558,
            47.57997501070906
          ],
          [
            9.144510822341084,
            47.580147868740646
          ],
          [
            9.144537560591404,
            47.58025919346157
          ],
          [
            9.144572915491487,
            47.58060755525847
          ],
          [
            9.144600767024883,
            47.58069063491381
          ],
          [
            9.144656982774418,
            47.58076851139261
          ],
          [
            9.144738318199476,
            47.58083372095896
          ],
          [
            9.144839109903488,
            47.580883792126045
          ],
          [
            9.145377211948052,
            47.58105555189711
          ],
          [
            9.145010785906747,
            47.58168335289351
          ],
          [
            9.14445262624425,
            47.582393775150095
          ],
          [
            9.14504634605797,
            47.58249694423499
          ],
          [
            9.145124089064023,
            47.582520628093924
          ],
          [
            9.145185216008613,
            47.582559714333684
          ],
          [
            9.145257688271446,
            47.58262580066259
          ],
          [
            9.14535531914653,
            47.58269074291995
          ],
          [
            9.145329918902378,
            47.58274017964805
          ],
          [
            9.145202238968716,
            47.58272565107515
          ],
          [
            9.145076144278152,
            47.58274512092177
          ],
          [
            9.14496769695752,
            47.582792010773076
          ],
          [
            9.144718026041499,
            47.58294859501573
          ],
          [
            9.1453641769678,
            47.58343621550842
          ],
          [
            9.1454347294479,
            47.58342065766732
          ],
          [
            9.145459869333198,
            47.58346977309763
          ],
          [
            9.14525879925709,
            47.5835140957121
          ],
          [
            9.14507162012034,
            47.583578588849726
          ],
          [
            9.144916359741373,
            47.58367975529052
          ],
          [
            9.144717406743778,
            47.58385489777433
          ],
          [
            9.144765553673448,
            47.58397614440711
          ],
          [
            9.144680112977642,
            47.584191176473574
          ],
          [
            9.144675044431109,
            47.584308960260174
          ],
          [
            9.144630521142693,
            47.58451591464509
          ],
          [
            9.144651308688912,
            47.584565723976425
          ],
          [
            9.144637877805343,
            47.58462977334297
          ],
          [
            9.14464788755465,
            47.584658241471764
          ],
          [
            9.144677398031568,
            47.58469690265793
          ],
          [
            9.14472274421678,
            47.58479470263571
          ],
          [
            9.144741230281603,
            47.58481758560455
          ],
          [
            9.144762703215537,
            47.5848303943706
          ],
          [
            9.144760295845916,
            47.58485187562804
          ],
          [
            9.144821515699542,
            47.58490825049364
          ],
          [
            9.144821117455093,
            47.58493060175665
          ],
          [
            9.144856373023579,
            47.58494654508029
          ],
          [
            9.144906424576956,
            47.585013267441084
          ],
          [
            9.14495059854284,
            47.585037787346195
          ],
          [
            9.144970655246448,
            47.58507022761798
          ],
          [
            9.145026765364138,
            47.58510537568822
          ],
          [
            9.145070851151894,
            47.58515692002941
          ],
          [
            9.145068074375496,
            47.585178487691245
          ],
          [
            9.145077581720788,
            47.585194216223144
          ],
          [
            9.145133175747418,
            47.58524018471104
          ],
          [
            9.145168823965392,
            47.585245588158855
          ],
          [
            9.145267951076454,
            47.58529571948513
          ],
          [
            9.145374301056084,
            47.585378596812866
          ],
          [
            9.145458487600392,
            47.58548755513391
          ],
          [
            9.14545763004778,
            47.58552166158773
          ],
          [
            9.145487486827257,
            47.585603712887924
          ],
          [
            9.145566234683223,
            47.58573330645151
          ],
          [
            9.14506301717622,
            47.58599042692906
          ],
          [
            9.144909291768425,
            47.586333078920134
          ],
          [
            9.144783187992264,
            47.58650927200818
          ],
          [
            9.14441634288389,
            47.58659265403534
          ],
          [
            9.144534280960922,
            47.58686720447869
          ],
          [
            9.144920164027008,
            47.58749327773985
          ],
          [
            9.145336234899876,
            47.588075357019456
          ],
          [
            9.145759604520174,
            47.588654214823926
          ],
          [
            9.14754584070584,
            47.588333586801156
          ],
          [
            9.147708448164941,
            47.58832484790194
          ],
          [
            9.147870540449313,
            47.588338920543386
          ],
          [
            9.148098306230997,
            47.58838805255194
          ],
          [
            9.148083741775286,
            47.58841887976579
          ],
          [
            9.14799999001845,
            47.58842733817458
          ],
          [
            9.147950811157083,
            47.58847378853314
          ],
          [
            9.147914585638107,
            47.58862804162529
          ],
          [
            9.147946782633671,
            47.58863107527906
          ],
          [
            9.147960944718172,
            47.58875988322434
          ],
          [
            9.147993273952595,
            47.58888342169255
          ],
          [
            9.147976321039112,
            47.58893670145233
          ],
          [
            9.148023606341074,
            47.58905848113421
          ],
          [
            9.148002283765706,
            47.589161040942464
          ],
          [
            9.14802946942017,
            47.5891913605366
          ],
          [
            9.148009020510264,
            47.589236010961535
          ],
          [
            9.147991989240973,
            47.58939088061022
          ],
          [
            9.147964671602518,
            47.58942044750418
          ],
          [
            9.147997655868146,
            47.589481339049705
          ],
          [
            9.1479912069482,
            47.589551519828966
          ],
          [
            9.14796950203645,
            47.58959474943984
          ],
          [
            9.148017121548248,
            47.58970831107834
          ],
          [
            9.148029324092287,
            47.58978535947153
          ],
          [
            9.14803520985619,
            47.58987601257255
          ],
          [
            9.14802515193788,
            47.58997285590595
          ],
          [
            9.147999119004767,
            47.590118673591064
          ],
          [
            9.147912220011577,
            47.59013065064127
          ],
          [
            9.147908673715463,
            47.59032025180921
          ],
          [
            9.148047613006314,
            47.59118229650304
          ],
          [
            9.148120299271062,
            47.591218638046996
          ],
          [
            9.149180015381571,
            47.59107269678405
          ],
          [
            9.149229937405366,
            47.591049668864876
          ],
          [
            9.14923994222346,
            47.591008986525786
          ],
          [
            9.149305089091225,
            47.59099871477962
          ],
          [
            9.149391669938812,
            47.5910304516244
          ],
          [
            9.15959652599336,
            47.58847000711558
          ],
          [
            9.159693416940886,
            47.58841490915039
          ],
          [
            9.159739072427643,
            47.588363864149976
          ],
          [
            9.159816173808895,
            47.58839598587113
          ],
          [
            9.160051690133594,
            47.588468467420896
          ],
          [
            9.160648782937264,
            47.58833565684484
          ],
          [
            9.161170598400107,
            47.58896105390372
          ],
          [
            9.161372151240434,
            47.58913449307483
          ],
          [
            9.161167103116043,
            47.589244157424474
          ],
          [
            9.162089990751392,
            47.59009936982172
          ],
          [
            9.162211061416128,
            47.59034242562877
          ],
          [
            9.162284314911767,
            47.59054291358861
          ],
          [
            9.162541137473477,
            47.590936797749556
          ],
          [
            9.163194762077298,
            47.59157135369453
          ],
          [
            9.163533909702222,
            47.591531594111956
          ],
          [
            9.163707411160352,
            47.591426587118605
          ],
          [
            9.164273908177979,
            47.5912002798508
          ],
          [
            9.1645563354017,
            47.59105539132642
          ],
          [
            9.164822914758705,
            47.590943752480605
          ],
          [
            9.165155127391905,
            47.59081157887882
          ],
          [
            9.16554899533328,
            47.59062982788817
          ],
          [
            9.165660606570016,
            47.59066793572139
          ],
          [
            9.16590578214231,
            47.590562721249945
          ],
          [
            9.166447597683803,
            47.59023362521486
          ],
          [
            9.166566671047153,
            47.59013909529312
          ],
          [
            9.166645373453948,
            47.5900278500826
          ],
          [
            9.166869755087198,
            47.58956157422509
          ],
          [
            9.16697151711716,
            47.5894912576205
          ],
          [
            9.167103985890014,
            47.589461863699526
          ],
          [
            9.170434240285623,
            47.589993034084515
          ],
          [
            9.170422172629506,
            47.58943831857123
          ],
          [
            9.170609384225129,
            47.589434568503506
          ],
          [
            9.171519353969234,
            47.589677675023204
          ],
          [
            9.172171769547045,
            47.58921208748346
          ],
          [
            9.17568773964745,
            47.591469249680564
          ],
          [
            9.175167668691905,
            47.59332970384064
          ],
          [
            9.175178493675087,
            47.59377014603738
          ],
          [
            9.175088480655974,
            47.594686157795834
          ],
          [
            9.1751657409436,
            47.594727029010556
          ],
          [
            9.175198456214172,
            47.596148698944376
          ],
          [
            9.17504913980946,
            47.596184642198786
          ],
          [
            9.175070814335395,
            47.59855875934474
          ],
          [
            9.176973489458186,
            47.59854384483044
          ],
          [
            9.177117760933958,
            47.598525867425984
          ],
          [
            9.177305871891598,
            47.598487306902676
          ],
          [
            9.177801309775205,
            47.599097382953026
          ],
          [
            9.177858142427697,
            47.59914491880882
          ],
          [
            9.177515157978446,
            47.59933743532283
          ],
          [
            9.177599246130773,
            47.59933518482998
          ],
          [
            9.178889648418131,
            47.599936156967004
          ],
          [
            9.178872675940298,
            47.60000868367104
          ],
          [
            9.179572644563597,
            47.60171890548102
          ],
          [
            9.179741312817185,
            47.602098747170174
          ],
          [
            9.179939580642138,
            47.602471793143806
          ],
          [
            9.180162101955666,
            47.60283724195946
          ],
          [
            9.180411772074327,
            47.603195355857274
          ],
          [
            9.181700215270581,
            47.60491887206182
          ],
          [
            9.181807728114842,
            47.60509164788165
          ],
          [
            9.181907864506565,
            47.60526741312288
          ],
          [
            9.182078323506339,
            47.60565960256466
          ],
          [
            9.182477034554276,
            47.60628303220126
          ],
          [
            9.182533616228975,
            47.606402274753805
          ],
          [
            9.183036891348541,
            47.60650353677707
          ],
          [
            9.183041676852065,
            47.60649737467163
          ],
          [
            9.183139324890453,
            47.606478364185534
          ],
          [
            9.183204148165425,
            47.606533486647265
          ],
          [
            9.18344502937811,
            47.6066200184557
          ],
          [
            9.183721910781333,
            47.60653849808972
          ],
          [
            9.184025719079434,
            47.60648340616415
          ],
          [
            9.184029197066558,
            47.60648278708951
          ],
          [
            9.184086476768737,
            47.606551984015745
          ],
          [
            9.184733371360291,
            47.606377120292805
          ],
          [
            9.185082293050293,
            47.606330791898046
          ],
          [
            9.185218747886893,
            47.60629825035874
          ],
          [
            9.185306788231237,
            47.606294909404845
          ],
          [
            9.185371213189946,
            47.60631242540383
          ],
          [
            9.185536640699135,
            47.606481482963666
          ],
          [
            9.185631372451883,
            47.60650682741948
          ],
          [
            9.185790093172287,
            47.60649564759275
          ],
          [
            9.186161454678913,
            47.606491707779796
          ],
          [
            9.186463871939106,
            47.60652446503252
          ],
          [
            9.186646722163625,
            47.606501585721354
          ],
          [
            9.186846707054704,
            47.6064400269194
          ],
          [
            9.187098380295788,
            47.60618431550882
          ],
          [
            9.187120982133301,
            47.606171875452695
          ],
          [
            9.187214069917264,
            47.60613846505835
          ],
          [
            9.187322645859622,
            47.606133454588445
          ],
          [
            9.187365780147948,
            47.60612287287335
          ],
          [
            9.186253567240827,
            47.605067684253044
          ],
          [
            9.186109115380916,
            47.60491590732595
          ],
          [
            9.185968379979272,
            47.60475215483305
          ],
          [
            9.185836336481188,
            47.6045865440359
          ],
          [
            9.185906856142847,
            47.604559780677135
          ],
          [
            9.18581704435965,
            47.604444638544926
          ],
          [
            9.187485118394667,
            47.6043503996352
          ],
          [
            9.187637475394341,
            47.603230673559594
          ],
          [
            9.18771685243606,
            47.60323340755927
          ],
          [
            9.187768529798621,
            47.60331095438725
          ],
          [
            9.187884949304399,
            47.603344317935836
          ],
          [
            9.190126868698067,
            47.603174742506134
          ],
          [
            9.190644324121482,
            47.60312427717175
          ],
          [
            9.190829732480362,
            47.60308582565592
          ],
          [
            9.190981318188607,
            47.60301119109971
          ],
          [
            9.19110531188718,
            47.602906594519396
          ],
          [
            9.19132821682794,
            47.60266291233144
          ],
          [
            9.191310890756567,
            47.60261354441349
          ],
          [
            9.191480804593912,
            47.602427057358696
          ],
          [
            9.191554632765452,
            47.602415254425964
          ],
          [
            9.191936676231167,
            47.60199289278927
          ],
          [
            9.192223484395647,
            47.60163378000002
          ],
          [
            9.192304835845627,
            47.60164480208331
          ],
          [
            9.192475725555392,
            47.60151981190729
          ],
          [
            9.193123613288876,
            47.60118338309965
          ],
          [
            9.193318595634056,
            47.60104499218062
          ],
          [
            9.193450504408993,
            47.60087959642997
          ],
          [
            9.193911655868206,
            47.60019868753343
          ],
          [
            9.194016043291942,
            47.599966185083474
          ],
          [
            9.194071259138456,
            47.60008737734943
          ],
          [
            9.194615122943866,
            47.60045803746093
          ],
          [
            9.194903328471387,
            47.60071119588309
          ],
          [
            9.194956132809313,
            47.600889223774374
          ],
          [
            9.19499682167941,
            47.601407134699535
          ],
          [
            9.19499092099233,
            47.60159568615252
          ],
          [
            9.197165505354466,
            47.60154019612517
          ],
          [
            9.197126532469069,
            47.60168818343691
          ],
          [
            9.197204260789924,
            47.60170221666027
          ],
          [
            9.197080684354043,
            47.60193050606042
          ],
          [
            9.19691466152672,
            47.60216192171203
          ],
          [
            9.197080048465633,
            47.60201203570795
          ],
          [
            9.200077799804614,
            47.600531321178615
          ],
          [
            9.200162394786027,
            47.60051344788489
          ],
          [
            9.200245936142773,
            47.60053474034398
          ],
          [
            9.200349439403816,
            47.6005227328145
          ],
          [
            9.200305742104105,
            47.60045286942415
          ],
          [
            9.200346667861677,
            47.60038240413344
          ],
          [
            9.201055388030856,
            47.5999580970515
          ],
          [
            9.201064083281127,
            47.59996481072052
          ],
          [
            9.201446093801088,
            47.599736357476154
          ],
          [
            9.201871377862044,
            47.59951785999494
          ],
          [
            9.202258171655844,
            47.599248256245446
          ],
          [
            9.202674481962791,
            47.59890329381049
          ],
          [
            9.202663737024913,
            47.59889773591894
          ],
          [
            9.203735286502944,
            47.598027185450604
          ],
          [
            9.203807584610965,
            47.59800363129739
          ],
          [
            9.203884864646538,
            47.59801748691384
          ],
          [
            9.20391852417176,
            47.59799024786611
          ],
          [
            9.202378427861891,
            47.597128367208754
          ],
          [
            9.20249022788792,
            47.59712090928232
          ],
          [
            9.203266336414917,
            47.59648051656121
          ],
          [
            9.20311782986761,
            47.59621520417984
          ],
          [
            9.203062118217401,
            47.59583247820752
          ],
          [
            9.203165458881088,
            47.59552597352284
          ],
          [
            9.203361455511791,
            47.59507562731248
          ],
          [
            9.202182243530732,
            47.59534346396572
          ],
          [
            9.201851270305617,
            47.594975295860124
          ],
          [
            9.201515040841267,
            47.59493508722359
          ],
          [
            9.201069116303719,
            47.594793803515714
          ],
          [
            9.20070431559408,
            47.59471333863944
          ],
          [
            9.200628170893431,
            47.594944528402834
          ],
          [
            9.20020987560063,
            47.59546628263181
          ],
          [
            9.200112551237492,
            47.59539251998917
          ],
          [
            9.199891345741383,
            47.595173701031776
          ],
          [
            9.199448749235305,
            47.5946205131585
          ],
          [
            9.19932657227095,
            47.59444056258088
          ],
          [
            9.199036423265397,
            47.594150093539675
          ],
          [
            9.19885308890656,
            47.59401465581858
          ],
          [
            9.198705371268586,
            47.59394061351571
          ],
          [
            9.197582343993613,
            47.59456047520308
          ],
          [
            9.197496886472567,
            47.59465596692003
          ],
          [
            9.194951604033122,
            47.59483610692359
          ],
          [
            9.194915783804372,
            47.59486323215529
          ],
          [
            9.194655970546531,
            47.5945873970207
          ],
          [
            9.194293410871147,
            47.59428855849683
          ],
          [
            9.193818196928717,
            47.59393287039943
          ],
          [
            9.194226406850248,
            47.59369520074701
          ],
          [
            9.193339493590473,
            47.593136527654224
          ],
          [
            9.192730470135476,
            47.593020017140326
          ],
          [
            9.192144385575268,
            47.59293599131173
          ],
          [
            9.192035428724614,
            47.593033273671644
          ],
          [
            9.190561126347518,
            47.59229578119528
          ],
          [
            9.190336465430022,
            47.59255112158167
          ],
          [
            9.189278774337021,
            47.59103812141531
          ],
          [
            9.189233557197596,
            47.59100211917859
          ],
          [
            9.189133726868056,
            47.59096413478953
          ],
          [
            9.187230416767273,
            47.590307220852125
          ],
          [
            9.187391212472772,
            47.58885350830741
          ],
          [
            9.187557369822931,
            47.587997234832706
          ],
          [
            9.187669960969046,
            47.587916687859924
          ],
          [
            9.18780657204854,
            47.5873248331
          ],
          [
            9.187899581171148,
            47.5871646083401
          ],
          [
            9.187946153195812,
            47.586917950526825
          ],
          [
            9.187927460521477,
            47.58665948537242
          ],
          [
            9.187933261385302,
            47.586581340978015
          ],
          [
            9.187812734921653,
            47.58572846505946
          ],
          [
            9.18733619194952,
            47.585690297189416
          ],
          [
            9.187069174911041,
            47.585509631035194
          ],
          [
            9.18745454030826,
            47.5846004292068
          ],
          [
            9.187442250639641,
            47.58454705336081
          ],
          [
            9.187429140517892,
            47.58438001843394
          ],
          [
            9.187577227132817,
            47.58417003443941
          ],
          [
            9.187732718914152,
            47.584036304212674
          ],
          [
            9.187800015242262,
            47.584055403541086
          ],
          [
            9.187830877068876,
            47.584055045829736
          ],
          [
            9.18784763978334,
            47.58403637840781
          ],
          [
            9.187865967907682,
            47.58399945278634
          ],
          [
            9.187908487035095,
            47.583964707959424
          ],
          [
            9.18795355969786,
            47.583956606258496
          ],
          [
            9.18801591012466,
            47.583984587026364
          ],
          [
            9.188099385202104,
            47.58399190936484
          ],
          [
            9.188167708502396,
            47.583978032206915
          ],
          [
            9.188202520677029,
            47.5839575540437
          ],
          [
            9.188222807064376,
            47.58393688128675
          ],
          [
            9.188223611560364,
            47.583866107824555
          ],
          [
            9.188259373211727,
            47.58385829945485
          ],
          [
            9.18839595549758,
            47.58393627405028
          ],
          [
            9.188427020265484,
            47.58399207418123
          ],
          [
            9.188699924645544,
            47.583910680349675
          ],
          [
            9.188732700444952,
            47.58386031257799
          ],
          [
            9.188784536684784,
            47.5838218554095
          ],
          [
            9.18889463776417,
            47.583776995098766
          ],
          [
            9.188909152456068,
            47.583697036760555
          ],
          [
            9.18879174566613,
            47.583563511773285
          ],
          [
            9.188875513472826,
            47.58341363566948
          ],
          [
            9.188941205240312,
            47.58335789510423
          ],
          [
            9.189067529590126,
            47.58318575926153
          ],
          [
            9.189089824239732,
            47.583002680913545
          ],
          [
            9.189075060627678,
            47.58296624574994
          ],
          [
            9.18901780979355,
            47.58288969191912
          ],
          [
            9.189017818067786,
            47.5828685785321
          ],
          [
            9.189029534126774,
            47.582849303435445
          ],
          [
            9.18906938863046,
            47.582814040634084
          ],
          [
            9.18913589486803,
            47.58278987206842
          ],
          [
            9.189157335401507,
            47.582773175856936
          ],
          [
            9.189166080484267,
            47.58275372071172
          ],
          [
            9.189169306593778,
            47.582729392191546
          ],
          [
            9.18908218976138,
            47.58266763776426
          ],
          [
            9.188981917569299,
            47.58261537462246
          ],
          [
            9.1888904380713,
            47.58260032042138
          ],
          [
            9.188849846760062,
            47.58258985938049
          ],
          [
            9.18879107516507,
            47.58257199034564
          ],
          [
            9.188774319086859,
            47.582557373176066
          ],
          [
            9.188770019451999,
            47.58254754265234
          ],
          [
            9.188838512459357,
            47.58244816592399
          ],
          [
            9.188844982525708,
            47.58242019909015
          ],
          [
            9.18882939722648,
            47.58239995983601
          ],
          [
            9.18867647298204,
            47.582339981280185
          ],
          [
            9.188652092146125,
            47.58232637878546
          ],
          [
            9.188623549204745,
            47.582306308128814
          ],
          [
            9.188605188551639,
            47.58228294420249
          ],
          [
            9.188570454759018,
            47.582191252057804
          ],
          [
            9.188580244064186,
            47.58216636568814
          ],
          [
            9.188609055513792,
            47.58213168354478
          ],
          [
            9.188605614465487,
            47.5821087780755
          ],
          [
            9.18855771146994,
            47.58206083364641
          ],
          [
            9.188512404639546,
            47.582028718692136
          ],
          [
            9.188421751163952,
            47.58199351894854
          ],
          [
            9.188379106726883,
            47.58193609440673
          ],
          [
            9.188371077856326,
            47.581917998993575
          ],
          [
            9.188372975666924,
            47.581909829101534
          ],
          [
            9.188391288214898,
            47.58189827189092
          ],
          [
            9.188435165188029,
            47.58188622084612
          ],
          [
            9.18845340192222,
            47.58187317145813
          ],
          [
            9.188443574385873,
            47.58185576889278
          ],
          [
            9.188410060814748,
            47.581835746227284
          ],
          [
            9.188369974390111,
            47.58181920520397
          ],
          [
            9.188110906121977,
            47.58166421255907
          ],
          [
            9.188015472333493,
            47.58159851674272
          ],
          [
            9.188009736634406,
            47.581584641736846
          ],
          [
            9.188023608783466,
            47.58156986810616
          ],
          [
            9.18809140716126,
            47.581558310790314
          ],
          [
            9.188110503396391,
            47.58154431291425
          ],
          [
            9.188117637498806,
            47.581532447667165
          ],
          [
            9.18811413594121,
            47.58151495859871
          ],
          [
            9.188096563931456,
            47.58149614358786
          ],
          [
            9.188059717583208,
            47.58147382320347
          ],
          [
            9.18794353816604,
            47.581427736514044
          ],
          [
            9.187852531265307,
            47.58136603988885
          ],
          [
            9.187834075849993,
            47.58134986495864
          ],
          [
            9.187829804594205,
            47.58134048376418
          ],
          [
            9.187947211396454,
            47.58109791108277
          ],
          [
            9.188032756621324,
            47.58093827509142
          ],
          [
            9.18813949960851,
            47.58046987817687
          ],
          [
            9.188140599086958,
            47.5804512041762
          ],
          [
            9.188132541331719,
            47.58043827279885
          ],
          [
            9.18810582735334,
            47.58041436017213
          ],
          [
            9.188042857249037,
            47.58039004114738
          ],
          [
            9.188023075750143,
            47.58035298888315
          ],
          [
            9.188019897034309,
            47.58029366419901
          ],
          [
            9.188027935065934,
            47.580273329202555
          ],
          [
            9.188105800414512,
            47.58024011982261
          ],
          [
            9.188117115788094,
            47.58021837698211
          ],
          [
            9.188115008919835,
            47.58019277958148
          ],
          [
            9.18806585991441,
            47.580142865668186
          ],
          [
            9.188000297615,
            47.58011048047646
          ],
          [
            9.187984824901926,
            47.58009483629046
          ],
          [
            9.188010967196943,
            47.58005704598876
          ],
          [
            9.188033585299745,
            47.580001883889075
          ],
          [
            9.18805799539013,
            47.579918807577975
          ],
          [
            9.188084100940914,
            47.579890796307986
          ],
          [
            9.18810637316845,
            47.57988443294577
          ],
          [
            9.18813577438911,
            47.57988178522464
          ],
          [
            9.18821190937151,
            47.57989007278412
          ],
          [
            9.188247574580815,
            47.57988103338946
          ],
          [
            9.18825617516141,
            47.579857199487655
          ],
          [
            9.188235159838518,
            47.57965367051038
          ],
          [
            9.18824493775697,
            47.57960868756211
          ],
          [
            9.188259896589075,
            47.579574871237874
          ],
          [
            9.188283551964465,
            47.579548363222706
          ],
          [
            9.188339214036123,
            47.579540173432264
          ],
          [
            9.188558656695154,
            47.57956382146186
          ],
          [
            9.188578708959762,
            47.57955061868071
          ],
          [
            9.1885756537966,
            47.579532556134886
          ],
          [
            9.188542933369371,
            47.579490175819515
          ],
          [
            9.188538566782455,
            47.57946741923885
          ],
          [
            9.188801600758662,
            47.57905276003261
          ],
          [
            9.188823440235085,
            47.579026837055544
          ],
          [
            9.188997415333032,
            47.57890263102005
          ],
          [
            9.189063372186967,
            47.57883857402544
          ],
          [
            9.189082320892929,
            47.57880482326585
          ],
          [
            9.189070002215304,
            47.578771940491535
          ],
          [
            9.189039558724449,
            47.578745385631215
          ],
          [
            9.189000776680713,
            47.57872882514207
          ],
          [
            9.188961348309808,
            47.578701938151326
          ],
          [
            9.188930417189068,
            47.578658982169046
          ],
          [
            9.18893676241556,
            47.57861595809053
          ],
          [
            9.188982677036435,
            47.5785827357302
          ],
          [
            9.189142651499164,
            47.57851336373899
          ],
          [
            9.189194019617881,
            47.57844475915513
          ],
          [
            9.189226239582288,
            47.57841433431854
          ],
          [
            9.189321851112679,
            47.57835859126539
          ],
          [
            9.189368257403585,
            47.578324569680106
          ],
          [
            9.189437399132533,
            47.57818742689026
          ],
          [
            9.189463016485675,
            47.578157560497324
          ],
          [
            9.189509524842466,
            47.57812462580733
          ],
          [
            9.189570023265121,
            47.578100682545184
          ],
          [
            9.189705097890329,
            47.57809346048323
          ],
          [
            9.189775771750393,
            47.57806483847259
          ],
          [
            9.189842652499504,
            47.57801312735174
          ],
          [
            9.189906561998175,
            47.57792415520908
          ],
          [
            9.18994794603614,
            47.57784996173103
          ],
          [
            9.18997647645901,
            47.577827005008764
          ],
          [
            9.190019057333698,
            47.577824940297454
          ],
          [
            9.190147823051134,
            47.57784773329647
          ],
          [
            9.190183748514793,
            47.57784622788067
          ],
          [
            9.190188189584607,
            47.577801937072024
          ],
          [
            9.190714158409252,
            47.57812840055955
          ],
          [
            9.190911263146017,
            47.5779564066513
          ],
          [
            9.191037337960786,
            47.577864263103145
          ],
          [
            9.19112562476078,
            47.577779635544466
          ],
          [
            9.191319307672195,
            47.57755241296726
          ],
          [
            9.191524506588886,
            47.577589386655056
          ],
          [
            9.191619465234275,
            47.57732884240368
          ],
          [
            9.191830711867999,
            47.57680477715481
          ],
          [
            9.191875743934391,
            47.57663507245695
          ],
          [
            9.191894650246246,
            47.57646288422608
          ],
          [
            9.191890359869538,
            47.575754298619714
          ],
          [
            9.1918441902875,
            47.57554263118984
          ],
          [
            9.191848287790243,
            47.57517810100877
          ],
          [
            9.191927959047572,
            47.575180539210116
          ],
          [
            9.194105000295524,
            47.575427359555036
          ],
          [
            9.19455713648034,
            47.57562648978142
          ],
          [
            9.194587537353256,
            47.57555689581887
          ],
          [
            9.194625298751891,
            47.57551730857342
          ],
          [
            9.194722763652107,
            47.575446788499285
          ],
          [
            9.19475121722773,
            47.57541919881159
          ],
          [
            9.19475126751937,
            47.575388576039046
          ],
          [
            9.194720355832214,
            47.57519039712029
          ],
          [
            9.194729467571248,
            47.57516364022871
          ],
          [
            9.194967651035286,
            47.574978323282245
          ],
          [
            9.195101520161701,
            47.57488833285326
          ],
          [
            9.195114207730912,
            47.57486519206051
          ],
          [
            9.19511675792035,
            47.57482776648259
          ],
          [
            9.195134861498849,
            47.574806396764835
          ],
          [
            9.19516475198469,
            47.57479532863315
          ],
          [
            9.195424104576372,
            47.57474923417505
          ],
          [
            9.195453099737819,
            47.57473602052316
          ],
          [
            9.195504624044231,
            47.5746809223357
          ],
          [
            9.19557871902498,
            47.57456632498502
          ],
          [
            9.19558059430897,
            47.5745563111151
          ],
          [
            9.195564076837382,
            47.57450671523609
          ],
          [
            9.195573275027852,
            47.57448178311965
          ],
          [
            9.195653186880916,
            47.57443489060392
          ],
          [
            9.19565369834034,
            47.57441500192084
          ],
          [
            9.1956209292838,
            47.57438689171471
          ],
          [
            9.195615233993271,
            47.57436624250803
          ],
          [
            9.195632119817619,
            47.574342633193275
          ],
          [
            9.195675509198026,
            47.574302033671806
          ],
          [
            9.195747464454982,
            47.57426096509695
          ],
          [
            9.195762562060494,
            47.57424518231255
          ],
          [
            9.195753071768126,
            47.57420948653254
          ],
          [
            9.195952683085697,
            47.57405911645584
          ],
          [
            9.19598176412189,
            47.57403124704084
          ],
          [
            9.196034383839903,
            47.57393820526892
          ],
          [
            9.196071940883293,
            47.57392944953794
          ],
          [
            9.196105026526693,
            47.57387036657009
          ],
          [
            9.196151616125618,
            47.5737650468075
          ],
          [
            9.19613608388844,
            47.573670942332676
          ],
          [
            9.196209220206464,
            47.573627840452865
          ],
          [
            9.196216487166797,
            47.57361886929454
          ],
          [
            9.196277848269963,
            47.57334422952038
          ]
        ]
      }
    }
  ]
}