{"type": "FeatureCollection", "features": [{"type": "Feature", "properties": {"bfs_nummer": 4911}, "geometry": {"type": "MultiPolygon", "coordinates": [[[[9.172584194330696, 47.53113221378489], [9.171054863825374, 47.53292756829726], [9.170456635540125, 47.53358955047598], [9.169404948403601, 47.534865641688874], [9.168832863079544, 47.53547876250914], [9.16844526072771, 47.53579107115803], [9.167812524606711, 47.53620012853927], [9.167641606571088, 47.53630321885918], [9.164935550292558, 47.53732812596163], [9.163824820399755, 47.5376144454446], [9.16332403289381, 47.53510473347247], [9.160309922457168, 47.535311467922654], [9.159944626190677, 47.53517277382493], [9.160561410904144, 47.534578348078654], [9.16050156537553, 47.534549578232344], [9.160667234477787, 47.53403683888533], [9.160951814293766, 47.533769539072324], [9.16014501866484, 47.5330550787311], [9.159797642730426, 47.53325455415933], [9.159513754193702, 47.53319186206583], [9.159490827436676, 47.53322098071972], [9.1580003046074, 47.53305011098849], [9.155904542859215, 47.53281064324927], [9.155784952645272, 47.53277607287681], [9.155714123242195, 47.53270281668485], [9.155859336941097, 47.531510026018495], [9.155793250873481, 47.531505797265865], [9.155713868369885, 47.5315504605747], [9.155611924133442, 47.53155585820711], [9.152320110853909, 47.531434753214896], [9.15224758717191, 47.53138659170381], [9.15213124474209, 47.531415471752595], [9.152051074984973, 47.53145187690769], [9.151956678932919, 47.53146315098397], [9.151599004855315, 47.53143656031513], [9.14765170961476, 47.53116029254267], [9.147584571012787, 47.53110142447942], [9.147590240283748, 47.53107244595362], [9.147497946047723, 47.53106482990233], [9.147517669960807, 47.530958683975655], [9.147595548324842, 47.5304992019497], [9.1451375605086, 47.53048527744463], [9.145133751845703, 47.53041302446059], [9.145071688554113, 47.53041527936583], [9.145070761804183, 47.53040338242832], [9.143356623349298, 47.53044142896504], [9.14338187762316, 47.53229172132921], [9.143029525785902, 47.53216895890103], [9.142958332993251, 47.53226264642648], [9.143050564446837, 47.53229476276314], [9.14311593926215, 47.532344726344725], [9.143126138111885, 47.532412126398164], [9.14249773071787, 47.53332772807008], [9.142389348249626, 47.53339675572283], [9.141993576982546, 47.53355676717041], [9.142032521652672, 47.533603926612315], [9.140807384558629, 47.53409752570196], [9.141105944386277, 47.5349451461698], [9.139000592541999, 47.53569250793991], [9.139065317712312, 47.53585495860897], [9.13938616495768, 47.53646323526684], [9.139384052748104, 47.53653251661203], [9.139254357226688, 47.536575145428266], [9.139123996399256, 47.53660156426787], [9.138988243727093, 47.5366093596878], [9.138968541819887, 47.53665371074752], [9.138777349326865, 47.53670284620414], [9.138619292300431, 47.536789502541936], [9.138214753066158, 47.53716942514403], [9.138176144583477, 47.53725978850532], [9.13817434233342, 47.5373653814542], [9.138243326087249, 47.537719894542576], [9.138256232579796, 47.53783097494321], [9.138205847552339, 47.53794606063387], [9.138184538070032, 47.537957645122006], [9.138184363085106, 47.538047264026474], [9.138182931162534, 47.53823090682278], [9.138061260903674, 47.538389174889325], [9.137746779034568, 47.53880166825188], [9.137534250890097, 47.53884359362637], [9.13727722236441, 47.53887898342751], [9.137286784647797, 47.53892334579097], [9.137410042277098, 47.539428138460444], [9.137413999608375, 47.5394729516968], [9.137162040528976, 47.53949995498639], [9.136914704998452, 47.53954235376583], [9.13572930015669, 47.53979839646403], [9.135514338949939, 47.539845004611315], [9.131933504650556, 47.54061779391809], [9.131560394109087, 47.54067447021804], [9.130233535888143, 47.540767900060715], [9.130186297896103, 47.54081932639375], [9.130231024515146, 47.541374822164975], [9.1303127141725, 47.54237416408971], [9.130383177257483, 47.54241243785895], [9.130347351181168, 47.542478909538715], [9.130326130078508, 47.542527994950035], [9.130451884934887, 47.54393290023175], [9.130484684828316, 47.54429940601764], [9.1305488524719, 47.544337663622464], [9.132726804563003, 47.54447205779079], [9.134375449232973, 47.544574705542395], [9.134449816451673, 47.544554896573985], [9.134494674075476, 47.54451091595115], [9.134456391212995, 47.54466260638939], [9.134359500281274, 47.54502975045415], [9.134324762671717, 47.54524506148003], [9.134370193048596, 47.545540233383676], [9.134377661993627, 47.54558523810928], [9.134427913476848, 47.5456144496194], [9.134289339753485, 47.54570191152718], [9.13338234764445, 47.54617236066577], [9.133236286273336, 47.54624303655074], [9.133074626418278, 47.5462987284433], [9.1322128482554, 47.54648150388437], [9.130148673993347, 47.546813309028295], [9.12974273831579, 47.54688745978276], [9.129498459486404, 47.54694323711353], [9.12910883072192, 47.547093540232424], [9.128832903020681, 47.54716982068632], [9.12852001648007, 47.547231661520634], [9.128200862320078, 47.547268584504536], [9.127994593913755, 47.54728511325813], [9.128253230350865, 47.54766672236627], [9.128594048530966, 47.548129817327236], [9.128820399668976, 47.54844234933826], [9.128867497940897, 47.548507366723676], [9.12899373240552, 47.54868168091649], [9.128925554954808, 47.548685806188], [9.129016128289516, 47.5488880878415], [9.129055409357846, 47.548975880592344], [9.129192876060536, 47.549283006862275], [9.129427229593821, 47.54980654359288], [9.129628056930091, 47.55025518425186], [9.129678944848676, 47.550244240264206], [9.13026178971866, 47.55154909277128], [9.130316652062415, 47.551888935963945], [9.130320446590789, 47.552234526424456], [9.130407718867106, 47.55249259255076], [9.130588070352598, 47.55280724957158], [9.131220025565222, 47.55360222623246], [9.131400127392672, 47.55416178770177], [9.131422974606346, 47.5542323678427], [9.1314317888402, 47.55425958630563], [9.131451546028597, 47.554321188767], [9.131816229508965, 47.55530699049357], [9.13217527382628, 47.556277643259314], [9.132193725298592, 47.556307842287374], [9.132352474649092, 47.55642071314172], [9.132358337279246, 47.556433698246195], [9.13252558806141, 47.5568047046311], [9.132606605032564, 47.556984434760345], [9.13264362034541, 47.556975428585], [9.132935048270514, 47.557615410774474], [9.133224634236518, 47.558252846053584], [9.1335080164875, 47.55888056592974], [9.133544877227138, 47.55898907375827], [9.133551681138563, 47.55900737959162], [9.134204330995784, 47.56054526903829], [9.134027084409196, 47.560606532979264], [9.13452270181664, 47.56102564504203], [9.135244030574983, 47.56086235571082], [9.135638850793322, 47.56077827503505], [9.135889804038671, 47.56073325499564], [9.1362434478317, 47.56068028906507], [9.136415411792512, 47.560640086319495], [9.136451025961287, 47.560581802538586], [9.136514741454292, 47.5607053168739], [9.136581295201628, 47.560703559078426], [9.136627638331348, 47.56070233123736], [9.13700240582978, 47.56071355326145], [9.137689165239989, 47.56073411646787], [9.138750701243064, 47.560766134801995], [9.13980690518616, 47.560797187260484], [9.14086961139325, 47.56082871903969], [9.141396708144873, 47.56084435499868], [9.14198352953134, 47.560859938271015], [9.14214415838136, 47.56086420692446], [9.142149105989681, 47.5609107230305], [9.149099143589234, 47.561107661064646], [9.151332274261497, 47.561174323560955], [9.152835272914752, 47.56121226348097], [9.153110380013098, 47.56120480208249], [9.153220562274113, 47.56119263770756], [9.153959723089077, 47.56106539129113], [9.157623653713856, 47.560349749380286], [9.157886961925593, 47.56028998779146], [9.162632112480596, 47.55901822471731], [9.164799433931389, 47.55843244253776], [9.164680847262998, 47.5602236405983], [9.165949556688895, 47.5601598731433], [9.165948143717813, 47.56021652319721], [9.165789960664972, 47.56191543837608], [9.166030244525196, 47.5618645294876], [9.166978886799544, 47.561970470209765], [9.16733052025867, 47.562183725365955], [9.167591035498036, 47.562213312339736], [9.168119739325583, 47.56225097787284], [9.168324930703056, 47.562241528253274], [9.168522139015963, 47.56222284167102], [9.168715785725006, 47.56219152377976], [9.168972306329062, 47.56213155048698], [9.169450970500085, 47.56214717064763], [9.169704823624745, 47.56213789128741], [9.169994526077344, 47.56217032054512], [9.17010390962466, 47.562144307215924], [9.170181871003967, 47.56213530690887], [9.170410239390902, 47.562092816493234], [9.17055779794274, 47.56212602770118], [9.17063416301262, 47.56213246109239], [9.170782244042764, 47.56210509504777], [9.170797963006448, 47.56209601715658], [9.171735173436845, 47.562023935677324], [9.171814892757839, 47.56202197873759], [9.172052580657729, 47.56205656602621], [9.172165945293274, 47.562042608801804], [9.172359651887566, 47.56199204170105], [9.172448841779804, 47.56198136954836], [9.172929452915987, 47.56198864297744], [9.17308230399336, 47.56198649925779], [9.173059365636204, 47.56204550535476], [9.173077052983755, 47.56204868606181], [9.171955880565662, 47.56487510919361], [9.172094827352181, 47.56490034229714], [9.17197788793592, 47.5651937380052], [9.171925444130235, 47.56528055905394], [9.17093680953796, 47.56778066699917], [9.175186610127572, 47.568445142788725], [9.175179490730871, 47.56845545977515], [9.175188601150778, 47.56848487471496], [9.175300799513186, 47.56856813248812], [9.17528664343147, 47.5686160767282], [9.175287746488575, 47.56864532373698], [9.175355532878706, 47.56874717572296], [9.175413018065267, 47.56886974665546], [9.175411874986606, 47.568927436306566], [9.175469432551093, 47.56902377410628], [9.175414754466631, 47.56917875571093], [9.175352571116104, 47.56924492558613], [9.176003503896736, 47.5691938622693], [9.176319724497313, 47.56920506299132], [9.176504034944008, 47.56930122735615], [9.176590486198947, 47.56933159658057], [9.176851773708567, 47.56931937510985], [9.177443002897625, 47.569269763954544], [9.177575103009909, 47.569264093658475], [9.177706788677398, 47.56926930545399], [9.178474998272065, 47.56932898711955], [9.178604479348818, 47.56934357766147], [9.178730456109237, 47.56936723457147], [9.178852088048563, 47.569399457674756], [9.179138002504736, 47.56950184634683], [9.17917435171796, 47.569459514627674], [9.17948262775995, 47.56868938838303], [9.179153209045806, 47.568691106555356], [9.179085523449382, 47.56734881243682], [9.178572710484662, 47.56735942736297], [9.178536600632155, 47.56732224975863], [9.179697722378823, 47.56582141654379], [9.179766263520634, 47.56575728956184], [9.183131225527937, 47.564100284224025], [9.183142548593713, 47.56414837709655], [9.183218007648755, 47.564190196540075], [9.183273353628937, 47.56427841370672], [9.183297282453081, 47.5643901783556], [9.183338016431568, 47.56448308646321], [9.183471427996928, 47.56456015178809], [9.183541856597774, 47.56455444048225], [9.18361067339533, 47.56451950774087], [9.183722541627123, 47.56453191979388], [9.183845731475886, 47.564588330769105], [9.183937681702064, 47.56466761220069], [9.183973440778306, 47.56472559197789], [9.184157009083622, 47.56494960488671], [9.18420481438724, 47.56493090197334], [9.18426094967332, 47.5649682709888], [9.184303355653546, 47.564982619352726], [9.184381465280804, 47.56497402115153], [9.184433080322203, 47.56491353796791], [9.18447590235617, 47.564906991564335], [9.184568965501272, 47.56492348222608], [9.184679667686158, 47.564903237811436], [9.184759266744535, 47.564867593309884], [9.184825424110166, 47.564862944037756], [9.184896849974017, 47.56487985972404], [9.18486651307328, 47.56493139551174], [9.184905676504192, 47.56497929321055], [9.184999840979886, 47.56500177632983], [9.185116489790952, 47.56498128905073], [9.185142402527369, 47.56498152828115], [9.185222894389474, 47.56505099599282], [9.185267408153814, 47.5650380996449], [9.18536020255016, 47.564991064752796], [9.185431213287345, 47.56498808727312], [9.185522221501483, 47.56493605067286], [9.185575291251482, 47.56493435999198], [9.18560005968, 47.564974144313005], [9.18556824825473, 47.56507414576283], [9.185582520513565, 47.56509749086637], [9.185633981242699, 47.56509658006385], [9.185684980867864, 47.56508731009064], [9.185795734251137, 47.56511667639568], [9.185805377899205, 47.565032500188124], [9.185848941160057, 47.56502344114322], [9.185890966373401, 47.56503589658158], [9.186069890698981, 47.565145197846924], [9.18617067175873, 47.56518130796631], [9.186275110152938, 47.56525381433654], [9.18639869194165, 47.565306645650196], [9.186471533346497, 47.56529991561938], [9.186502892239508, 47.565317407488656], [9.186518994836442, 47.56534465611703], [9.18658500368348, 47.5653972401145], [9.186656691620861, 47.56541683139953], [9.186740520838974, 47.56541844558674], [9.18679001758992, 47.565435780734354], [9.186848281731397, 47.5654941308752], [9.18686627529124, 47.56554650349663], [9.186952142662374, 47.56558658925891], [9.187048295294383, 47.565542255176844], [9.187081927395502, 47.56558517101659], [9.187091251255058, 47.56562693329535], [9.187073696982388, 47.56574407314274], [9.187113324640567, 47.56579105453398], [9.187174610756209, 47.56576519312855], [9.187216116855963, 47.56570940399922], [9.187255036595651, 47.56569373065959], [9.187408552053094, 47.565746936890484], [9.187504846731333, 47.56581826961369], [9.187535391683769, 47.56585904588391], [9.187568868322364, 47.56587140484819], [9.187641054524667, 47.565845171872944], [9.187688109549164, 47.565802900632484], [9.187730141942492, 47.56583006362044], [9.18771030051195, 47.565885013229575], [9.187578664818526, 47.565971471501605], [9.187555397054137, 47.56602611291972], [9.187628277198105, 47.56608023888295], [9.187721937443166, 47.566086111999645], [9.187785746578438, 47.5661178580483], [9.187929837765587, 47.56612017211708], [9.187996288051435, 47.566104604702616], [9.187886845876584, 47.56603243637134], [9.187874406548724, 47.56600506053937], [9.188040059931136, 47.56602684001086], [9.188212936216518, 47.566037895025914], [9.188264959036287, 47.56606166852283], [9.188250741374116, 47.56610898570502], [9.188198832568744, 47.566161666742026], [9.188081060316156, 47.56623239839738], [9.187992035346364, 47.56624336790464], [9.187974692362408, 47.566265228857546], [9.18802661349713, 47.56628752859299], [9.188145991685339, 47.56630705579162], [9.18821881308392, 47.566310571323925], [9.188327552195561, 47.56627507805565], [9.18838816520261, 47.566215887529665], [9.188480921117431, 47.566216493099525], [9.18853081305093, 47.56627924190631], [9.18846541213046, 47.56633511344324], [9.18846768967408, 47.566405013228255], [9.188560375856234, 47.566562760253575], [9.188587240029168, 47.56665312330482], [9.188704684025556, 47.56673006401304], [9.18871786678393, 47.56676304184031], [9.188666291913224, 47.56679682670189], [9.18872936260566, 47.56683515937798], [9.188806251403044, 47.566822528451254], [9.1890486245314, 47.56669988813339], [9.189147171098845, 47.56667372394495], [9.189190713610532, 47.56668496782306], [9.189341186268326, 47.566764656476934], [9.18942160059924, 47.566785580546], [9.189601527699311, 47.56681325934336], [9.189675561839934, 47.56681322024842], [9.189860151987636, 47.566848069970185], [9.190128111467239, 47.56696075139135], [9.190204121710405, 47.56696742006517], [9.19035250012773, 47.56706211731665], [9.19039658379766, 47.56713525353115], [9.190403994173158, 47.56722689077608], [9.19043298576883, 47.56728253297353], [9.190521697765721, 47.56733775825034], [9.190748862437243, 47.56740596761112], [9.190958094400255, 47.56740725747121], [9.190992461647634, 47.567395006979126], [9.191129826550876, 47.567429399328134], [9.191249533809044, 47.567476895624445], [9.191285391672972, 47.56750294521158], [9.191393791396004, 47.567510292856575], [9.191437449763876, 47.56747670740497], [9.191492252144899, 47.567500842248286], [9.19151494079106, 47.56753946037588], [9.191566400888107, 47.56757146310517], [9.191784260186692, 47.56759892469278], [9.191851285533, 47.56755486534042], [9.191925021924652, 47.56757757098898], [9.191968384792235, 47.56764007529322], [9.192038891382477, 47.56765312314239], [9.192223583598512, 47.56760039238696], [9.192257877211665, 47.56768448906344], [9.19236567294472, 47.567708541358506], [9.192465020724084, 47.567681678385966], [9.192521178566498, 47.56770296747234], [9.192633635645729, 47.567780393568356], [9.19268304722857, 47.56785373673443], [9.192758694495973, 47.567713028556334], [9.19281233588431, 47.567691948912234], [9.193139094196027, 47.56782264287835], [9.193261909604754, 47.567912613785644], [9.193463177478543, 47.567964846275686], [9.193590202407007, 47.568029735617735], [9.193700620363854, 47.568008434370476], [9.19373687739986, 47.56804047748732], [9.193732060420965, 47.56810142579788], [9.193748033359366, 47.568126624351606], [9.193798039875988, 47.56811741988686], [9.193904297273162, 47.56806033286146], [9.193973514302165, 47.56806610349773], [9.194007229852756, 47.568114944297406], [9.194014107758404, 47.56825540133875], [9.194089879016735, 47.56830902984565], [9.194147364078946, 47.568244207132956], [9.194281819765443, 47.56820176074873], [9.194348945660565, 47.568203379630134], [9.19435398040084, 47.56826758819279], [9.194293300867757, 47.56832142143776], [9.194311441551676, 47.56834945677184], [9.19442591231236, 47.56838034184325], [9.194495155158739, 47.56837763756868], [9.194571663403625, 47.56833016740045], [9.194619157060213, 47.568344246143475], [9.19463991144423, 47.568452089540166], [9.194671381046836, 47.56852542420497], [9.19472368569626, 47.56857041187463], [9.194803571046878, 47.568587247234134], [9.194872271009046, 47.56858741163699], [9.194938186004984, 47.56861709778355], [9.195006970941362, 47.56867647194667], [9.195024018703458, 47.56875180625471], [9.195079612490709, 47.5687664276752], [9.1952007019667, 47.56873819846239], [9.195330056582957, 47.568795844815305], [9.195415967092533, 47.56882522766309], [9.195477329181513, 47.56888038709427], [9.195479833109642, 47.56894961759305], [9.195412215412743, 47.56898738220827], [9.195435418662463, 47.569367971263524], [9.195451628507785, 47.56940832411], [9.195626357169541, 47.56956368907165], [9.195656661107604, 47.569627046661964], [9.195728695925071, 47.56967008854427], [9.195706968721392, 47.56972247729244], [9.195711773247128, 47.569758793055705], [9.195764602910588, 47.56976215712728], [9.195802384694861, 47.56974341259308], [9.195919319855623, 47.56980605937533], [9.195957697088149, 47.56981453637449], [9.196033565342601, 47.56980431821446], [9.196052028809287, 47.5698264020651], [9.196025794407296, 47.569856270436546], [9.195918573671443, 47.56989634473973], [9.195862932977533, 47.56991006158839], [9.195947700690414, 47.56996709680103], [9.195934336737142, 47.57000429063564], [9.195675976941608, 47.57013507730462], [9.195642741970234, 47.57021808350031], [9.195624264827021, 47.57027027907045], [9.195620921173425, 47.57037931438805], [9.195666293061832, 47.570426808863644], [9.195739082886213, 47.57046932685482], [9.195753695664349, 47.57049836003969], [9.195726518043662, 47.57051822119964], [9.195666664962628, 47.570523581158355], [9.195639129267832, 47.57057358414791], [9.195666461539004, 47.57063629429053], [9.195587695675057, 47.57083449878454], [9.195592216525563, 47.57090280814969], [9.195556875450414, 47.57095355007189], [9.195590003487705, 47.57099979959146], [9.195569003321564, 47.571057304986844], [9.195507967712528, 47.57109160505125], [9.195418988640034, 47.57106159408947], [9.195353604155564, 47.57106611159061], [9.195332681899465, 47.57110308703487], [9.195318169775067, 47.57118192230361], [9.195381215684382, 47.5712296435096], [9.19539560812909, 47.571272101925665], [9.195352281779403, 47.57137156973901], [9.195287491805026, 47.57140490131028], [9.19530643274708, 47.571498441465586], [9.195292906572961, 47.5716046632714], [9.19529314292867, 47.57164072428052], [9.19527370249841, 47.57170360348407], [9.195338606109084, 47.57179900187899], [9.195328277569793, 47.57194641244605], [9.195354212510818, 47.572213908439366], [9.195350747826039, 47.57228514555774], [9.195382540312982, 47.57232154689984], [9.195394813817712, 47.572436931309376], [9.195365477865915, 47.572481977859354], [9.19537554077273, 47.572525752388096], [9.19533147348939, 47.572571939579795], [9.195383035676155, 47.57261925912679], [9.195457525050799, 47.57262950996617], [9.195514230097702, 47.572661107782054], [9.195590665960546, 47.572664303053344], [9.195620385917683, 47.57272642815711], [9.195555307315166, 47.57276354220046], [9.195562779574157, 47.5727908934179], [9.19582475469033, 47.57297810308309], [9.195858056158558, 47.57298055787897], [9.195881228341873, 47.572936045582246], [9.195936715859862, 47.57290595872163], [9.196011554995778, 47.572943623304845], [9.196089097480233, 47.57299226692002], [9.19608605159051, 47.57302272823686], [9.196065632562414, 47.573060856678374], [9.196093503683201, 47.5731012485369], [9.196210262219154, 47.57317117535774], [9.196240738674382, 47.57323845244395], [9.196235258976388, 47.57332989789992], [9.196277943890758, 47.57334433671545], [9.19644469967428, 47.573393777226336], [9.196509329563101, 47.57338244285037], [9.196558855439172, 47.5733898960248], [9.196560830098145, 47.573433864972706], [9.196589220623036, 47.57347868379768], [9.196667647192317, 47.57351464738146], [9.196796756100316, 47.57352394290146], [9.19684499328974, 47.57354866968085], [9.196870076533468, 47.573598783140866], [9.196967329023433, 47.57367573411749], [9.197024404958862, 47.57371966801428], [9.197111240724885, 47.57371891779375], [9.197167319572898, 47.573801773652086], [9.197302236003194, 47.5738466943823], [9.19739233423489, 47.57383286828587], [9.197450542704942, 47.57392902368985], [9.197432613338888, 47.574002549453255], [9.197482439567265, 47.57404953460013], [9.197609098067005, 47.574063868149594], [9.197668907277464, 47.57407873930904], [9.197706887487012, 47.574032616680874], [9.197803637749367, 47.574060259134235], [9.197847430601833, 47.57411410962379], [9.19792363466959, 47.57416718934515], [9.198057192231623, 47.5741502198668], [9.198216940973177, 47.57426365311101], [9.198279162923669, 47.57426908662421], [9.198343401126289, 47.57428240591029], [9.198357336821312, 47.5743194104143], [9.198429335602869, 47.574270477664754], [9.19879621634474, 47.57402111069019], [9.19891610753497, 47.57397368073699], [9.198901431459989, 47.57384462312811], [9.1987685639709, 47.573576916425495], [9.199384560907648, 47.572409262759926], [9.199412271461425, 47.572302096154004], [9.199489401459733, 47.57232782212798], [9.2002379812304, 47.57224044001548], [9.200372125801708, 47.57223371412464], [9.200507505753663, 47.57224538394156], [9.20070151076405, 47.57227553051045], [9.200998188233259, 47.57058923081922], [9.201284926105597, 47.56896082536099], [9.200047645087407, 47.56881227644099], [9.199679289912758, 47.56847379816517], [9.199642859011421, 47.56842461325411], [9.199638476147772, 47.56841390274826], [9.199485044289908, 47.568002403279884], [9.199376210747062, 47.567976835170164], [9.19956732677081, 47.56698680720866], [9.199773902357064, 47.56592171530603], [9.199333866820764, 47.56586192179249], [9.1991613240066, 47.565836943595656], [9.198988189136148, 47.565807332277764], [9.19900291068969, 47.56577229438429], [9.19883438779369, 47.565738258730434], [9.198669404027255, 47.56569991401467], [9.198594513054463, 47.56568088253819], [9.19868615440045, 47.56501010228979], [9.19869980732271, 47.56491036383265], [9.19871196477841, 47.5648212452679], [9.198726252294971, 47.564716620445246], [9.198670451696255, 47.56473014318026], [9.198617715157024, 47.56471060427712], [9.19856655085299, 47.564721249802005], [9.198498051386675, 47.564666047333034], [9.198455806287015, 47.564648651834524], [9.198426908447399, 47.5646064768944], [9.19838681468409, 47.564585009685956], [9.198362237739008, 47.56448232536358], [9.198371382925739, 47.56442541313634], [9.198339766656801, 47.56441509808364], [9.198241632833726, 47.564294666246596], [9.19825560189451, 47.564247351342466], [9.19824116054416, 47.5641509002722], [9.198274140316263, 47.564111734960285], [9.198264194249449, 47.564048653476846], [9.198253399315597, 47.563966378504205], [9.198246804807141, 47.56391619135502], [9.198314426588265, 47.56388761892663], [9.198328802760434, 47.563862212015735], [9.198332507085848, 47.56385567870185], [9.1982710770643, 47.563825251575565], [9.198272392923926, 47.563795580950554], [9.198309695753391, 47.56377216484713], [9.198304891123659, 47.56373548033609], [9.19830932943337, 47.56366287861014], [9.198306067991991, 47.56365269974179], [9.198271190623194, 47.56361656191691], [9.198292568358218, 47.563587864114375], [9.19826776758739, 47.563586270566724], [9.198232786394327, 47.56354659884093], [9.198243751718248, 47.563520541997484], [9.198290236698567, 47.56351191066113], [9.198287680208814, 47.563499741997155], [9.198297957129537, 47.56348218781773], [9.198351904288769, 47.56346290894958], [9.198367399226834, 47.56342755346675], [9.198347105487805, 47.5634043462607], [9.198310131129944, 47.563397566996386], [9.198345675175919, 47.563363202508086], [9.198405073228903, 47.563334754898676], [9.198506917639005, 47.56322757780146], [9.198533434856614, 47.563229235137406], [9.19855994725137, 47.563256000379205], [9.19858570285815, 47.563247108188925], [9.198621236957827, 47.563191612024404], [9.19861381264077, 47.56315248446758], [9.198625206626955, 47.56313375277217], [9.198663271410348, 47.56311890704958], [9.198672581146075, 47.563099046529395], [9.198654629348043, 47.56307792684147], [9.198663164222964, 47.56306275601357], [9.198722369426893, 47.56306218059143], [9.198818453849546, 47.56304507717899], [9.198785760724505, 47.56302791477567], [9.19879882240109, 47.5630141864778], [9.19883546102141, 47.56300523667478], [9.198856435397435, 47.56302411547195], [9.198885342361574, 47.563030909033124], [9.19894050993484, 47.56299033591258], [9.198956257363946, 47.5629766387741], [9.198961219334635, 47.562895006142305], [9.198991113285961, 47.56284979721482], [9.199051087064795, 47.56277136938341], [9.199095034353288, 47.56271428824058], [9.199175255010434, 47.56260603420308], [9.19921145588049, 47.56255504371683], [9.199228115225981, 47.5625075348483], [9.199235466713382, 47.562461498824085], [9.199249453942418, 47.562348647991264], [9.199254261191282, 47.56228079948845], [9.199243194780129, 47.562265314629094], [9.199194598046857, 47.56223588059248], [9.19918854670862, 47.562205701128526], [9.199206583055451, 47.562155229742494], [9.199192422194653, 47.56213740796014], [9.199182100344848, 47.562134353215086], [9.199177301375958, 47.56212189489553], [9.19913656560464, 47.56201609177126], [9.199107320066718, 47.56194096108561], [9.199094518250813, 47.561908014241155], [9.198956233627339, 47.56192538112693], [9.198870004095108, 47.561948632143086], [9.198771584387966, 47.56196058045288], [9.198697484908074, 47.56196967631945], [9.198539921009413, 47.56194151021393], [9.19852522747291, 47.561938881662904], [9.198516107648574, 47.5619364023422], [9.19819379280983, 47.561848872598624], [9.198074478182921, 47.56183268347126], [9.198029425444746, 47.561838369319446], [9.197998837223706, 47.561846192440434], [9.197961853575919, 47.56184391119412], [9.197747261120236, 47.56178688712562], [9.197678505864532, 47.56177877300258], [9.197651768442032, 47.561790504719326], [9.197648558861403, 47.56179191181887], [9.197610653384306, 47.561790687986], [9.197396512671236, 47.561735644620946], [9.197361220454091, 47.561748711585956], [9.197335175295722, 47.56178655695891], [9.197200764551601, 47.56181575559718], [9.197077623899418, 47.56182608948192], [9.196873148733841, 47.561817281566654], [9.196803929226409, 47.561791532965294], [9.196780389687428, 47.56176338201195], [9.196758594891067, 47.56173253276007], [9.196669200108682, 47.5616060386262], [9.196662756706555, 47.56154952489353], [9.196622441461031, 47.561514854455126], [9.196551749516077, 47.56146750176215], [9.196558200156282, 47.56142469143173], [9.19657441463489, 47.56131708933082], [9.19662813780307, 47.56095311837381], [9.196671597357142, 47.560659335083926], [9.196521027408304, 47.56061906875818], [9.196350760315953, 47.56057355044849], [9.19607292605251, 47.56049924798043], [9.196037217874418, 47.560489696073894], [9.195595730505985, 47.56037087948668], [9.194893341518839, 47.56021739634448], [9.194735315512636, 47.56018307002061], [9.194229421953962, 47.560072457156316], [9.194029057905633, 47.56002175982519], [9.19399929740205, 47.560011190661314], [9.19398754287665, 47.56000698772079], [9.193753478474536, 47.55992341635687], [9.193297717206658, 47.55970978330159], [9.192890661618359, 47.55955068182158], [9.192854883075222, 47.559538161238365], [9.192939106158883, 47.559386662885515], [9.192578753618497, 47.55920660331795], [9.19248103401325, 47.559157156428384], [9.19251716674899, 47.55895271637648], [9.192273896820867, 47.55889682691835], [9.192212134663833, 47.55888301731111], [9.192836572769622, 47.55744427318732], [9.191881769824263, 47.557163972290525], [9.191908413320267, 47.55710234283926], [9.191463305445488, 47.55704177841729], [9.191334695739931, 47.5570101240763], [9.190027694008565, 47.55666027075916], [9.189702150619686, 47.55665516038655], [9.189700092149643, 47.55660120686446], [9.189672334689298, 47.556376071152194], [9.189658581449399, 47.55626449505373], [9.189627129708358, 47.55600916056665], [9.189622472453783, 47.55597151058863], [9.189412151551338, 47.55591566642677], [9.189350521183192, 47.55597544910791], [9.189278261650548, 47.55598774087292], [9.189065973407477, 47.555954037928124], [9.188987413757362, 47.55598161872601], [9.18891793658023, 47.555975921355916], [9.188696457488467, 47.55601453985081], [9.188491029788887, 47.55601802063907], [9.18851421050501, 47.5560592944246], [9.188377925280172, 47.55603252058946], [9.18833574576162, 47.55603171819923], [9.188184128703428, 47.55606353231965], [9.188111075033095, 47.55609730862847], [9.188110717656464, 47.5560703263549], [9.188109186034598, 47.555954860255184], [9.188101496574237, 47.5555782903088], [9.1881456307944, 47.55520566920682], [9.188178320749065, 47.55493058399722], [9.187368574569444, 47.55490182236418], [9.187206250058614, 47.55462010887687], [9.187156781965992, 47.55448631230297], [9.187090857335535, 47.55449521452552], [9.186970859949541, 47.55390194409217], [9.186910997005226, 47.55374621915629], [9.186803553934729, 47.553466753323974], [9.186787795654134, 47.55335339039852], [9.18688029698463, 47.55269715298234], [9.186826008102548, 47.55265095036329], [9.184672616562812, 47.55276888377905], [9.18463566951802, 47.55281074094659], [9.184570489436608, 47.55270684853988], [9.1842441092676, 47.55219046080178], [9.184079465378767, 47.551928388851024], [9.183989398997479, 47.551946586105444], [9.183976304122208, 47.551949230253015], [9.182670835660579, 47.55221035729616], [9.181396919221587, 47.55246514777493], [9.181393143951826, 47.552981706392096], [9.181389991968278, 47.55341077902566], [9.1811060289569, 47.55334591617042], [9.180945386175006, 47.55328762746977], [9.180834684593549, 47.55322781390262], [9.180805202689157, 47.553252267351084], [9.180672578475296, 47.55317107612831], [9.180301637008998, 47.55300143896295], [9.1801940075817, 47.55293720656112], [9.17990270042954, 47.55276334851804], [9.179771022524633, 47.552711747623015], [9.179613053392536, 47.55268221285059], [9.179422997845297, 47.55264714165014], [9.17842104257896, 47.55261198533309], [9.176630821631003, 47.552548481212824], [9.17655727627515, 47.55258679159209], [9.176223814527084, 47.55358348468636], [9.17617257258778, 47.553408410043076], [9.176101264850343, 47.55343880598015], [9.175044658912238, 47.5532773723998], [9.17364879182597, 47.55306336462946], [9.171816310329733, 47.55278175525926], [9.169980194100434, 47.55249971264574], [9.169990523703648, 47.552396339409675], [9.170088128627656, 47.551409821559226], [9.17009125757831, 47.55137822624402], [9.1701511660797, 47.550758154042086], [9.170096237900566, 47.550600952899536], [9.17008238831088, 47.549991218171876], [9.170099671025193, 47.54995726117646], [9.170104952582808, 47.54979486004953], [9.170175606047815, 47.54931657997066], [9.170159774492385, 47.54904662426772], [9.170146329956555, 47.54899575536695], [9.170009293137696, 47.54866386617343], [9.169901084440268, 47.5484271367977], [9.169835541846862, 47.54828375013125], [9.169634218576322, 47.5477999895573], [9.169593203015861, 47.547701386356096], [9.169394926191737, 47.54717398551213], [9.169354654280193, 47.54706963177592], [9.169012715790014, 47.54640691892485], [9.168770447185, 47.54593871981277], [9.168482693378435, 47.5452650657821], [9.168480847323549, 47.54523816852073], [9.168662798456754, 47.545235964235665], [9.168526471690203, 47.54492498308743], [9.168507410844482, 47.54488149345265], [9.16858381301203, 47.544875566680496], [9.168742220773742, 47.54486238785108], [9.168733776024625, 47.54481686881915], [9.168583983859357, 47.54400877992549], [9.169037434892328, 47.54399813900273], [9.169036464303327, 47.54395326379934], [9.169037408689483, 47.543947996067025], [9.169110745515937, 47.54353855735489], [9.169190691450996, 47.54309223544107], [9.169269237715966, 47.54264540353171], [9.169348761977478, 47.54219886270421], [9.16959543700496, 47.54214143518773], [9.169831595963648, 47.54195908478582], [9.169840697115454, 47.541940354151286], [9.169930775785803, 47.54175500495493], [9.170025261777875, 47.54156060288173], [9.170202042511812, 47.54119686341343], [9.170442009959617, 47.54070532717006], [9.17065041733673, 47.54027845720085], [9.171064249160542, 47.53982720319239], [9.171689058101045, 47.53940873857759], [9.172161932076682, 47.5390920128857], [9.172413082524987, 47.53867489881965], [9.172537888440182, 47.538233245408634], [9.17266319239084, 47.53778982106486], [9.172788081213113, 47.53734798601295], [9.1730268538315, 47.53692933716312], [9.173265963144607, 47.536510125100556], [9.173506250889712, 47.53608887956358], [9.173746006473348, 47.535668945785936], [9.173985809302483, 47.535248947694285], [9.174225193708418, 47.534829674951624], [9.17462552956129, 47.53446925180722], [9.175025085715907, 47.534109522559646], [9.175291498935891, 47.5336954375104], [9.175556997113075, 47.53328275056486], [9.175679647506188, 47.53288685123684], [9.1758165599928, 47.532444984288254], [9.175952856564399, 47.532005069385214], [9.17512324649717, 47.531789598270905], [9.1748391825284, 47.531715825918404], [9.17347137988477, 47.53136072275089], [9.173186548764452, 47.53128690397568], [9.172907164783599, 47.531215160804884], [9.172584194330696, 47.53113221378489]]]]}}]}