{"type": "FeatureCollection", "features": [{"type": "Feature", "properties": {"bfs_nummer": 4941}, "geometry": {"type": "MultiPolygon", "coordinates": [[[[9.110587045451034, 47.58574960093828], [9.110545429115843, 47.585733172392366], [9.11049781661764, 47.58569733698792], [9.110486967225329, 47.58565641033307], [9.110434148340806, 47.58561527045534], [9.110409139004853, 47.585541435124554], [9.110459413421054, 47.58553049166099], [9.11000482299574, 47.584904186251165], [9.109728172708502, 47.584864924000826], [9.10934529374503, 47.584802651155165], [9.109093903265807, 47.58479116997923], [9.108578857715594, 47.584556319796874], [9.108302232892282, 47.58445693530857], [9.107884921197206, 47.58418750713345], [9.106947942579435, 47.5842076508284], [9.105555738204824, 47.58417865920416], [9.104944952532176, 47.58417907364693], [9.103707176892057, 47.58430544341582], [9.103644010701332, 47.58431993401362], [9.103694904317967, 47.58445925603331], [9.101752842996564, 47.584761605455476], [9.101823649743658, 47.5849514140777], [9.102274842640222, 47.585107635836216], [9.101891933613809, 47.58513452132454], [9.101332332277924, 47.58518390073745], [9.10067591165915, 47.58527119643973], [9.099706665220651, 47.585461553241586], [9.09961807527338, 47.585449311034786], [9.098868617869568, 47.58558512072911], [9.097816609565632, 47.585625961281416], [9.097820368632311, 47.58565263342886], [9.097932397479635, 47.58565204670041], [9.098001400915422, 47.585877315755894], [9.097644316598814, 47.585894336026634], [9.097262561050801, 47.58596986445809], [9.096886808147648, 47.58597498700598], [9.096702052063678, 47.58600336577174], [9.096482667493058, 47.58611033029094], [9.096211118978019, 47.586079327852126], [9.095954841272585, 47.585933583175596], [9.095668553320529, 47.58572306602198], [9.095552966997628, 47.58571575813964], [9.095444851151022, 47.585647910897144], [9.095256337505578, 47.585547406391875], [9.095142758248718, 47.585438274601], [9.094960440556273, 47.585428024489886], [9.094870367778348, 47.58540530170369], [9.09475213366497, 47.58540728710618], [9.09457803891229, 47.58542451650042], [9.094213114539016, 47.585344889658636], [9.094096554088134, 47.58526412705064], [9.093983551947687, 47.58527014805184], [9.093592847457453, 47.5852020057002], [9.093449083071683, 47.58507855971507], [9.093351372680484, 47.58502277804648], [9.093274999068859, 47.584937473514955], [9.09310804604983, 47.584905231679464], [9.092962459686401, 47.584909665558925], [9.09276055315919, 47.58483951048562], [9.092367595380427, 47.58476887743442], [9.092261138418628, 47.58468496383509], [9.092014293260862, 47.58461821029874], [9.091853282799898, 47.584506099035515], [9.091710386355384, 47.584463679907216], [9.091531162069364, 47.5843835915836], [9.091387302969293, 47.58425262352655], [9.091033499209571, 47.58415866863514], [9.09071551105284, 47.58404576185811], [9.09066687104691, 47.58406912384912], [9.090534090811227, 47.58406971121948], [9.090437316771261, 47.58402078638942], [9.090348464519034, 47.58389574447406], [9.090284502764387, 47.583720314148785], [9.09010151909105, 47.58346202016175], [9.089548172076647, 47.58292753591423], [9.089423138037489, 47.582827854494575], [9.089279384915889, 47.58278973573901], [9.089172830714382, 47.582733599737615], [9.089130208519846, 47.58261357522011], [9.089076816396059, 47.5825982600923], [9.089012950041802, 47.58254625708568], [9.08888552444222, 47.58260945699087], [9.088625563386703, 47.582470215750654], [9.088424558733879, 47.582325520436555], [9.088164257783951, 47.582163298629624], [9.087974168726134, 47.582093381169976], [9.087707305537172, 47.58204032490777], [9.087577183515807, 47.58198037604535], [9.08748454336227, 47.58194446109862], [9.087122384168865, 47.58183586142754], [9.087206881144272, 47.58176372049597], [9.08765366619128, 47.58148816363135], [9.087300979922208, 47.581212786112744], [9.086812681729175, 47.58078863251238], [9.086587348878599, 47.580662010952835], [9.086039078053435, 47.58022771226817], [9.085974761047355, 47.58022010741339], [9.08451375466056, 47.57896745798631], [9.084462204284268, 47.57891104977064], [9.083487912871842, 47.57798984795727], [9.082641925781349, 47.577216595604696], [9.08208350862872, 47.576527894385784], [9.081047455505798, 47.57569801713246], [9.081034380007917, 47.57554783170703], [9.080467732166792, 47.57510794081973], [9.07943150406807, 47.57439108177852], [9.078513881466767, 47.57469706338546], [9.078451511664658, 47.574753520631866], [9.07839795347592, 47.5747354775187], [9.078398375462314, 47.574004713394785], [9.078423142741787, 47.573896343755735], [9.078475943965154, 47.57376685156815], [9.078689389832933, 47.5733593529232], [9.078848008559559, 47.57310874859377], [9.078894292315455, 47.57299338162602], [9.078918033034656, 47.57283806943184], [9.076218185871337, 47.57225203053857], [9.075871521990427, 47.57217698391276], [9.074655130764212, 47.572747631987966], [9.074162998335828, 47.57290974245239], [9.073731144408061, 47.57343686043214], [9.073218798043952, 47.5732251698824], [9.072982470364611, 47.57313910412719], [9.072743756458415, 47.5730640191803], [9.072635513944993, 47.57307617792827], [9.072622551093433, 47.573105902202606], [9.071800366509121, 47.57333744101594], [9.070724138643907, 47.57367645031642], [9.072165595285085, 47.57510505579007], [9.068973317471139, 47.57596073511702], [9.068083780722807, 47.57521362941669], [9.067632551162434, 47.575583249033116], [9.067550487431815, 47.575848701290106], [9.06675934580084, 47.576590733599886], [9.066491518469308, 47.57666799783857], [9.066328272113196, 47.57665549251615], [9.06537390429874, 47.576360872313536], [9.064995959761278, 47.57632736882966], [9.06486578209748, 47.57659533808081], [9.06429621944698, 47.57682399748398], [9.064041580455779, 47.57664358189462], [9.063494914586109, 47.575680498838395], [9.061608331982796, 47.57610273350618], [9.059681630540672, 47.57652771127658], [9.058756261907176, 47.576725381017056], [9.057673952518446, 47.574015325941076], [9.057517116151526, 47.573610762965195], [9.056506578763923, 47.573911245922545], [9.055741911659041, 47.57409208543364], [9.054899465805908, 47.574246019131316], [9.054573677981166, 47.574299785077336], [9.054115172523115, 47.574359312869056], [9.05347268328394, 47.5744134501056], [9.052611567312727, 47.5744621813187], [9.051735190258352, 47.574500008979655], [9.049660122714789, 47.57456904162995], [9.049712662188382, 47.574756201254836], [9.049754307008907, 47.57490452699095], [9.050057024870327, 47.575694948856956], [9.050230034005907, 47.57633791021353], [9.05024154947406, 47.57637829297712], [9.050327187241862, 47.576693934068004], [9.050338639949926, 47.57673750198518], [9.050350407961705, 47.576782253148785], [9.050415427223394, 47.577026055067485], [9.050404311605792, 47.57707722286709], [9.050288766886274, 47.577694726318235], [9.050229610893446, 47.5781597809673], [9.0501832249432, 47.578157943070984], [9.050156685408652, 47.57825543677822], [9.049738665442298, 47.57922953454515], [9.04965633742534, 47.57942239124637], [9.04959344505224, 47.57957362540648], [9.049313956220967, 47.580223783160676], [9.04902220222646, 47.58090590952205], [9.048942601225086, 47.58105341727339], [9.048671573264523, 47.58156927852313], [9.048452101674942, 47.58207034486583], [9.048765247409282, 47.582759846881125], [9.048745949847168, 47.582781119428816], [9.048792368589973, 47.58290748238758], [9.049489577357823, 47.58295744609963], [9.049540007297274, 47.58296053251397], [9.04958707741903, 47.58478626332825], [9.049734395397074, 47.58485853707976], [9.050946714970273, 47.58475323109202], [9.051068837787245, 47.584949298928265], [9.051336545697659, 47.58492509260584], [9.052152722615222, 47.584849787395214], [9.052886627764455, 47.58478731628946], [9.053214472838537, 47.587018153294906], [9.053215325757677, 47.587023898541915], [9.053275032173703, 47.587071714798284], [9.053275908249079, 47.587074725080996], [9.053365413955182, 47.58738872588667], [9.053710970838521, 47.58860088745933], [9.053101090945354, 47.588855812953156], [9.05289548977436, 47.588941749039016], [9.052851543889679, 47.588960117941404], [9.052859714008585, 47.58897298474513], [9.053134793499574, 47.58940630911989], [9.05338207021216, 47.58979584289912], [9.053561040999796, 47.59040289425555], [9.052272442844526, 47.59102021363909], [9.052197184430343, 47.59105624389751], [9.052202244313108, 47.59105865624118], [9.052846924821822, 47.591370183399846], [9.053105178273455, 47.59151756814649], [9.054374031262528, 47.59237230398483], [9.054518894417376, 47.59249579941992], [9.054649259563938, 47.59265016231113], [9.054749848874856, 47.592825827644226], [9.055260537254409, 47.59426736944964], [9.055282545842575, 47.59432934735252], [9.05568868586046, 47.5954720841165], [9.055776591594059, 47.59573570327078], [9.055792039610187, 47.59586032714627], [9.05579814337724, 47.596072364520296], [9.055783907100087, 47.59623969010861], [9.055702277211262, 47.59654330153624], [9.055644343111002, 47.59678750909252], [9.05558902402134, 47.596979209516455], [9.055549590908782, 47.59718075433177], [9.055554086119688, 47.59730076330441], [9.055578723529791, 47.5974393459219], [9.055665663426288, 47.597632786802954], [9.055755727523124, 47.59772625328982], [9.055787925652114, 47.5977620650647], [9.056004280838925, 47.59794678333895], [9.056179289842694, 47.59807652187964], [9.056306599860443, 47.598154499918394], [9.056569587730726, 47.598285646270654], [9.057885904376842, 47.59875403721775], [9.058138011660452, 47.59881257656093], [9.058423613186152, 47.59884342724742], [9.058697918765903, 47.59883752655093], [9.058963636117468, 47.59880255487793], [9.05897559721117, 47.59880097546813], [9.059253557124608, 47.59872662975604], [9.060959213675561, 47.59804385261867], [9.061242523322129, 47.597946353780046], [9.061413572832054, 47.59789751658489], [9.061714972276684, 47.597822773842296], [9.062369341967134, 47.59769021313649], [9.062709249097349, 47.59764835591417], [9.062744086718629, 47.59759427343342], [9.062896939723245, 47.59763272027932], [9.062943640028918, 47.59770332842525], [9.06292673595215, 47.59782101937178], [9.062933130740317, 47.597881766315574], [9.062933656560244, 47.5978867784307], [9.06314072355509, 47.598107397902695], [9.063200044989141, 47.5981588756806], [9.063484751707577, 47.598360703751936], [9.063571212825794, 47.59840420890443], [9.06373294304062, 47.59845406250861], [9.06394698481436, 47.5985440222306], [9.063951612500844, 47.59854487491295], [9.064029757810829, 47.59855915290896], [9.064251511590472, 47.59856656031895], [9.064596411164501, 47.598544696515496], [9.06492652340015, 47.59852375866023], [9.065114662649686, 47.598529629841984], [9.065375133737428, 47.59852065094543], [9.06563141975995, 47.59851181116596], [9.065694167731467, 47.598538322121414], [9.065798442337183, 47.59858237629296], [9.066363906519571, 47.59913386168056], [9.066833408926545, 47.59960982521327], [9.066954446545296, 47.59971462347876], [9.0671437302303, 47.59986421438088], [9.067285553249238, 47.599958510531124], [9.067525685800627, 47.60010081093866], [9.067831519535668, 47.60026040379953], [9.068394099048863, 47.60054699369287], [9.068478946154945, 47.600576242037654], [9.068596870959285, 47.60058127730988], [9.068612865080977, 47.600581961058424], [9.068635388485504, 47.600576121246554], [9.069261077984871, 47.600413799204794], [9.06958388533663, 47.60035478309387], [9.06977922795718, 47.60034770887523], [9.070257699146158, 47.600391316943636], [9.070783830879444, 47.60044853712021], [9.071210371147137, 47.600506941030226], [9.071542106610385, 47.600571679878335], [9.07160819154575, 47.6005845754843], [9.071815307636601, 47.60058535606333], [9.07233044905531, 47.6005412368183], [9.072550458498386, 47.60048693486076], [9.072856332267099, 47.60036488278494], [9.073014658374017, 47.60027611495384], [9.073015573442921, 47.6002755983095], [9.073114712399224, 47.60022473483155], [9.073117717649945, 47.600221696967644], [9.07330009001684, 47.60003628375402], [9.073340163000582, 47.60001127812317], [9.073474990221822, 47.59997442092854], [9.07373302765537, 47.59996783253521], [9.074284333990144, 47.6001138545219], [9.074489570930167, 47.60025172150761], [9.07464126456713, 47.60032406423772], [9.074763480565078, 47.60035697278451], [9.07592201107248, 47.60043833144633], [9.076276586159164, 47.60051636260195], [9.076371396795553, 47.60061058309268], [9.076420046664381, 47.600648459813584], [9.076596603241947, 47.600785891565856], [9.076754907652187, 47.60089213250657], [9.076839740779915, 47.60095736601224], [9.076958898503326, 47.60101690620977], [9.07711145280443, 47.60106482000248], [9.077157516788196, 47.60108267296295], [9.077524113550085, 47.60112816458174], [9.077769054043435, 47.60118006126136], [9.077940159292735, 47.60119212553908], [9.078136863604916, 47.60118599855054], [9.078424084096289, 47.60111391367372], [9.078486907124576, 47.601111990883226], [9.07894710499665, 47.60109792656126], [9.079337886236434, 47.601135352211564], [9.079585324826938, 47.60108778236279], [9.079759708270636, 47.60107939623125], [9.079967806090723, 47.60110108094617], [9.080874248277675, 47.601203535263224], [9.080905906113157, 47.60121482612998], [9.081310393369048, 47.60121545728856], [9.081908250642478, 47.60119120028883], [9.08222734565113, 47.60115386269918], [9.082672880103862, 47.60117091791365], [9.082711443118168, 47.60117240425449], [9.082908967214284, 47.60119102224284], [9.083195621070235, 47.601235146662525], [9.083529663693808, 47.60127412745997], [9.083986600620568, 47.601326431450545], [9.084230977090835, 47.601369758870405], [9.084458889671918, 47.601453853301614], [9.084888880113017, 47.60165907331355], [9.084976994895731, 47.60172296810387], [9.085065430770888, 47.60181134411474], [9.085563709861196, 47.60207867786151], [9.085567483485379, 47.602080702239974], [9.085719705748254, 47.60217024995972], [9.08578047587983, 47.602216541656226], [9.085872728839513, 47.60224444881016], [9.086076719924371, 47.60226385117708], [9.086271880979329, 47.602255465216324], [9.086447965916202, 47.60226409090436], [9.086543065682351, 47.60229670686278], [9.086600888319877, 47.602343138908196], [9.086626346047078, 47.60238512801121], [9.086710820201153, 47.60252438383706], [9.08683251912328, 47.60265410605714], [9.08686210200724, 47.60269314905685], [9.086875943306879, 47.60270542014629], [9.087072363315025, 47.60287959761683], [9.08710418248495, 47.60289728929817], [9.087192694626484, 47.60294642415119], [9.087226047729747, 47.60295997404295], [9.08735295506828, 47.603011558549404], [9.087544912875392, 47.60304080857162], [9.087706046528611, 47.603056139737305], [9.087932370616478, 47.60302669047328], [9.08811970072649, 47.60297981324637], [9.088223924305773, 47.60296401000215], [9.088436195631015, 47.60291082243213], [9.088527220747217, 47.602902583022306], [9.088619380548325, 47.60290345786657], [9.088771168472183, 47.602936470689976], [9.088815800005639, 47.6029645314021], [9.088828742078997, 47.60297267711384], [9.088862106990732, 47.60300753701883], [9.088987980286692, 47.603178460114385], [9.0890578057782, 47.603250204310584], [9.089108203055638, 47.60330197604947], [9.089183108578752, 47.60335829256748], [9.089377688325069, 47.60343710367456], [9.089382421234312, 47.60343874545792], [9.089478231825849, 47.6034718525874], [9.089628012864539, 47.60349714783375], [9.089858649528171, 47.60350836520795], [9.089863597565445, 47.603507943941025], [9.08996720993682, 47.60349940720521], [9.090073938643394, 47.60347006429038], [9.090231323260147, 47.60343240769143], [9.090240071327486, 47.60343100573894], [9.090300009972037, 47.60342137249159], [9.090376994687395, 47.603409004704545], [9.090567363079577, 47.60338070098845], [9.090699007840405, 47.60339634909153], [9.090800008161729, 47.603419261234045], [9.09090439691662, 47.60348690484645], [9.090940939625382, 47.60352552383602], [9.090986176789162, 47.603573401284216], [9.09110323251682, 47.60373170115778], [9.091206509026195, 47.603794349836164], [9.091281010664714, 47.60381369908498], [9.09130537522692, 47.60382002658142], [9.09140945831878, 47.60381633943654], [9.091449515617173, 47.60381491398939], [9.09152288567696, 47.603802210137864], [9.091709726744424, 47.60372812259264], [9.091767430780132, 47.603705252025975], [9.091926717467341, 47.60363475026545], [9.091991926059727, 47.60358851010857], [9.092052032896365, 47.60354586895327], [9.092198978841589, 47.60348954877498], [9.092301081872694, 47.60348039276599], [9.092521835072635, 47.60348857027327], [9.09253519672904, 47.60348882050217], [9.092713871726454, 47.60349203849825], [9.092870875816464, 47.60351474381306], [9.092883883629378, 47.603516015559464], [9.092978845157466, 47.603525230786275], [9.093213186331859, 47.60352640355466], [9.093236520859914, 47.60352827455576], [9.093350566658025, 47.60353741515661], [9.093494356572029, 47.60355861696387], [9.09351317237705, 47.603561451955144], [9.093656229228689, 47.603583023953256], [9.093772815910492, 47.60362627502403], [9.09395744812903, 47.603735994113435], [9.094100977105313, 47.603777789755995], [9.094108376841342, 47.60377921337629], [9.094193466037007, 47.603795549073155], [9.094273336329206, 47.6038040521009], [9.094293193393845, 47.6038061524538], [9.09456285602178, 47.60382841655275], [9.094601206144626, 47.60383067564057], [9.094620114175827, 47.60383177299634], [9.094747329582065, 47.60383242133944], [9.094884003835336, 47.60381481735578], [9.095029564490867, 47.6037896018094], [9.095210771369448, 47.603806560963704], [9.09525758068035, 47.60381094783307], [9.095368886557731, 47.60383794572343], [9.095478688978176, 47.60387216153306], [9.095537259332136, 47.60388814639314], [9.095569348144027, 47.603896899367115], [9.095682630060473, 47.60391305607608], [9.095910262443896, 47.60402213993853], [9.09602772964726, 47.604071771960754], [9.096035142965379, 47.60407490441727], [9.096149071861856, 47.6041104728361], [9.096414530082365, 47.60413091267857], [9.096533251887733, 47.60414235809402], [9.096814451485557, 47.60409150717409], [9.096846667040852, 47.60408643184693], [9.097010285546043, 47.60406064094491], [9.097060754681007, 47.604045085608924], [9.097069620894416, 47.60404235911536], [9.09727494256829, 47.60401673624984], [9.097279140004579, 47.60401698206446], [9.097543519436112, 47.604031848407246], [9.097759567772213, 47.604017918245596], [9.09791960185983, 47.60398981155129], [9.098141373128517, 47.60389904866898], [9.098269927096842, 47.60384809337178], [9.09828204032476, 47.60384329631228], [9.09838391582595, 47.60381624606384], [9.09840171071207, 47.60381152061748], [9.098556996689826, 47.60376517498952], [9.098576209713945, 47.60375943969253], [9.098767764410423, 47.603731303395726], [9.098882831862964, 47.60371439078101], [9.099199836713876, 47.60369596311668], [9.099310302576557, 47.603728357637124], [9.099415561641578, 47.60384381965133], [9.099436012260721, 47.60388951209445], [9.099406596984114, 47.603975948902146], [9.09930934751444, 47.60406876333678], [9.09925524974979, 47.60419782362277], [9.099218362570333, 47.60435661064572], [9.099242063827688, 47.60442328819724], [9.099368001483533, 47.60452752455996], [9.099495334268381, 47.60456542553878], [9.099635638487328, 47.60456391096929], [9.099835406323233, 47.604528683762744], [9.099979943131618, 47.60447460108048], [9.100139946527205, 47.60448924757376], [9.100233746617212, 47.60455597325144], [9.100316378386422, 47.604638969927834], [9.100350191590959, 47.604682347812606], [9.100401522990023, 47.60468243993854], [9.10052421824541, 47.60468266093504], [9.100551816069414, 47.604667746635], [9.10061120641763, 47.60458373171859], [9.100628215971508, 47.60451445604985], [9.100696227377641, 47.60441310909621], [9.100742530667677, 47.60434230706538], [9.100770215218342, 47.60420493508613], [9.100721307467062, 47.60416798950434], [9.100728845472243, 47.60403033044967], [9.10070977565349, 47.60398374591102], [9.100757137786838, 47.60389028700336], [9.100761783986671, 47.603804241072936], [9.10082039980723, 47.60378512187369], [9.100866234830344, 47.603769010582816], [9.100875680608425, 47.60374658422099], [9.100933885913467, 47.60371903314455], [9.100942556644634, 47.60369861491287], [9.10090132451876, 47.603656162533845], [9.100936345821273, 47.6036298613007], [9.10102178113504, 47.603618138536994], [9.101063302042933, 47.60357980724647], [9.101067860649383, 47.603575873835595], [9.10109279103623, 47.60355438580239], [9.101096403846471, 47.60355125747313], [9.101205949353265, 47.603422265201104], [9.10123730394753, 47.603375740403656], [9.101351638532341, 47.60334058387609], [9.101367989630623, 47.603283020651446], [9.10146602658214, 47.60322312587059], [9.101526358517077, 47.603162881189625], [9.101322820790571, 47.60306277340789], [9.101293853320087, 47.602973691899955], [9.101213140603864, 47.60289332230217], [9.101191152685184, 47.6028546328013], [9.101240396068205, 47.60278179146213], [9.101191347968154, 47.60273311800165], [9.10109530288937, 47.6026838138816], [9.10105295675692, 47.60263635771395], [9.100997189088462, 47.602639792779534], [9.100969895810069, 47.6025688851999], [9.100951810993891, 47.602521890756044], [9.100948752022719, 47.60246119657179], [9.10089687637172, 47.60242668653969], [9.100834764444848, 47.602389363663], [9.100847849157441, 47.60230097474308], [9.100775713913775, 47.60226890498205], [9.100715197946462, 47.60224388304576], [9.1006471656206, 47.60219503163029], [9.100625204498371, 47.60216439264977], [9.100610586542121, 47.60214398439071], [9.100603748284454, 47.60207811796528], [9.10055744251825, 47.602036700371826], [9.100557864068644, 47.60198859505944], [9.100496762623965, 47.601911749095585], [9.10052807815758, 47.60186822962315], [9.100505903419448, 47.60180061317617], [9.100536791808823, 47.60177572957335], [9.100550104501503, 47.60173706483696], [9.10061879563233, 47.601669837147156], [9.100588433078084, 47.60161088355844], [9.100539826457993, 47.60160554412861], [9.100513801157234, 47.601580171793756], [9.100550244016079, 47.601504608556276], [9.100579230278779, 47.60146486455858], [9.100578502066977, 47.60135331196513], [9.10057845304483, 47.60134325563768], [9.100561703792943, 47.60131127357139], [9.10055489273793, 47.6012912750784], [9.100590715467932, 47.60120399051648], [9.100573695232315, 47.601176519087346], [9.100588064778766, 47.601113856993315], [9.100619418484019, 47.601094921871194], [9.100620562966819, 47.60106565180821], [9.10063234999326, 47.60104834632919], [9.100725216009833, 47.60098397450877], [9.10077812785648, 47.60097476934013], [9.100876734623604, 47.600895391592104], [9.101007220089073, 47.60088686448982], [9.100998252453133, 47.60081375108425], [9.10097672623221, 47.60068874245161], [9.101000227363617, 47.60065054324659], [9.100939517759215, 47.600600606594995], [9.10092110810117, 47.60057166189076], [9.10083891488823, 47.60062006687354], [9.10072797095559, 47.600627846044254], [9.100745679536764, 47.60057370882548], [9.100748422767287, 47.60054155533568], [9.100733514210514, 47.60051355891006], [9.100733670827045, 47.600474407953335], [9.100733758513309, 47.60045470643452], [9.100700323333797, 47.6004203458167], [9.100686446789299, 47.60038028950384], [9.100696017473737, 47.60035889579918], [9.10074701160267, 47.600322461510125], [9.100651374350978, 47.600251633834624], [9.100645449611234, 47.600157184324935], [9.100713501547222, 47.600104007811005], [9.100740807657683, 47.60006457572516], [9.10080084726986, 47.600045184246646], [9.100806457990247, 47.60000394913176], [9.100810172691702, 47.59999642985261], [9.100827342252439, 47.59996160481032], [9.1007200103957, 47.59993775751901], [9.100553847314863, 47.59993323041029], [9.100450905643623, 47.59992172504484], [9.100307789110664, 47.59983135549765], [9.100269274102708, 47.599761328052494], [9.100281109550162, 47.59972603980486], [9.100199516736977, 47.59964411679651], [9.100147557049542, 47.599608942001524], [9.100210971621017, 47.599552512747344], [9.100275608656759, 47.59954276196158], [9.100325448954724, 47.599564194924454], [9.100368464571664, 47.59951635186643], [9.1003268156215, 47.599485536113136], [9.100237088566498, 47.59946321743051], [9.100190453379303, 47.599400160956044], [9.100122367604177, 47.59936263542995], [9.100050814989885, 47.59931632594732], [9.100033263325873, 47.59928289798805], [9.100031325160849, 47.59923162400807], [9.100072823750047, 47.5991438353634], [9.100090709046437, 47.59907877498345], [9.100095488143904, 47.5990347541187], [9.100071641118646, 47.5989905586683], [9.100036579550574, 47.5989483860662], [9.09994131675124, 47.59884309986015], [9.099900977302497, 47.5987806007779], [9.099633057434707, 47.5988561693228], [9.098776888761511, 47.5985451012205], [9.09935485832655, 47.596924719672636], [9.099721489764715, 47.59589347741141], [9.099847011009622, 47.595542435245434], [9.099853232572968, 47.595524948694305], [9.099791820020352, 47.59548419691021], [9.099591306189438, 47.59536239044965], [9.09937990014192, 47.59524987920717], [9.099163702808182, 47.59515931346069], [9.099210592651772, 47.59510319322327], [9.099239094422092, 47.595029776956046], [9.099312170471745, 47.59485345195977], [9.099317515896802, 47.59484026859725], [9.099350794649386, 47.59478777057315], [9.099382886384182, 47.594669729910414], [9.099350162016998, 47.59439789390743], [9.099350495873454, 47.594262820702546], [9.099304603727534, 47.59401298750917], [9.099183978709025, 47.59390049845724], [9.099149987895743, 47.593870301788385], [9.099761099063434, 47.59363078587599], [9.099847359059579, 47.59360214962914], [9.099832076670776, 47.593981819357026], [9.100339276955978, 47.59413479006967], [9.101038328390016, 47.59415933109875], [9.10147242738503, 47.594203068280976], [9.101752272040562, 47.59452151022943], [9.101886746733511, 47.59459960578477], [9.101888017360107, 47.59460535369624], [9.101932604753438, 47.59463837533213], [9.101929639741645, 47.59466766256792], [9.101987138695511, 47.59467177675788], [9.103317502323048, 47.594776780021846], [9.10360702120692, 47.59483262388958], [9.103685331780328, 47.59473712692851], [9.103736174705384, 47.594741875187005], [9.104192520039863, 47.594781073028464], [9.105182613946655, 47.59483460251886], [9.106426321353279, 47.594832121490725], [9.106475280526507, 47.59483193002793], [9.106497876955382, 47.59483242360995], [9.106536401682296, 47.594598434022984], [9.10656969329777, 47.5944560407689], [9.106626524618537, 47.59437885069941], [9.106775247488589, 47.59413752752235], [9.106828093333524, 47.594026220548535], [9.106853595233773, 47.593823056910324], [9.106911810101613, 47.59379244394276], [9.1070515554156, 47.5938023886387], [9.107058099002572, 47.593793532809705], [9.107153169263611, 47.59380158366768], [9.107896262306847, 47.59386450007727], [9.109044618398213, 47.593883333601156], [9.110137256435646, 47.5938599865573], [9.110203853831868, 47.59385912548301], [9.110267755694045, 47.59358359556182], [9.110353265751447, 47.59333843793554], [9.110396679795327, 47.59321378065081], [9.110542691823435, 47.59320402890929], [9.110556798385318, 47.59318200190929], [9.110579032775014, 47.59315118635692], [9.11058392677992, 47.59309464144566], [9.110617392226843, 47.59304550156585], [9.110579406432787, 47.59299423451573], [9.110593976986845, 47.59289113248013], [9.110622589398947, 47.59285594296856], [9.11057043376578, 47.5928158280093], [9.11053270923871, 47.59276398152192], [9.110595764066023, 47.59274653835366], [9.110606167658236, 47.59257702801478], [9.110537924106762, 47.592555981739324], [9.110530880985184, 47.5924940945259], [9.110526937294557, 47.59243941309917], [9.110522831372858, 47.59238253900244], [9.110623561549293, 47.59230567637048], [9.110630281440228, 47.59228809202388], [9.11070838355037, 47.59208395287623], [9.110660777070128, 47.59197886894582], [9.110695011694647, 47.591885792582], [9.110652487134942, 47.59181790432051], [9.110658851022238, 47.59172572441804], [9.110636929873813, 47.59161874987295], [9.110649086836613, 47.59154203096849], [9.110562410977726, 47.591508225019375], [9.110553151882236, 47.591476873777985], [9.110549250215207, 47.59146361658269], [9.110437039566108, 47.59136512259911], [9.11041383225475, 47.59130678774782], [9.110344459346544, 47.59126629150011], [9.110343512255499, 47.591225258047935], [9.110323197888592, 47.59120809053727], [9.110284698348485, 47.591175496786576], [9.1102608378821, 47.59110189717606], [9.110197358012634, 47.59109016475567], [9.110173972171435, 47.59092905760629], [9.11014069665116, 47.590912013836274], [9.110143742782993, 47.59086940290254], [9.11010303726478, 47.59084444216097], [9.11009994060442, 47.59074697446801], [9.109999332253986, 47.59067733263595], [9.110015953624433, 47.59062750019913], [9.109978561334282, 47.5905738858128], [9.11002566982338, 47.59055095139228], [9.11001495958328, 47.59044184511627], [9.109879222082256, 47.59045966124958], [9.109829052531426, 47.59043649210734], [9.10978135499522, 47.590464364625475], [9.109719670143535, 47.59044754123997], [9.109624755101628, 47.59038215287596], [9.109551605105404, 47.59038255034625], [9.109524166054422, 47.590351515190925], [9.10951680379337, 47.590326316762905], [9.109458573827622, 47.59032672398579], [9.109433612362762, 47.590278084654834], [9.109366863370536, 47.59024399966366], [9.109339999062756, 47.59016870674261], [9.109256504812683, 47.59009901538995], [9.109142817403399, 47.59000413067058], [9.109095177314732, 47.58997807322244], [9.109071788896474, 47.58993672459811], [9.108902858728245, 47.5898475385032], [9.108820325529276, 47.58977623202206], [9.108823356268553, 47.589698034696845], [9.10873073933911, 47.58968404040466], [9.108689013497909, 47.589649000844794], [9.108641154648627, 47.58965062571874], [9.108553251509115, 47.58960514182725], [9.108546792583777, 47.589552439452355], [9.108541233960958, 47.589548201621334], [9.108467000036716, 47.58949171690608], [9.108467818615196, 47.589457728574814], [9.1083585660726, 47.589422978049406], [9.108311231890982, 47.589296740550104], [9.108100458674253, 47.58912428074507], [9.10802771944477, 47.589100059431495], [9.107959753740506, 47.58895450881027], [9.10797622330961, 47.58891164149101], [9.107950785786905, 47.58884611487444], [9.107951812214177, 47.58877306486721], [9.10790206470062, 47.58872391861509], [9.107928015353211, 47.588648089854594], [9.107876170971048, 47.588562712524194], [9.107874859188774, 47.58845802254961], [9.10783006497249, 47.58838499330053], [9.107832482587444, 47.58833968358425], [9.107804180362017, 47.588279028814824], [9.1078438186704, 47.58813784762649], [9.107818405797335, 47.58802827807185], [9.107693604043462, 47.587879110552585], [9.107627496382356, 47.587841606119454], [9.107559636102964, 47.58781940140851], [9.107494019357613, 47.58783724877008], [9.107456843576012, 47.587804329321514], [9.107450067256844, 47.587746144087255], [9.1074454724848, 47.58769220955546], [9.107464626407188, 47.5875955735442], [9.10748052132366, 47.5875420283559], [9.107495031591675, 47.58749309907155], [9.107502497262132, 47.58746793842782], [9.107458238444124, 47.58738568064826], [9.107404326291563, 47.58730849147692], [9.107381112106658, 47.58729417172426], [9.1073718436638, 47.58722565051734], [9.107388553731413, 47.58719635413719], [9.10739518239537, 47.58718473534509], [9.107512674119285, 47.58710025763028], [9.10752648332765, 47.587090343582574], [9.107546866224496, 47.58704508099054], [9.107579896685028, 47.58701342670196], [9.107596308443263, 47.5869518222373], [9.107597695163696, 47.58691558590236], [9.107640087509798, 47.58688565902069], [9.107676816496612, 47.586848158241224], [9.10780845434816, 47.58679453828289], [9.107880554156937, 47.586766828318545], [9.10790873761618, 47.58672312655677], [9.107912500775795, 47.58671890739983], [9.107981319533895, 47.58670102294768], [9.108046431106573, 47.58670689512083], [9.108207737438429, 47.586633983678915], [9.108250005679839, 47.586615770522684], [9.108302396502959, 47.58662852769403], [9.108386718416725, 47.5866385308143], [9.108435899274326, 47.5866304101366], [9.10849438910458, 47.58662318085097], [9.10856431293591, 47.58661127111475], [9.108637978174805, 47.58661769443925], [9.108878821888949, 47.58656502795595], [9.108929815242808, 47.58652578307501], [9.108962265381686, 47.586488820418865], [9.10896022055552, 47.5864660998845], [9.108991366136026, 47.58641008515327], [9.109007830196056, 47.586392018605885], [9.109033414367449, 47.58636757765776], [9.109083487795319, 47.58634811829897], [9.109093397624367, 47.58634824538028], [9.1091311339238, 47.5863487002208], [9.109185600223606, 47.586322223853394], [9.109232301847266, 47.58633081647266], [9.109283016299184, 47.58635579525365], [9.109378312226282, 47.586322019884285], [9.109395563469393, 47.586281237008144], [9.109420064902462, 47.58625662261755], [9.109414332450356, 47.58624558668053], [9.109404417327667, 47.58621530632676], [9.109494822090861, 47.58619047100226], [9.109551230558713, 47.58616698903151], [9.109616846115385, 47.58615847802428], [9.109634588403397, 47.58611133719486], [9.109647912851457, 47.58607295868561], [9.10969355118426, 47.58604272324516], [9.109744240004725, 47.58604451143878], [9.109845843388797, 47.58608185415089], [9.109914229512924, 47.58608616691186], [9.109960952342012, 47.586054062636], [9.10992452326221, 47.58598449378942], [9.109987517027054, 47.58595354024644], [9.110115645878684, 47.58595919565056], [9.110198521511206, 47.58596847166987], [9.110208261939672, 47.5859695546351], [9.110404732757312, 47.585914817064996], [9.110440883661992, 47.58586706864462], [9.110587045451034, 47.58574960093828]]]]}}]}