{"type": "FeatureCollection", "features": [{"type": "Feature", "properties": {"bfs_nummer": 5001}, "geometry": {"type": "MultiPolygon", "coordinates": [[[[9.13935260080495, 46.178649875294724], [9.1342609506801, 46.17694388153428], [9.133552126546267, 46.17706925232735], [9.13138015156728, 46.17748017430109], [9.129519020304746, 46.177694329677266], [9.127767698292299, 46.177941010709326], [9.125679366747518, 46.177846288045366], [9.123830188459484, 46.17794590611441], [9.122890336940143, 46.178088252092856], [9.122218216221247, 46.178141787211615], [9.121634861165024, 46.178069989843024], [9.121420608377809, 46.17821622974874], [9.12111468265473, 46.17822649188275], [9.120824838603838, 46.17822441163595], [9.12071300070766, 46.17827293798641], [9.120516506606066, 46.178420143968495], [9.120330917768419, 46.17848429940662], [9.11999545150977, 46.17849978586001], [9.119381378621014, 46.178634778034535], [9.11908270796954, 46.17859098598735], [9.11893929026913, 46.17859045616814], [9.118064498983854, 46.17877375161974], [9.117864593995156, 46.17892742731045], [9.11313859279287, 46.17827064621083], [9.109535341769957, 46.17912306385696], [9.106974997817577, 46.18078773046788], [9.10473863897632, 46.18155967015034], [9.103488076773612, 46.18185147078413], [9.101451398622801, 46.18167005177749], [9.098400700429309, 46.18260123499072], [9.098029103285077, 46.18264988504167], [9.096712954943191, 46.18286563646728], [9.095575226877823, 46.18294609398878], [9.095195429907236, 46.18296677347353], [9.094910430359272, 46.183004560427136], [9.093514685241384, 46.183297928450045], [9.092908607043222, 46.183315211775614], [9.091549347571094, 46.183421951445396], [9.09133529254951, 46.18345337284189], [9.09114396812922, 46.18354106493794], [9.090931908519737, 46.1836267746816], [9.090809458428039, 46.18365379538077], [9.090342885262196, 46.18371878950015], [9.089497622233912, 46.183771637154386], [9.088671265737956, 46.183792657282396], [9.088340785636266, 46.183722975907905], [9.08794816766704, 46.18364734486826], [9.087430538282822, 46.183638705953655], [9.0871364507025, 46.18351256182865], [9.086692195362122, 46.183447328538904], [9.086312172583574, 46.183447484072026], [9.085952137722128, 46.183309649207835], [9.083131191927492, 46.18334483671171], [9.080964559591418, 46.18379387817027], [9.079147100261572, 46.184524812707046], [9.077998962607781, 46.18554473817621], [9.07702838305014, 46.18622464737377], [9.075571642899977, 46.186461727621506], [9.074838100790616, 46.18705540250996], [9.07177990816765, 46.187242750801104], [9.071288326887524, 46.18726607043062], [9.069182910608724, 46.187647404042764], [9.06785428570041, 46.187882523230996], [9.066087503115654, 46.18793501401596], [9.065090659111714, 46.18795836643371], [9.064035572923324, 46.18876534892903], [9.063478483937995, 46.1891989479937], [9.06305512682765, 46.18951275345986], [9.062175683623591, 46.190780572616084], [9.060347976863657, 46.19170570325874], [9.060184198216039, 46.191992375238435], [9.058951090812606, 46.194093020132314], [9.05896106704107, 46.194646231560576], [9.059012196971786, 46.19571171274197], [9.059142394268777, 46.19725742862485], [9.058637484698997, 46.19857832656471], [9.058075125513554, 46.19971110550438], [9.058318883024638, 46.20128487249906], [9.0578193280767, 46.20165463990083], [9.057724975208913, 46.20170637718521], [9.057448934271797, 46.2020540466057], [9.056710632176076, 46.20306875690452], [9.056106436621384, 46.20388717471708], [9.055576567253242, 46.204590282068274], [9.05493812173482, 46.204779370614105], [9.054157273490032, 46.205018174538324], [9.05302251277585, 46.20538259531735], [9.05266689492432, 46.20514654302411], [9.051817780177632, 46.20491754320257], [9.051313433501008, 46.204822169560614], [9.050590572043587, 46.20491797636274], [9.04996197558793, 46.20516547300279], [9.048423938170608, 46.20483371427728], [9.047666915803712, 46.20465105055356], [9.046618823041033, 46.204265590760954], [9.046517072915426, 46.20424153865731], [9.046273065052914, 46.204232502885944], [9.046184996356939, 46.2042438864694], [9.046112835171067, 46.204264301902185], [9.04600283561177, 46.20432031006632], [9.045849134514366, 46.204413937170365], [9.045573741744994, 46.204511713663756], [9.045367678852054, 46.20454316534872], [9.045294251435191, 46.204543939504994], [9.045209306270634, 46.204530759817224], [9.045042585446577, 46.204488385041216], [9.04492822698276, 46.20446650907054], [9.044837333878771, 46.204460350897854], [9.044812035389617, 46.204454978994264], [9.044470098633616, 46.20434977875094], [9.044355330281714, 46.20431969341173], [9.044271176008017, 46.20432320140057], [9.04418868544894, 46.2043954708705], [9.04411296410141, 46.204395367576], [9.04399547781878, 46.204425647808634], [9.043856075236697, 46.20441890831923], [9.043602248705445, 46.204417068734834], [9.043439437927894, 46.20442247504474], [9.043291374935325, 46.20446838485256], [9.043236840842962, 46.20447399047364], [9.04292824841352, 46.20446725810956], [9.042619044887303, 46.20444678628178], [9.042459845206565, 46.20446700394745], [9.04226104011267, 46.204437379442204], [9.041530540351395, 46.20431447190102], [9.041454951049237, 46.204318906852905], [9.041247861285553, 46.204243382555035], [9.04083704619572, 46.20423864292054], [9.040376904354565, 46.204450529786165], [9.040132151422977, 46.2044747897419], [9.038500104805276, 46.20516515414313], [9.038939108009503, 46.20561972352083], [9.039031540181385, 46.205865232291], [9.0390397667469, 46.20591233453221], [9.03903566915651, 46.20604850656945], [9.039042336087707, 46.20609456926165], [9.039027651549524, 46.20638995770032], [9.039040840489967, 46.20661958461682], [9.039271877143902, 46.20747758688364], [9.039438680168011, 46.207983338591916], [9.039556988866073, 46.20828402276111], [9.039662333664243, 46.208508699862676], [9.039577437986729, 46.20855112036699], [9.039559790666884, 46.20872184585615], [9.03952704848086, 46.20887593295051], [9.039484142858466, 46.20931030089165], [9.039471636761107, 46.20955850287736], [9.039420647511347, 46.20997979499511], [9.039399384905787, 46.210113978933194], [9.039396445674448, 46.210542589152794], [9.03942698860731, 46.21069763300924], [9.03949073323354, 46.210937673583686], [9.039270128052449, 46.2110647844314], [9.040287210235206, 46.21433814558664], [9.040893597408749, 46.21530250058773], [9.03889700903972, 46.21598403822686], [9.039242215603828, 46.216715242336726], [9.039241722242492, 46.21735365725206], [9.039150701639377, 46.21828348757673], [9.037042057598729, 46.22082206017666], [9.036434281013449, 46.225019408080286], [9.03416732918888, 46.23186028960612], [9.03308890152907, 46.23494500816401], [9.032119356053611, 46.23609985780864], [9.029439447603146, 46.23738266703279], [9.030799270815034, 46.23828604304247], [9.032315903310504, 46.23944517682615], [9.033102055826042, 46.2383232434843], [9.03350857397146, 46.238108569216784], [9.03353138744459, 46.23788617131753], [9.033697099707213, 46.23793391320191], [9.033791557308191, 46.237952347755844], [9.03401356488261, 46.2379715644468], [9.034676736328075, 46.23790939665804], [9.034802081703583, 46.23776427853473], [9.034942610455575, 46.23761650774226], [9.035919088953154, 46.23661815437421], [9.036521204520744, 46.23600815304024], [9.036664874002607, 46.23586829844151], [9.036741363025167, 46.23578268558375], [9.037777987012374, 46.23633904552447], [9.053983387438583, 46.24155492825756], [9.054616553539958, 46.241612532615434], [9.052752238662315, 46.23819359154989], [9.052244623089004, 46.237872418534366], [9.052323704528103, 46.237555356505396], [9.052132752377862, 46.23669288933759], [9.05126644913158, 46.23609822592756], [9.051426174228725, 46.23593610611937], [9.051643731072097, 46.235652520465784], [9.050816809997357, 46.23521884964438], [9.050989122964817, 46.234759091805834], [9.050386016437745, 46.23430994526831], [9.050365836525456, 46.23402558761163], [9.049560592110437, 46.23373346349978], [9.04973898833524, 46.23326483033775], [9.049944847675274, 46.23295974908724], [9.05004726078441, 46.23280905576894], [9.050048706120071, 46.232415105556186], [9.05038417787184, 46.23210179676844], [9.049965086582027, 46.23114630330423], [9.050420227815644, 46.22818473202829], [9.050304281230854, 46.22802782020332], [9.050307556226441, 46.227745302529996], [9.050307706427564, 46.22773462006802], [9.05021402044409, 46.22774010384231], [9.050170278548602, 46.22748703145066], [9.050239486881212, 46.22715179517643], [9.05028998063486, 46.227156122752696], [9.05029415128158, 46.227148550344275], [9.050304592665006, 46.22714522531315], [9.050316876491692, 46.227113927707855], [9.05033152500711, 46.227076676029135], [9.050377695990175, 46.2269748494485], [9.050395664153273, 46.2269306223539], [9.050470446544487, 46.22675917876428], [9.050509176752211, 46.226674463587926], [9.050550303022368, 46.22661901013268], [9.05056973075552, 46.226590372861935], [9.050625046436881, 46.22650888513571], [9.050666399059452, 46.22643525343712], [9.050759848902667, 46.226256399347406], [9.050773904411985, 46.22621008652213], [9.050813524193478, 46.22608145961198], [9.05084635423492, 46.225974838489535], [9.050855033508038, 46.22594747917716], [9.05088554386066, 46.22585095936271], [9.050908675042603, 46.22579943349592], [9.050939958892414, 46.22574960876974], [9.050975184407937, 46.22570593610763], [9.051043144475505, 46.22564129105307], [9.051121244190492, 46.22558678543675], [9.05115905082919, 46.2255615478012], [9.05133143267368, 46.225458369781364], [9.051475816375648, 46.22537195755782], [9.05173091142093, 46.22521911080089], [9.051931590660677, 46.225098432601285], [9.052227233046688, 46.22491714945378], [9.05226582207576, 46.22489559822661], [9.052288908357838, 46.22488722481673], [9.052311967667022, 46.22488231581128], [9.052339683884394, 46.22488144318535], [9.052362462562542, 46.22488630949587], [9.052335213162456, 46.22483076998728], [9.052305080941366, 46.22476937823397], [9.052337188227822, 46.22477144808419], [9.052363414873017, 46.224764496403715], [9.052426638919643, 46.224726037938595], [9.052539114406377, 46.22459760262066], [9.052779551336707, 46.22431961816784], [9.05299997793793, 46.224042764765166], [9.053079853593166, 46.22393987960915], [9.053100911519545, 46.22391252321429], [9.053127375886156, 46.223875138305615], [9.053144861148136, 46.22385014530062], [9.053178674296548, 46.22380178638266], [9.053259960370381, 46.22368659930573], [9.053312551179989, 46.223704472826], [9.053448424823742, 46.223750974012425], [9.05373860106778, 46.22385033489445], [9.053905351956677, 46.2236538388944], [9.053965511272697, 46.223582951155684], [9.054084025830235, 46.22344329792628], [9.054107936446018, 46.22341511775377], [9.054111518807998, 46.22341090069924], [9.054129530246986, 46.223389679015284], [9.054340975293327, 46.22346093074505], [9.054783397831883, 46.22333164465861], [9.055078393279718, 46.223244494395196], [9.055086347809175, 46.22324214915978], [9.055732256758173, 46.223017975045344], [9.055969142079016, 46.222935759783866], [9.055990172030713, 46.22292845900888], [9.056016411209175, 46.22291935587262], [9.056043638244018, 46.222909905698], [9.056057020951556, 46.222905260558235], [9.056814462603224, 46.22257390113476], [9.05685735721437, 46.2225551390239], [9.057022741687806, 46.222482788644896], [9.060492308219334, 46.22096484848717], [9.063968285040676, 46.219552662190154], [9.066935865679305, 46.21831053142411], [9.069758008495945, 46.21706415701754], [9.074075160941126, 46.21523548961847], [9.073512038825678, 46.214482417481776], [9.075649225360236, 46.21331414625911], [9.07754949678612, 46.21237329951979], [9.07927748365605, 46.210964355157884], [9.080309211637898, 46.21053635205016], [9.082279382175624, 46.21131483695972], [9.08611939602044, 46.21010805774803], [9.087332027818688, 46.21103514910494], [9.08852117870762, 46.21195447147162], [9.089058758462777, 46.21237221479416], [9.089983135985115, 46.21203928913326], [9.090720380096766, 46.211817953952966], [9.091187805981331, 46.21163206210118], [9.091615205052342, 46.21149354915865], [9.092461924685958, 46.21120763015889], [9.09337403978912, 46.2108559414778], [9.094057518920811, 46.210615578220626], [9.095330064271426, 46.21018392480128], [9.096559306251583, 46.20973577868847], [9.096887335570564, 46.20961219605627], [9.098241138930291, 46.20916941746677], [9.09982219514703, 46.20861439964138], [9.100689657682118, 46.208288513562536], [9.103067536096821, 46.207474278175155], [9.10520727225659, 46.20671480179207], [9.106101601616793, 46.2064226610306], [9.106814268568048, 46.206206986460884], [9.108336717566214, 46.20564820735378], [9.108940298115765, 46.205745176851345], [9.111234781685761, 46.204979044603085], [9.112186174702055, 46.20409259186398], [9.112620415835279, 46.20376124595354], [9.113158521274432, 46.203471385473485], [9.116229361771046, 46.20215265664354], [9.117249767733705, 46.201407483224244], [9.117546391600214, 46.20108589556696], [9.119005420724719, 46.20038092609418], [9.119250813877525, 46.2000976743694], [9.119825424971244, 46.19971030581728], [9.12003292274464, 46.19936408447512], [9.120357650723388, 46.19899371206846], [9.120740651819427, 46.19838318624513], [9.12076225265748, 46.198147801639685], [9.1210336692026, 46.19748200625185], [9.121600315102711, 46.19692209681897], [9.121956499962788, 46.19666733803583], [9.122216205355919, 46.19636080830318], [9.122641445334086, 46.19603759505817], [9.12285454293319, 46.19558345890343], [9.124488505129492, 46.19527696831782], [9.124740588321416, 46.19509024357924], [9.125048721274347, 46.19502906361223], [9.125781267538077, 46.19434029321556], [9.126064743149852, 46.193974057598176], [9.12623130309848, 46.19353635099949], [9.126464807925846, 46.193099490499655], [9.12692594088009, 46.19276059499736], [9.126920970854995, 46.19260024933473], [9.127435615407633, 46.19233185909907], [9.127925357115451, 46.19167503185949], [9.128262904816786, 46.19142203584046], [9.128852245329382, 46.19032093838005], [9.129711935062067, 46.18979211362519], [9.129736262997483, 46.18933776436676], [9.131086132839448, 46.188390217443285], [9.13111732711955, 46.1878449729998], [9.131404006290554, 46.186850281609765], [9.131175267485576, 46.1862881924291], [9.131395541420693, 46.18545339736368], [9.131509573623495, 46.18529188818993], [9.131278599862373, 46.185091998894904], [9.13130464549336, 46.184804581028395], [9.13146663974138, 46.18468158442256], [9.131918336970308, 46.18412684584629], [9.131907025712058, 46.18376305425074], [9.132169343862685, 46.1835130310064], [9.13237847145426, 46.18336503189239], [9.132965521811958, 46.183060208769206], [9.133689607367925, 46.18252225785849], [9.134077649085896, 46.18194959842703], [9.134869729683066, 46.181016386300364], [9.1355456301277, 46.18036901098736], [9.137415987340685, 46.17969351692162], [9.138316853264751, 46.17927049942606], [9.13861114317735, 46.17870825748343], [9.13935260080495, 46.178649875294724]]]]}}]}