{"type": "FeatureCollection", "features": [{"type": "Feature", "properties": {"bfs_nummer": 5049}, "geometry": {"type": "MultiPolygon", "coordinates": [[[[9.040157924589069, 46.49394796312168], [9.040192718421252, 46.49370538823253], [9.040088711169782, 46.49343509292413], [9.040138059255685, 46.49317194056427], [9.039915640913561, 46.492725244546094], [9.039697421125535, 46.49248399970919], [9.039543632223538, 46.49238713908203], [9.039340841419815, 46.492034731252254], [9.0391345474266, 46.491752451851866], [9.038971176985262, 46.49156702071911], [9.036753483746793, 46.49123721102559], [9.035962389619193, 46.49184398011381], [9.035721232061903, 46.492722832144224], [9.031149448833974, 46.4927546531062], [9.029512232653781, 46.492324118268115], [9.024707457421119, 46.49102729574937], [9.023163326780978, 46.49034612789079], [9.021638277395846, 46.490092977260566], [9.021205420686938, 46.49043733336145], [9.020555940793942, 46.49059033782197], [9.020014011161233, 46.490010355622715], [9.019582682039843, 46.488710822537804], [9.018347239977576, 46.48690514311561], [9.018220292114398, 46.486178817405275], [9.0169673420091, 46.484968268195324], [9.01577011679006, 46.48415801563536], [9.015023382724761, 46.483966856268445], [9.013194883176071, 46.48348477874083], [9.011341081975587, 46.483250458636235], [9.010564863977645, 46.48307494120707], [9.009958571707605, 46.482560576934574], [9.008471373073329, 46.48230131656797], [9.007956605536915, 46.48175327942407], [9.005816822936664, 46.48140134908481], [9.004495702679085, 46.48093732058214], [9.002648457540907, 46.48048413932778], [9.001752478104393, 46.48016356676039], [9.00114059636641, 46.47972211851585], [8.999954372392011, 46.47878471104904], [8.998275522746306, 46.47846769486373], [8.996978767361878, 46.47789526943069], [8.996813951992921, 46.477553830857254], [8.996431570524072, 46.477391722320334], [8.996306622557313, 46.47712261658795], [8.99581321315913, 46.476767676910704], [8.995485712112018, 46.47620353000461], [8.99481069794931, 46.475420095943235], [8.994825150560803, 46.47497182086163], [8.994344024383334, 46.47463471930175], [8.99423715865011, 46.47422409709787], [8.993252767066991, 46.47336843750454], [8.992792663463614, 46.472039509226356], [8.99207754176939, 46.47122954297725], [8.99116025492205, 46.47144584030477], [8.990467503012109, 46.47148006788675], [8.989634090809691, 46.47182553810289], [8.988744900568424, 46.471938785724944], [8.987869030573345, 46.471820529740896], [8.987076096210592, 46.47142065490516], [8.985986779964508, 46.47143175417204], [8.984870775156855, 46.47188281376031], [8.983877496622698, 46.47201681699422], [8.98330014029443, 46.47180121715313], [8.982235370455982, 46.471161265960006], [8.981510288303046, 46.47094753001793], [8.980397383046018, 46.4710105642015], [8.979549078222728, 46.470690684281934], [8.978980198784964, 46.47050724396941], [8.978514475549158, 46.47031444464293], [8.978037951341712, 46.46970674007776], [8.969622395170212, 46.4706653985273], [8.960877331979304, 46.47296909726939], [8.951561007663443, 46.47534978164179], [8.94846705966294, 46.47609487676471], [8.947135902703106, 46.476422512345636], [8.945247413793988, 46.47665082828902], [8.944987578204838, 46.47664835487312], [8.943096354646196, 46.47665533858453], [8.942381394917193, 46.47675548181307], [8.94075642584185, 46.47682886394326], [8.939641443447497, 46.47676170295795], [8.938849649990892, 46.47667222326156], [8.93714173591614, 46.476484678647], [8.937308742233984, 46.47674582482491], [8.93734007720221, 46.476804703388396], [8.937743385703735, 46.47741427113576], [8.93765301510883, 46.477927949030715], [8.93810601435587, 46.47868503596267], [8.938357024407383, 46.47879418731445], [8.93899073313019, 46.47893346145541], [8.939258304659083, 46.47907055309284], [8.939647033172347, 46.479457975939646], [8.940103644486907, 46.47972491606527], [8.940162776171643, 46.4811759624355], [8.94013258051752, 46.48193772070393], [8.940118633194945, 46.482237694266665], [8.940388211129486, 46.48270073732597], [8.941713317599145, 46.48301494564505], [8.943194861712092, 46.48366706345111], [8.943655074280318, 46.48391586757871], [8.94413611271107, 46.48436979284685], [8.943726181430048, 46.485339574093935], [8.94348490045852, 46.4859569352501], [8.94281050204597, 46.48671589295125], [8.942658464149819, 46.487108667569785], [8.942939835696079, 46.487422905004166], [8.944196120075947, 46.488031308572545], [8.944856823231712, 46.488695284258846], [8.94512297164757, 46.48933219014359], [8.94492088708562, 46.49066550700614], [8.94473865824807, 46.4907921670988], [8.944727272608631, 46.49102031125558], [8.944772008071563, 46.49106444204568], [8.94512272405181, 46.49185066307675], [8.945724397600824, 46.49213780132838], [8.946859555610663, 46.492997144688324], [8.947028170426828, 46.49385573128275], [8.947027931817054, 46.493969280292625], [8.947136898788806, 46.49417199083309], [8.947068278389128, 46.49485121716716], [8.947096895517245, 46.495101816437575], [8.947012674018957, 46.49558623336507], [8.946715974621203, 46.49595880075029], [8.946522749536, 46.4963653621496], [8.946279795507554, 46.496709773149384], [8.945602550539734, 46.49714973901401], [8.945316113112492, 46.49727498444803], [8.945094525840283, 46.497460999909045], [8.944916956618252, 46.497786968941014], [8.944926640708884, 46.498193796961495], [8.94473126485334, 46.49822855257427], [8.94456759550931, 46.49839195516928], [8.94446081741287, 46.49844321605615], [8.944225606359332, 46.49849366117143], [8.943993012073896, 46.498495296651896], [8.943932207421543, 46.498500934104406], [8.943483964241551, 46.498556541426936], [8.943148629832011, 46.49863287493415], [8.942848310381809, 46.49859078898889], [8.942501962441087, 46.49858017320467], [8.942248068673496, 46.49850490044012], [8.941965078312242, 46.49851913066048], [8.941706518436167, 46.49856160306619], [8.941321354218422, 46.49849773933269], [8.941197856391364, 46.498540491845766], [8.941140368104758, 46.49855812276277], [8.940859634495048, 46.49857155487106], [8.940493628578505, 46.49851728656402], [8.940366635900528, 46.49853975024559], [8.94015008061745, 46.49853762181675], [8.94009688117605, 46.49855488060673], [8.939863061805628, 46.49853485036468], [8.939266857794816, 46.49840453512313], [8.939153822474093, 46.49841349709154], [8.938945493613785, 46.498402169245296], [8.938849537780902, 46.49838616269694], [8.938750506652333, 46.498334387283066], [8.937737008028765, 46.497967814650295], [8.937692787623856, 46.49795740365408], [8.937473002813501, 46.497919467182896], [8.937140328228365, 46.49797534058993], [8.936419593290752, 46.49857939356113], [8.935907685398425, 46.499106333730865], [8.934308061510558, 46.49771622817545], [8.934256804927506, 46.49772510850134], [8.934090425043559, 46.49774992670652], [8.934129667017306, 46.49772019602478], [8.934157653975243, 46.49763012476175], [8.93417250281252, 46.49750210513371], [8.934196961792937, 46.497491886187085], [8.934192243935769, 46.49744558533561], [8.93417452285307, 46.49741341045184], [8.934164623358566, 46.49727805090327], [8.934149894651489, 46.49720419718671], [8.93410844573255, 46.49711621868017], [8.934027046748051, 46.49696433662062], [8.933965174070329, 46.49682648510481], [8.933923660920676, 46.49674654194098], [8.933874743567971, 46.49667258042406], [8.933799502185938, 46.496694174684094], [8.933700661064785, 46.49672690311415], [8.933610831141591, 46.4967259532507], [8.933556601221822, 46.49670872655518], [8.933436518305331, 46.4966387879746], [8.933351875402149, 46.49657510355159], [8.933266176549091, 46.4964495404704], [8.933243092932658, 46.49642790002632], [8.933215425625043, 46.4963548821231], [8.933220872983878, 46.49633368502577], [8.933220723995158, 46.496225818695315], [8.933265983049848, 46.49616441927587], [8.933132258788266, 46.49604245735683], [8.933040917702964, 46.4959253000342], [8.93301936358672, 46.49585567472789], [8.932984980100898, 46.49579513461514], [8.932934535344817, 46.49569689130514], [8.932908877927133, 46.49565136075668], [8.932753554992937, 46.495495843980066], [8.93270264930301, 46.495414872414344], [8.932708573044076, 46.49533820089769], [8.932693800853597, 46.495265031675345], [8.932575542093941, 46.49509575590718], [8.932461360013303, 46.494933489657704], [8.932317354400727, 46.49482922451136], [8.9320397628584, 46.49469948887178], [8.93209594175045, 46.49465424934298], [8.932203354589685, 46.49461454380363], [8.932300827977565, 46.49460699041959], [8.932419588841599, 46.49458101845273], [8.932661913828909, 46.49451478582463], [8.932644750936893, 46.49448103831805], [8.932641838947523, 46.494443468195875], [8.932649425845225, 46.49431749718281], [8.932641033885622, 46.49426545062391], [8.93262476358757, 46.49421211300518], [8.932597444336057, 46.494161548095335], [8.93256173837031, 46.494115349064884], [8.932515207518943, 46.49407155065414], [8.932458522943985, 46.494023306229025], [8.932408640077018, 46.493970851622244], [8.932337992158491, 46.49386456062452], [8.932290602054861, 46.493822185991384], [8.932234799656053, 46.49378560816555], [8.93198033803571, 46.49365063942998], [8.931909381896654, 46.49361914621911], [8.931830494508107, 46.49360002950203], [8.93174674499038, 46.49359215123256], [8.931329727753047, 46.49357583211121], [8.931300990299885, 46.49370447495099], [8.931240307532065, 46.49401555283265], [8.931027564939734, 46.49393936109998], [8.930858698036877, 46.49384228600686], [8.930528402462405, 46.49353499565595], [8.93043388661037, 46.493538252582816], [8.930368028761032, 46.493438753284956], [8.930332173868248, 46.49339084598419], [8.930288404304067, 46.4933459937143], [8.930240852799477, 46.493303359446266], [8.930192030496855, 46.49326282920575], [8.930128989108919, 46.49322680433357], [8.930097567049518, 46.4931756987337], [8.930109189461378, 46.493121823566256], [8.930115319265514, 46.493065762232746], [8.930116928643503, 46.493010650965054], [8.930114566234229, 46.492963167538754], [8.929556637867453, 46.493107253204144], [8.929124738914869, 46.49277331262695], [8.929033217034423, 46.492692620787544], [8.928052611443404, 46.49279866822056], [8.928021837207714, 46.49278335402392], [8.92810565592622, 46.49266682039957], [8.928149580035049, 46.492445345704404], [8.927622189269236, 46.49241403597231], [8.926852723611969, 46.492496798172574], [8.926353742283059, 46.49276425029545], [8.92562148861946, 46.493005551147995], [8.925378886850396, 46.49234084004602], [8.925002228720356, 46.491320742644824], [8.924841427144118, 46.491365918154244], [8.924787104650072, 46.49027932206274], [8.924678681404732, 46.48993585878349], [8.924778083306993, 46.4897234637132], [8.924626069734375, 46.48925206306547], [8.924327285010477, 46.48930625940584], [8.922492548903309, 46.489603231379995], [8.921583059455802, 46.489757153755086], [8.921346923736348, 46.48951568336888], [8.91675148462536, 46.488977996769606], [8.915924712314181, 46.48888366959981], [8.915284739162267, 46.48880744032724], [8.91157298571541, 46.489530192607475], [8.908972269952395, 46.489693035569374], [8.901445351685364, 46.49223107855935], [8.895294907697764, 46.49634983366444], [8.896051563048873, 46.497458069267026], [8.895968021271866, 46.49868024768594], [8.895820889662877, 46.50110311402912], [8.895725708759228, 46.5021734435057], [8.895708732444678, 46.5034253819539], [8.895684019364605, 46.50387449821827], [8.895594023945366, 46.505687519119334], [8.895362430753627, 46.50565629977316], [8.895226675104224, 46.50555094656429], [8.895048421650149, 46.50565761601577], [8.894849432553261, 46.50552612740353], [8.89473847605846, 46.50561568498616], [8.894473150420783, 46.50544006018564], [8.893510385978374, 46.50539840942044], [8.893346047408496, 46.50548956791195], [8.893089529833272, 46.50535160564367], [8.892613390642229, 46.505331626547196], [8.892235848526045, 46.50524648585278], [8.891874469347284, 46.50523040819406], [8.891684910782711, 46.50515814902919], [8.89108730804575, 46.50512801168828], [8.890527410740281, 46.50494893670348], [8.889762287606052, 46.50493980262182], [8.889284214396982, 46.50518796814745], [8.888937439254569, 46.505230174779804], [8.888506668027475, 46.505104297658306], [8.888231606657369, 46.50514829506284], [8.887957347882168, 46.505076235515936], [8.887751373601567, 46.50487820923215], [8.887078286436116, 46.50489938207935], [8.886922698928773, 46.50478261195252], [8.886268751297543, 46.50493490144873], [8.88616906372905, 46.5048614864174], [8.885534673199638, 46.50491726197814], [8.885168264328884, 46.50515135526911], [8.884358208100833, 46.50536232946002], [8.883689906158795, 46.5050262206221], [8.883494202177253, 46.505065624536975], [8.88247954576809, 46.504983114138284], [8.882079273164162, 46.50482716740184], [8.881810593414615, 46.504817955394685], [8.881739212007496, 46.5047307194383], [8.881001133673125, 46.50451332659142], [8.880571171826395, 46.50426956546239], [8.880224320708372, 46.50426047126994], [8.880026257903124, 46.50416221696319], [8.879815936542517, 46.50414239277172], [8.879065571439032, 46.50395217567717], [8.878983868276743, 46.50386861247294], [8.87856624098513, 46.50389281781909], [8.87822612046384, 46.50384221826377], [8.878140414885083, 46.50395126882678], [8.877549310895224, 46.50391917862939], [8.877173270750019, 46.50384118535437], [8.877002347861975, 46.50393060269435], [8.876814555102793, 46.50397346903214], [8.87672473053388, 46.50387833790818], [8.876775882004253, 46.503645556161764], [8.876023403526249, 46.50313053024116], [8.875695986915822, 46.50326333983116], [8.87508225989364, 46.503409629736716], [8.874836928451282, 46.50364128497942], [8.874607190151272, 46.503674770928434], [8.874083545940367, 46.5033853775892], [8.87365963592375, 46.50327108340228], [8.873222896725336, 46.50301566906481], [8.87265412050739, 46.502940960385956], [8.872764734341466, 46.50278807206348], [8.872447236062754, 46.50260709107226], [8.872181805787335, 46.50242420876183], [8.872178768119493, 46.50211293023709], [8.872050872828103, 46.502006579642355], [8.87171874844379, 46.501912711809226], [8.871336910794822, 46.50166382123345], [8.87066623763778, 46.5017262504975], [8.870203160945495, 46.50180405400433], [8.869972238756302, 46.50179255063644], [8.867223259465392, 46.502344463202846], [8.866877648569627, 46.502480183381174], [8.866463317268538, 46.50248088363955], [8.865544604722768, 46.50222879563883], [8.864486394605072, 46.502764777610096], [8.863755653666862, 46.50306998995318], [8.863300544042955, 46.503205221412294], [8.862956779616873, 46.5033616196327], [8.862726097543153, 46.503409479496135], [8.862093636618031, 46.50358743283236], [8.86168258856852, 46.5038120938041], [8.861253732348052, 46.503954219367884], [8.861106182720746, 46.50404153913058], [8.86085944965975, 46.50412291153715], [8.860732080321613, 46.504284643953945], [8.86039788239595, 46.50450836082183], [8.859880425034797, 46.504552620831845], [8.859679838365805, 46.50445614304086], [8.859334239111968, 46.504643107812], [8.859153708822255, 46.504814510459774], [8.85896622818616, 46.504869938141894], [8.858049381210666, 46.50543470674004], [8.85787483907892, 46.505487271391615], [8.857154867815172, 46.506107154127335], [8.85631536460992, 46.50634255241364], [8.855733806988457, 46.50642717452727], [8.854285261415997, 46.506045754446205], [8.853524155837048, 46.50599045139494], [8.853254714341011, 46.505751788050254], [8.853080587880255, 46.505670274882696], [8.851444074441858, 46.505573660438216], [8.85071525787905, 46.505907523411935], [8.849900922550413, 46.50640976155902], [8.849724365794064, 46.50663507983507], [8.849475124426116, 46.506771331051766], [8.84939068199739, 46.50688124273376], [8.849297049364278, 46.50723868792663], [8.848773799455227, 46.50776160013855], [8.848650983862454, 46.50779911173294], [8.848341024691067, 46.50810615679989], [8.8476098006725, 46.50839952614545], [8.84708382577987, 46.5087182462877], [8.846541264507994, 46.50925129200083], [8.845497910180287, 46.50966908639963], [8.845001593445064, 46.509676120264594], [8.844289011682967, 46.50983518147168], [8.842924578358293, 46.510435954903706], [8.8425714241433, 46.510535680999574], [8.841711062474173, 46.51027369106853], [8.84124244552818, 46.5104945086379], [8.84090905180151, 46.510754132499315], [8.840171358569242, 46.51105205331664], [8.839729437105811, 46.51134809529933], [8.83897955814923, 46.511376233078536], [8.838607591093293, 46.51150587805542], [8.838410946310423, 46.51156138329845], [8.837371058363983, 46.51211760084509], [8.83655503841144, 46.51236154298425], [8.8359987260566, 46.51282184019431], [8.835531767442761, 46.51290675293354], [8.834994045847338, 46.51333082389167], [8.834011218679013, 46.51392859410368], [8.83356546625686, 46.514129295945985], [8.833116987026681, 46.51437502441408], [8.832588688644703, 46.514457073183394], [8.832295030253569, 46.51439050129101], [8.831222042032154, 46.514474727149576], [8.830604581576956, 46.51453627624126], [8.830252408501977, 46.51477810189842], [8.829313101449323, 46.51514587484072], [8.828619993396902, 46.51545934712487], [8.827781698449806, 46.51565043314146], [8.827018375184066, 46.516016408756016], [8.826072362848182, 46.51592591355972], [8.825677434058823, 46.51597571811016], [8.825039333715864, 46.51599518882774], [8.824124286518883, 46.51629609782384], [8.823345373625278, 46.51661963193933], [8.822964826756477, 46.516671970520534], [8.822576983189572, 46.5168467660218], [8.821448172338478, 46.517097193267254], [8.820850344417313, 46.517215174838434], [8.820490049065, 46.517549752657054], [8.819187905708587, 46.51816035169884], [8.81873120671337, 46.51834316687271], [8.818293737085561, 46.51856623281866], [8.817646664991974, 46.51859296657716], [8.817070821775562, 46.51860176043202], [8.81646139446937, 46.518520068402005], [8.815852885366457, 46.518525650982454], [8.815055547139796, 46.51853710121712], [8.814050469342204, 46.51873282651595], [8.813498645145213, 46.51891763704711], [8.81210648308692, 46.518805827734624], [8.811889530330308, 46.51842337793331], [8.811561576998766, 46.51818533005017], [8.81095766632302, 46.517704094740104], [8.810787662736601, 46.51752710657483], [8.809993559002326, 46.517511495121994], [8.809407862071799, 46.517645419036334], [8.80883903658025, 46.51772515363278], [8.808089057802682, 46.51811386558856], [8.807873436876076, 46.518297293660375], [8.807777649706777, 46.51873479799654], [8.80756253289536, 46.519041467799134], [8.807003308897297, 46.519399087912596], [8.806337512025362, 46.51992264337324], [8.806195312302089, 46.52012317140942], [8.805933149667426, 46.520373743953634], [8.805536473063945, 46.52061333685464], [8.805015850557762, 46.52090029291998], [8.804645548558575, 46.521049594451306], [8.804256186746509, 46.52116672650303], [8.803432051605474, 46.52184841272607], [8.803151341584375, 46.52190694318763], [8.802846325811425, 46.521906105646124], [8.80257169939463, 46.52176634061539], [8.802366359796906, 46.52173822478062], [8.802106381565073, 46.5219212840547], [8.801695015955694, 46.522147525241195], [8.801307394763521, 46.522282627954226], [8.801006836883717, 46.52230422250336], [8.800472524778826, 46.522152272668045], [8.799906844908516, 46.52215274727054], [8.799498719662948, 46.52193900447427], [8.799084973470226, 46.52196824757314], [8.798318653928085, 46.521867649451224], [8.797877932851254, 46.521756868241646], [8.797536344433537, 46.521752847011506], [8.796579222259316, 46.52194332822231], [8.796109763418269, 46.521985824552004], [8.795410130633682, 46.521841232842554], [8.795009573574738, 46.52187660469903], [8.794445035927167, 46.5218176659477], [8.793693246327603, 46.52172406781003], [8.793040944625133, 46.521648170824236], [8.7921369330734, 46.521356646643035], [8.791429366246888, 46.521154544807565], [8.79108471513999, 46.520923844686564], [8.790569729863936, 46.52049991875717], [8.790314227625958, 46.520341915103664], [8.789457519683443, 46.520012028906834], [8.789284879318025, 46.51998799027895], [8.789094690947238, 46.52004421518475], [8.788887030497131, 46.52018433656044], [8.788390856669922, 46.52035667751721], [8.788067427630574, 46.52040100559573], [8.787809059806088, 46.52038878774151], [8.787620117549753, 46.520233584080756], [8.786852766867703, 46.51899123009681], [8.786096770256979, 46.51877886992128], [8.785735034020263, 46.51859333172071], [8.785513262066054, 46.51821809749333], [8.785372647500298, 46.51811899773534], [8.785024052972268, 46.51809434546631], [8.784850419675701, 46.51797764235068], [8.784865931879702, 46.51776333145829], [8.78501571379176, 46.51744486644287], [8.7846004434227, 46.51688838183135], [8.783773578650782, 46.516863983241024], [8.783541047955001, 46.51684244215623], [8.78334298495504, 46.516790803538555], [8.782168906148843, 46.51679748863083], [8.78132080689395, 46.516916372565056], [8.780059611008388, 46.51687817144187], [8.779723730722809, 46.517156540087086], [8.778720883067079, 46.51723584676849], [8.778181911874055, 46.517680336762126], [8.77799119506208, 46.51776805527041], [8.777742467358541, 46.51798690549497], [8.777285819836141, 46.51849341004805], [8.777032534054447, 46.51868623170064], [8.776348295902789, 46.51894979683014], [8.775579852532363, 46.519181057868515], [8.775218168080778, 46.51968103609393], [8.774687307368001, 46.519929286591875], [8.773938960240018, 46.52007843465644], [8.773520756967265, 46.52029566762693], [8.7729357681114, 46.52040958287266], [8.772014071400134, 46.52124541400677], [8.771484486155124, 46.522127913686624], [8.771625092942708, 46.522386255531856], [8.771562111128025, 46.522633517227256], [8.771387014784544, 46.52293335966863], [8.771121460014259, 46.5231056055526], [8.77020653282529, 46.52342581543785], [8.76942506801642, 46.523714766783854], [8.768924242023203, 46.524019321051725], [8.768149128292418, 46.524672558063585], [8.767932467552514, 46.5250269585829], [8.7682763896132, 46.525238082094255], [8.769437508618223, 46.525690716584506], [8.77017509287505, 46.52603331256597], [8.770454561323735, 46.52620200243497], [8.77069364370155, 46.52654691043036], [8.771055476252489, 46.527050125962134], [8.771097486011175, 46.52780142538549], [8.771474356027209, 46.528270598161825], [8.771659541336614, 46.52854077346471], [8.771757389839154, 46.529111008992224], [8.772222319561223, 46.53016747072975], [8.77140545131277, 46.53136707686299], [8.770853537167495, 46.53209661419799], [8.770758040803202, 46.532709858151996], [8.770122310623021, 46.53349730893458], [8.769772725482222, 46.53386481032472], [8.769945576897442, 46.5343474471244], [8.770176856652414, 46.53458035075027], [8.770487784235728, 46.53479324726007], [8.772650211030037, 46.535858333072596], [8.772630872998386, 46.5367635152754], [8.773258322845685, 46.5373464405029], [8.77399332863943, 46.53805417032637], [8.775663853204462, 46.53904006563123], [8.776929138613117, 46.539627542332106], [8.774784414831245, 46.54241536063378], [8.776005355527367, 46.54325654295369], [8.777152303722326, 46.54456152694034], [8.777520576198533, 46.54545533068088], [8.778453331996683, 46.54682408656047], [8.779048078319464, 46.54784216731785], [8.7793073164153, 46.548890877926844], [8.784192913914724, 46.55944066114871], [8.78487715308439, 46.56079157345999], [8.784527413664364, 46.56111741306458], [8.780542984510472, 46.56552658733513], [8.779582994249994, 46.566252892008315], [8.779845505962664, 46.56620039491792], [8.780159039101195, 46.566207565104555], [8.780556636102942, 46.56609183499648], [8.78076126351328, 46.566122285654835], [8.781173037822354, 46.56609277418995], [8.781547037360392, 46.566221601926955], [8.782055009387486, 46.56651390445641], [8.782629619229716, 46.566647080851716], [8.78308475140218, 46.5665821603356], [8.783547250474891, 46.56668455652188], [8.783997531135944, 46.566754544219904], [8.784439993369915, 46.5668951130259], [8.784753779302923, 46.56710938577999], [8.78501975779887, 46.567353499915136], [8.785230667047221, 46.567672723820266], [8.80074112047797, 46.56328002804192], [8.829675706847558, 46.57136779732779], [8.829659114054255, 46.570259611431204], [8.829506209971802, 46.56978817506627], [8.829538821665414, 46.569185343281966], [8.82977903691809, 46.568678367160814], [8.82976350578949, 46.56816520435384], [8.829709678811557, 46.56772418195901], [8.829741137138637, 46.56757678654509], [8.830108983331511, 46.567082276238466], [8.830425018022407, 46.566440559470685], [8.830405055350242, 46.56613352185174], [8.830319182140995, 46.56587078119742], [8.830432986905201, 46.56568479747386], [8.830494417165248, 46.5653807368491], [8.83063746519352, 46.56511824198296], [8.830671202042106, 46.56491313565111], [8.830764532060071, 46.564741175923274], [8.831749127151017, 46.563927404110046], [8.831985285003427, 46.56381474646362], [8.832382454014672, 46.56371658962718], [8.8328581835477, 46.56352064224535], [8.833387774350696, 46.563424627622425], [8.833603119814043, 46.56344849995704], [8.83394289708893, 46.56358588051643], [8.83413259042587, 46.563596769373454], [8.834685607517589, 46.56341534904892], [8.83494367024247, 46.5634795939648], [8.835861627347354, 46.56340532764958], [8.836080421217288, 46.56331420643392], [8.83630830945585, 46.563130286183345], [8.836434867316623, 46.56312647203322], [8.836794378163836, 46.56333978850057], [8.83747090051647, 46.563247431993005], [8.837784829983017, 46.56340178301522], [8.837930826281099, 46.56342225433549], [8.83808940873027, 46.563398313468525], [8.838473186989026, 46.563162796783956], [8.839737394358112, 46.563156277654784], [8.841328859778887, 46.5633690946529], [8.841563318593705, 46.563338626453465], [8.841860434470886, 46.56337685018674], [8.843234380477224, 46.56335641726047], [8.84489731593736, 46.564114105383666], [8.849421886872216, 46.566588691734495], [8.850294603215294, 46.567178873250135], [8.85063255953538, 46.56749630410043], [8.850856480213382, 46.56776170121212], [8.85115548022021, 46.56791125520841], [8.851723955690797, 46.568134214280306], [8.851834385775868, 46.568220186234086], [8.851895840039294, 46.56833190608849], [8.852076389254679, 46.56842184777088], [8.852781007724163, 46.56862350677819], [8.852928849625595, 46.56869878365364], [8.853374846251578, 46.56904235691093], [8.853794858919168, 46.569247792331595], [8.853981353672319, 46.56955321102064], [8.854438114986813, 46.569658757793114], [8.854669229469222, 46.569812179145096], [8.855417971626018, 46.57015134258049], [8.855681837368813, 46.57024059119521], [8.855971826841545, 46.57019713829073], [8.856407500196974, 46.57007217229592], [8.85709991241989, 46.56999952431246], [8.857484387607206, 46.56992961714968], [8.857806894892379, 46.56996810523472], [8.8581898310639, 46.57009009738212], [8.858693135781907, 46.57018555444357], [8.860137285151024, 46.57067795048213], [8.860342788210085, 46.5707198365119], [8.8607761109591, 46.57095962814499], [8.861407814703687, 46.57109920205534], [8.861658192780624, 46.571135422801426], [8.861744692346512, 46.57128430628999], [8.862220157161703, 46.5714653353955], [8.862314998037641, 46.57163518407579], [8.86250506935671, 46.5717275075795], [8.862711162067914, 46.57202208991997], [8.862930382556282, 46.57240840305279], [8.862876561651191, 46.57266437892287], [8.862964559927644, 46.57288334784362], [8.862947248932585, 46.57304885168365], [8.863458596093787, 46.57301941278926], [8.86404701517426, 46.57301398264989], [8.864347172189065, 46.572980798577845], [8.864803840971568, 46.572966209653494], [8.865324895857785, 46.57301251450074], [8.865719930837603, 46.573011121654226], [8.86598212345522, 46.57303630694672], [8.866401242207074, 46.573129295657], [8.86661113926446, 46.573104337979224], [8.86715144649273, 46.57318594893098], [8.867385879656299, 46.57317068716432], [8.867474181093828, 46.57321226976374], [8.86748927616155, 46.57336583327847], [8.86830684769323, 46.57347135460303], [8.869414666029499, 46.573536755145845], [8.869912715575216, 46.57354848316123], [8.87021727899146, 46.573664483243626], [8.87063829308922, 46.57369711284862], [8.870892232877246, 46.57374006886758], [8.871251843351672, 46.573872809726595], [8.871866403448863, 46.573890154672085], [8.872566403450058, 46.574138133071685], [8.872787412970371, 46.574167600973034], [8.873119528000583, 46.57413115681604], [8.873512237899028, 46.57420022080687], [8.87401398694664, 46.57414470802992], [8.874741817065116, 46.5741666740761], [8.875257058788439, 46.57424836240329], [8.875635484042933, 46.574393332303316], [8.875973844276247, 46.574471084133634], [8.876324544311046, 46.57451239319843], [8.876954810964177, 46.57466943265472], [8.8770808453681, 46.57475784504151], [8.87713375407495, 46.574967500671974], [8.877240548894365, 46.57508941830635], [8.87775626341073, 46.57540216379491], [8.877794251796956, 46.575499571997526], [8.877975895380237, 46.57560168418282], [8.877969753812483, 46.57571705083778], [8.878064787067297, 46.575882708516374], [8.878250048380744, 46.57600106827437], [8.87851804331308, 46.576123338709245], [8.878645086987165, 46.57622003198993], [8.878958151230142, 46.576530180434155], [8.879042626410712, 46.576687304746976], [8.879150549693957, 46.577260073841735], [8.879199449327848, 46.57740747438427], [8.879275522316401, 46.577506197986374], [8.879443995938592, 46.57762239518232], [8.889299685245328, 46.57915796974911], [8.893944280065371, 46.581962857133476], [8.899868605041643, 46.58308206255016], [8.903677372408778, 46.58410118039784], [8.904004814154725, 46.58427690594143], [8.904227988159374, 46.58444667583179], [8.90461823134432, 46.584616291315754], [8.905095012759292, 46.58490162653849], [8.905579887671369, 46.58530849140882], [8.906787597636697, 46.58615105196852], [8.907378776524373, 46.58633651949402], [8.907768758265467, 46.586651712486145], [8.908162787992778, 46.58687274021951], [8.908898135686936, 46.58737622284473], [8.909194991072898, 46.587506021790986], [8.90984588360159, 46.587935608549664], [8.910411024396101, 46.58837353372938], [8.911245720643354, 46.58870857523559], [8.911642270569082, 46.589002814347786], [8.911998336909555, 46.58939703813036], [8.9125666766644, 46.589661003573504], [8.91288827651816, 46.59013719392503], [8.913218100839755, 46.59047015003618], [8.913595149724877, 46.59068972454079], [8.913806647618568, 46.59119968355187], [8.914307869757382, 46.59161008458149], [8.914672380879646, 46.59185088931715], [8.91518004194791, 46.59200900609072], [8.915629768793304, 46.592324807182834], [8.915981144971612, 46.592351430995464], [8.916258774158283, 46.592681160878705], [8.916240568883465, 46.59284318293048], [8.915847463637443, 46.59334077847439], [8.915603793118832, 46.59382641177269], [8.915357993521896, 46.594384813530425], [8.915202693845846, 46.59466836831197], [8.915207796947007, 46.59499494081402], [8.915373151775595, 46.59582835984239], [8.915559613654464, 46.5959554457219], [8.915846839745665, 46.59602851938409], [8.916370903688374, 46.596082673631514], [8.916603415698981, 46.59630048877009], [8.91690252257067, 46.59651540640524], [8.917087011065037, 46.59660304461168], [8.917024171625776, 46.596787097807926], [8.916760667002174, 46.59687240433378], [8.916432970131785, 46.59792220236274], [8.916289763954012, 46.59816406382942], [8.916091168643618, 46.598347937578545], [8.915600567582377, 46.59860868540323], [8.915612231583246, 46.59882880222699], [8.915540554898525, 46.59904466589764], [8.915379062370498, 46.59921087073936], [8.915124280527063, 46.599406726563885], [8.914870245915214, 46.59952578165963], [8.914319078224983, 46.59967810073101], [8.9139582257903, 46.59987947421545], [8.9133941568432, 46.600086537412814], [8.913046425832865, 46.600251901043045], [8.912899391367846, 46.60035711048764], [8.912829541171595, 46.600492513526405], [8.912786916122052, 46.60069190371391], [8.912699972943889, 46.60085296294192], [8.912580633452814, 46.600971498292196], [8.911622155134333, 46.60166630629919], [8.911532087319982, 46.601762696999955], [8.911525592489584, 46.601868318093224], [8.911658169272789, 46.602091756856034], [8.911383714525003, 46.60216739316153], [8.911196738284854, 46.60228781958157], [8.910878635737348, 46.60232671771798], [8.910506822326678, 46.60253796606823], [8.91039157167627, 46.602672740227476], [8.910264103775555, 46.60277976292519], [8.910042915092939, 46.602923897004274], [8.90976721923222, 46.60305963923257], [8.909605913107391, 46.603209331611794], [8.909109606942778, 46.60378618619319], [8.909068193091379, 46.60392706754816], [8.909115935227526, 46.60422664235497], [8.907408043073557, 46.60590754240612], [8.907204741384806, 46.60620621134189], [8.907122462011902, 46.60653499672996], [8.907182277488578, 46.60724369060024], [8.907127520537452, 46.60750342769259], [8.905912961442823, 46.60938950235641], [8.905925844753884, 46.60968552805007], [8.906106163874563, 46.60997870919005], [8.905870328669174, 46.610241872310596], [8.90560660122089, 46.61045150189769], [8.905779111389293, 46.61080835874134], [8.905706817351218, 46.61105025814275], [8.90574376596721, 46.61152758183058], [8.905418801216156, 46.612002102290965], [8.905756497418656, 46.61224913584805], [8.90632151603546, 46.61318763773679], [8.90641572487442, 46.61342303086998], [8.906344828164997, 46.61384210265522], [8.906731349140458, 46.6143143214947], [8.90665114940742, 46.61464373807116], [8.906933368765875, 46.61526190885171], [8.907296472576943, 46.61570914207752], [8.907475818122911, 46.61584738182808], [8.907758175768365, 46.61601855067089], [8.908106951280601, 46.61614532524279], [8.908473321388474, 46.61619548510558], [8.908935109529317, 46.616153369094], [8.909441313002873, 46.6162410841399], [8.909790513534098, 46.616345806519476], [8.9100636145218, 46.616530833900555], [8.9106138836353, 46.61674307212264], [8.910599764316014, 46.61694237920869], [8.910759506524418, 46.61739305930169], [8.910926997094846, 46.61768564018829], [8.910943360734226, 46.617920163791226], [8.911157053950472, 46.61823193399054], [8.911445644256172, 46.618479516065115], [8.911694405990824, 46.61878967469613], [8.91209803448609, 46.618794193527535], [8.913280204438763, 46.61916192351267], [8.91426000866409, 46.61928858697843], [8.914577281770516, 46.61939750395441], [8.91515018363578, 46.61936151300154], [8.915884368310623, 46.61955785110176], [8.916492295461053, 46.61949456627743], [8.917085135402509, 46.619527520061084], [8.917407490497643, 46.61952499819502], [8.917618347213056, 46.61960996163011], [8.91812173558428, 46.61968368611684], [8.918380872873756, 46.619795445687885], [8.918626385934795, 46.619813063937755], [8.918962439085616, 46.61999695915755], [8.919171051645657, 46.62021962273197], [8.91940924855047, 46.620405752334946], [8.91965911723221, 46.62055642637227], [8.92022373960561, 46.62077995712979], [8.920446166023277, 46.62115224291312], [8.920583416351018, 46.621269739787245], [8.920724569028163, 46.62160764258676], [8.92081665665058, 46.62193431810199], [8.920960618794954, 46.62209213470877], [8.921392153897667, 46.622396962623995], [8.92187481986434, 46.622639138167465], [8.923022335884248, 46.62303784345305], [8.923408651318747, 46.62297028679081], [8.923819321954479, 46.62297647505639], [8.92421447333728, 46.623027121230606], [8.924614322968646, 46.62315361427339], [8.925822980613221, 46.62160543454035], [8.926589057220985, 46.621419209765456], [8.92692971752822, 46.621288183556054], [8.92786441698789, 46.621222866691504], [8.928268617746278, 46.621291850872126], [8.928762737265464, 46.62127550640448], [8.928942078032502, 46.62129816255695], [8.928988828531441, 46.62137258681075], [8.929279803299606, 46.62139282665301], [8.92967857609723, 46.62147418423655], [8.93028982871615, 46.62136227630357], [8.93067153161716, 46.621329525617014], [8.933136961039484, 46.620927920552155], [8.93384812376478, 46.62078165191318], [8.93434286219161, 46.62054028676386], [8.934527823313404, 46.62053679280534], [8.93498425142827, 46.62038809668034], [8.935433345913045, 46.62016522159514], [8.935654598364843, 46.61996617321188], [8.936616952055278, 46.61972745293141], [8.93711334022872, 46.619657339462364], [8.937775775629206, 46.619424560837885], [8.937953053811775, 46.61947415798373], [8.938493478980137, 46.61922558372663], [8.938804707393995, 46.61896944540049], [8.939461957738096, 46.618805893883845], [8.940135348439984, 46.61882202645152], [8.940957060548097, 46.6186515055683], [8.941459745429652, 46.618493781789795], [8.941845582402005, 46.618732126546085], [8.942256207427935, 46.61879875340751], [8.942539890798901, 46.61903071590704], [8.943511802168326, 46.61962965751954], [8.94372314076665, 46.619892171711214], [8.943915032080852, 46.62002784897519], [8.9441683118319, 46.620329011292164], [8.944449653360346, 46.62054657938916], [8.944780536529716, 46.620614030900185], [8.945337001712277, 46.620684741927754], [8.945591608638813, 46.620808747091985], [8.945972567495673, 46.62106386742614], [8.946353738891071, 46.621416290628915], [8.947050920227083, 46.622303032002534], [8.947445093752034, 46.62260417639089], [8.947763920037174, 46.622775730854585], [8.948141123385676, 46.623024525163274], [8.948686577337352, 46.6233022078303], [8.94939388204544, 46.62352728499278], [8.950378493196192, 46.62396876601984], [8.95068064086736, 46.624349787420506], [8.950923271268643, 46.62487181199163], [8.95118309989244, 46.62528156766304], [8.951304221502738, 46.62575825206132], [8.951246171019223, 46.626227494290376], [8.950962045300932, 46.627097971128514], [8.95102778072564, 46.62724189951705], [8.951475817915385, 46.6275108937488], [8.951485074334022, 46.62775050419241], [8.951399480675583, 46.62797117513669], [8.951524777344162, 46.62816708928417], [8.95135025640869, 46.628330421396484], [8.950871947135083, 46.62861569689695], [8.950972090371973, 46.62900601425681], [8.950970569545326, 46.62931601987966], [8.950845004409116, 46.629509563049496], [8.950804357398505, 46.629654537324285], [8.95085583700872, 46.62992122773977], [8.951002915743308, 46.630210626194405], [8.95115708550585, 46.63042394654398], [8.9513827594271, 46.630835849114256], [8.95130222043885, 46.63100818288052], [8.951859757348467, 46.63129931062937], [8.951728135181698, 46.6315153230372], [8.951781882705196, 46.63170517214884], [8.952140040819032, 46.632061013828846], [8.952433096760851, 46.63229012146164], [8.952788150103242, 46.632484555339616], [8.95299548856348, 46.63225189726865], [8.95398868037103, 46.632030556242846], [8.954739383552639, 46.631707952673445], [8.955067516595056, 46.631690004943174], [8.955330512409677, 46.63161695545138], [8.955502475189721, 46.63128067845573], [8.955970095078419, 46.63113746001387], [8.956145399504951, 46.63103004782507], [8.956376079396016, 46.63097749907203], [8.956656095196244, 46.63078057907841], [8.957024645317455, 46.63065009138765], [8.957385739304575, 46.63032208190118], [8.957830315655654, 46.62987529141222], [8.963003397926197, 46.61814422254829], [8.959696139896803, 46.61070143745375], [8.962208709701946, 46.60264097665827], [8.962587524585754, 46.6027013414267], [8.963017388666954, 46.602807798294414], [8.963231736417466, 46.60289351426902], [8.96361834699783, 46.60316070926162], [8.96422310690378, 46.603506538106025], [8.965398151889937, 46.60374113819512], [8.966041594855646, 46.60376619945515], [8.966369916976733, 46.60375454055242], [8.966677729941857, 46.60372436113257], [8.967268156850421, 46.6036246244979], [8.969209550668545, 46.6033084541267], [8.969429108062439, 46.603321858224], [8.969627654490573, 46.60330781489369], [8.96981477905261, 46.60323754817091], [8.971122324730295, 46.60291636712544], [8.971568341442069, 46.602649712831344], [8.972059580404109, 46.60241281280869], [8.97309665070802, 46.60266174784418], [8.983746960405393, 46.60881109818023], [8.990953825886805, 46.61061292980775], [8.99535473329821, 46.611730746302456], [9.00421269374973, 46.61133092052715], [9.006246297001445, 46.6109458154545], [9.006981067183375, 46.61062081841433], [9.007594744242787, 46.60972169591882], [9.007910493170652, 46.609623439560686], [9.008126950877253, 46.60938851995122], [9.009057549073592, 46.60929348832884], [9.009370424222574, 46.60900831501506], [9.009548374116486, 46.60894997684042], [9.009701728491821, 46.60870913870065], [9.010477049323763, 46.60847224124688], [9.010998090060205, 46.60818167429558], [9.011369843461152, 46.60807363284389], [9.011712809455368, 46.60795743534436], [9.01137938388358, 46.607647489977396], [9.011699854833562, 46.60725378318022], [9.012127646657932, 46.607192796489585], [9.012505059342423, 46.606895178210785], [9.012739708139877, 46.60660595768129], [9.013551820079908, 46.60606187994915], [9.013751427091975, 46.60591482696225], [9.014076409164595, 46.605552145675716], [9.014481473408194, 46.605297293970736], [9.014790089380046, 46.60482985476949], [9.0148818216232, 46.604514487821426], [9.015274521924626, 46.604308881640144], [9.015480938291205, 46.60417368811212], [9.01563639687415, 46.604010120526205], [9.01623078107875, 46.60321469394612], [9.017711360072061, 46.60316203349045], [9.018207331906984, 46.60326098443686], [9.020800867271047, 46.60325032318777], [9.021188021678737, 46.602996340536755], [9.02292645244614, 46.60183527999958], [9.024063414578396, 46.60187794287633], [9.025252697161113, 46.601479035767994], [9.027196004055865, 46.59941866999661], [9.027616327030705, 46.59940236695591], [9.02855722553152, 46.59931878162843], [9.029269333372158, 46.59931805042145], [9.030670834381937, 46.59950944331065], [9.0309934772547, 46.59958835588628], [9.031298995784562, 46.59969875532812], [9.031817523762601, 46.599827776783485], [9.032744811928072, 46.59998066582096], [9.03345602651964, 46.59993963814579], [9.034099690250834, 46.60002474335529], [9.03401575221979, 46.59922594900045], [9.03411258249594, 46.598951302535895], [9.033956730779558, 46.59850298151712], [9.034011973852483, 46.59832560721345], [9.033814811546646, 46.59805820148212], [9.033985226696846, 46.59781121589174], [9.03386730735521, 46.59754550538469], [9.0338730233047, 46.59739955586054], [9.034007917247594, 46.5971508245532], [9.033900343968241, 46.59700508116471], [9.033971378051644, 46.59668761392325], [9.034160270368579, 46.59629659841552], [9.034313419376145, 46.59608312617056], [9.034118223718743, 46.59596170588218], [9.03397064806192, 46.59580017220506], [9.033900253799956, 46.59564085971576], [9.033913233593612, 46.59535881442866], [9.034117719912526, 46.59494174248893], [9.034077218756376, 46.594662053064226], [9.033709892491874, 46.5944585531953], [9.033538042316938, 46.59416948737433], [9.033536717711371, 46.594093206159805], [9.033728128093198, 46.59396815461417], [9.034165495865379, 46.59380400445219], [9.034461350797793, 46.59310125549113], [9.034722834625523, 46.592880722685784], [9.03477924107774, 46.59254666967731], [9.035068997912092, 46.59241925743595], [9.035364941365224, 46.59196725379148], [9.035687759988742, 46.59190982801787], [9.036106829526156, 46.59184662066766], [9.036277019517978, 46.59175552620924], [9.036455214598115, 46.591567364735916], [9.036613529511024, 46.59150778208607], [9.03740504735617, 46.59146277742995], [9.037543274630483, 46.59142655510059], [9.038156104114712, 46.591136715064984], [9.038863583600403, 46.59098724679122], [9.039932471122981, 46.59057009727254], [9.040128616470296, 46.59037781698605], [9.040552107518119, 46.590251110359084], [9.041075753438518, 46.59016329839983], [9.0412266330459, 46.58997327250025], [9.041679723434957, 46.58976617512881], [9.042181352744956, 46.58919671721553], [9.042393221154592, 46.58911838612427], [9.042813923816686, 46.58879876815374], [9.042940667444325, 46.58859879564456], [9.043474606096733, 46.58783760095149], [9.043758619258735, 46.58724795695621], [9.04360084623324, 46.5870538308599], [9.043540108343734, 46.58667172574446], [9.043498551421676, 46.586445495888086], [9.042966978501484, 46.5860048286045], [9.042573439868576, 46.58575361716791], [9.042234048553428, 46.58536022780281], [9.042448677277184, 46.58445740081386], [9.043891163830176, 46.58337532305509], [9.043528645976062, 46.58333572719598], [9.042911991126509, 46.58349117647734], [9.042420746321369, 46.58352887012634], [9.041836933904916, 46.583477000090305], [9.041495020828108, 46.58343692706306], [9.040027684471001, 46.58320196470183], [9.039717261089983, 46.583123465287095], [9.039112301233775, 46.5829255627888], [9.038809299738762, 46.58274934433674], [9.038674636839936, 46.582683838365725], [9.038386999113332, 46.58261185252088], [9.038055725257578, 46.5825605543814], [9.037815853915188, 46.58244542023028], [9.03768976186762, 46.58235990802242], [9.03749890693484, 46.58219406760241], [9.037331970338355, 46.58202987199774], [9.03724725450127, 46.58185236434628], [9.037069182540312, 46.581632800339726], [9.036760606778271, 46.5811534258366], [9.036716142667744, 46.58083210496974], [9.036645771936605, 46.580738080903316], [9.036445234330744, 46.580566520790576], [9.036305360888548, 46.58040779187708], [9.036201623463318, 46.58023109029201], [9.036186830560204, 46.579960386148386], [9.036011448652864, 46.5797038051526], [9.035983034000411, 46.5795678754491], [9.03603265999468, 46.57941899278327], [9.03608224160909, 46.57921566498747], [9.03605516243877, 46.57914703569115], [9.03598722279051, 46.57905126763203], [9.035907678472881, 46.578986695065375], [9.035749478926357, 46.57880411078122], [9.035518517649427, 46.57864918054411], [9.035685253111595, 46.57848937406187], [9.035673714128343, 46.578390196601156], [9.035598365913717, 46.57830864813776], [9.035484322899292, 46.578220185505494], [9.035339863026033, 46.57806052893978], [9.03522008442454, 46.57788378363543], [9.035322263305705, 46.577739200082384], [9.035320444640604, 46.57758428193992], [9.03534548001454, 46.57746039524857], [9.035237070376121, 46.57724847816289], [9.035335153957954, 46.57701342726583], [9.035412715157468, 46.57677272601311], [9.035580842129358, 46.57640388986326], [9.035618501268731, 46.57615474364531], [9.03564701261909, 46.575905555145006], [9.03562365180052, 46.57570649958001], [9.035545020200917, 46.57560196478386], [9.035405198587037, 46.57520586975715], [9.035264872135908, 46.575026898549], [9.035143307574533, 46.574935372394485], [9.034987021915168, 46.57486982410655], [9.034682599854662, 46.57478933206905], [9.034130349366611, 46.57468029346227], [9.033897351171573, 46.57461042232135], [9.033672863156777, 46.574488417553674], [9.033586549856455, 46.57435772460991], [9.033517917475411, 46.574193836854555], [9.033485504320046, 46.574148134251935], [9.03331665406611, 46.574019139186596], [9.032823175550451, 46.5736948514702], [9.032633373282774, 46.5735233206901], [9.032378483113966, 46.573263709393366], [9.032252214474278, 46.57319376845718], [9.032012941303268, 46.573047854705024], [9.031883521485794, 46.57290623303224], [9.031758779029694, 46.57267972765803], [9.031625933539138, 46.57256794374507], [9.03150697884157, 46.57236571740805], [9.031285884668737, 46.57225661507904], [9.031128950688075, 46.572115385855405], [9.030950311360098, 46.571919315024196], [9.030755772725664, 46.571776913884385], [9.030345626271462, 46.57153917873878], [9.029909175409712, 46.571338077777945], [9.029906412950993, 46.57115509691218], [9.029911392637693, 46.57082875453533], [9.02981621361242, 46.570471615881885], [9.029702186385792, 46.570347336992675], [9.029573091591145, 46.57024746308874], [9.029599916971607, 46.57006389944924], [9.029453305214199, 46.56998497400551], [9.029149757463061, 46.569848671543156], [9.029071922723377, 46.569770493790884], [9.029089415206437, 46.56928769565799], [9.029043605205732, 46.56912727448297], [9.029031744421484, 46.56901676986535], [9.028826394924948, 46.56867934666361], [9.028784409158213, 46.568529666488324], [9.02875232474749, 46.56837463831849], [9.028675607819157, 46.56823236322825], [9.028517741762613, 46.56801890099287], [9.028408637628617, 46.5676845422628], [9.028326636615866, 46.56752219582265], [9.028146266094847, 46.56728943519824], [9.027997746395162, 46.56715366219423], [9.027816846026202, 46.567017810454786], [9.027604209775177, 46.56679987757731], [9.027375381030636, 46.566511188358106], [9.027216960937189, 46.566375742058], [9.026812323351304, 46.56610111752182], [9.026701095073033, 46.56597832583034], [9.026686471656566, 46.56573836975293], [9.026646447486142, 46.56556627827388], [9.026493351155874, 46.56537693417537], [9.026468490132764, 46.56514774558329], [9.026582850712837, 46.56486622938806], [9.026571012378074, 46.564534373564605], [9.026483706067799, 46.56439541963728], [9.026734304388848, 46.56412450008776], [9.02688810427158, 46.56381832192167], [9.026927720859437, 46.563683697022455], [9.027004992698979, 46.5635386592856], [9.027036009174696, 46.563315354653575], [9.027013388677087, 46.563122390435296], [9.026844511614826, 46.562932926528376], [9.026781571167302, 46.56268663920225], [9.026831447753246, 46.56249311947582], [9.026718401250328, 46.56232104640471], [9.026764018619243, 46.5620888018256], [9.026693911546774, 46.5618122772703], [9.026576390363076, 46.561648095252075], [9.02640423771777, 46.561480257861945], [9.026249533410347, 46.561262342820385], [9.026006342813293, 46.560842750554585], [9.02587027557503, 46.56045576153722], [9.025691961048349, 46.560273255218824], [9.025601194935508, 46.56012714418963], [9.025501184956651, 46.559941651866176], [9.025338697358567, 46.559782863762166], [9.025147153835903, 46.55961611666321], [9.02450374999739, 46.55933707845817], [9.024049136470268, 46.559086255669015], [9.023718711666051, 46.55863594275108], [9.023437177008912, 46.55842913866162], [9.023237337932159, 46.55824154000723], [9.023241825265957, 46.55808301409078], [9.023364407538539, 46.557962005731575], [9.023672118740482, 46.557713415509106], [9.023861750682036, 46.5574417385364], [9.024216847254014, 46.5573151348271], [9.024361649925968, 46.557218013069296], [9.024441942780182, 46.55707778442775], [9.024366036840838, 46.5569453210245], [9.0241604047524, 46.55674248977017], [9.024032098933748, 46.556530138207975], [9.02398435883891, 46.55639646388987], [9.024066025226523, 46.55629464504521], [9.024485145049082, 46.55613169707138], [9.02462815718997, 46.55601417345617], [9.024692029286493, 46.55569708988865], [9.024648038216665, 46.55534003966992], [9.024325235547145, 46.55479774511866], [9.024170682511114, 46.55462867782282], [9.023452525110935, 46.554186716002576], [9.023340691077268, 46.55406438057591], [9.023235053902509, 46.553939975491026], [9.023186192889177, 46.553763486577765], [9.023175314515532, 46.55346860285647], [9.023211747649365, 46.55328749984525], [9.023174877263719, 46.55311463449833], [9.023036591913295, 46.55294398375633], [9.022933886989621, 46.55272390045042], [9.022859591322051, 46.55243620143504], [9.022827090394566, 46.552230509405845], [9.022428919519479, 46.551629318759424], [9.022059471162367, 46.55122470810312], [9.021752068311157, 46.55084137142436], [9.021556448060542, 46.550712192749124], [9.021270834397225, 46.55055609217847], [9.02096087016838, 46.550097829439565], [9.020984074768753, 46.54980768744885], [9.020973396705648, 46.549634629596156], [9.02047299933981, 46.54922401437886], [9.020098783149502, 46.54880227556774], [9.02000335431348, 46.548508750140364], [9.019763101360931, 46.5482137289108], [9.01956636085139, 46.548023371602845], [9.019345648324629, 46.54779780940774], [9.019256386322972, 46.547541252893645], [9.019239886656388, 46.54727595783187], [9.019289199694862, 46.5468662412522], [9.019486794018166, 46.54643860926995], [9.019783700058497, 46.54600952627], [9.020066311509758, 46.54569346785594], [9.020448363710619, 46.54508601119145], [9.02070451210974, 46.544605848638625], [9.020884511550303, 46.54393418249589], [9.020994536809788, 46.54340709757921], [9.021135278378903, 46.54282918642408], [9.021256568683734, 46.542285748155884], [9.021462318587895, 46.54173716568093], [9.021526704750512, 46.54144627605612], [9.021500798428121, 46.541158712043185], [9.021347028441548, 46.54059093449043], [9.021178752464236, 46.540124145031356], [9.021177449096935, 46.539870788447054], [9.021226068797946, 46.53962933458975], [9.021335631757838, 46.53940305639567], [9.021702735426917, 46.538785727778745], [9.021935229301727, 46.53845226799027], [9.022188082274866, 46.538217145473425], [9.022549790398829, 46.53801272564241], [9.022958876519743, 46.5378822238768], [9.02276162512441, 46.537673533136996], [9.02256761951214, 46.5373257850196], [9.022394196655783, 46.536981885946695], [9.022314706915965, 46.53666276615037], [9.022257855165241, 46.536212506104754], [9.022172823813428, 46.5360022505578], [9.021667010327638, 46.535389102723826], [9.021587721833221, 46.53525470603163], [9.021452429788154, 46.534912796728705], [9.021508899645292, 46.53420445048422], [9.021629476352208, 46.53400752799421], [9.021645667717609, 46.53394151282903], [9.021570816354329, 46.53387409353], [9.021044712783507, 46.53370327728927], [9.02066386084008, 46.53359071514824], [9.020236384658533, 46.53354232079982], [9.019844727608364, 46.53341686729952], [9.017565159874133, 46.53249205462962], [9.016638878524724, 46.532044973728475], [9.016778978032571, 46.531649214061694], [9.016883412402064, 46.53112617777837], [9.016864469144474, 46.53087883231775], [9.016810641778877, 46.53070044110069], [9.017190011944152, 46.529037296825805], [9.018415301130318, 46.52882294288273], [9.019943075798952, 46.52859275541782], [9.020126384308035, 46.52847737708079], [9.020174957318437, 46.52834182612503], [9.020199247088359, 46.52816045523687], [9.02024751704456, 46.528019145646994], [9.020592911254035, 46.52781179707848], [9.020684510881994, 46.5273600110242], [9.02080816392582, 46.52723780680174], [9.020920457252949, 46.52706574076894], [9.020932388597105, 46.52690756019945], [9.02079900885485, 46.5264341643952], [9.020616540740852, 46.52628366394786], [9.020438422977266, 46.526076683143124], [9.020387881123206, 46.52584587452059], [9.020339522570488, 46.52540846993804], [9.02077086382629, 46.52475238572754], [9.020774884907633, 46.52451075070404], [9.020664891657036, 46.523743737529784], [9.020657700116292, 46.5235332104607], [9.02075687358743, 46.52326019188291], [9.020896782104852, 46.523002811839966], [9.021147965969194, 46.52287353012437], [9.021451918494526, 46.52262320565909], [9.021620785590216, 46.5224114826962], [9.022045031582646, 46.52175513572975], [9.022199282041639, 46.52144490498399], [9.022322394261433, 46.52096588350938], [9.022398963350124, 46.520789617128436], [9.022469493873901, 46.520607425331484], [9.022513156189353, 46.52042461918402], [9.02271444923723, 46.51990931801015], [9.022854077742997, 46.51958075558502], [9.022978123015111, 46.519347791340806], [9.023163872772933, 46.51908553431793], [9.022846127865467, 46.51872539010431], [9.022187482113738, 46.5180459080667], [9.022139176452232, 46.51789155664576], [9.02223505294451, 46.51737673056786], [9.022320041827635, 46.51679359537646], [9.022435019191699, 46.5159381328669], [9.02252599034099, 46.5155548354471], [9.022682996465253, 46.51530880571597], [9.022665813960723, 46.51515365692643], [9.022489206277939, 46.51502368355045], [9.022372572986255, 46.51485921589962], [9.022169247683179, 46.514729606051574], [9.022209216295794, 46.514501479864215], [9.022125478028638, 46.51432944332303], [9.022325007905684, 46.514111080826986], [9.022545539911082, 46.51384906594454], [9.02237732090813, 46.51366750234072], [9.02216472464937, 46.513479178840136], [9.022016531602905, 46.512965879293525], [9.022095658822094, 46.51277905587497], [9.022005837007862, 46.51252810651366], [9.022095599522624, 46.512264216031134], [9.022290380490794, 46.512186643586986], [9.022380004541928, 46.512060511462764], [9.022405636569246, 46.51184070727441], [9.022542015308629, 46.5116957390216], [9.02262647437631, 46.511428950752666], [9.022753171749194, 46.51120701782947], [9.022796258081556, 46.51097374001995], [9.022894353035463, 46.5107988100865], [9.022944558681603, 46.510595019139636], [9.022906753052984, 46.51022477184759], [9.022950129139295, 46.51001470676952], [9.023081664465401, 46.509695436244726], [9.023637590312926, 46.5087286450876], [9.023876738957947, 46.50839086881212], [9.024055318552362, 46.50811647674203], [9.024166650990427, 46.50791320182689], [9.024385804747622, 46.507747372027424], [9.024608476124119, 46.50753264435423], [9.024682567642651, 46.50739277963681], [9.0250077939398, 46.507249406405286], [9.025293751023895, 46.507082270201394], [9.025598462815399, 46.50697265342889], [9.02573742639878, 46.50676988903945], [9.0258925547343, 46.50657633486348], [9.026191613763151, 46.50617159399779], [9.026257491340715, 46.50603175372462], [9.026422608516786, 46.50589448562283], [9.026808364622484, 46.505659923082426], [9.027210360498112, 46.505530949269094], [9.027478435918182, 46.505412115578594], [9.027734179052477, 46.5050727579828], [9.02802333208463, 46.50490406252335], [9.028299108492508, 46.50464393428955], [9.028322833783955, 46.50446238853569], [9.028225715690695, 46.50423017986271], [9.02823322819473, 46.50410878812837], [9.02832066753154, 46.503989156344915], [9.02832745362676, 46.503723271560936], [9.028405089796275, 46.50358928287851], [9.028740675044574, 46.503444755948856], [9.028913852842633, 46.50332509642364], [9.028977154355594, 46.50320445282895], [9.029187471658565, 46.50318702385052], [9.0294995528032, 46.50312083095743], [9.030531333578779, 46.50292318010308], [9.031112689160217, 46.502739852029364], [9.031696029071874, 46.50254433879439], [9.032078742233889, 46.50236784178158], [9.032334513746884, 46.50219482502725], [9.033439315620617, 46.50160642138902], [9.03364748777307, 46.501436775893566], [9.034181315315676, 46.50111822840199], [9.034418870146963, 46.50095087104701], [9.034689881478657, 46.500787175636866], [9.034853921956742, 46.50061463928458], [9.035050324944395, 46.50039088888171], [9.035206827689768, 46.500170500094235], [9.035713667965865, 46.49953389595665], [9.035902350693028, 46.49933563933009], [9.036298517805932, 46.49893624082048], [9.036599651689341, 46.49864129789802], [9.036880158276379, 46.49846424304011], [9.037150828873516, 46.498244937315924], [9.037227947499838, 46.49808108929542], [9.037395454940304, 46.497549684325996], [9.037710516931138, 46.496733939347905], [9.037925591777345, 46.49626518441377], [9.038110737136153, 46.49596107137613], [9.038291412539355, 46.4956821243197], [9.038488945412833, 46.49547113169022], [9.038630821611454, 46.49526372099597], [9.038786154521233, 46.4949384365088], [9.038884950133678, 46.49477662098218], [9.039140699187243, 46.49463121145795], [9.039389180421143, 46.494403045068246], [9.039646018000424, 46.494188796426194], [9.040088408415414, 46.494011051920765], [9.040157924589069, 46.49394796312168]]]]}}]}