{"type": "FeatureCollection", "features": [{"type": "Feature", "properties": {"bfs_nummer": 5198}, "geometry": {"type": "MultiPolygon", "coordinates": [[[[8.931916939034817, 45.942472791596145], [8.932574912117994, 45.94248896591107], [8.93332133486556, 45.94373482584245], [8.93373670775868, 45.94484216361597], [8.93324650954919, 45.94546692440006], [8.934586510194974, 45.94600942589595], [8.934881628869922, 45.9465171695006], [8.935528829776386, 45.94783377803791], [8.936455413136168, 45.948511656864625], [8.936508857426698, 45.94884320538876], [8.936805264067406, 45.9490001596099], [8.93686229295586, 45.94907862770812], [8.936787983653613, 45.94936012782909], [8.937054894815244, 45.94950619222012], [8.93705905037714, 45.949957499399076], [8.936866908846678, 45.95023540581058], [8.93777912483915, 45.95068388788487], [8.938617915250324, 45.95101673991092], [8.938796214238877, 45.95117171965196], [8.93943376262358, 45.9516098871082], [8.939452595886051, 45.95178768724225], [8.939193837496, 45.95218833257049], [8.93998322689839, 45.95252418516858], [8.939778027677395, 45.95281345525557], [8.940523257477736, 45.95294517361253], [8.940669388950013, 45.953045805109454], [8.940461380012348, 45.953496789652846], [8.941039878462412, 45.953672817116626], [8.941353954023121, 45.95438712420069], [8.941452132883521, 45.95493294068414], [8.942054610667329, 45.95576032525666], [8.942381686428346, 45.95674429035594], [8.942452848790328, 45.95723065817053], [8.942700454480484, 45.95821008866549], [8.943455550582234, 45.95840455175786], [8.943618440446937, 45.958675595463305], [8.943805295329906, 45.95910677272644], [8.943837674543168, 45.95926850275626], [8.943548816981084, 45.95967340302327], [8.943945058374991, 45.959918336595436], [8.944055927183575, 45.96063422570443], [8.94408391034238, 45.961357082026254], [8.943608537835287, 45.96185475952835], [8.943211605607726, 45.962259603258495], [8.94335199849149, 45.9624220036538], [8.94345469444926, 45.962786063644046], [8.943136927902323, 45.96296427441128], [8.943172696339147, 45.96345838402293], [8.943226302784316, 45.96388241970067], [8.943195775924423, 45.96418111702924], [8.9432811582533, 45.964468611094254], [8.943383893669344, 45.96569733599237], [8.94323670061635, 45.96645995330827], [8.943626153946282, 45.967271295104446], [8.944098574247747, 45.9680225450127], [8.944874320763528, 45.968656614049], [8.945208798355733, 45.96939599589229], [8.945214406628685, 45.96983807191803], [8.946092353602385, 45.970191064595824], [8.947054549436201, 45.97088888766097], [8.947775640458522, 45.97163741495515], [8.952271219031877, 45.97657915911503], [8.952423111712887, 45.976967249982366], [8.952156239007904, 45.977960283098156], [8.955385318207984, 45.97653764709705], [8.962523769639873, 45.973850980723704], [8.961476581649793, 45.97236361259517], [8.960963443277496, 45.97018321232118], [8.95956708765722, 45.967905828974885], [8.95923816333829, 45.96671529667171], [8.958543699739636, 45.96481645766477], [8.957465078739313, 45.9629261239194], [8.957073636802477, 45.96088099519421], [8.957970603288823, 45.95982042996987], [8.959116582982377, 45.95872725918942], [8.959752301310948, 45.953772492523356], [8.959641511571364, 45.953084911759944], [8.957585591109632, 45.94831418957208], [8.956090591801107, 45.94649686400295], [8.954622783160861, 45.94560147190346], [8.953433279402633, 45.94508924960786], [8.95223475458528, 45.94430790791327], [8.9442730837615, 45.94026713946339], [8.942371056767213, 45.93804640198463], [8.94063192451761, 45.93670264976524], [8.935890429949133, 45.93926165260212], [8.935650886403097, 45.93945263072793], [8.935607427100695, 45.93951669260109], [8.93542508874189, 45.93965448266849], [8.935635636200233, 45.93977660310062], [8.935212663664023, 45.94004823568248], [8.933464255694913, 45.94063828444336], [8.933626317477621, 45.940905455377596], [8.93355664204091, 45.941085446897766], [8.933691529939368, 45.94130905556458], [8.933055635797302, 45.941456006414825], [8.932557069462598, 45.94178106094012], [8.931916939034817, 45.942472791596145]]]]}}]}