{"type": "FeatureCollection", "features": [{"type": "Feature", "properties": {"bfs_nummer": 5227}, "geometry": {"type": "MultiPolygon", "coordinates": [[[[8.883785448332704, 46.082199046914326], [8.887319342088624, 46.08239784628093], [8.886570152812482, 46.07932186676665], [8.888376867485759, 46.07595839727701], [8.892815636739902, 46.074906624229335], [8.895120587182747, 46.07589856212538], [8.898668504892713, 46.07622025791121], [8.901443667034572, 46.07728830527273], [8.903838941298018, 46.07676125165884], [8.908889836006827, 46.07460139816596], [8.912597435449609, 46.073839884670164], [8.915292854138327, 46.07287405398309], [8.91807350110057, 46.072777814595305], [8.921804017133635, 46.07243981792986], [8.927802011431048, 46.07123125693824], [8.930821452162402, 46.07078495668889], [8.934209709060177, 46.07035512888148], [8.936926184064955, 46.06993604806455], [8.938314303739848, 46.06971426162253], [8.938031021803127, 46.06856676198142], [8.93798749520943, 46.068285135868564], [8.937823678682989, 46.06788530376966], [8.937441748199252, 46.06744569920059], [8.937181314033335, 46.06718604062354], [8.93694370277523, 46.066992090257486], [8.933840458458043, 46.065243738001975], [8.932994941262239, 46.064855183376785], [8.933112658064353, 46.06466274853728], [8.93312283826435, 46.06461110472834], [8.933118879124585, 46.06432054035945], [8.933381933259891, 46.06443207993724], [8.933516616981485, 46.06448511286917], [8.933652113130513, 46.0645328716544], [8.93372110387902, 46.06454832207906], [8.933764430259776, 46.064537499950404], [8.93392589810633, 46.064576915971834], [8.934235835303552, 46.06469465889697], [8.934667914973614, 46.064826444712935], [8.934741782844492, 46.06480100037689], [8.934798849697112, 46.06481193869328], [8.93509963891669, 46.06460140577358], [8.935186833944778, 46.064526974917364], [8.935453756924254, 46.064218389975586], [8.935529489311731, 46.06414358943873], [8.935668375904376, 46.06409056891347], [8.935858538103085, 46.06405887316556], [8.935952386527292, 46.06394998449501], [8.935954565272578, 46.06391867247189], [8.935938565501925, 46.063839530400564], [8.935936835461218, 46.06376321344531], [8.935946519892282, 46.06369497710072], [8.93591139318189, 46.0636540753272], [8.93596285259455, 46.06352037866527], [8.935942665116816, 46.063470911274536], [8.935970524473467, 46.06340844304472], [8.93604680537834, 46.06337774785839], [8.936040409145122, 46.0633532888747], [8.936083931064822, 46.063303001381215], [8.936126084538918, 46.063282935517314], [8.936158075346592, 46.06324952729262], [8.9361456558727, 46.0632043113227], [8.936204460022635, 46.063167406584846], [8.93621067304712, 46.06314464235683], [8.936260992715457, 46.06312497172695], [8.93627077094979, 46.06308233948377], [8.9362203839352, 46.063035918422074], [8.936226454016696, 46.06299992159278], [8.936308698068094, 46.06296140966051], [8.936345640219882, 46.062918641201406], [8.936411694195643, 46.062910943359505], [8.936387502680756, 46.06284038564081], [8.936414500553827, 46.06279743441606], [8.936379698336895, 46.062726415103924], [8.936431673642854, 46.062536720913315], [8.936408926557101, 46.062452863819544], [8.936434783199772, 46.06239659375858], [8.936415866233213, 46.06236424864118], [8.936419433940449, 46.062320924733285], [8.936398207464809, 46.06222983172418], [8.93641948260582, 46.0621549624795], [8.936372891672441, 46.06211734386883], [8.936352647867608, 46.062067723724795], [8.936265959320554, 46.062037430912824], [8.936212024001488, 46.061988375520336], [8.936066663096156, 46.06180885289127], [8.935953159889815, 46.06176925299694], [8.935902704984583, 46.06171041627606], [8.93585996731302, 46.06168273312506], [8.93587196233157, 46.06164222199157], [8.93581764327263, 46.06159941546193], [8.935752457556626, 46.06149308013028], [8.935755616023046, 46.06143386391022], [8.935791355101102, 46.061405695822835], [8.935803210713104, 46.06133890537899], [8.935711029943725, 46.06124303361163], [8.935785222483993, 46.06108018022564], [8.935860543021581, 46.06097544262753], [8.935753793953683, 46.060914349199166], [8.93572420529499, 46.060830726986495], [8.935729806206883, 46.060771505229944], [8.935714507098725, 46.060725400850465], [8.935682689611367, 46.06070660594946], [8.935696712573321, 46.06066606754112], [8.935658896270679, 46.06063258791691], [8.93575204509235, 46.060398415324855], [8.935771131322191, 46.06032382755204], [8.935695013508608, 46.060210386873536], [8.93573834267122, 46.06015974234866], [8.935717967017249, 46.06009535099475], [8.935749412582995, 46.06006192284291], [8.935731921998793, 46.0599985818512], [8.935845866210627, 46.05990967931939], [8.935917440926156, 46.05988521004675], [8.936039410181895, 46.05975434614722], [8.936112912993686, 46.0596894362097], [8.936109409791529, 46.05950319836376], [8.936025469011222, 46.0594074878308], [8.936042518740063, 46.05935007613237], [8.936032221251327, 46.05929122007815], [8.93611794125857, 46.05915430762953], [8.935771076270374, 46.05894392359915], [8.934428281259052, 46.0579649807397], [8.93395589087036, 46.057440806366635], [8.933924892410845, 46.05684638722101], [8.93389130846029, 46.05641045240526], [8.933884396733799, 46.05621613222835], [8.93389493384562, 46.055747855497046], [8.933851251525333, 46.0557251232376], [8.933633856009893, 46.0556914963372], [8.933506590173401, 46.055685383814435], [8.933366552941164, 46.05566592679433], [8.93319789567933, 46.05567260780785], [8.933124930127825, 46.05566781716922], [8.932969617695576, 46.055618592802944], [8.932920378870628, 46.055625138583736], [8.932781937152994, 46.055721181550446], [8.932662868556637, 46.05575254016599], [8.932591116668924, 46.05575386864712], [8.932467464243919, 46.05571689103636], [8.932114904256563, 46.055814097081665], [8.93191218621725, 46.055846959244434], [8.93180023863929, 46.05583676387317], [8.93159283037614, 46.05579685620074], [8.931524980844843, 46.05575041192663], [8.931351119825766, 46.0556816016399], [8.931270433217186, 46.05565435644627], [8.93116503866869, 46.05567017468452], [8.93109843317824, 46.05567206440848], [8.931019020675565, 46.05568528926668], [8.93088962546865, 46.055735533486036], [8.930782135762913, 46.05580379653199], [8.930716260511945, 46.055839037824335], [8.930657028097773, 46.05585773551954], [8.930405118232153, 46.055919713506086], [8.93029739523554, 46.05595390746558], [8.929776200224405, 46.05615335435177], [8.928336782494535, 46.05673544647048], [8.927117791961011, 46.056958025635346], [8.92691103538053, 46.05691830864495], [8.926738291098848, 46.056927833295404], [8.925632643592103, 46.05716426657363], [8.92498662462617, 46.057215249476386], [8.924510878342625, 46.057293151610864], [8.923777572817922, 46.05737406985387], [8.923631599926384, 46.057378693313424], [8.923533490012144, 46.057369819822505], [8.92343423765678, 46.05735505021139], [8.9232722151944, 46.05735924585411], [8.923105930290195, 46.05737445603788], [8.922986503147522, 46.057396237314556], [8.92284702257452, 46.057450960339274], [8.922694870825454, 46.05748359990684], [8.922639080977493, 46.057503111867796], [8.92238081321323, 46.0575114261952], [8.922190073933479, 46.057542234300314], [8.921985119105674, 46.057564024996424], [8.92175652572736, 46.05757100259342], [8.92148668656046, 46.05754867938138], [8.921229866630792, 46.05758462914269], [8.920981223627624, 46.057605220691194], [8.920713020954686, 46.05757366995123], [8.920623415324892, 46.05759910489918], [8.917767657031705, 46.05773749757293], [8.916341503363599, 46.05899260777636], [8.912477178120302, 46.06110944445211], [8.910019375041177, 46.06208460675618], [8.906459827414352, 46.06347574307065], [8.904419138509045, 46.06536543468928], [8.902133719428468, 46.06657073717375], [8.897712768607862, 46.07123057113], [8.896185904988226, 46.07094499551932], [8.88909343655946, 46.0707718260433], [8.88801019351882, 46.071434633921], [8.885430464117785, 46.07232467215167], [8.883994971513578, 46.0734788752814], [8.88310049137625, 46.07397942487248], [8.882325170801284, 46.074764264163115], [8.881488671114619, 46.07564588887272], [8.880769732052519, 46.07699924041758], [8.879121231759614, 46.078530474165625], [8.878082024758458, 46.07955860392311], [8.878107599755074, 46.08024339920004], [8.87730868311244, 46.081810004768826], [8.8768855233402, 46.08215369558698], [8.883785448332704, 46.082199046914326]]]]}}]}