{"type": "FeatureCollection", "features": [{"type": "Feature", "properties": {"bfs_nummer": 5236}, "geometry": {"type": "MultiPolygon", "coordinates": [[[[8.896784331331066, 45.97320348254692], [8.897204351802452, 45.973590612041335], [8.897666062700804, 45.9744214887778], [8.897779028781985, 45.97463455685871], [8.897828202946762, 45.974694450791084], [8.897938050242002, 45.97503286930264], [8.898148281082078, 45.97592839285395], [8.898227483246945, 45.97656890498973], [8.898305165026931, 45.97697108845849], [8.898375663709869, 45.977134584835554], [8.898507003417606, 45.97740139593791], [8.89898975540089, 45.97823298493167], [8.899250927891725, 45.97855897460837], [8.899453046129077, 45.97890843896578], [8.899908854122124, 45.98054071171819], [8.901159470727919, 45.98290668001264], [8.90133045691468, 45.98320719762287], [8.901412950448941, 45.98348700278812], [8.901824488686444, 45.98569147059876], [8.90169484013035, 45.98636225528463], [8.904743704497285, 45.98839280302964], [8.905086170536055, 45.988648975165844], [8.905393022925763, 45.98905118237644], [8.90552409483521, 45.989215216967565], [8.905827281929689, 45.98954120310317], [8.906576467776596, 45.98956073556401], [8.909374134222944, 45.98970887747375], [8.911442498235711, 45.99060685511509], [8.911649945973519, 45.99078114754096], [8.912023054490797, 45.991134192259764], [8.912580786694761, 45.99165237868569], [8.912730090208871, 45.991691593472595], [8.912808705124883, 45.991725337193984], [8.91291521821183, 45.99178269250864], [8.912971115594754, 45.991824093391884], [8.91303845345188, 45.99185032826281], [8.913152481117283, 45.9918469541551], [8.913254409363685, 45.991861606123564], [8.913273397772334, 45.99186881595227], [8.913298337473071, 45.99188658228919], [8.913314528759637, 45.99191978500017], [8.913331003629812, 45.9919414858242], [8.913375674808677, 45.991959074609305], [8.91347686610091, 45.991989939733195], [8.91357164273889, 45.99201362869796], [8.91364182618982, 45.99198792166951], [8.913779992204022, 45.9919845633201], [8.913828876127674, 45.99200615422204], [8.913961420551626, 45.99212548976193], [8.913991250879132, 45.992166629057216], [8.914042271704707, 45.99219611848282], [8.914159901389377, 45.99221858911961], [8.914263125838946, 45.9922448745957], [8.914477941763295, 45.99233100253925], [8.914631422314113, 45.9923646536419], [8.914803192138269, 45.99238724149005], [8.914882823080829, 45.992403552202006], [8.915029407178762, 45.99245520665761], [8.915362629269204, 45.99259529116459], [8.915458970418019, 45.992629052415325], [8.91558641725843, 45.99270045389614], [8.915648604856678, 45.99280925783958], [8.915704132115419, 45.99284639767096], [8.915971407826026, 45.992943386333984], [8.916008047622283, 45.9929780208067], [8.91602628265986, 45.993022766688924], [8.91618782556399, 45.99309861422396], [8.916245227110645, 45.993153012708696], [8.916559165679631, 45.99329665007297], [8.91678222106701, 45.99330288041034], [8.916850235233914, 45.99329812753614], [8.916952135745007, 45.993325427299794], [8.917065846600813, 45.99337988740323], [8.917166658749059, 45.99340654463254], [8.917340863169533, 45.993431166052545], [8.917417337232424, 45.9934790961226], [8.91754549119841, 45.993439516554815], [8.917787352454662, 45.99338605350136], [8.91803633234599, 45.99334094461322], [8.918279197558105, 45.993308871248736], [8.918523479689139, 45.99329338729934], [8.918766515961904, 45.99329244048959], [8.919006324496518, 45.99330529212787], [8.91926701698998, 45.99352869798578], [8.919682035196173, 45.993985793968506], [8.919666614830271, 45.99399551574351], [8.919665131367092, 45.9940069885214], [8.91970042215987, 45.99404698389736], [8.919861072142174, 45.99415198831345], [8.919922465536596, 45.99420918449005], [8.919982415463899, 45.99421503469873], [8.920001292952707, 45.99422094918535], [8.920059560810826, 45.99422806360015], [8.92017654175177, 45.994236321735464], [8.920224208521702, 45.99427236631386], [8.920347967626551, 45.99428353081952], [8.920407892851086, 45.99424987541058], [8.920440532531252, 45.994219647700334], [8.920477667050827, 45.99419524461569], [8.920504930024824, 45.99418622112119], [8.920623684787536, 45.994176110312445], [8.920749249784741, 45.994184857198356], [8.92088110343503, 45.99414892294122], [8.920962535681156, 45.994181994074005], [8.921022870931353, 45.99423725133428], [8.921048639924928, 45.994296409729415], [8.921087387407885, 45.99442193060707], [8.921063281638318, 45.9945169331913], [8.921110190839489, 45.99454928952913], [8.921120941150761, 45.99463059830762], [8.921202676875119, 45.9946915017906], [8.9212267272499, 45.99473630532571], [8.921328512443074, 45.994856766549965], [8.921308802243713, 45.99489202503651], [8.921315549091425, 45.99491756871639], [8.921382317713752, 45.995011526996656], [8.921373291233206, 45.9950499554058], [8.921342121400837, 45.99507486527575], [8.92132699345427, 45.99509298677246], [8.921340382145276, 45.99511164114545], [8.921487242680376, 45.99523676259939], [8.92151387036698, 45.99526378081024], [8.921658278401805, 45.99535984698254], [8.92180619583079, 45.99541395838276], [8.921903541439047, 45.99545538445942], [8.92199560282194, 45.99550805448143], [8.922117295201813, 45.99556377072079], [8.922313660295066, 45.99562216419049], [8.922447619882131, 45.99573363542704], [8.922604750695065, 45.995791366754986], [8.922689108625827, 45.995829364611254], [8.922781857854039, 45.99585786782752], [8.92280060882636, 45.9958276966115], [8.922861213406286, 45.9958461598611], [8.92287152751221, 45.995833319989956], [8.923138716590016, 45.99591612246999], [8.9234650399912, 45.9956585499294], [8.923784155562862, 45.99535387289846], [8.923896853964608, 45.99513455749725], [8.923830038366646, 45.99459524623029], [8.92402750696638, 45.994354622476656], [8.924207687271378, 45.99428540483953], [8.924457117071716, 45.99432385826302], [8.924775580488324, 45.99420366284659], [8.925028469992315, 45.994169957782674], [8.925147929290866, 45.994101288752496], [8.925667997811916, 45.994112240934825], [8.925898847498374, 45.99418086996753], [8.926037730023646, 45.994270561621626], [8.926380628835847, 45.99441469659825], [8.926653458656613, 45.994421175200415], [8.926980641649978, 45.9943772254146], [8.927261739938421, 45.99454941809874], [8.927576720843827, 45.994453192977836], [8.928508753612304, 45.9948216679294], [8.928918043923904, 45.99505737064065], [8.929144587994601, 45.99516805731647], [8.930182554568288, 45.99571847611471], [8.930285754567818, 45.995619832344026], [8.931722627839983, 45.99540199379655], [8.932228378790763, 45.995237016041095], [8.932844817222763, 45.995309087779795], [8.933307230836128, 45.9953571364979], [8.933748699186829, 45.9954662372804], [8.934655800996854, 45.99541396500525], [8.934728446868805, 45.995159542441044], [8.934734228503908, 45.995159960423734], [8.934744399964236, 45.995091069493036], [8.9347459505353, 45.99502225716094], [8.934757874426936, 45.994999479958494], [8.935565704616305, 45.99499923631765], [8.93563823949778, 45.995109592268534], [8.936512840650048, 45.995111873309845], [8.937236462436625, 45.99492490585654], [8.937910509661362, 45.99473041487187], [8.938573267488596, 45.994302902481806], [8.938249836620987, 45.99420377365649], [8.937938742445763, 45.99409505928531], [8.937595887576997, 45.99396300601966], [8.937525007944334, 45.99389523026816], [8.93789946218107, 45.99376888855725], [8.938170083476018, 45.99378524739927], [8.938687352759175, 45.99378635158087], [8.93874471970876, 45.99375961223207], [8.93851219430591, 45.99357962117377], [8.93836730826737, 45.993457635480326], [8.938681431001793, 45.99330703050982], [8.938589855629802, 45.99303637629338], [8.938194117372456, 45.99091351430391], [8.938642169766466, 45.99084391410883], [8.938492403097904, 45.99064964763395], [8.938465087465033, 45.990650947441004], [8.938176890520072, 45.99037442945763], [8.937910330488357, 45.9901948906415], [8.937872035050516, 45.990129047021874], [8.93786551826302, 45.98998648473438], [8.9383507211433, 45.98967165947664], [8.938342269180703, 45.989565876189154], [8.93823424271692, 45.989356766045994], [8.93780147786487, 45.989438785587154], [8.937751107519484, 45.989206971690805], [8.937683590421532, 45.98911239380071], [8.937507939064101, 45.98900989952729], [8.937380611586887, 45.98897938606909], [8.937178791354016, 45.988938798021024], [8.936818623494592, 45.988978691465654], [8.936831831389926, 45.98926284221625], [8.936407102865134, 45.98932644645173], [8.93565991480852, 45.98947699573075], [8.935407025413786, 45.98954889767782], [8.934656812380867, 45.989318804827164], [8.934427579570391, 45.98921459767785], [8.934286266583115, 45.98912434564362], [8.932218698830074, 45.98906848631731], [8.931875025364578, 45.989001205724314], [8.931437991512844, 45.98876787986951], [8.931186063472678, 45.98879272507451], [8.9307866081392, 45.98902521007191], [8.930446413610042, 45.98879066765784], [8.92977659939406, 45.98840610263066], [8.92985860536667, 45.98828949298698], [8.929749260483481, 45.988000497539105], [8.92923410583796, 45.98758823025645], [8.929019227653125, 45.987478694350564], [8.928751553813312, 45.98758475470038], [8.92851691231199, 45.987651203518084], [8.928227770373415, 45.987376392013914], [8.92786256080068, 45.98700404158653], [8.927834300681699, 45.98698387524943], [8.927651676337302, 45.98691490935774], [8.927479287582766, 45.986798086912046], [8.92708147021184, 45.98657453636866], [8.926904660407125, 45.98644455528949], [8.926537995141683, 45.986620378656234], [8.926375867767153, 45.98626342263052], [8.926113025698351, 45.98602287996511], [8.925658182894697, 45.985641649372575], [8.925227327671875, 45.9855856232334], [8.925370326953585, 45.98528316770292], [8.925078806683937, 45.98496253141874], [8.924912822543137, 45.98502765981378], [8.924252711454159, 45.98411061677523], [8.924032446566537, 45.983900258630236], [8.924039814176588, 45.98347976426024], [8.92389634709269, 45.98326293051877], [8.923838237871786, 45.98272565358922], [8.924009671184574, 45.98260290014871], [8.924093108528204, 45.982601078613726], [8.924137887189246, 45.982567198269194], [8.92437521576938, 45.98257692967335], [8.924473362835961, 45.98258831011076], [8.924661623343018, 45.98254956526784], [8.924756606336603, 45.98255325901718], [8.924816992211486, 45.98256703653615], [8.924917799793306, 45.982552838993136], [8.924997228657098, 45.98251702494565], [8.925119128510685, 45.98210705598612], [8.925192168802996, 45.982121106853285], [8.925267337563298, 45.98211850309545], [8.925541849093763, 45.98205241768083], [8.92567560669092, 45.98203169299186], [8.925801117912098, 45.98204277383026], [8.925815482616516, 45.98186867033851], [8.925869728297087, 45.98171365346316], [8.925941782129279, 45.981563340561905], [8.925977564012877, 45.98144122708032], [8.92597467228713, 45.98131593621555], [8.926347025203873, 45.980808157732014], [8.92659723086558, 45.980538229810776], [8.927070396153347, 45.9801938520969], [8.92767251015275, 45.9799648898447], [8.927639348532342, 45.97983235216466], [8.928025921718435, 45.979716381238354], [8.927716975898825, 45.97932307034253], [8.92867431717587, 45.97908340957282], [8.928627370981278, 45.97859612057125], [8.928617188151295, 45.97832233085235], [8.928611196111335, 45.977866547045124], [8.92861642033679, 45.977758009256625], [8.928694338824718, 45.9768122674466], [8.928745694949674, 45.976581046380026], [8.928952696786489, 45.975955177599225], [8.928992617705442, 45.97581675945241], [8.929020878382623, 45.97567477027942], [8.92904027191371, 45.9755317386935], [8.929050258803066, 45.97540100563508], [8.929063132050823, 45.97507457525113], [8.929055893977798, 45.9748648597174], [8.92904179710933, 45.97476521507006], [8.929017161866827, 45.974669506772706], [8.928731008862844, 45.97395166982655], [8.928618489341767, 45.973970199528935], [8.926277827656449, 45.974287616002634], [8.925317616055368, 45.9721542611869], [8.92517470080239, 45.97187421831179], [8.92390177573882, 45.96957885507099], [8.923166731770236, 45.96845817895382], [8.922224605016163, 45.966999476106785], [8.921971929103236, 45.96658785623989], [8.921941798030646, 45.96647396423263], [8.92174018505514, 45.966406563358575], [8.921645542748259, 45.9663606218056], [8.921575043662957, 45.9662995887309], [8.921527369293932, 45.96622717934025], [8.921500176666822, 45.96614358648591], [8.921484607357653, 45.96607231929126], [8.921462997396517, 45.96562879838488], [8.92144428993376, 45.965507441084604], [8.921416657259128, 45.965420444246206], [8.921377107354823, 45.965335016973064], [8.921329016560003, 45.96525339107711], [8.921227864525104, 45.96512236907393], [8.921156731064732, 45.96504927909547], [8.920555909131707, 45.964551302761755], [8.919529533764512, 45.96372443648284], [8.919279824090141, 45.96352926778976], [8.918813595307936, 45.96318864153519], [8.918818232196156, 45.963185503526525], [8.918756113043765, 45.96314162393094], [8.918751182539951, 45.96314487385267], [8.91848545147314, 45.96296006280188], [8.918128410099555, 45.96273855721696], [8.918058418932628, 45.96277086864119], [8.918015258525815, 45.96280019989615], [8.917959382153441, 45.96286070218728], [8.917888492307737, 45.962963786989654], [8.917873259795634, 45.96301877931558], [8.917759441581124, 45.96312831284502], [8.917764826814945, 45.963250161086364], [8.917746549209214, 45.963281288399145], [8.917667058243513, 45.96329868126273], [8.917529179001583, 45.96342301655194], [8.917435110024647, 45.96346666563176], [8.91727712047683, 45.96347038999202], [8.917041469713016, 45.96369379943767], [8.916951722896933, 45.96373366662341], [8.916922070283938, 45.9637993037298], [8.916867826542667, 45.96383675179725], [8.916857726506514, 45.96390744869536], [8.916744559220374, 45.964006833117985], [8.916622026048161, 45.964049434261646], [8.916591895581575, 45.96402341540603], [8.916157397691546, 45.96413002790023], [8.916061691468238, 45.964025185620606], [8.91590916864653, 45.96401641171029], [8.915766201536403, 45.96410494084625], [8.91561754487778, 45.964117537079396], [8.915432000169503, 45.96416440189104], [8.9152275377156, 45.96427800332233], [8.91514368577047, 45.964313608177505], [8.915076771042555, 45.96430803596246], [8.914900560924487, 45.9643136245279], [8.914884946147115, 45.964490263276886], [8.914857937334437, 45.96457940984434], [8.914833663805137, 45.96460260800576], [8.914818560441743, 45.96459033631837], [8.914600378061667, 45.96462401535174], [8.914547208966912, 45.964711417661675], [8.914325495955037, 45.96479592307855], [8.914200472383744, 45.96466977157235], [8.91411393467914, 45.964506873155514], [8.913693370221067, 45.96389198121651], [8.913659400294282, 45.96383645611145], [8.913631597362459, 45.96377902368973], [8.913637204762832, 45.963700396986326], [8.913622669113565, 45.963662278116374], [8.913681490707086, 45.96361895017782], [8.913718752190674, 45.963578883228784], [8.913747660817009, 45.96353955573539], [8.913760431286773, 45.963497407789355], [8.913751724123959, 45.963453922259376], [8.913688284177113, 45.96333321258753], [8.913713771861703, 45.963288584649675], [8.91374155382649, 45.96327014526213], [8.913815954719523, 45.96323333385898], [8.913890587145396, 45.96320225019531], [8.914275805476706, 45.963063831124096], [8.914463228227143, 45.96301064574663], [8.914757211587327, 45.962955980168246], [8.91464351575293, 45.96281056325765], [8.914594287931388, 45.96282116905068], [8.914554096383263, 45.962825286400346], [8.91450758250852, 45.962817421635755], [8.914454708685447, 45.96280191195381], [8.914415326695908, 45.962778658578195], [8.914384019109157, 45.96275008105767], [8.914313607087852, 45.962661187850735], [8.914251840133266, 45.96260198832665], [8.91417405613886, 45.96255304852573], [8.913727233367108, 45.96234736353963], [8.913388331817043, 45.96221832871407], [8.912503433833592, 45.96191081470406], [8.912432462618364, 45.961885284652794], [8.912366516058821, 45.961856152909974], [8.912304357365842, 45.961817263539665], [8.912248830348624, 45.961775516362295], [8.912200325456572, 45.961729133562216], [8.912034655469164, 45.96153667973671], [8.911889578325495, 45.96155976974537], [8.911802637760413, 45.961581206339396], [8.911284504630936, 45.96165480708348], [8.910772832647108, 45.961635416757204], [8.910603361347944, 45.96175065590939], [8.910182988222422, 45.96192264865451], [8.90942344514334, 45.962132216060404], [8.909342385241157, 45.96185906481603], [8.909283763797566, 45.96157738821896], [8.909288658029254, 45.961548776780816], [8.909279329015694, 45.96142011550191], [8.909272063399154, 45.961143642189995], [8.90925405955804, 45.961058432935396], [8.909224562827138, 45.96097423765913], [8.909196186016766, 45.9609196998811], [8.909146157978062, 45.96084053246164], [8.909085981873611, 45.960762973168414], [8.909016913425976, 45.96069054143222], [8.908939207607169, 45.96062216327328], [8.908765549794929, 45.9604909624961], [8.908689023826167, 45.9604203824576], [8.908634879148133, 45.960336320209244], [8.908603580179628, 45.96024981808221], [8.908593986485037, 45.96016020720055], [8.908596809886859, 45.96007133374901], [8.908620514937867, 45.959983752853354], [8.908694447724011, 45.959804744643996], [8.908772589363531, 45.95976555790305], [8.90883033826104, 45.95956615804196], [8.908790178318183, 45.959395703855265], [8.908798584151418, 45.95930768399025], [8.908798801529393, 45.95912810074017], [8.908759528305604, 45.95872564759771], [8.90875195028129, 45.95860830886912], [8.90874923623664, 45.9583901940479], [8.908659623230164, 45.95833125647723], [8.90859168788086, 45.95837766034285], [8.906023423027523, 45.960552586623606], [8.905272396205588, 45.96101171511093], [8.904603231815184, 45.96140147082962], [8.903909684256147, 45.961358499373326], [8.903569090245641, 45.961113318430506], [8.903107293930029, 45.961058256552896], [8.902765955970064, 45.961004298192975], [8.902620127124537, 45.96100766212356], [8.902575711910684, 45.96099711964019], [8.9024128922035, 45.96213331927646], [8.902365431495136, 45.962500337123956], [8.902552717883419, 45.962643633598326], [8.902606591915522, 45.9627159163424], [8.90278342866164, 45.96280808343679], [8.903051993146109, 45.96293930896645], [8.903566589127314, 45.963084271873235], [8.903860307204459, 45.96318490201506], [8.904322538385891, 45.96329554518148], [8.904493983577458, 45.96332787791092], [8.904742666143473, 45.963401508396345], [8.90509045328906, 45.96348656863374], [8.905171842170422, 45.96380726092538], [8.90523493408468, 45.964273478872954], [8.905182379340339, 45.96457953628589], [8.905292515483579, 45.96481310631159], [8.904982071093283, 45.964720884353476], [8.904740724108446, 45.964554885204016], [8.904595715573473, 45.96448381682546], [8.90499859715277, 45.96548589497643], [8.903920925125748, 45.96549139436177], [8.903111783567164, 45.965287626242606], [8.90272053395025, 45.965265636621375], [8.90242541788732, 45.965158010806675], [8.901944849785977, 45.9648120245707], [8.901728835458586, 45.964589096901655], [8.90108737760607, 45.96445024393885], [8.9010549577578, 45.96451252905768], [8.900969106741876, 45.96456877915418], [8.900931600860776, 45.96461263235819], [8.900909946329909, 45.96466596932132], [8.900922894537251, 45.9647314161991], [8.900955829655073, 45.96480901919253], [8.900536751487236, 45.96475023338838], [8.900455507820942, 45.96472840043367], [8.900484974312372, 45.96466853809848], [8.900397352592426, 45.964646023688694], [8.900410851821587, 45.96460611756679], [8.900320615812552, 45.964598257188], [8.900322387350805, 45.96458778862587], [8.900084003565714, 45.964569751914965], [8.894142696190883, 45.96384358855075], [8.893577400578142, 45.96510158960076], [8.893256146812522, 45.965695622216536], [8.892199641111365, 45.96672029714265], [8.891825961522926, 45.967042142800416], [8.891602469221022, 45.96737076530425], [8.89150549995274, 45.96760593909338], [8.891682216713484, 45.96788363314539], [8.89329092107827, 45.969183848331056], [8.895041555553519, 45.970481160541524], [8.896009258184144, 45.97129692561527], [8.896392539481162, 45.97212082460529], [8.89647353120299, 45.972556920602344], [8.896784331331066, 45.97320348254692]]]]}}]}