{"type": "FeatureCollection", "features": [{"type": "Feature", "properties": {"bfs_nummer": 5254}, "geometry": {"type": "MultiPolygon", "coordinates": [[[[8.946780158949478, 45.84266041690976], [8.94671044042013, 45.842663719939786], [8.946681527041717, 45.84266508908108], [8.946637382899931, 45.84265374329388], [8.94659764375297, 45.84262470433865], [8.946501279748805, 45.84263085748524], [8.946451686081321, 45.84267925258252], [8.946338053537621, 45.84272918277941], [8.946305592770068, 45.84273122031818], [8.946238380466426, 45.84270582532393], [8.946209573512622, 45.84270731892328], [8.946186410939776, 45.8427212063595], [8.946100685900872, 45.8428198036062], [8.94609030494773, 45.84288888652416], [8.946062476256946, 45.84294561714492], [8.946021862956075, 45.8429615564554], [8.945996507130996, 45.84299914433611], [8.94600335862322, 45.84305777524946], [8.945980374306393, 45.8431301133928], [8.945982037207564, 45.843168120948974], [8.946005070715895, 45.84325064646281], [8.945993142941953, 45.843275656203005], [8.945830715467114, 45.8432687687336], [8.945781004628227, 45.84327735388213], [8.94573585651515, 45.84331565720368], [8.945712084116954, 45.84335607559585], [8.94570284257951, 45.843403406771515], [8.94571170237377, 45.843433022586524], [8.945716241156486, 45.84349697475963], [8.945698441560577, 45.84352146051961], [8.94567927192563, 45.84352701714614], [8.94563160528705, 45.84351164273663], [8.945589571187973, 45.84350776268983], [8.94535770015051, 45.84356247352631], [8.945172052533366, 45.843618947355004], [8.945140672117374, 45.843635023204136], [8.945053262077911, 45.84364478855011], [8.944692697170096, 45.84413235083279], [8.944885955644091, 45.84539841485471], [8.945475924442574, 45.84537412300362], [8.945845604500269, 45.84534431109394], [8.946538353827812, 45.84540614564718], [8.94782337109854, 45.84583074737535], [8.9484647212788, 45.845970543801855], [8.948977834077647, 45.84604890388033], [8.949508655965612, 45.846209263194986], [8.950017871034683, 45.846272195961305], [8.949910708896368, 45.847106378156425], [8.949317145621563, 45.846968097202094], [8.948650906362912, 45.84688379198483], [8.948600018421047, 45.84696940745234], [8.949071268770696, 45.84721762513658], [8.949589890036632, 45.84767096396344], [8.9501083561811, 45.848240687012314], [8.94993039250034, 45.84838060195194], [8.950085930621361, 45.848857001056714], [8.950252153459422, 45.84886456926195], [8.950259601772686, 45.84879620008989], [8.950396397495318, 45.84879363778699], [8.950404660561473, 45.84882716604829], [8.950715390741772, 45.848832174935445], [8.95082938517123, 45.848846374719905], [8.950941978340216, 45.84884664799394], [8.951134631660445, 45.84888639160906], [8.951368587395628, 45.84894111581248], [8.95147676253953, 45.848992145931874], [8.951547026792788, 45.84908249093934], [8.951756033233368, 45.849168923102475], [8.951851093702821, 45.84921308506598], [8.952007484364545, 45.849269708475994], [8.952249114037633, 45.849340683923934], [8.952409640733956, 45.84940578915767], [8.952557896478067, 45.84943167096002], [8.952717122433187, 45.84943055770343], [8.952883025255424, 45.849406897698046], [8.953018858720561, 45.84940672945401], [8.953432160278895, 45.84937110215807], [8.953613713815027, 45.849365916742684], [8.953738613890721, 45.849382413501694], [8.953804945488148, 45.84941278235776], [8.953849224027536, 45.84946273840761], [8.953852654515185, 45.84950579652512], [8.953907342761859, 45.84956718213727], [8.953965515576265, 45.8496512200516], [8.953885286953595, 45.849811603512876], [8.953872572600647, 45.84998225848156], [8.9538873219326, 45.8500873326578], [8.953913367406363, 45.8501255240514], [8.953864644410674, 45.8502035646469], [8.953812250992845, 45.85023639113802], [8.953802580545183, 45.85031178123426], [8.95380893324242, 45.850364606601424], [8.953774362192595, 45.85039152437913], [8.953683721738283, 45.85039235210471], [8.953452207528514, 45.85046401583038], [8.953416041677078, 45.85049566043306], [8.953361455030036, 45.85068813140073], [8.953318250114965, 45.850745530285174], [8.953459589065753, 45.85101943374616], [8.953530274011559, 45.85124636374067], [8.953496214943918, 45.85139105361493], [8.953460363354026, 45.851449927794945], [8.953400738023026, 45.85149365705225], [8.953353795913872, 45.85152113749317], [8.95321308097862, 45.85154704936924], [8.9531701669126, 45.85156421884588], [8.953160633750267, 45.851583115139064], [8.953102317204714, 45.85162576493019], [8.953073723404069, 45.8516300104693], [8.953021051682404, 45.85162254294921], [8.952974361818304, 45.85158647419498], [8.952899322710167, 45.85155790459791], [8.95284024806021, 45.85155401418823], [8.952790212734838, 45.8516014284148], [8.952801613957694, 45.851804866853605], [8.952779937329428, 45.85185397678153], [8.952736355055595, 45.851870273428254], [8.952593309747611, 45.851890169947616], [8.952564550539568, 45.85191500260164], [8.952566333548654, 45.85196044022063], [8.952608679307687, 45.851979077522046], [8.95277402188901, 45.85214597201184], [8.952867968468874, 45.85219759775233], [8.95292690914452, 45.852248804990936], [8.95294589633893, 45.852276169482245], [8.952989882514945, 45.8523019731061], [8.953161716884184, 45.85233190864839], [8.953198074157523, 45.85235419835398], [8.953262524817616, 45.85245428361222], [8.95327901666775, 45.852518533258284], [8.953190777752019, 45.852657638555904], [8.953217239885923, 45.852713215492436], [8.95327811644005, 45.8527706133455], [8.95335609451403, 45.85283045246748], [8.953439586693388, 45.85293746021012], [8.953486096232457, 45.85307502588079], [8.9535043664802, 45.85310018674841], [8.953578204723932, 45.853164409158126], [8.953630705317883, 45.85322105617413], [8.953717680472188, 45.8532788932887], [8.9537820010963, 45.853302946624495], [8.953880752747313, 45.853367597299986], [8.95396423254279, 45.8533925975025], [8.95402831157903, 45.85338927626013], [8.954128192421187, 45.853406281441416], [8.954165221884582, 45.853425367861504], [8.954208001574335, 45.853467084953415], [8.95423662186646, 45.85350613224041], [8.954326467875187, 45.853508049943194], [8.954481478785063, 45.853524022547], [8.954647042963707, 45.85346814653459], [8.954706220101725, 45.85346914657973], [8.95473481929463, 45.8534967138759], [8.954681883685232, 45.85361569401672], [8.95467472171575, 45.85369144625382], [8.954595695761752, 45.85388846764246], [8.95456112106801, 45.85414806529389], [8.95457675579272, 45.85421011314281], [8.95477311006015, 45.85426184770008], [8.954830462044807, 45.85426199966826], [8.95490659291934, 45.85421211770796], [8.955051865199804, 45.85414082450589], [8.955104336431221, 45.85413164045742], [8.955189649967444, 45.854150722049184], [8.95533474747526, 45.854231785466574], [8.95541728061317, 45.85429880429015], [8.955509895155403, 45.85441744637686], [8.955538720808239, 45.85447409759659], [8.955542439855792, 45.85458148026752], [8.955253023928213, 45.85453831015187], [8.95486876636806, 45.854820437518754], [8.954673050072998, 45.85493099143738], [8.954630709642828, 45.854983871717366], [8.954562742166305, 45.855042181494454], [8.954216379687361, 45.85520355064649], [8.953597959933326, 45.85550780235695], [8.95352956587677, 45.85556425476128], [8.953454621394016, 45.85547223752771], [8.952873124908807, 45.855830227656085], [8.952938684364746, 45.8558729245411], [8.951066498386549, 45.85713877570537], [8.950761593676818, 45.85694247616211], [8.95000127504311, 45.85753382985483], [8.949506692188798, 45.857853601375155], [8.949734930473163, 45.85808677138921], [8.948187809715257, 45.85856206982523], [8.948272247199327, 45.85866231207463], [8.948258001049199, 45.85867102380976], [8.944054651130386, 45.86111184716837], [8.943972368057363, 45.86108191120538], [8.943916498350772, 45.86109846813445], [8.943951551775127, 45.86118619524947], [8.943911773901158, 45.861193215449234], [8.943940945626244, 45.86131855677731], [8.943434213857474, 45.8614934138878], [8.943358164167229, 45.86154746137111], [8.943083246850986, 45.86177302909689], [8.943063089574412, 45.86176067652355], [8.942748649074801, 45.861868004354626], [8.942607132270492, 45.86193386005253], [8.94233050512748, 45.86209025343298], [8.940983851075494, 45.86287067888435], [8.94043340024033, 45.86317784416362], [8.94032776123159, 45.86325238544058], [8.939938739028179, 45.86347595646707], [8.939598579523464, 45.86366410775099], [8.939623231472853, 45.86371643727048], [8.939345681185541, 45.863756063881624], [8.939342136914757, 45.86379357457849], [8.939378237037888, 45.86381016822078], [8.94038189000386, 45.86408120433295], [8.942094534311522, 45.864905087399066], [8.943540228631242, 45.865603088444416], [8.94530161308879, 45.866978861495426], [8.94522743684876, 45.86720521358204], [8.944719292784674, 45.86786769263453], [8.944334685689107, 45.86823849781292], [8.943976232141203, 45.86838720178165], [8.943946912006421, 45.86846894562673], [8.942939525748757, 45.86907576602913], [8.94289166595806, 45.86906352349739], [8.942774102594411, 45.8691923967164], [8.942376834680077, 45.869582796973184], [8.942494309775915, 45.86985931142535], [8.942276898775768, 45.87016866036241], [8.942059648842724, 45.87034323011115], [8.941767207523165, 45.87016189779398], [8.941612573575943, 45.870271571296044], [8.941000238270552, 45.86973657310443], [8.940629895171794, 45.86941654842943], [8.940406801974545, 45.86938878066732], [8.939414327586721, 45.86858813072072], [8.938817834181716, 45.86821063623716], [8.93874029276429, 45.86823706126098], [8.938275554635906, 45.867918272617715], [8.937425308530443, 45.86738373533352], [8.937026781730463, 45.86730611992762], [8.936763232235087, 45.86776905706524], [8.93646078352566, 45.86807932150218], [8.936185395438494, 45.86845576540451], [8.935141255034766, 45.86976469091122], [8.934599302288374, 45.87012570650121], [8.933774595992137, 45.87033349898971], [8.933805549193192, 45.870883466470985], [8.934033747530489, 45.87122231141978], [8.934405330092856, 45.87162222481038], [8.93457607885413, 45.87181341156828], [8.934631570517912, 45.8718891190413], [8.934417607220357, 45.87207190901578], [8.934294995400885, 45.87229846642389], [8.934492295988937, 45.87244878649664], [8.934369683827116, 45.87267534419672], [8.934382710582776, 45.87315200955069], [8.934152183699341, 45.87320006536249], [8.934025885959798, 45.87329171721219], [8.93403079588116, 45.87347159115016], [8.933970114517368, 45.8736073539517], [8.933781158085717, 45.873762820088146], [8.933680368680756, 45.873980694287695], [8.933678234991154, 45.874082334279606], [8.933646995555234, 45.874112420345874], [8.93328650862242, 45.87451615457575], [8.933166352766348, 45.874832647294156], [8.933056525792116, 45.87647157751849], [8.933211812163984, 45.877441165542976], [8.933185955620964, 45.877909352013894], [8.933258926035052, 45.87822327462386], [8.933459449772911, 45.87849051593609], [8.933529476648564, 45.87869651329627], [8.933251100186025, 45.87888015848563], [8.933172482713363, 45.87913358774666], [8.933295730585524, 45.87928793664448], [8.933164553080807, 45.87948412469249], [8.933148124103077, 45.879826228473334], [8.933284758028883, 45.88011229545611], [8.93304809135904, 45.88088020807353], [8.932544783265593, 45.88131876115132], [8.932257708755293, 45.88260016433755], [8.932135208774383, 45.88424824562335], [8.931937144111888, 45.885015626993365], [8.931552997564427, 45.88581437085686], [8.930591414392563, 45.886991106635996], [8.929707015868836, 45.88877031814355], [8.92844302959842, 45.89048979316521], [8.927877203641225, 45.8911070269924], [8.92731910245986, 45.89170932021972], [8.926747713126392, 45.89187155125614], [8.925171024232867, 45.89203316695087], [8.924144666336522, 45.89222397792855], [8.922937497967839, 45.89548696769741], [8.92191687106292, 45.89520182996883], [8.92165592250597, 45.895453599070706], [8.921535638848717, 45.89577008747149], [8.921540508677205, 45.895949970219014], [8.92176678582542, 45.896216899027515], [8.92239894878158, 45.89672138472802], [8.922628747526318, 45.897127546188145], [8.923862103385165, 45.899065615995916], [8.92493655169207, 45.900855316049864], [8.924900163041215, 45.902354091418765], [8.924842918981923, 45.90370252648916], [8.924126417234447, 45.905638132199755], [8.92408497722201, 45.90567826691184], [8.923448133525964, 45.90595662054445], [8.922940088188385, 45.90623326876299], [8.922687301872667, 45.906416556273996], [8.922327062950263, 45.90693353779123], [8.922349904610314, 45.907068281085735], [8.92225947575347, 45.907298187950246], [8.922031944876691, 45.90746296754239], [8.921914928097017, 45.90750122970709], [8.920250331819418, 45.9089616191266], [8.922289461979325, 45.909563624687884], [8.923360460352708, 45.90966025764949], [8.923405336950005, 45.90963692919816], [8.923443484811703, 45.90963638000884], [8.923620146729036, 45.909681036104104], [8.923824506461118, 45.909720467490914], [8.924048119211657, 45.90974696734633], [8.924112442375113, 45.909738766358124], [8.924151790204947, 45.90972828644647], [8.924352268279346, 45.90966074037235], [8.924460014652247, 45.90961651692169], [8.92453347471443, 45.90957551780571], [8.924589708423852, 45.90950574946999], [8.92461966381955, 45.909486369826496], [8.924653780604668, 45.90947833417114], [8.924732236296114, 45.90948416132283], [8.924780974848145, 45.90947587834942], [8.92480701249538, 45.909480257450554], [8.924982289407065, 45.909583986735804], [8.925008601309656, 45.90962695022556], [8.925258321249673, 45.90994941017192], [8.925362561654111, 45.90997067643746], [8.925485632983966, 45.90998816665838], [8.925630773898584, 45.90999204044162], [8.925843401689264, 45.91013027248791], [8.926103105114152, 45.91027106592463], [8.926189404334941, 45.91030794479744], [8.926732954360086, 45.91042016522075], [8.927078884831987, 45.91047885076765], [8.927552408552698, 45.91061454209706], [8.927651447120821, 45.910634957884774], [8.92791735405573, 45.91065761660183], [8.928085755527157, 45.910693001930845], [8.928177734017542, 45.910774644848644], [8.92827362422391, 45.91075513673575], [8.931915010497354, 45.91011711406697], [8.932396082565711, 45.91003647599377], [8.932505989711718, 45.910098101659514], [8.932551887377405, 45.91010618236169], [8.932616379769552, 45.91009524778047], [8.932651056816574, 45.91008321636752], [8.932701179031042, 45.91011575742443], [8.932824682070281, 45.910170714522565], [8.932951145498642, 45.91027555689903], [8.933170478351247, 45.910501027823], [8.933201571023092, 45.910528127020406], [8.933280167776353, 45.91056547167336], [8.933454885408253, 45.910692380198704], [8.933501957973384, 45.91071183524495], [8.933544954272595, 45.91074202386449], [8.933656751011378, 45.91083924225545], [8.933755561927738, 45.910902687665676], [8.933873372642756, 45.91098648314007], [8.933899633939035, 45.911018351820616], [8.933988039397153, 45.9110622682699], [8.934170884473824, 45.911163372313275], [8.934312089292877, 45.911229195620216], [8.934399202255163, 45.911307875128635], [8.934501993312862, 45.91136643586069], [8.934752667579414, 45.91146395519486], [8.934951184564992, 45.91152011620082], [8.935136132733787, 45.91155374912076], [8.93522856586959, 45.91155774536139], [8.935320540231837, 45.911542125310284], [8.935391873154277, 45.91154042849317], [8.935481069955298, 45.91155427455584], [8.93555285890922, 45.911590467027565], [8.935645820018399, 45.911648177079776], [8.93578293113993, 45.91169663483051], [8.935814140140598, 45.91172649407233], [8.935844203706093, 45.91182711200907], [8.936074014576628, 45.912138081624995], [8.936105919935532, 45.91220186819739], [8.936149819575444, 45.9122437760718], [8.936247563399906, 45.912314188270614], [8.936258954514003, 45.912347541154894], [8.93626374255431, 45.91240148623089], [8.936299402176006, 45.91248188497919], [8.936334596609163, 45.91252689580242], [8.936362549175803, 45.912595530338585], [8.936420923773893, 45.91268172615869], [8.936462474216397, 45.91270323295134], [8.936486047115546, 45.91273332857307], [8.936491900315922, 45.91277059722283], [8.936517440210714, 45.91281510691726], [8.93657802009304, 45.91287399468148], [8.936654190366832, 45.91293784796024], [8.936690788848615, 45.912962551649684], [8.936768914273289, 45.91300365196472], [8.93687124178595, 45.91307097079727], [8.93688983036667, 45.913092711714576], [8.936914723155414, 45.91313852538373], [8.936917625475797, 45.913183354618496], [8.936954530629105, 45.91321454106032], [8.936973931771293, 45.91324148035728], [8.937011911754142, 45.91331617109203], [8.937116543457467, 45.91365742680277], [8.937987616949396, 45.914399252241765], [8.93809068782041, 45.915011239199785], [8.939353169515458, 45.914188708371846], [8.943520575545419, 45.91221314567291], [8.944544796781082, 45.91206613850187], [8.945040896018188, 45.91228602016147], [8.945448329508158, 45.91251513984963], [8.945770537359838, 45.9126462443097], [8.946258525529103, 45.9127327216135], [8.946563541919467, 45.91265186724528], [8.946934919008392, 45.91260777410685], [8.947149181291106, 45.912663091264264], [8.94775444358064, 45.91295878715307], [8.948063679514167, 45.91295247520146], [8.94843498448955, 45.9130851884035], [8.949279171484308, 45.913637113238764], [8.94938238814705, 45.913867706807494], [8.949632010167663, 45.91395742587014], [8.949643329278787, 45.9140336225479], [8.949826647287177, 45.914099525955926], [8.949820000279416, 45.91402822395421], [8.94999921962324, 45.91382146374599], [8.950130601633397, 45.913700980119906], [8.950154662095919, 45.91355799846157], [8.950204502934012, 45.91346131880545], [8.950433225474537, 45.91316162665682], [8.950582514677007, 45.912942931694076], [8.95059695482798, 45.91282409263344], [8.950693251241328, 45.91268689645033], [8.95087618042026, 45.91256994663608], [8.950948972557379, 45.912500184630865], [8.950910312153049, 45.91246732581501], [8.950881769492224, 45.91236400946297], [8.950890841739668, 45.91233641925787], [8.950929242162616, 45.912305276618085], [8.950950734153478, 45.91230687687709], [8.950995173599654, 45.91233478132389], [8.951042788615387, 45.912324118106646], [8.951049579737582, 45.91225361571247], [8.951135351417452, 45.9121498405001], [8.951131779454967, 45.912011243336565], [8.951465470273728, 45.911810354192546], [8.951512414327414, 45.9117199492842], [8.95161819542549, 45.91168032344626], [8.951637516892783, 45.91151386928659], [8.951753336502398, 45.91136599947027], [8.95189763167478, 45.91125324009074], [8.952012113134668, 45.91107332263975], [8.952110677260727, 45.910803018593214], [8.952106538040681, 45.910669611954965], [8.952058126002592, 45.91054554652251], [8.952237414596036, 45.910221782393826], [8.952467601288838, 45.91001232353181], [8.95269564598548, 45.90991657032777], [8.95312363023038, 45.90982772296678], [8.953452293723787, 45.90971557083785], [8.953737891629652, 45.90958325167897], [8.953888018923218, 45.90942029698436], [8.953983951764336, 45.90930447072543], [8.954221536664047, 45.90922893983312], [8.954294554127923, 45.90904754519602], [8.954441667022733, 45.90880611228714], [8.95442841977785, 45.908666548231444], [8.954511024793929, 45.90835715761823], [8.954659299664298, 45.90764024061553], [8.954954206788013, 45.90681195937106], [8.955238453304794, 45.90622587717402], [8.955445648981893, 45.9059402207909], [8.955670565571532, 45.90577046788142], [8.956027168653602, 45.905354800437344], [8.956146008007998, 45.90496249692039], [8.956854766303122, 45.9038400376072], [8.9568869570284, 45.90357921969261], [8.957475976816662, 45.90370778545458], [8.95770391216214, 45.90325750907017], [8.958122470527428, 45.90321414056797], [8.958437302889145, 45.902605486473064], [8.958905988521895, 45.90215957193829], [8.958934618454334, 45.90176772992347], [8.95889232439231, 45.90087148436167], [8.959371660317753, 45.89947653448538], [8.95979374310347, 45.89940508202486], [8.960753775194167, 45.89843538712993], [8.961179204131149, 45.89799099379224], [8.96124647180672, 45.89733493340624], [8.961420849933964, 45.89688394834942], [8.961107889081289, 45.89634236516775], [8.961100857254742, 45.89498149666257], [8.962862528164008, 45.89369345302687], [8.962984583715368, 45.89310500867515], [8.962487874616832, 45.89139269133989], [8.963023860368697, 45.89073400222466], [8.963320879790812, 45.89050638318511], [8.963228964879582, 45.89043094925656], [8.963265759532725, 45.89019299901521], [8.96339723162941, 45.890093649382116], [8.96355335636142, 45.889930202603246], [8.963618580038839, 45.88963980089496], [8.963782211262716, 45.88948039121434], [8.963925073871003, 45.8893085499149], [8.963504477392776, 45.88879608741192], [8.963770025937665, 45.888484686889996], [8.964291187743374, 45.88790734466189], [8.965288298145428, 45.886647335463884], [8.965975961073644, 45.885842756643626], [8.96660868369774, 45.8852917277785], [8.969475163760265, 45.886650536167046], [8.971054139613805, 45.88736277202592], [8.971827933451687, 45.887734394832066], [8.971850555913427, 45.88788716187438], [8.971868598146783, 45.88792186911117], [8.971973141405332, 45.88791518759138], [8.972239252656362, 45.88797138458151], [8.9748143325398, 45.888708823608106], [8.974844778730668, 45.88872542958267], [8.974861798190188, 45.888750235608185], [8.9748614663736, 45.888783880165605], [8.97484241672471, 45.888820362873794], [8.974966320070022, 45.88879601383671], [8.975377078106998, 45.888736708853415], [8.976215080319928, 45.888909445257305], [8.974007692641313, 45.89090334116253], [8.973915558102702, 45.89101551637988], [8.97382973952521, 45.891130097391304], [8.973713135201702, 45.89130610816671], [8.973643633448026, 45.89142596322328], [8.973552002759012, 45.89160904602424], [8.973499481780582, 45.89173303249839], [8.97345389119246, 45.89185835477786], [8.973398660019368, 45.892048407672924], [8.973350847702303, 45.892272404070084], [8.973328355032304, 45.89243347090224], [8.973319158213108, 45.89254116543487], [8.973119601704736, 45.89404449401199], [8.973088380383658, 45.89421967052254], [8.973072958415244, 45.89439585478919], [8.973074049680127, 45.89458472424767], [8.973093295549623, 45.89477311181063], [8.973541533460832, 45.89623009953851], [8.973707777762755, 45.89622118847904], [8.973904474993937, 45.896292896899475], [8.974242801872215, 45.89629031436543], [8.974574650372485, 45.896614944210114], [8.974772940808705, 45.89666340848151], [8.974870719195058, 45.896612012616075], [8.975101460948016, 45.89681178533182], [8.975165616791505, 45.89688612323742], [8.97532242139763, 45.89713498727887], [8.975353011723273, 45.8971905395098], [8.975385006428303, 45.89726766549567], [8.97541165701156, 45.89735547216699], [8.975431639274717, 45.89765518816523], [8.975559946690273, 45.89819570432112], [8.975593101335727, 45.89830448415722], [8.975695058704956, 45.898494672744725], [8.976290331556505, 45.899412594886826], [8.975705031041032, 45.899536775256614], [8.9760025477252, 45.89996450067715], [8.975714255341614, 45.900033431631535], [8.976195203300025, 45.90093119118136], [8.976504306812615, 45.900863917628364], [8.976611614196571, 45.90117594278885], [8.976296070210113, 45.90125209496397], [8.976503589716057, 45.90169185679625], [8.976482394227544, 45.901721801294734], [8.976434686685943, 45.9017121437151], [8.976361430121896, 45.901716907273595], [8.976236835986658, 45.90173923398374], [8.976275189700381, 45.902600728348474], [8.976683533905497, 45.905239525751334], [8.976345179326836, 45.90569053864414], [8.976328389331293, 45.906268858333014], [8.976837013631112, 45.906854381152954], [8.977099507097078, 45.90705126920649], [8.977494330327483, 45.907457002176955], [8.977863957081208, 45.90776762889069], [8.978012272615315, 45.90848678596452], [8.977929713664539, 45.908816544970406], [8.977726054872583, 45.909222944646444], [8.977504813131619, 45.90951929836591], [8.977649990094463, 45.91350834146252], [8.983028233611225, 45.91224071315621], [8.98651916726632, 45.91026902230873], [8.986594060303412, 45.91028475452082], [8.986957666616236, 45.910422235308936], [8.987133123035917, 45.91044133073783], [8.987386263458463, 45.91043498240481], [8.98751094193358, 45.91039545893034], [8.987587831224497, 45.91036198278837], [8.987671859669955, 45.91036791985367], [8.987824388119806, 45.910410186107725], [8.98796524914549, 45.91038823515625], [8.988136181472855, 45.91030991950223], [8.988412359660726, 45.910275531661746], [8.988611747984232, 45.91023895429558], [8.98878973755614, 45.9101772019037], [8.989108246788861, 45.91000906563354], [8.989472594451335, 45.909992379948555], [8.989699560581112, 45.90997795918878], [8.989989905878865, 45.90995183213564], [8.990100704331168, 45.909928324761374], [8.990179675081952, 45.909892381075984], [8.990905580629338, 45.91005845232855], [8.991635918214968, 45.91014736570772], [8.991950153160786, 45.910134279371434], [8.992144825984722, 45.91015868184634], [8.992235770472023, 45.91015002149169], [8.992363151871976, 45.910128206929926], [8.992541079137178, 45.910141663926105], [8.993014219550423, 45.91018657023534], [8.993528878518342, 45.91011164643437], [8.99403086286321, 45.910027079542935], [8.994344573492684, 45.90992476187748], [8.99482401721285, 45.90979645999157], [8.995488593593437, 45.90959367338719], [8.996000452993226, 45.90930015403152], [8.996575488003504, 45.90898983386552], [8.99713391056484, 45.908729689766844], [8.997274975859476, 45.90864366421678], [8.997741188343639, 45.90921241150696], [8.997936550085559, 45.909303675530445], [8.998309586574564, 45.90934396846691], [8.998846437279713, 45.90951627677575], [8.999314904305733, 45.9097093983857], [8.999646112432556, 45.91006035635734], [8.999947428498832, 45.91022216742341], [9.00026099494787, 45.9103565464352], [9.000622013418866, 45.91066380825245], [9.000757831434017, 45.91101415773215], [9.001393184379399, 45.911530199508135], [9.001830915612162, 45.91182362676059], [9.002196590710055, 45.91185091994043], [9.002700962762926, 45.91211306055824], [9.003178190544526, 45.9125116782416], [9.00335955627858, 45.91277403972502], [9.003729465652144, 45.913267855895334], [9.004141813098343, 45.91365070333658], [9.004710757966311, 45.914082373711814], [9.004880964445293, 45.914269168473346], [9.005081023907486, 45.91480058671317], [9.005368355251449, 45.91540406308445], [9.005753293091562, 45.91599880902798], [9.005937614618622, 45.91614072488346], [9.006300718409864, 45.91624101606588], [9.006778959837607, 45.91623243397868], [9.00706703583868, 45.91625820251705], [9.007310838497169, 45.91624413595323], [9.007426797011343, 45.91617206914993], [9.00758401877492, 45.9161904509106], [9.007924041620825, 45.91620983399132], [9.00797665603957, 45.91624925400564], [9.008073241662716, 45.916450524573314], [9.008229753605784, 45.91645084927262], [9.008434234151654, 45.91648864157881], [9.008492040751142, 45.91664253300094], [9.008628425549738, 45.916790953748], [9.008771304137552, 45.91689298320313], [9.008984977383784, 45.91700666456389], [9.009195352669243, 45.91705571889228], [9.009239026820389, 45.917105610128864], [9.009148366528397, 45.917244788126744], [9.009223991142472, 45.9175459600165], [9.009549516997538, 45.917641540756925], [9.009976447707684, 45.91769017642773], [9.01057798604593, 45.91785341108661], [9.010825047131462, 45.91815145621856], [9.010852475038341, 45.91843411411893], [9.011173339520358, 45.918618519169556], [9.011718558082093, 45.91903657930171], [9.011972354471188, 45.919128935607894], [9.012438576664506, 45.919468520710794], [9.011782761616951, 45.91989868057721], [9.012273889406316, 45.920134027432695], [9.012830194988492, 45.9202697316335], [9.013445904330085, 45.92013661582263], [9.015233600967097, 45.91961470252516], [9.015565258165154, 45.91956443118174], [9.016531967703276, 45.91927766322547], [9.016972203034163, 45.91871480614291], [9.01683979305378, 45.91864035114984], [9.016679591784461, 45.91860438076954], [9.015788945743216, 45.91838918317353], [9.014640103954427, 45.91805353780398], [9.014438096071586, 45.91803082754587], [9.01430078187762, 45.91778847071709], [9.014317100466194, 45.91761197813121], [9.014731743797315, 45.91721180647081], [9.015161463142363, 45.91701304913153], [9.01548136945532, 45.91677012557865], [9.015704118155242, 45.91656878344771], [9.016160702920306, 45.916273735901164], [9.016249245136951, 45.915866171274224], [9.015740559395525, 45.91460902516949], [9.014863207246329, 45.914494582322554], [9.014512243295036, 45.914607569361344], [9.013923852345135, 45.915035286129694], [9.013521449287696, 45.9151423516913], [9.013155372991212, 45.9150944793391], [9.012858849027515, 45.915182766532034], [9.012294644194132, 45.91525301883852], [9.012005757909021, 45.91530303988738], [9.011880847332964, 45.915159772278976], [9.011381839014179, 45.914696942762966], [9.011182973770623, 45.914581673764744], [9.010000804131826, 45.914932195186495], [9.009354556610107, 45.91440322613242], [9.008607844770884, 45.914309311844335], [9.008210178866559, 45.91431379668512], [9.007586890357231, 45.91430263465856], [9.00747451054535, 45.913944406483616], [9.007475612201404, 45.913726470528985], [9.007366622924346, 45.91352201129587], [9.007363265580453, 45.913336482264235], [9.0077569496042, 45.91281200039614], [9.007926738279323, 45.91248042277262], [9.00822335829855, 45.912072028117464], [9.008480234207921, 45.91156422905372], [9.009116043112938, 45.91093460174143], [9.00851009035409, 45.90985100021237], [9.009191570297697, 45.90905311103629], [9.009311528003536, 45.90891801438948], [9.009806550483574, 45.90833996791754], [9.0100581213599, 45.907941239760305], [9.010218060440423, 45.907840015695314], [9.010628820761157, 45.90759566410964], [9.011087339539914, 45.907073414427046], [9.011313908875898, 45.90664692797336], [9.011283133704186, 45.90618615513176], [9.011775836296916, 45.9048497099256], [9.011452372832103, 45.903974955085175], [9.013061790065967, 45.902941790380225], [9.013236329287109, 45.90264766371109], [9.013244571355797, 45.90216311964117], [9.013347462364667, 45.90179306183838], [9.012381014350346, 45.90098111646078], [9.012379556539246, 45.9008048812654], [9.013000488216525, 45.90013194581798], [9.013897930390229, 45.898930839530514], [9.012096578952084, 45.89722530074891], [9.010877724178838, 45.896064214198496], [9.010488646367566, 45.89425375136495], [9.00991633422325, 45.894161106584164], [9.010303832430223, 45.893664067076195], [9.010599720732104, 45.893095988315615], [9.010709755366868, 45.89269189869947], [9.010698766986302, 45.89238093056983], [9.010098971658064, 45.89244385520539], [9.010352244552063, 45.89158528271987], [9.0106914299438, 45.89095485795425], [9.010526917393278, 45.890915682259724], [9.010200370896278, 45.89086933486109], [9.011106249359925, 45.88983649983562], [9.010881995933953, 45.889679679065146], [9.011147157525286, 45.88873490065658], [9.011385024461507, 45.88790446591201], [9.010215998464668, 45.883936970730176], [9.010935876015246, 45.88364963603013], [9.01008503955917, 45.88262890867749], [9.009624601090472, 45.881935968950025], [9.009557540772404, 45.88141865449975], [9.009757193736291, 45.88114085439653], [9.009641421560419, 45.88005300913334], [9.009290931133847, 45.879477028771504], [9.009168379524601, 45.87885361176152], [9.008799320248885, 45.87889852838484], [9.007771874107831, 45.87828318001856], [9.007296441138562, 45.87788089156858], [9.00638634795156, 45.87721253243689], [9.006209752835947, 45.87690126670641], [9.006165174231377, 45.87692342792766], [9.004825634509745, 45.87639938500963], [9.004010869782869, 45.87544645518704], [9.003510086825887, 45.87505352136044], [9.003060295147588, 45.8746124068215], [9.002729787262266, 45.87438345477245], [9.001526057981863, 45.87342047562738], [9.00139853847226, 45.87340088225491], [9.001024153042353, 45.87317030331255], [9.000577138505655, 45.872900053674115], [8.998735646059831, 45.87207379971416], [8.998126619944124, 45.87178856880578], [8.998084114882264, 45.871777651910314], [8.998480820325971, 45.87139794139637], [8.998701965040931, 45.871199837968334], [8.998950579060677, 45.87098721777705], [8.999200551578127, 45.870796585013565], [8.999400742868875, 45.87057792487167], [8.999412996862027, 45.87056048903646], [8.999561415428012, 45.86918067552564], [8.999561190052246, 45.869117211622225], [8.999447335875985, 45.869005078540646], [8.999363748114757, 45.86893585577843], [8.999513769206706, 45.86881984844612], [8.999819976127004, 45.86863698929081], [8.99988888215803, 45.868589633060374], [8.999668183629732, 45.86821889030364], [8.99961431950399, 45.86824496597948], [8.999358012867487, 45.868303240503266], [8.999051912729028, 45.868341072360344], [8.999021546609843, 45.86840221574326], [8.998882753060787, 45.86848014304487], [8.998721640083183, 45.86861869673125], [8.998713540992213, 45.86859973630155], [8.998686352911044, 45.86856308220869], [8.998652793395344, 45.868531536888796], [8.998574269479947, 45.86847181668466], [8.99805166602657, 45.868351093323874], [8.997953423642427, 45.86830760741042], [8.997804901198698, 45.86843111254698], [8.996166488499616, 45.86982956055754], [8.996146099981074, 45.86981595189805], [8.996092937150197, 45.86986318624766], [8.996111921028097, 45.86987586071653], [8.996063009128203, 45.86991587440615], [8.995284108214882, 45.87002113116481], [8.994795992937657, 45.86993592087033], [8.994379919976174, 45.8697970302644], [8.992921379038139, 45.86878818611775], [8.992666022101009, 45.86868865033197], [8.992256433246824, 45.868523535206485], [8.991904396055897, 45.86838771704402], [8.99107372871682, 45.86805693927772], [8.991062860491294, 45.868061993038594], [8.990547287146187, 45.86782393631057], [8.99052751391078, 45.867841978809], [8.990153902133427, 45.86769432734337], [8.988569250019317, 45.86604740024885], [8.988608766283384, 45.86448292888773], [8.98841277830463, 45.8642217057875], [8.988351996200498, 45.8640219010742], [8.987928221083212, 45.86371404905705], [8.987818327536782, 45.8639520618216], [8.98726333988384, 45.86365776790261], [8.98667952286106, 45.863291370972746], [8.98636442912605, 45.86311947300456], [8.986013879537339, 45.8628976792362], [8.985390745553124, 45.862672496326525], [8.984832651167922, 45.862384450733394], [8.984291609802256, 45.86210039685791], [8.982387969017166, 45.861581305319184], [8.98256221777013, 45.86088586642221], [8.984004199626225, 45.86062114320155], [8.983636981113793, 45.859861221627774], [8.983608939280362, 45.859793787494525], [8.983416097444838, 45.85972087395353], [8.983177248144276, 45.8597188064487], [8.983032004859336, 45.85963918285477], [8.982946880120522, 45.85958589464329], [8.98260143381539, 45.85945345942138], [8.982492445894513, 45.85935341829464], [8.982279530804208, 45.85947103173985], [8.982284391959857, 45.859474464743045], [8.981353362423699, 45.8599920522617], [8.981167022071949, 45.86010147993884], [8.981025819496582, 45.86019734036115], [8.980934134388093, 45.86027144016833], [8.980865920070462, 45.86036324746304], [8.980831505375603, 45.86037992395288], [8.980840497409655, 45.86031325827956], [8.98087198088955, 45.860256036260594], [8.981041644288652, 45.860077920407555], [8.98124884477292, 45.85992044956107], [8.981289915696772, 45.85986532696373], [8.981298533691955, 45.85980141038696], [8.981266778240796, 45.85963397076279], [8.981234037129658, 45.85953214219651], [8.981188720695403, 45.85951786589149], [8.98066086362283, 45.8595418440938], [8.980494125982881, 45.859560796950035], [8.980338048942421, 45.85959343160534], [8.979571936067876, 45.85979441811569], [8.979309944927747, 45.85982613898188], [8.977015066770079, 45.859951874363915], [8.975430464702825, 45.86054420674229], [8.975207289214854, 45.859369416235694], [8.974893851912181, 45.85901336635914], [8.973981585774817, 45.859417362132184], [8.973571767605183, 45.859674352589366], [8.97259582355792, 45.859229437794575], [8.972162366289107, 45.858838331973644], [8.971609316382947, 45.857859876229654], [8.971572004535954, 45.85761007088158], [8.969038540170985, 45.857555471516825], [8.968759988779679, 45.857541769618514], [8.968813063011726, 45.857506641581374], [8.968635138492301, 45.85728854119056], [8.968537481848298, 45.857184211377195], [8.96772229079465, 45.85643365972734], [8.967455367655024, 45.856166377822795], [8.96721062907763, 45.85589435769728], [8.966981170428133, 45.85561010904587], [8.966754699823817, 45.855293942914564], [8.96575525335653, 45.85374425398589], [8.96558183182782, 45.853510361260824], [8.965376682983678, 45.85329065629457], [8.965126722931707, 45.85307255909012], [8.964844545072218, 45.85287459388117], [8.964572517652453, 45.85272389509889], [8.9642913655788, 45.85258160594479], [8.962229208593861, 45.851640966318875], [8.961911493156325, 45.851451051951045], [8.96167073702736, 45.85121216550321], [8.961549174133246, 45.85098333039765], [8.961491449327658, 45.850742589746076], [8.961488570372428, 45.85048328188552], [8.961562852748886, 45.850229197972396], [8.961679194824626, 45.85003484999118], [8.96183965023543, 45.84985646662945], [8.963060255689866, 45.84881150339766], [8.962640651710121, 45.84856456670226], [8.96269645295829, 45.84852489710284], [8.962766078301375, 45.84837309896621], [8.96283020188107, 45.848296149501905], [8.962827570504079, 45.84823531191964], [8.96285897156467, 45.848207102859746], [8.962927574654227, 45.848087078210085], [8.962950722487161, 45.84803384365536], [8.962960140550956, 45.84799798877015], [8.963016733079364, 45.84792244656875], [8.962908688162592, 45.84785048992472], [8.962741224199311, 45.84734399602859], [8.962823497848603, 45.84730264442424], [8.962921167033223, 45.84720753369228], [8.962917450559118, 45.847078972734], [8.962909457032866, 45.84705632803134], [8.96292581983156, 45.846881287136775], [8.96290389990969, 45.84675273926899], [8.962594359416428, 45.846679029597446], [8.96237335980682, 45.846615308780734], [8.962052283876151, 45.84654524466521], [8.96169362720098, 45.84635045146277], [8.96150728959116, 45.84622111874081], [8.961349764477422, 45.84616312867247], [8.960811028806269, 45.845624838695855], [8.960666336831398, 45.84562555926806], [8.960582505670176, 45.84561726733359], [8.960100891181412, 45.84537658535291], [8.959768600932797, 45.84518627346645], [8.959422796756705, 45.84522717360844], [8.959360520731233, 45.845154512844694], [8.959312625515603, 45.84512737932302], [8.959196366028614, 45.84504943932355], [8.959047990127003, 45.844976684898356], [8.958806585330247, 45.844821069215214], [8.95860521795963, 45.84470306661797], [8.958429148542242, 45.844619934860404], [8.958139173647552, 45.844389031123114], [8.95807699860331, 45.84431994819527], [8.958095162824252, 45.84422292102606], [8.95803980717928, 45.844136534230884], [8.957953129775765, 45.844017068249045], [8.957367701982932, 45.843791165512215], [8.957247326574116, 45.84367828156313], [8.957014357714973, 45.84336763033154], [8.956924428278311, 45.84323335328078], [8.956739590224025, 45.843035951669826], [8.956690217135785, 45.84295022198423], [8.956654072503401, 45.84283083582403], [8.95664612485994, 45.842715827499134], [8.95667311683001, 45.84265530877321], [8.95675482498233, 45.84260711351718], [8.956673362936655, 45.84258144082347], [8.956571852391576, 45.84249092888931], [8.956498002010914, 45.842582545197914], [8.956445935672994, 45.84250783728879], [8.956412158911585, 45.842440934186236], [8.956392941118462, 45.84219175429482], [8.95640767655655, 45.84196797213228], [8.956390599294446, 45.84184213812915], [8.956309244112472, 45.84172681821933], [8.956179209336012, 45.84159583627324], [8.955950375562214, 45.84222699936683], [8.95577373227977, 45.842909180099284], [8.95588368929836, 45.84296208877684], [8.956053595366127, 45.84309636487599], [8.956203802612574, 45.84329142033586], [8.956241799432028, 45.84338379994188], [8.95573005429042, 45.843349623499165], [8.9553205915587, 45.843294806305494], [8.954946840846135, 45.843302853097065], [8.954220891035222, 45.843175653699355], [8.953791910626531, 45.84311785556063], [8.953577211079118, 45.842941624851214], [8.953570253037192, 45.84275460023137], [8.953304194536654, 45.842443316465676], [8.953154770900165, 45.84231858419019], [8.953021305763723, 45.842328833188986], [8.952048234776253, 45.842845725592184], [8.951320785446867, 45.84285078241161], [8.95052309542191, 45.843025491834574], [8.949559988272517, 45.843372725929804], [8.948806176850605, 45.84343462236097], [8.946780158949478, 45.84266041690976]]]]}}]}