{"type": "FeatureCollection", "features": [{"type": "Feature", "properties": {"bfs_nummer": 5307}, "geometry": {"type": "MultiPolygon", "coordinates": [[[[8.440533724778907, 46.30411976171781], [8.441020528224671, 46.303833828755735], [8.441476287013778, 46.30337192624673], [8.442030062560386, 46.30303416996651], [8.442379834013641, 46.302925775902246], [8.443550606001947, 46.30249649777974], [8.444536105475187, 46.30210645162853], [8.444920744462287, 46.30201567720424], [8.445778779758891, 46.301462527459], [8.446780254445226, 46.30057432254747], [8.447691797158893, 46.30028074127394], [8.451552477884407, 46.30053640187167], [8.454268226305723, 46.2999969694206], [8.45627259203974, 46.30019203143012], [8.457516657393024, 46.29994946952826], [8.459598848729522, 46.30028423248691], [8.461705018336511, 46.29911685141263], [8.464955119973018, 46.30022822847359], [8.466515052738439, 46.300765681428615], [8.467735528647557, 46.30125001776036], [8.468178392052657, 46.301559526376096], [8.46887384191982, 46.302214843947425], [8.469750860065894, 46.302068278291365], [8.470525397683465, 46.30201978205704], [8.471736248538855, 46.30170264724239], [8.472507980373758, 46.301747108162715], [8.473184847611002, 46.30141788604442], [8.47383625621294, 46.301585349065064], [8.476127457222857, 46.30272706292082], [8.477542467191482, 46.30346743178969], [8.478197817537579, 46.303977342459746], [8.478660886355513, 46.30400944394011], [8.479153804585799, 46.30424874522941], [8.47948884099524, 46.30466238955662], [8.479922683233138, 46.30474340489266], [8.480232902713466, 46.305002239487024], [8.480823938652678, 46.30495116133762], [8.481180118409169, 46.30513142966913], [8.481371649476664, 46.30551136285817], [8.481935269026623, 46.305688769976015], [8.48313124868744, 46.30577716450668], [8.483982124891327, 46.30571757746895], [8.484802655924968, 46.30625686843865], [8.485752766745803, 46.30613280007553], [8.486212793175623, 46.30632309332157], [8.487411027426512, 46.30641669776082], [8.490066268258204, 46.30641754771387], [8.491262869461998, 46.30621486023576], [8.49221288906946, 46.30596310076731], [8.49324138623342, 46.3058798664039], [8.494140560212129, 46.30529953699343], [8.495402654555942, 46.30475727199175], [8.496299340745914, 46.304707838893215], [8.49721300938639, 46.304616168054324], [8.498253380391143, 46.30490646371948], [8.499771195219926, 46.30462487178894], [8.50034262741295, 46.30465789163921], [8.500915890361798, 46.30504333696311], [8.501377705687766, 46.305131104804786], [8.509667561739661, 46.299934883765154], [8.517225725032377, 46.29582178943128], [8.520090966241876, 46.296223649446524], [8.52266546150352, 46.299784584092535], [8.523763355234628, 46.29950460182408], [8.52529222453277, 46.2987379048004], [8.52548112377241, 46.298662912633695], [8.525567532610927, 46.29862023961546], [8.525711102232208, 46.29850674532958], [8.525921530065185, 46.298292045235925], [8.526208525816383, 46.29805287573868], [8.526314278130998, 46.29792418037314], [8.526347756050296, 46.297869879234845], [8.526409687777715, 46.297833891440895], [8.526502367634428, 46.29779206606943], [8.526845605598734, 46.29768234513521], [8.52711398953414, 46.297645225206345], [8.52729626668215, 46.297611263692815], [8.527401630061485, 46.29755796179818], [8.527762624197953, 46.29735966681857], [8.527840428139264, 46.29730748455231], [8.528021444033381, 46.297145864127984], [8.528079597327713, 46.297065855557804], [8.528127523381588, 46.296974213972604], [8.528242138902453, 46.296814689985844], [8.5283483988591, 46.296685789576834], [8.5284160433201, 46.296616350570275], [8.52848746566988, 46.29653078030075], [8.528627319879833, 46.29639179478764], [8.528745662825381, 46.29633286095784], [8.528883323708142, 46.29624700322247], [8.528967296087634, 46.29617504068496], [8.529132733532615, 46.29599804093598], [8.529211482806945, 46.2959316614121], [8.529273297610278, 46.295844096150525], [8.52932484199997, 46.29575181651497], [8.52940409086059, 46.29557581760355], [8.529432784941323, 46.295532357560774], [8.529536427456275, 46.29543497834239], [8.52970254598634, 46.29535163416744], [8.529829783807832, 46.295221280235], [8.529930069635387, 46.295152659009716], [8.530011758287724, 46.295083470450315], [8.530169668309078, 46.294937849729436], [8.530249512473262, 46.29485568776], [8.530313336882703, 46.294773977324844], [8.530413306343217, 46.294632774862976], [8.530570324163849, 46.29453331471273], [8.530655575387108, 46.294513014226084], [8.53082909030512, 46.29445114375402], [8.530896882524466, 46.29440676694292], [8.530923605222307, 46.294379618257466], [8.530996050402445, 46.29435434931548], [8.531054980329584, 46.294286225212815], [8.531166579353647, 46.29427439697401], [8.53122828179443, 46.29420797353105], [8.531411003714595, 46.29410769686475], [8.531616267491724, 46.294036414023665], [8.531673659938322, 46.29402809542292], [8.531741844348904, 46.294044655801656], [8.531874779876844, 46.29396122343465], [8.531855550697726, 46.29393049681359], [8.53186574082265, 46.29390219413134], [8.53195805153579, 46.29388128454146], [8.532085572647274, 46.293771301581984], [8.53217504142443, 46.29373105002303], [8.532255868550967, 46.293626385376925], [8.532302901980525, 46.29359925613043], [8.532496660194644, 46.29352845142202], [8.532697076969608, 46.293522869580556], [8.532887474281521, 46.29345923076677], [8.533145069414452, 46.293344462014794], [8.533294595701273, 46.293287192185645], [8.533328847310505, 46.293306626033846], [8.533499326922394, 46.293267748643466], [8.533583499860457, 46.29330040974572], [8.533711488488146, 46.293301509955874], [8.533873714924988, 46.29332392415227], [8.53401001393894, 46.293300742982424], [8.534113558803949, 46.29330736930095], [8.534364018937636, 46.29327921381092], [8.534438141874018, 46.29326586477965], [8.534553358847731, 46.29322762027961], [8.534720254321492, 46.2932311943196], [8.53486792469512, 46.29322103681958], [8.535068142119398, 46.29324617607792], [8.535177499840044, 46.293206368358845], [8.535473224240626, 46.29321215650682], [8.535521660503445, 46.29317231806278], [8.535657563568648, 46.293157856657274], [8.535774220217807, 46.293152434144744], [8.535839954428072, 46.29312085773909], [8.5361583600256, 46.293166997039975], [8.53651447073122, 46.29287737681743], [8.540501324641479, 46.28985619317007], [8.54040340926187, 46.28441034149003], [8.549767997033317, 46.27929851824449], [8.550108464545962, 46.27936377771268], [8.552106261352957, 46.27915291258387], [8.552541237836396, 46.27897734755684], [8.553820715292822, 46.278709028409764], [8.5544306990134, 46.278521260474236], [8.5555707216911, 46.27853958363474], [8.555691809941058, 46.2785720810783], [8.556270665263627, 46.278460983244855], [8.556556714073823, 46.27850209929628], [8.55724100473247, 46.2784977793828], [8.557719285569759, 46.278571954867026], [8.560728565825253, 46.27895164686695], [8.561996191558068, 46.27989783442918], [8.564854269017227, 46.27818527114202], [8.570382638023581, 46.27635911103554], [8.574140323302357, 46.27617012725664], [8.572110503386158, 46.27246730623127], [8.571730331205638, 46.2717583754228], [8.571288943585683, 46.26956859618842], [8.570940818181551, 46.269126127738325], [8.57086414565611, 46.268593499056735], [8.57046941318775, 46.26851080032202], [8.569843971863108, 46.268145012465936], [8.569193243958974, 46.26723842498326], [8.56814992756068, 46.266916915551214], [8.567009890937962, 46.26700736114875], [8.56633639603755, 46.26710494785802], [8.565894267963069, 46.26706073605161], [8.56517643120882, 46.26684832762732], [8.562711885292554, 46.26698675215711], [8.561253031355973, 46.267249067505325], [8.56051526047825, 46.267263992339814], [8.559361795207959, 46.26792891266623], [8.558237469048782, 46.26804874639568], [8.557601520081402, 46.26799300207028], [8.556960147966842, 46.26813412414146], [8.554898383108917, 46.26817058427193], [8.554414890350973, 46.26759712502561], [8.554346962331783, 46.26731641509639], [8.553992344290268, 46.26688043480902], [8.553213841498696, 46.26627862620982], [8.552881615882276, 46.26623955668793], [8.55250589427495, 46.2660841993613], [8.552321957811102, 46.26577464709605], [8.551728714054626, 46.26551293831552], [8.550721745811483, 46.26472120558188], [8.55072461171247, 46.26443500456985], [8.550134225792835, 46.2640104759758], [8.549292569270987, 46.26353932727456], [8.548489367576261, 46.26313772722031], [8.547833007247444, 46.263164501917956], [8.547427631400852, 46.26301169582263], [8.546911024495756, 46.26298168850446], [8.54637149610486, 46.26269613935389], [8.545837328220497, 46.262580475660904], [8.545334214882612, 46.26230407923811], [8.54462716195656, 46.26205268270627], [8.543806769200735, 46.262058996681986], [8.542493212803, 46.26200354446183], [8.539891434567567, 46.261970734965466], [8.539681316469485, 46.26178224147625], [8.539347146413913, 46.261763622585946], [8.539585961338299, 46.26135973277682], [8.538265804624444, 46.26131051418512], [8.537361239711883, 46.261122994273514], [8.536735335671372, 46.26107337588722], [8.534966040340688, 46.261066126405254], [8.533817676727972, 46.26088546565269], [8.531829568249758, 46.26095493474795], [8.530552005086532, 46.261130508759216], [8.529563788722816, 46.26111003691016], [8.529073073085053, 46.26089734084576], [8.528731461258708, 46.2606349481779], [8.528328037744867, 46.260486196334185], [8.528126285651846, 46.260285566440466], [8.526863672876638, 46.25972202474369], [8.52616746279036, 46.2593180466311], [8.525291729292784, 46.259341135465775], [8.524480520132679, 46.259552764178096], [8.523493437445344, 46.259422801674795], [8.522859281207962, 46.25918601778706], [8.521943527139735, 46.2589558213556], [8.521916519606844, 46.258771780551896], [8.519989373683277, 46.258535467786274], [8.518199677461222, 46.25850190563329], [8.517566301404592, 46.258173763873536], [8.517241669703088, 46.25784841201385], [8.515824914647315, 46.258621795743466], [8.514850855502251, 46.25889640733785], [8.514589792235778, 46.25839883174185], [8.513226184302036, 46.25892228687578], [8.512517075302897, 46.25907532754511], [8.511852854274654, 46.25952293622205], [8.511036500257227, 46.259767714664896], [8.510267240034212, 46.2595945764652], [8.509269729797232, 46.25964451544597], [8.507992119214801, 46.25890433828197], [8.506124516184805, 46.25866768316981], [8.505263803410443, 46.258432756567196], [8.504621987815373, 46.25735893953389], [8.503763789902042, 46.256719297890186], [8.502677865851728, 46.25573706933106], [8.501949459606934, 46.25431546718312], [8.50169839855131, 46.253652247557405], [8.501287792733436, 46.253151826224794], [8.499303726565445, 46.252709354749705], [8.49611354914524, 46.252926172764276], [8.494401956113556, 46.25308368315867], [8.486142630961954, 46.25186490028762], [8.481606147625545, 46.25160287753187], [8.480787013561882, 46.252343832357035], [8.4786238305667, 46.253122638612666], [8.476605527210747, 46.253031914757855], [8.475870380413937, 46.252751197869046], [8.474529589038738, 46.25157689757434], [8.474372656826924, 46.2505254050346], [8.474500010255754, 46.24999197151579], [8.474140450986289, 46.24982180191615], [8.473072865444061, 46.249550248529424], [8.471801040379807, 46.248905098017126], [8.471471248557059, 46.248815654523], [8.470865195179874, 46.24842660703516], [8.470212216279233, 46.24813716153909], [8.469515587503297, 46.24772742374545], [8.468739977313163, 46.24709169430578], [8.467636986311085, 46.24676715361965], [8.467313804298396, 46.24657626700548], [8.466726149415466, 46.246340076990684], [8.465691695271522, 46.24581712755908], [8.464808428665878, 46.24503144000607], [8.46445276446578, 46.24478308178142], [8.463925956003218, 46.24461759169937], [8.463837026847495, 46.24464296464042], [8.46378260503182, 46.24455145832205], [8.463631636992378, 46.244627361155274], [8.46354214044076, 46.24457219717828], [8.463360780797025, 46.244665415174104], [8.46322704926381, 46.24469608075487], [8.461998247691009, 46.24479213289564], [8.461504416014815, 46.24474206218506], [8.461353155318799, 46.24470177702077], [8.460770028583042, 46.244779552115084], [8.459975253805707, 46.24552458465054], [8.459691065449027, 46.245706621673804], [8.459006073366732, 46.246029265704365], [8.458728404986346, 46.246093865252554], [8.458196891327017, 46.246324354577375], [8.457967765723234, 46.24631891673093], [8.457883986148452, 46.24636878341618], [8.457795643061582, 46.246340475849244], [8.457492894118714, 46.24643063456638], [8.456977704356312, 46.24649735063014], [8.456851943891964, 46.246555197685225], [8.456674148790912, 46.246551544348634], [8.456425510967552, 46.24661622005901], [8.456289509252874, 46.24659592512999], [8.455765427165082, 46.246775360009174], [8.45515439678542, 46.24712089739446], [8.454926906691188, 46.24721576533283], [8.45472549433978, 46.24727875810412], [8.454335078909558, 46.24734651246546], [8.454285122477474, 46.24738022943331], [8.45399520106896, 46.247380917459644], [8.453925312131169, 46.24744093936045], [8.453751472348683, 46.247513913439334], [8.453609331943596, 46.247526075681726], [8.453525915489418, 46.2474886258391], [8.45316804467819, 46.24756036991152], [8.453052825009124, 46.24744974313695], [8.452819469139554, 46.24743323115981], [8.452672333554228, 46.24750237399674], [8.452147404116547, 46.24756718276494], [8.452093422677219, 46.247598587404205], [8.45197578804966, 46.24758558962253], [8.451831642512259, 46.24766219823967], [8.451724228488168, 46.24764791264181], [8.451523210583487, 46.24770299096918], [8.451377657089498, 46.24781953159779], [8.45110565787329, 46.24783227743376], [8.450993347165081, 46.24787969463615], [8.450783871223791, 46.247886642958925], [8.450587234192596, 46.248036530048964], [8.45039537502831, 46.24804249241772], [8.450179781846765, 46.24815976611383], [8.449746692457182, 46.248126772450554], [8.449596399353323, 46.24815680461824], [8.44933999515268, 46.24812750155532], [8.449284381386938, 46.24805931866242], [8.449154123815806, 46.24806702266568], [8.449061723568926, 46.24811421369336], [8.44889638297145, 46.24810765597396], [8.44871524234131, 46.248029343653826], [8.448405158106823, 46.24804642555353], [8.448170704657784, 46.24802401908352], [8.447901306373963, 46.247928024511225], [8.44782192714754, 46.247866820581066], [8.447643806360437, 46.247848537704385], [8.447341212568784, 46.24792127412205], [8.4472740912666, 46.2478994452013], [8.446988962000196, 46.24796447500952], [8.446879654501462, 46.24804546183726], [8.446661646226683, 46.24810505215483], [8.446119280829107, 46.24846760315967], [8.44576361940221, 46.2485361398119], [8.445670086227864, 46.24866240873751], [8.445532036116953, 46.248757120446335], [8.445219266589149, 46.24891254603736], [8.444526961946663, 46.24887790026232], [8.444449059723299, 46.24927629355928], [8.444315782432662, 46.24954451226896], [8.4441442181752, 46.249587338983154], [8.444122741985055, 46.24980413636424], [8.443993516098011, 46.249912978524684], [8.443453918512894, 46.25016955406166], [8.443381445986416, 46.25024223978131], [8.443173885945741, 46.25062538679966], [8.443175784348458, 46.25081743464339], [8.443214804357137, 46.250987354905526], [8.443159032792233, 46.251173681715315], [8.44301350305029, 46.25131905187134], [8.44296139869064, 46.251463853941175], [8.443057587842263, 46.251617366323], [8.443224914649521, 46.251741665982365], [8.443225636749352, 46.25181317925408], [8.443292421381189, 46.251917324855086], [8.443206414539993, 46.25212165167608], [8.443068326334362, 46.25229459809873], [8.4429942321819, 46.252345564493936], [8.442963574638194, 46.252429276199834], [8.442729668113936, 46.25254513301089], [8.442277866532454, 46.25298826560877], [8.442463782379612, 46.25306490044942], [8.442402519953427, 46.253141713281146], [8.442365260813288, 46.25328795633703], [8.442435858611061, 46.25339114763857], [8.442398340650422, 46.25349942881044], [8.442426907892271, 46.253765879698136], [8.442347902311099, 46.25382637938463], [8.44237198041282, 46.253911883636604], [8.442325269288071, 46.253964142450144], [8.44227692374037, 46.25415199383446], [8.442908768810275, 46.254339404916365], [8.443176945982815, 46.254330679566024], [8.443509904467122, 46.25444851422348], [8.443776469104744, 46.25470773286841], [8.443705027204349, 46.254880790854244], [8.443818940136037, 46.25532419088492], [8.444061035956748, 46.25550620120357], [8.444168912452696, 46.25564655680778], [8.444178319338132, 46.25579070272411], [8.44430681049526, 46.25585694316035], [8.44439326332528, 46.25595522366746], [8.444367136390131, 46.25611555589541], [8.444408157262876, 46.256168871695444], [8.444587447767974, 46.25621323909921], [8.444636336776954, 46.25628661071196], [8.444746722566858, 46.25633170818482], [8.44495705153679, 46.25652076450848], [8.445007138484911, 46.256649074836446], [8.444974348733828, 46.256713438858725], [8.445253442134607, 46.25691917454191], [8.445333982106145, 46.257034124193524], [8.44531998833286, 46.25712318703049], [8.445538939147543, 46.25726196732251], [8.445590589925535, 46.2573835435638], [8.445773460700806, 46.25751040050751], [8.446098935532461, 46.25767871012191], [8.446289050599276, 46.257700774627885], [8.446593668181565, 46.257691022078696], [8.447025852067565, 46.25783706663919], [8.447263851925419, 46.257892699875974], [8.447452689632952, 46.257908062437195], [8.447533167618811, 46.257947279514006], [8.447625260430607, 46.25793582361213], [8.447891119555958, 46.25802005895325], [8.44802351603769, 46.258222827140784], [8.448052275323036, 46.25839646287511], [8.448014975725986, 46.25853984858181], [8.448449654097438, 46.25872971997062], [8.448347250815774, 46.25883215888514], [8.448529001299066, 46.25905466056509], [8.448592519117517, 46.2591967662661], [8.448564480711617, 46.259253514298365], [8.448592502127234, 46.25928950996358], [8.448528323962261, 46.25939768073304], [8.448516322697373, 46.25952186633646], [8.448204208475026, 46.25978107049769], [8.448215078947472, 46.26000623478347], [8.44817636887264, 46.26016661822077], [8.44805085700216, 46.26028270487545], [8.44797677832412, 46.26066271931805], [8.448301466256044, 46.26088081770305], [8.448302889327149, 46.26102386692061], [8.448373148737678, 46.26106434363066], [8.448266529408642, 46.26121939562542], [8.448491895145164, 46.26139565647869], [8.448791448049173, 46.261324319481666], [8.449033698809668, 46.261235680151586], [8.448993444608549, 46.26108862478251], [8.449255282060308, 46.26094844069065], [8.449499326124625, 46.26089571606746], [8.449851775576331, 46.26123095508384], [8.449950896077347, 46.26126092688064], [8.450214537334562, 46.26147520309436], [8.45034571608333, 46.26151397336063], [8.45050168573226, 46.261600347321], [8.450704187809393, 46.26164523561806], [8.451032252797107, 46.2618285071534], [8.450963898734258, 46.26192474293869], [8.451352156889865, 46.2620964376784], [8.451442145970727, 46.26209565836495], [8.451647194391677, 46.26215315338044], [8.451820576150073, 46.26225834444449], [8.45194406659114, 46.26228178050008], [8.452288099897649, 46.26221478584211], [8.45234167398554, 46.262278343343716], [8.452543282522647, 46.262368264945685], [8.452962578347774, 46.26239822451481], [8.453010133886426, 46.26247566269463], [8.453262871466885, 46.26243039486887], [8.453328616638238, 46.2624732939772], [8.453409454318743, 46.2626271018084], [8.453619339730036, 46.26270314422952], [8.453681779803276, 46.262846844209406], [8.453914779563306, 46.26281359026236], [8.454011429239493, 46.26286452367384], [8.454037534017093, 46.262953209356354], [8.45422588413566, 46.26300253587484], [8.454474022936981, 46.26301935458355], [8.454583411684808, 46.26311403186423], [8.454555622203031, 46.26321584226107], [8.454962582799423, 46.263285810409435], [8.455170022601802, 46.263382787671766], [8.455226866727255, 46.263468453240755], [8.455427195944429, 46.26352006329779], [8.455631257428692, 46.263649872644436], [8.455770283699026, 46.26365062932929], [8.455880830276776, 46.26375573028099], [8.45243804305356, 46.26968826020647], [8.450808675555203, 46.27252851891785], [8.449771106651406, 46.27432377326675], [8.446626472207495, 46.27709858474477], [8.44201789326029, 46.281149150059925], [8.441606053897113, 46.28141980656584], [8.44133753067966, 46.28151142112599], [8.44100944524754, 46.28168378341107], [8.440299458460617, 46.2823012027967], [8.440169696194456, 46.28253547563097], [8.439974229228824, 46.28276160259452], [8.439799053897284, 46.28291011819834], [8.439440504897146, 46.28316374080722], [8.439147739554283, 46.283303767899376], [8.438479375065704, 46.28373113842434], [8.438008220887458, 46.28412877558575], [8.437712453084671, 46.284420180895395], [8.437555128556092, 46.28454718681249], [8.437263460479736, 46.28471723849409], [8.43728442999949, 46.2848387840581], [8.437228156244016, 46.28494358507504], [8.43697955592829, 46.28503461832337], [8.436880473624186, 46.28513663900093], [8.436651409646394, 46.28530101686921], [8.436305065756681, 46.285666364356736], [8.43605060925265, 46.286037622720855], [8.435803316594333, 46.286557033113894], [8.435850809203531, 46.28689233486105], [8.435839703855304, 46.28689531154986], [8.43570624555561, 46.28699691365512], [8.435432869651038, 46.28707434159429], [8.435231173872124, 46.287271267652955], [8.435049479304725, 46.28753719066718], [8.434463440386871, 46.28772674820855], [8.434193821201362, 46.28811314929822], [8.434012842040426, 46.28848300203253], [8.434025691212913, 46.28882194686656], [8.43399201416316, 46.28901756386326], [8.43406082693312, 46.28923353784029], [8.43386946824289, 46.289586792385485], [8.433741010013412, 46.2900691686546], [8.433874688649576, 46.29046971892692], [8.433904696024152, 46.29081019542743], [8.433978916527376, 46.29099603861756], [8.433927742094589, 46.29112063014018], [8.433811497736784, 46.29113321246354], [8.433750024404185, 46.29123189465472], [8.433784728885925, 46.291386580287764], [8.433995429248204, 46.29181863593295], [8.433824463106454, 46.29198047423596], [8.433614779759477, 46.29212725069591], [8.43343250333467, 46.292348376509445], [8.433225863747115, 46.292529672788774], [8.433175176337453, 46.292682322939456], [8.432863370078643, 46.293121733582346], [8.432730758768889, 46.29324596828229], [8.432416205941411, 46.29343773396256], [8.431914135836434, 46.29392042572022], [8.431830175324755, 46.29391666431331], [8.43181765780033, 46.29399237036633], [8.431530246605899, 46.29415549625069], [8.431169728235037, 46.294459489907496], [8.43077195830862, 46.29492286527446], [8.430314597484683, 46.29530871755196], [8.429942211965198, 46.295670269700864], [8.429111703785901, 46.29660549912523], [8.428942059090675, 46.29673036941483], [8.428693793483983, 46.29707792407915], [8.42847664405822, 46.29731129942667], [8.428276243113059, 46.29748430913382], [8.42811172594919, 46.29753184289831], [8.42802041803923, 46.2975903883859], [8.427961917161849, 46.29766304864651], [8.428024716947416, 46.29781511044132], [8.42773990675214, 46.29830121278739], [8.42776461761652, 46.29833893452557], [8.427885431500348, 46.298361889784395], [8.427903023794487, 46.298409983555594], [8.428035414910047, 46.29850365431336], [8.428051526302605, 46.29866738817291], [8.428010609808402, 46.2988449165264], [8.428062837290259, 46.29892762120194], [8.428162634756081, 46.29905029409999], [8.428404349760026, 46.29913009990126], [8.428385799506096, 46.299402534126266], [8.42823220702659, 46.2994550925704], [8.428221423108667, 46.299546526624894], [8.428406923218596, 46.29959974642651], [8.42865629431652, 46.29975268904767], [8.428726848657012, 46.299808891658614], [8.428870396813375, 46.30003761238553], [8.429001505666232, 46.3001439511891], [8.429277351142952, 46.30034355652852], [8.429829535761463, 46.30056995324458], [8.429869010942793, 46.30062711217602], [8.430794022629374, 46.30089323285188], [8.430855623797044, 46.300945078508455], [8.431061143673416, 46.30101453618707], [8.431273692191585, 46.301119872369014], [8.431297123242917, 46.30119256349327], [8.431238370902767, 46.301220751570916], [8.431558429371368, 46.30129099370616], [8.431705425584525, 46.301372578490955], [8.43170845016404, 46.301491952835775], [8.43210505257306, 46.30165223395234], [8.43221006492664, 46.30164590738229], [8.43236418572236, 46.30173940241249], [8.432425917658312, 46.301857944889484], [8.43265898693099, 46.30192171501065], [8.432851096471044, 46.30204328621603], [8.432835638652058, 46.30212074619248], [8.432958229090719, 46.30216078238456], [8.433020763811143, 46.30220953308135], [8.433303586190585, 46.302209962994645], [8.43359451007148, 46.30233757268841], [8.43396289710231, 46.30240672651242], [8.434145984752327, 46.302403857647676], [8.434690163906762, 46.30259268857348], [8.435180481725464, 46.30269095882533], [8.436196049943412, 46.30302300711342], [8.43675425598751, 46.30304921992287], [8.437074846970367, 46.30323712637085], [8.437346482021269, 46.3033043561326], [8.43759998068275, 46.30346475723067], [8.437768953060612, 46.30350305823431], [8.437935225304214, 46.303585158610844], [8.437995627466524, 46.30365241360231], [8.43851793116446, 46.30388657153203], [8.439408470104631, 46.3038922532155], [8.440533724778907, 46.30411976171781]]]]}}]}