{"type": "FeatureCollection", "features": [{"type": "Feature", "properties": {"bfs_nummer": 538}, "geometry": {"type": "MultiPolygon", "coordinates": [[[[7.492242841912711, 47.11705967650454], [7.492320731168303, 47.11708723708356], [7.498446364026709, 47.1213377016979], [7.498537301572738, 47.12139460151236], [7.498634662068283, 47.12144414919174], [7.498709007335035, 47.121475700916484], [7.498796306200282, 47.1215068771194], [7.498876797132826, 47.12153064500459], [7.498970042448168, 47.121552643248364], [7.504481517540322, 47.122661651836324], [7.5045309508453375, 47.12267394682937], [7.504564005108317, 47.12268745641109], [7.505473145726798, 47.12163784101744], [7.507012878530468, 47.1198729546622], [7.50806252216959, 47.11865646120814], [7.508065676367142, 47.11861903168592], [7.5080330579303425, 47.11859470202335], [7.508032434786371, 47.11856080971408], [7.50925104119102, 47.11677034058804], [7.509291968941551, 47.11673033357534], [7.509347035534117, 47.11670060810262], [7.509414013824601, 47.11668096758616], [7.509973230121712, 47.11658629708958], [7.510029422630157, 47.11657146610376], [7.510074453569373, 47.116545992007474], [7.510087737149248, 47.11652706763343], [7.51019508702527, 47.11650639436672], [7.510552006816399, 47.11626914155035], [7.510926540641967, 47.1159825127795], [7.511556916185836, 47.11571334364753], [7.5116127900148735, 47.11566820856412], [7.511862625998477, 47.11570382505555], [7.512288542039566, 47.115566276754144], [7.512742893691271, 47.11549859858908], [7.513173345202613, 47.11529889831683], [7.513634239533721, 47.11501950051258], [7.514353383190336, 47.1147295444322], [7.514430403098195, 47.114695070844675], [7.515017050584652, 47.114900660860734], [7.515384153263521, 47.11503807670738], [7.515764966132474, 47.115011875168264], [7.516725675614239, 47.11498088497926], [7.516929648032415, 47.1148732049556], [7.517075000968094, 47.114330616451085], [7.5179043244124895, 47.11421537541379], [7.518002379715807, 47.114834561556826], [7.518660534309838, 47.11562736739214], [7.519305672998513, 47.116151718493015], [7.519585080942992, 47.11727837531459], [7.5197060990191495, 47.117807288739066], [7.520198059453811, 47.11782174093565], [7.520578882692008, 47.117791250033655], [7.520909371518684, 47.11763203221717], [7.521015529636252, 47.1176261013441], [7.521240274975752, 47.11731401762234], [7.5212342523295606, 47.11728758596367], [7.521678474649998, 47.11724578519657], [7.521872016521013, 47.1172196336241], [7.522234417434696, 47.11719167838953], [7.522338583908061, 47.11716806390005], [7.522640815053066, 47.11764739861585], [7.522922789987832, 47.11812985931703], [7.523152299438668, 47.11846957297391], [7.523479067536248, 47.11901571041671], [7.5239552098574976, 47.11947862492859], [7.523938019329635, 47.11979184792524], [7.523841695729508, 47.12030510301923], [7.524010686367452, 47.120864748155114], [7.524361467926257, 47.121206735840794], [7.524823989628863, 47.121316805882515], [7.525216935520943, 47.12135389658891], [7.525945959832959, 47.121432254578714], [7.5262909531811815, 47.12151833684353], [7.526943781010336, 47.121520999856244], [7.528331271632192, 47.1212085160642], [7.528373650676855, 47.120476966874556], [7.528427044985703, 47.119896262003586], [7.528444782219721, 47.11964232327813], [7.528380990065161, 47.11953909362119], [7.52828321699976, 47.119414131540104], [7.528179327605247, 47.11918416799875], [7.528228207556215, 47.11899624537252], [7.527777660432478, 47.1179804319041], [7.527256458869748, 47.11698640162527], [7.527096511442302, 47.11657903815284], [7.527284101385034, 47.11653428949585], [7.5297269121702906, 47.115753144510165], [7.5290941877281305, 47.11542997694874], [7.528925224499102, 47.11533434014685], [7.528762617757953, 47.11523370599994], [7.528618815664728, 47.11513386658786], [7.5284783290284905, 47.115022762845385], [7.528351092929491, 47.11490839250688], [7.528234811842562, 47.11478904841828], [7.528127887944931, 47.114662654002444], [7.528031824840678, 47.11453013461005], [7.527948840679649, 47.114394276966316], [7.52787685954556, 47.11425073815435], [7.527821033890481, 47.11411590288843], [7.527785764119331, 47.114013604240355], [7.527624877945835, 47.11343330580687], [7.527752093806383, 47.11341842960235], [7.527781937049149, 47.11339426436247], [7.528121589947664, 47.1133881830299], [7.528172352676382, 47.113401555211176], [7.528216686415711, 47.11342339653299], [7.528563913627052, 47.11403437504178], [7.5286627027007444, 47.114268695907946], [7.528700765406621, 47.11425882595008], [7.5287380377157405, 47.114201598546266], [7.530330705470895, 47.11358018776641], [7.530467766041227, 47.113807568657805], [7.53074511511642, 47.1145695836215], [7.530808846591681, 47.11456848035977], [7.5308852571436224, 47.11454620218318], [7.531222136488254, 47.1144321483756], [7.53133665850385, 47.11438271100908], [7.531441678697363, 47.114324682011485], [7.5316939600949535, 47.114154350804306], [7.531844870506596, 47.114064928417555], [7.531402721902324, 47.11382849228998], [7.530814373668012, 47.113312240968504], [7.530310070148737, 47.11244501166024], [7.530010832033995, 47.111857656577854], [7.529962094274254, 47.1116618312141], [7.529941456366692, 47.111612024772796], [7.5299435428492965, 47.111271422634594], [7.530100616019487, 47.11008448604142], [7.5301305685374995, 47.10996305836585], [7.53030115069237, 47.10991875868661], [7.53035843173913, 47.109885108555346], [7.530373430135807, 47.109864840177444], [7.530677669060811, 47.10868782423917], [7.530713087893853, 47.10865199655648], [7.533319099628297, 47.10929739676108], [7.533352308691677, 47.10933214391995], [7.533447920645231, 47.10912246677865], [7.5335659709805345, 47.10889911692984], [7.533819702654923, 47.10850080391962], [7.5338909156143385, 47.108315774390746], [7.533931507726972, 47.108151782083034], [7.53392136638183, 47.10810123909921], [7.533870532722767, 47.10806053397895], [7.53326342486717, 47.10787605070651], [7.533286515865385, 47.107843614246406], [7.53352414674776, 47.10773889933923], [7.534187630159776, 47.10621742510879], [7.534241245262778, 47.106259944762215], [7.534254943889815, 47.106318085533786], [7.534149501569883, 47.10668586596546], [7.534598541042872, 47.1066817897042], [7.534874984115192, 47.10670760990051], [7.535112021230553, 47.106754573216996], [7.5354595787787675, 47.106801794614285], [7.535484926641881, 47.106772620969714], [7.536636769401429, 47.10505619973682], [7.536651784098313, 47.105010627892064], [7.537047050466454, 47.10442264699054], [7.5374348265067574, 47.103856780596374], [7.537560444282481, 47.10376720116531], [7.5376828805977905, 47.10368861607709], [7.539396357070975, 47.10290558107123], [7.54119705147732, 47.10209942515511], [7.541546549816673, 47.10192679081566], [7.543313803379391, 47.10093261961054], [7.544524584086027, 47.10023711214809], [7.54448504678909, 47.10020717725888], [7.544514626562307, 47.10017042400833], [7.544491695311514, 47.100131335074934], [7.541404489945462, 47.09774975073308], [7.541895818704743, 47.097416573973156], [7.542916940201292, 47.096480988444675], [7.54292809609949, 47.096460191148324], [7.5434466432929135, 47.095998301832346], [7.543481109458877, 47.09542596871173], [7.543461624905105, 47.095030200736154], [7.543438820537609, 47.09488523217128], [7.543167717947566, 47.094424622123206], [7.543111921122542, 47.09423221704602], [7.543099637153883, 47.093853172953814], [7.543330172181533, 47.09332985590301], [7.543699091305047, 47.092868477981135], [7.543972520473724, 47.092308196449686], [7.544382684715654, 47.09162168054351], [7.544801229066673, 47.091056371032195], [7.54534090327046, 47.09059005459466], [7.545973907527557, 47.09039649246738], [7.547049052344673, 47.08973356284649], [7.548036833390679, 47.089164684782425], [7.548941458103125, 47.08870839500977], [7.549919339325362, 47.087904643099485], [7.550491205921379, 47.08758611198581], [7.5522186586711015, 47.08705093117133], [7.553400853305595, 47.08668966169232], [7.553554798039985, 47.08667467630985], [7.5537038780858055, 47.08668198512272], [7.553784142856169, 47.08666837687196], [7.5553530554166635, 47.08590222622986], [7.555708609597786, 47.08576198670922], [7.556136025576197, 47.08546426164148], [7.556799419022079, 47.08491073891041], [7.556823656578167, 47.08488971995873], [7.557059359896651, 47.0845979797482], [7.557303546476987, 47.0844223910882], [7.55788131901985, 47.08396457494504], [7.55807574962261, 47.08374772210625], [7.5586088608492314, 47.08326943978524], [7.5596174070067645, 47.08263152916038], [7.560434964778448, 47.08214603235311], [7.561046214201209, 47.081706523437866], [7.561842308813068, 47.08129089402323], [7.56239239500925, 47.08105104101121], [7.563024903890141, 47.080638132766296], [7.563442359841171, 47.080356329901164], [7.563598372038342, 47.07969648028905], [7.563545168102794, 47.079369382159925], [7.563573575393151, 47.07925199426498], [7.563679025578988, 47.079168595952666], [7.564811194506935, 47.07866018557912], [7.564901944009002, 47.07866563642487], [7.5649452901726955, 47.07862581341008], [7.564759272421505, 47.07852934758122], [7.564301848996046, 47.078325237163966], [7.564034729862611, 47.078214835102386], [7.56356765234173, 47.0780357381987], [7.563560090814295, 47.07799439654605], [7.565078661337376, 47.07701788126096], [7.565043665725619, 47.07699076375766], [7.564978113125767, 47.0770045617249], [7.564939615382527, 47.07697754695259], [7.564823296436884, 47.07670661065538], [7.564520310190007, 47.076355939390034], [7.56431353947263, 47.07594955591024], [7.564324053001223, 47.07579401257591], [7.564379360565573, 47.07550327122073], [7.564433299689817, 47.07540525734913], [7.564554559929054, 47.07524536575933], [7.564988622087335, 47.074772638567644], [7.565450234565052, 47.07446273338595], [7.566049715523818, 47.074140009629076], [7.566034600114524, 47.0740784557301], [7.566038638906539, 47.07401572038575], [7.566061931411915, 47.07395495169905], [7.566106267725625, 47.07389595878737], [7.566145723998323, 47.07386125765823], [7.566263601169533, 47.07377765425547], [7.566331534511006, 47.073820305370454], [7.5665930631565095, 47.073618079178964], [7.566685268772937, 47.07353602393935], [7.566762505706715, 47.073460155744066], [7.567240376140176, 47.07293181857428], [7.56675592518494, 47.07226331038273], [7.5661874040092485, 47.07149178385345], [7.565634119643274, 47.070715155469266], [7.5655484176003505, 47.07062789900117], [7.565533328998999, 47.07063303384258], [7.565489101833142, 47.07057543264657], [7.565358414425585, 47.07062280858169], [7.564571490131519, 47.07077555773923], [7.563877567669348, 47.07097027900631], [7.562271206530897, 47.07143258613131], [7.561902185687309, 47.07153024268241], [7.5615256242519315, 47.07161261459356], [7.5611356760456285, 47.071679312195464], [7.560589133103371, 47.071763237114894], [7.560356361314834, 47.07180922173298], [7.5600980527613455, 47.07187506662703], [7.559766399627352, 47.071977273482474], [7.559194129326742, 47.072304649568025], [7.558615259833493, 47.073279604472056], [7.5574317637614135, 47.074724122268684], [7.556144783074329, 47.075595906269754], [7.555335935865988, 47.07598337334812], [7.554034269118399, 47.07699393133538], [7.552618362729429, 47.07830826573881], [7.551853502872963, 47.078706152822086], [7.551455872268717, 47.07903378659774], [7.551193387686449, 47.079449267238715], [7.551074833410277, 47.080135769517845], [7.550671282561895, 47.080041641864995], [7.549965917482428, 47.07978246706711], [7.549468354571425, 47.07934206567201], [7.549171049684705, 47.07884955222072], [7.549054897711991, 47.0788358377851], [7.548980955976849, 47.07883914647119], [7.548914444379328, 47.0788184674639], [7.548872988360581, 47.07877737301125], [7.548664434126382, 47.07842425847388], [7.548695010763512, 47.07841229317749], [7.548900785781233, 47.07822944573348], [7.549131797264488, 47.07807048246291], [7.549649662705052, 47.07780599400387], [7.549593236326722, 47.07770746334985], [7.549486649776455, 47.077490202228894], [7.549712220786655, 47.07740286986062], [7.549087991875741, 47.076603122546096], [7.548856539931578, 47.07660123830084], [7.54879003399052, 47.076646519277844], [7.54880921786102, 47.0756971907652], [7.548780968904852, 47.07550675830071], [7.5492083798034235, 47.07546579255051], [7.548757247258601, 47.07384237065184], [7.548075860789321, 47.07405332804499], [7.547864360283948, 47.07410682293815], [7.547642872786285, 47.07413099424624], [7.547629275117855, 47.07407379906967], [7.54747117123854, 47.07409192872218], [7.547302950566728, 47.07410103672468], [7.547142646771829, 47.07409901927259], [7.546980849581041, 47.074087630250254], [7.546775713156795, 47.074065154712265], [7.546783488617268, 47.07404250713104], [7.545246455459049, 47.073875312835476], [7.545030605555938, 47.07384732111488], [7.544840266981342, 47.07381675103662], [7.544651768459209, 47.073777714700256], [7.544468845985487, 47.07372853562206], [7.543622307590504, 47.073435143735274], [7.543319195457213, 47.07333929788889], [7.542926721081948, 47.073247615547324], [7.542821133593695, 47.07321583240749], [7.542671532679354, 47.0731843765684], [7.542481947815336, 47.073187820898355], [7.5423777621267, 47.07321393673836], [7.542421059784601, 47.07316988555555], [7.542424159425451, 47.073035686786234], [7.542290372687994, 47.07220824259204], [7.5421391950821715, 47.071440990063884], [7.542004445421238, 47.0706908129585], [7.541924240667559, 47.07055948597158], [7.54119574332585, 47.06998958235746], [7.541134199221777, 47.06997760157738], [7.541089030406934, 47.06998522431255], [7.541023207030432, 47.069959044161], [7.540918687069391, 47.070042115208956], [7.540123096693546, 47.06947501636877], [7.540448798297684, 47.069276939775655], [7.538815923699002, 47.06798756677062], [7.538701158899405, 47.06785557472173], [7.538651447952047, 47.06772700747602], [7.538497646217233, 47.06600257796754], [7.538412795296435, 47.065263731613996], [7.538388080413961, 47.06511072119082], [7.538157430258861, 47.06451573064535], [7.5376718997880525, 47.06334121296265], [7.537542305009107, 47.06334186368573], [7.537385248407159, 47.06268509391708], [7.537448380470897, 47.06267066605952], [7.537528610562286, 47.0624755142948], [7.537617773800207, 47.06233559308994], [7.5377280433652905, 47.06220607895274], [7.537859679173377, 47.062078021576944], [7.538169596279319, 47.061812961253], [7.536281071811879, 47.06099480192848], [7.536377466516279, 47.06079164069974], [7.536336817494404, 47.0607105851462], [7.534809750963144, 47.06020716305949], [7.533817937328009, 47.05995077022102], [7.532735449716572, 47.059691348220035], [7.53208172340626, 47.05950190299163], [7.531631931220092, 47.05934330530881], [7.530466376421504, 47.06019659129736], [7.528575933541804, 47.061549203040954], [7.526308205352298, 47.060153126934985], [7.526268985190412, 47.06016446329386], [7.526227208522865, 47.06014959017776], [7.526182890552417, 47.06015046017762], [7.52363245074675, 47.060694179575044], [7.523595422888609, 47.06071074849597], [7.523573890163601, 47.060737173570544], [7.523572818753346, 47.06076742453214], [7.523594319518127, 47.06079614778009], [7.523482568140187, 47.06072223678318], [7.523409341246958, 47.06072997201223], [7.522188759745238, 47.060925032395176], [7.521952061666659, 47.06095071243426], [7.521355059828247, 47.06108590251675], [7.520923158214766, 47.0612024968271], [7.520629223972074, 47.061244918344904], [7.519990007787957, 47.061358219209914], [7.519168225011549, 47.06156652254497], [7.518345227776616, 47.06166047645314], [7.517838592885166, 47.06180808007877], [7.517504193559092, 47.06204367959602], [7.517217983427675, 47.06223452246369], [7.517002975288849, 47.06231823117213], [7.516727152011107, 47.062530213045775], [7.516637112179932, 47.06258384770875], [7.516563339863923, 47.0626449822302], [7.516526440779003, 47.06269868006641], [7.516409782421501, 47.062843073865956], [7.516265076861026, 47.06295417783417], [7.515987639214423, 47.06305386556341], [7.5157524104735005, 47.06314952181955], [7.5154557559045765, 47.0631683471037], [7.5150630941634216, 47.06323982857231], [7.515040005449853, 47.063183939972774], [7.514617712495387, 47.063302798328664], [7.514555869246211, 47.06329304325922], [7.513959391382399, 47.06407463728432], [7.5135880603427605, 47.06439446018112], [7.5124944650384196, 47.06471076778203], [7.511741864478724, 47.06496331865992], [7.510768122974225, 47.06528298738976], [7.510634326394716, 47.06530558471312], [7.510088876125276, 47.065530309128945], [7.509583564632623, 47.06585974451602], [7.5089648461986425, 47.066044526143386], [7.508203330757243, 47.066260926383805], [7.507151225951143, 47.06656723608093], [7.5068133314458025, 47.06665948907069], [7.505726013517145, 47.066990911183694], [7.504664008862492, 47.06728820857006], [7.503017757486913, 47.06776405617853], [7.5013096791067975, 47.06790687453365], [7.501186975981889, 47.067923275361785], [7.500642476604051, 47.06796567194632], [7.5004683871685565, 47.06796714969128], [7.5002967499840825, 47.06796018860401], [7.500126165801636, 47.067941389305744], [7.498283101287384, 47.067704979143784], [7.497658122076388, 47.06804702593222], [7.497079189325943, 47.06839255415045], [7.495843004417467, 47.06906692744763], [7.4952996077058875, 47.06943755204191], [7.494788907145586, 47.069796482980806], [7.4943716485934155, 47.070311231835774], [7.493944538665902, 47.07085670998913], [7.493441083673223, 47.07105972999626], [7.492855998829088, 47.07109117993837], [7.492288733428414, 47.07121039126021], [7.491703473751149, 47.07130860433615], [7.4911290651516955, 47.07137004800584], [7.489987145617563, 47.0715382757964], [7.488115590325186, 47.07193983672617], [7.488087518867578, 47.07225702052421], [7.488040273956377, 47.072599568966574], [7.488022568155601, 47.073038558073776], [7.487931646724087, 47.07404810139753], [7.487853518338, 47.0750989810732], [7.4880494388976215, 47.07565488550837], [7.488252970764483, 47.076207161518894], [7.488323554971498, 47.0769281390318], [7.488543558918349, 47.07753007697625], [7.4887881929599915, 47.07790560044833], [7.489024712614035, 47.078288035042156], [7.489274830303153, 47.07870460882713], [7.4890811881707195, 47.07863117681505], [7.486355295627708, 47.077963331387735], [7.486108597508951, 47.077876009953435], [7.484040584757687, 47.077118619661704], [7.483914051267748, 47.07705701722562], [7.483808328625007, 47.07697159702199], [7.483126385746453, 47.07635831262798], [7.483014312691533, 47.07623221891628], [7.482342990323057, 47.075408389461806], [7.482295919754636, 47.075425110492326], [7.482194160911484, 47.07530023528711], [7.48209318795608, 47.075186288448684], [7.481969433126878, 47.075083674575545], [7.481820938461532, 47.074997287482894], [7.481644719797361, 47.074932894102545], [7.481453470821585, 47.074875369110195], [7.478382819083164, 47.07400033589089], [7.478196153153404, 47.07395323806796], [7.478004624377385, 47.07391776305401], [7.477799114981726, 47.07390309770316], [7.477626562411236, 47.0739091994655], [7.474287173387291, 47.074203051189016], [7.474182664830022, 47.07423225334206], [7.474114839847481, 47.07430596930941], [7.474132034767901, 47.074182859256986], [7.472782550735222, 47.07422070343637], [7.469776062182077, 47.074854786709885], [7.469628269288645, 47.0749031733763], [7.469584958525031, 47.074962533523355], [7.469520238417388, 47.0749740189922], [7.469453715374723, 47.07486920899412], [7.469385581481612, 47.07480297883389], [7.469266276773255, 47.074701843462826], [7.467935678681337, 47.07582532603689], [7.467702763364586, 47.075807600314064], [7.467398472912024, 47.07604653521273], [7.467118760177001, 47.07648783983251], [7.46637682612748, 47.07713456198958], [7.465903050340238, 47.07765065393173], [7.4659271506839255, 47.07819544534177], [7.466185110420639, 47.07856557263409], [7.466564643971337, 47.0786638886508], [7.466703879318599, 47.07877432264123], [7.466868891640153, 47.0788219568183], [7.467223867626295, 47.07901599170262], [7.467477255583124, 47.079077635761976], [7.467582748417471, 47.07914318317925], [7.467928947641509, 47.079389307844394], [7.468123724916986, 47.079665512324034], [7.468398864606806, 47.07979065321257], [7.469377603514036, 47.081112471224735], [7.469743527211234, 47.08164680985786], [7.470156773345953, 47.08229911235924], [7.470298964383492, 47.08245910354005], [7.470493531802927, 47.08278755544837], [7.470613326465031, 47.082926692697136], [7.470752457716587, 47.083435786478674], [7.471053472628326, 47.08382934987592], [7.471443089709459, 47.083976489442065], [7.472652323268671, 47.08451451222955], [7.47291945346938, 47.08462012570851], [7.472988429516007, 47.084783814532045], [7.473037309776406, 47.08482166888709], [7.473087778412801, 47.08487373355908], [7.473251679337931, 47.08500015419994], [7.473360454058937, 47.084998593116865], [7.47349220984217, 47.085103003443635], [7.47362628203626, 47.08530812919895], [7.473879228936444, 47.085651399485656], [7.474316794603598, 47.08580616961733], [7.474426708716384, 47.085934134223834], [7.474586381722874, 47.086009373189164], [7.474659942537288, 47.08614643350683], [7.474800637485022, 47.08621844881472], [7.474935092764777, 47.08637357009152], [7.474979830781549, 47.086515766326045], [7.475098353878279, 47.086712629031894], [7.475081625911435, 47.08708584298418], [7.475004430242028, 47.08725182252781], [7.474862189024302, 47.08743608249192], [7.474768818714411, 47.08763957642655], [7.474595926636259, 47.08785919553409], [7.4745507268178315, 47.088018329582354], [7.474324863789583, 47.08821763581052], [7.474357006221675, 47.088392577446285], [7.474148333371425, 47.08851910927099], [7.4740605986803486, 47.088666922051964], [7.473776877364341, 47.08880705790767], [7.473709694250311, 47.08896702573601], [7.473841110626181, 47.089142198754075], [7.473770000096435, 47.08936016702878], [7.473869471696686, 47.089521992133264], [7.473491739612122, 47.089498628516424], [7.471336626761544, 47.09029039882098], [7.470826699406005, 47.09046958279348], [7.470797087130231, 47.09064115100831], [7.470360831829412, 47.09119123591166], [7.46965599222689, 47.09204673117347], [7.469159451379545, 47.092753788092594], [7.468644263970645, 47.09344359490562], [7.468400583583957, 47.0937570658793], [7.468352159991861, 47.093744952825936], [7.4670609194176185, 47.09552796815061], [7.465594047194931, 47.09738520863039], [7.464240887869303, 47.09904902558554], [7.465292707549824, 47.09932656660751], [7.4618118437554015, 47.10340635593397], [7.462800762277059, 47.10367339870611], [7.461952214495022, 47.10591496935789], [7.462214673736962, 47.10598794751963], [7.461378715123555, 47.10813837445626], [7.46136220631678, 47.10816844748826], [7.461359484938255, 47.10818271386618], [7.461328677199384, 47.108235339281194], [7.47501063487517, 47.11210690410085], [7.479654265518551, 47.11342011480016], [7.4847238970638745, 47.11485160425315], [7.4911491118864895, 47.116678898024034], [7.491301955898779, 47.11672672702191], [7.492242841912711, 47.11705967650454]]]]}}]}