{
  "type": "FeatureCollection",
  "features": [
    {
      "type": "Feature",
      "properties": {
        "bfs_nummer": 5406,
        "segment_length_m": 0.17284103407477938
      },
      "geometry": {
        "type": "LineString",
        "coordinates": [
          [
            7.071242673648228,
            46.20101110031912
          ],
          [
            7.066214321784771,
            46.19986970928456
          ],
          [
            7.065675027959992,
            46.19974943337116
          ],
          [
            7.065098425354873,
            46.19959350716057
          ],
          [
            7.064534718875252,
            46.19961582542051
          ],
          [
            7.06397406226075,
            46.199438257817235
          ],
          [
            7.063138271469831,
            46.198959431324255
          ],
          [
            7.0626021605959,
            46.19857072893465
          ],
          [
            7.060958399755242,
            46.1977350071935
          ],
          [
            7.060818852473585,
            46.197720316929264
          ],
          [
            7.0607088171089565,
            46.19765328965968
          ],
          [
            7.060573991075951,
            46.197423815860496
          ],
          [
            7.059998812709595,
            46.19678867688203
          ],
          [
            7.059944423459188,
            46.196579794004435
          ],
          [
            7.0596052183167854,
            46.196386594875285
          ],
          [
            7.05955994184786,
            46.19628290209156
          ],
          [
            7.058994276852061,
            46.19599510455644
          ],
          [
            7.058183616233028,
            46.1958814429261
          ],
          [
            7.057676588819671,
            46.19574927337209
          ],
          [
            7.056788881004118,
            46.19567106292861
          ],
          [
            7.05622839470393,
            46.195703065848555
          ],
          [
            7.055647239689298,
            46.19535573735107
          ],
          [
            7.054433296409275,
            46.19471541806862
          ],
          [
            7.054141967645755,
            46.194676731835166
          ],
          [
            7.053795608649805,
            46.1945818046508
          ],
          [
            7.053309969020944,
            46.19439788231173
          ],
          [
            7.053090650902513,
            46.19421524777627
          ],
          [
            7.052881043879607,
            46.1941628857089
          ],
          [
            7.05265512752589,
            46.19408880572602
          ],
          [
            7.0523534073077,
            46.19387447433283
          ],
          [
            7.052191976467689,
            46.193712906590726
          ],
          [
            7.0521244074666996,
            46.19328744832442
          ],
          [
            7.051876487820872,
            46.192973268186336
          ],
          [
            7.051012130219496,
            46.19284146901205
          ],
          [
            7.050752504976463,
            46.19282897062277
          ],
          [
            7.05042729008993,
            46.192748588944156
          ],
          [
            7.049832295471639,
            46.192717381237756
          ],
          [
            7.049571705724715,
            46.192676900193256
          ],
          [
            7.049052524634552,
            46.19244209885594
          ],
          [
            7.04856967206728,
            46.192307839886894
          ],
          [
            7.048326144082403,
            46.192164684229255
          ],
          [
            7.047919440775303,
            46.1918890851469
          ],
          [
            7.047489760054466,
            46.19169301667602
          ],
          [
            7.047387084424596,
            46.191687154636895
          ],
          [
            7.047373336369872,
            46.19168962566626
          ],
          [
            7.047268998939311,
            46.19165912753493
          ],
          [
            7.047127933204487,
            46.19158820091435
          ],
          [
            7.047012813176942,
            46.19147769333562
          ],
          [
            7.046852713647863,
            46.19140589056321
          ],
          [
            7.046675348970185,
            46.19139142000193
          ],
          [
            7.0464967093570205,
            46.19134005337868
          ],
          [
            7.046386835431717,
            46.191181346501516
          ],
          [
            7.046293062023438,
            46.19105499915079
          ],
          [
            7.046070135292092,
            46.19102011957887
          ],
          [
            7.045876277251354,
            46.19097599442503
          ],
          [
            7.045652693598843,
            46.19083506148928
          ],
          [
            7.045606798670055,
            46.19075133131685
          ],
          [
            7.045528027350656,
            46.190680440166524
          ],
          [
            7.0452600250576465,
            46.19059214711613
          ],
          [
            7.044969387709365,
            46.19053346909207
          ],
          [
            7.044723756938761,
            46.190486192375204
          ],
          [
            7.0445777692993214,
            46.19045004068254
          ],
          [
            7.044101275862184,
            46.190266308441004
          ],
          [
            7.044009997088163,
            46.19011845021224
          ],
          [
            7.043819527353972,
            46.190107797372
          ],
          [
            7.043403141874169,
            46.18999497905619
          ],
          [
            7.043262874742496,
            46.18990281154428
          ],
          [
            7.043031847450669,
            46.189949578428894
          ],
          [
            7.042684958791627,
            46.18989852313795
          ],
          [
            7.0425488840346455,
            46.18990838966449
          ],
          [
            7.042382889688345,
            46.18996959714008
          ],
          [
            7.042179172649795,
            46.189983453166334
          ],
          [
            7.042001992516135,
            46.18996401926337
          ],
          [
            7.041696302424361,
            46.1900004542428
          ],
          [
            7.041583301498701,
            46.189972349137314
          ],
          [
            7.041249814983256,
            46.18992906398766
          ],
          [
            7.041017710289113,
            46.18973347887665
          ],
          [
            7.040743006383995,
            46.18953434240538
          ],
          [
            7.040668912819294,
            46.189409490185746
          ],
          [
            7.040660934083015,
            46.18927866455501
          ],
          [
            7.040761971543018,
            46.189065382771304
          ],
          [
            7.040753389450253,
            46.18903458716646
          ],
          [
            7.040711900822975,
            46.18902247629479
          ],
          [
            7.040360980338301,
            46.188973009818966
          ],
          [
            7.039830700323168,
            46.188938748636325
          ],
          [
            7.0397188447951295,
            46.188912076026845
          ],
          [
            7.039701502778703,
            46.188857230797055
          ],
          [
            7.039519497369515,
            46.18866660575924
          ],
          [
            7.039490029464689,
            46.188636815515565
          ],
          [
            7.03935737906063,
            46.18857058672224
          ],
          [
            7.038363814470806,
            46.1884463103232
          ],
          [
            7.037859319051978,
            46.18826766059126
          ],
          [
            7.037468649166535,
            46.188024375240516
          ],
          [
            7.036327403426497,
            46.18797376919362
          ],
          [
            7.036044984489927,
            46.18789287809891
          ],
          [
            7.035846993093478,
            46.18790395447572
          ],
          [
            7.035566422200554,
            46.187975626854296
          ],
          [
            7.034617455707954,
            46.188058926865935
          ],
          [
            7.033999177354609,
            46.18794299237972
          ],
          [
            7.0338037798694035,
            46.18779709952419
          ],
          [
            7.033479051070471,
            46.187450487817095
          ],
          [
            7.033291732980499,
            46.18720990740638
          ],
          [
            7.033181104549082,
            46.18707178498206
          ],
          [
            7.033031114649552,
            46.18718012881546
          ],
          [
            7.03289243057843,
            46.18729550284667
          ],
          [
            7.032765704241129,
            46.18741733374209
          ],
          [
            7.0326515877645095,
            46.187545021180966
          ],
          [
            7.032550616728805,
            46.18767796442083
          ],
          [
            7.032441598530435,
            46.18781309149054
          ],
          [
            7.032345846080783,
            46.18795298006566
          ],
          [
            7.032263791646735,
            46.18809699304489
          ],
          [
            7.032195815500512,
            46.18824452012248
          ],
          [
            7.032142194917422,
            46.18839486965543
          ],
          [
            7.031873015847585,
            46.18944195998148
          ],
          [
            7.031819566345313,
            46.18960377951731
          ],
          [
            7.031748810097946,
            46.189762370016666
          ],
          [
            7.031661103553453,
            46.1899168151738
          ],
          [
            7.031556996922874,
            46.190066271342324
          ],
          [
            7.0314370406406335,
            46.190209867884086
          ],
          [
            7.031301901061632,
            46.19034682453271
          ],
          [
            7.031241386619042,
            46.1904106100734
          ],
          [
            7.031177903431127,
            46.190472990507715
          ],
          [
            7.031111516794772,
            46.19053389410131
          ],
          [
            7.031042292007976,
            46.19059324911979
          ],
          [
            7.0308493693490135,
            46.19073172327353
          ],
          [
            7.0306428027506955,
            46.19086032436749
          ],
          [
            7.030423671685448,
            46.19097847151835
          ],
          [
            7.030193030024377,
            46.191085547770975
          ],
          [
            7.029972051379155,
            46.19118732416689
          ],
          [
            7.029762452453292,
            46.19130010721126
          ],
          [
            7.029565390516599,
            46.19142329845908
          ],
          [
            7.029381919725041,
            46.19155623612458
          ],
          [
            7.029213004141579,
            46.191698186131205
          ],
          [
            7.029059608066334,
            46.19184838741616
          ],
          [
            7.028922540874129,
            46.1920060153822
          ],
          [
            7.02827438227889,
            46.19281127213478
          ],
          [
            7.027814504782335,
            46.19338431333861
          ],
          [
            7.027726306956086,
            46.19343192972152
          ],
          [
            7.027685600303995,
            46.1934550800845
          ],
          [
            7.027663845995051,
            46.193573923952876
          ],
          [
            7.027474926807536,
            46.19380387539038
          ],
          [
            7.027302617358233,
            46.19404004024459
          ],
          [
            7.027147323855621,
            46.19428182635854
          ],
          [
            7.027009439579577,
            46.19452864152262
          ],
          [
            7.0268893059510065,
            46.19477990232715
          ],
          [
            7.026494651836094,
            46.195613422589574
          ],
          [
            7.0263876022820195,
            46.19585887456067
          ],
          [
            7.026246529019188,
            46.19613401365308
          ],
          [
            7.0260877554891055,
            46.19640448194749
          ],
          [
            7.025911596874002,
            46.1966696868079
          ],
          [
            7.025718458305262,
            46.19692913487453
          ],
          [
            7.025548133062314,
            46.19713204728963
          ],
          [
            7.025365836590873,
            46.19732985994437
          ],
          [
            7.025171830359104,
            46.1975222498951
          ],
          [
            7.02496651841463,
            46.197708885724076
          ],
          [
            7.024750227097537,
            46.1978894357274
          ],
          [
            7.023806198923186,
            46.198658217922144
          ],
          [
            7.022857636782741,
            46.199425167480626
          ],
          [
            7.022654179718594,
            46.19959768275672
          ],
          [
            7.022456913334839,
            46.199773647911194
          ],
          [
            7.022265994075731,
            46.19995293761475
          ],
          [
            7.022081513342051,
            46.200135462280485
          ],
          [
            7.021710414511589,
            46.20049830786189
          ],
          [
            7.021512618795758,
            46.20068839271036
          ],
          [
            7.021303776461897,
            46.20087268803422
          ],
          [
            7.021084265440167,
            46.20105089831441
          ],
          [
            7.020854463469976,
            46.201222755018094
          ],
          [
            7.020614722812585,
            46.20138793554378
          ],
          [
            7.020388376919498,
            46.201532888957495
          ],
          [
            7.020154573522866,
            46.20167201198371
          ],
          [
            7.019913637905873,
            46.20180512587055
          ],
          [
            7.019665830656396,
            46.20193204263131
          ],
          [
            7.019569844997177,
            46.20197881416341
          ],
          [
            7.019472715117356,
            46.202024420909844
          ],
          [
            7.019374454044918,
            46.20206885392041
          ],
          [
            7.019275126628925,
            46.202112104437774
          ],
          [
            7.018811839111465,
            46.202314410711224
          ],
          [
            7.018505117025395,
            46.20245145044997
          ],
          [
            7.01820697909634,
            46.20259736418854
          ],
          [
            7.017917971602172,
            46.20275186617251
          ],
          [
            7.017638588880573,
            46.20291468844829
          ],
          [
            7.017269494301845,
            46.2031298174704
          ],
          [
            7.016999516478124,
            46.20328059210959
          ],
          [
            7.016721611487097,
            46.203424265787746
          ],
          [
            7.016436169649415,
            46.20356063300721
          ],
          [
            7.016143594045689,
            46.2036895153077
          ],
          [
            7.015842995429963,
            46.20380865137071
          ],
          [
            7.015535827385707,
            46.203919395948496
          ],
          [
            7.015222518954002,
            46.204021570684944
          ],
          [
            7.0149036286757145,
            46.20411500671052
          ],
          [
            7.013599584879053,
            46.20446646894445
          ],
          [
            7.013347378850944,
            46.20454446361802
          ],
          [
            7.013104680638935,
            46.204635852289215
          ],
          [
            7.012872997147703,
            46.204740109967084
          ],
          [
            7.01265371963205,
            46.2048565942885
          ],
          [
            7.012448188055978,
            46.2049845997331
          ],
          [
            7.012257665394681,
            46.205123330536786
          ],
          [
            7.0120832983440815,
            46.20527195451506
          ],
          [
            7.011926130558446,
            46.20542956712763
          ],
          [
            7.011790596657089,
            46.20559408024845
          ],
          [
            7.0116734592532985,
            46.20576529277635
          ],
          [
            7.011575400258599,
            46.205942181840584
          ],
          [
            7.011496959166339,
            46.206123715027765
          ],
          [
            7.01143862345662,
            46.20630888670546
          ],
          [
            7.011400712976507,
            46.20649659164313
          ],
          [
            7.011383469637033,
            46.20668575129135
          ],
          [
            7.011386967067314,
            46.206875268459655
          ],
          [
            7.011466635809785,
            46.20772061080985
          ],
          [
            7.01147450379305,
            46.20793766247285
          ],
          [
            7.011468546332301,
            46.20815476067489
          ],
          [
            7.011448792784073,
            46.20837144674388
          ],
          [
            7.011415284967826,
            46.20858732501988
          ],
          [
            7.011367357183528,
            46.20880299568028
          ],
          [
            7.0113057464515025,
            46.20901698620393
          ],
          [
            7.011230559598517,
            46.209228874175125
          ],
          [
            7.011141942329092,
            46.20943823732099
          ],
          [
            7.010670117824209,
            46.210470378850154
          ],
          [
            7.010566637810644,
            46.210725284453666
          ],
          [
            7.010478800366982,
            46.210983020093366
          ],
          [
            7.0104067521341245,
            46.21124309159753
          ],
          [
            7.010350626379652,
            46.21150505871155
          ],
          [
            7.010089714070211,
            46.21286550692454
          ],
          [
            7.0098264325702475,
            46.214230587454466
          ],
          [
            7.009755451738244,
            46.214590839098335
          ],
          [
            7.009673075659712,
            46.21494991386783
          ],
          [
            7.009579357156039,
            46.215307659012566
          ],
          [
            7.009474336520835,
            46.21566386775672
          ],
          [
            7.009355682132103,
            46.21601675003312
          ],
          [
            7.009226064792339,
            46.21636775529345
          ],
          [
            7.009085550234712,
            46.21671673981953
          ],
          [
            7.008934191523912,
            46.21706352385906
          ],
          [
            7.0087893943407575,
            46.217380071102966
          ],
          [
            7.008696895927829,
            46.217593915560705
          ],
          [
            7.008614023841728,
            46.217809613818545
          ],
          [
            7.0085408700413145,
            46.21802702231651
          ],
          [
            7.0084775013553955,
            46.21824589844355
          ],
          [
            7.00841779949992,
            46.21845662041465
          ],
          [
            7.008365645158134,
            46.21866827974373
          ],
          [
            7.008321052087481,
            46.218880786536076
          ],
          [
            7.008284060392862,
            46.21909399702187
          ],
          [
            7.008131038051402,
            46.22005124201033
          ],
          [
            7.010344411398354,
            46.22082528399927
          ],
          [
            7.010120362742763,
            46.22139782915498
          ],
          [
            7.010320992350348,
            46.22159585020441
          ],
          [
            7.0105417185612975,
            46.22156124568362
          ],
          [
            7.011626397512113,
            46.22140800738982
          ],
          [
            7.011632452327089,
            46.22144725171147
          ],
          [
            7.011692774328045,
            46.22153887686077
          ],
          [
            7.012121417671122,
            46.22156559799001
          ],
          [
            7.012311808168198,
            46.22163098867197
          ],
          [
            7.012567073561729,
            46.22172173139664
          ],
          [
            7.012776304501082,
            46.221814179705326
          ],
          [
            7.013420824998168,
            46.222146018938204
          ],
          [
            7.014000467873364,
            46.222374168156286
          ],
          [
            7.014178623784763,
            46.22243025297113
          ],
          [
            7.014405407503174,
            46.22251620646587
          ],
          [
            7.014671658752005,
            46.22264502869568
          ],
          [
            7.015221852577084,
            46.22292639649263
          ],
          [
            7.015205087490319,
            46.22294891278133
          ],
          [
            7.01522056953002,
            46.22295796667675
          ],
          [
            7.015401592922367,
            46.22304563532951
          ],
          [
            7.015542015871881,
            46.2231044549052
          ],
          [
            7.015769121278881,
            46.223183021360995
          ],
          [
            7.015884628376518,
            46.223216019236645
          ],
          [
            7.017257514503097,
            46.223583985420746
          ],
          [
            7.017476276232967,
            46.22365271188982
          ],
          [
            7.017648761500019,
            46.223722371552306
          ],
          [
            7.0181120778995565,
            46.22394369598812
          ],
          [
            7.0182708472554545,
            46.22402740881406
          ],
          [
            7.019607083161598,
            46.224851400850916
          ],
          [
            7.0197154851355705,
            46.22491235407483
          ],
          [
            7.019819038710419,
            46.224963384882514
          ],
          [
            7.0199905262563345,
            46.22502889020893
          ],
          [
            7.020143488138212,
            46.225076514947204
          ],
          [
            7.0206759904567235,
            46.22521820364321
          ],
          [
            7.021019609706174,
            46.22531655032905
          ],
          [
            7.0227706968264965,
            46.225766109852216
          ],
          [
            7.02461069071305,
            46.22625105210107
          ],
          [
            7.026779109639806,
            46.226814366242195
          ],
          [
            7.028109656471825,
            46.22716543913698
          ],
          [
            7.029746129284263,
            46.2275283115604
          ],
          [
            7.030566962545113,
            46.22768694860363
          ],
          [
            7.031791762727147,
            46.227972088203245
          ],
          [
            7.032536823896506,
            46.228055853820635
          ],
          [
            7.032766745922226,
            46.228023757751444
          ],
          [
            7.033803952819902,
            46.22786612313483
          ],
          [
            7.034173872043043,
            46.2278497387749
          ],
          [
            7.034640616261081,
            46.22774608204948
          ],
          [
            7.035238705688856,
            46.22762059324393
          ],
          [
            7.035559023231068,
            46.22759835049852
          ],
          [
            7.035836091585901,
            46.22753539058439
          ],
          [
            7.036395337836975,
            46.22747181828303
          ],
          [
            7.037449308778147,
            46.227252787360094
          ],
          [
            7.037697300372714,
            46.22721264946006
          ],
          [
            7.038528522360034,
            46.22705631655246
          ],
          [
            7.038853163840594,
            46.22699189892708
          ],
          [
            7.039178843294661,
            46.22694484578052
          ],
          [
            7.039492410828801,
            46.226887943469784
          ],
          [
            7.039906494270629,
            46.22682213939306
          ],
          [
            7.040282362030024,
            46.226753401053074
          ],
          [
            7.040709287549247,
            46.22668592125429
          ],
          [
            7.041248385196644,
            46.22659292780536
          ],
          [
            7.042022740317708,
            46.226482516719486
          ],
          [
            7.042358994556717,
            46.22644376769891
          ],
          [
            7.043046769274009,
            46.226346808552584
          ],
          [
            7.043395418873264,
            46.226260962434
          ],
          [
            7.043731747461089,
            46.22620988547128
          ],
          [
            7.044160659606655,
            46.22620671895961
          ],
          [
            7.044648723128001,
            46.226163016068114
          ],
          [
            7.045136589727673,
            46.22614457933515
          ],
          [
            7.045715238598068,
            46.22577851198662
          ],
          [
            7.046140295267004,
            46.22548350368814
          ],
          [
            7.046521226236436,
            46.22523178955025
          ],
          [
            7.0470522553014945,
            46.22488839881943
          ],
          [
            7.047301909303103,
            46.224741016824126
          ],
          [
            7.047517213685768,
            46.22464785813894
          ],
          [
            7.047634249820542,
            46.2247019686909
          ],
          [
            7.0478910894899105,
            46.224726356408844
          ],
          [
            7.048088691054338,
            46.22453552281475
          ],
          [
            7.048397967948025,
            46.22442316743545
          ],
          [
            7.048749283558062,
            46.224340372645784
          ],
          [
            7.049167762163027,
            46.22430800497915
          ],
          [
            7.049377475779833,
            46.22419854121203
          ],
          [
            7.049999831653684,
            46.22402241252245
          ],
          [
            7.055525160022501,
            46.224949810641185
          ],
          [
            7.056245775220908,
            46.225029261707924
          ],
          [
            7.0573162589234855,
            46.22408341101604
          ],
          [
            7.058153569228704,
            46.22292888149871
          ],
          [
            7.05891003583991,
            46.22111497648409
          ],
          [
            7.058610224152084,
            46.2185946026988
          ],
          [
            7.060518812986806,
            46.21586946268139
          ],
          [
            7.061971218578416,
            46.21460210280097
          ],
          [
            7.070024759929481,
            46.21116376534336
          ],
          [
            7.070625997775572,
            46.210494580861905
          ],
          [
            7.0710638386106766,
            46.209766478112776
          ],
          [
            7.07145652055898,
            46.20887234602058
          ],
          [
            7.071609985661658,
            46.208577085959064
          ],
          [
            7.071645550357146,
            46.208280353121246
          ],
          [
            7.07169284117811,
            46.20802763840168
          ],
          [
            7.071677715598599,
            46.20766030416783
          ],
          [
            7.071263234122263,
            46.20709997890773
          ],
          [
            7.071134872233753,
            46.20682430108217
          ],
          [
            7.0708154346286,
            46.206622213682515
          ],
          [
            7.070720187182077,
            46.2063359296574
          ],
          [
            7.070779684082833,
            46.20575835795141
          ],
          [
            7.070590436555031,
            46.205422911182666
          ],
          [
            7.070511520432573,
            46.2046393357803
          ],
          [
            7.070672537987356,
            46.20443306011518
          ],
          [
            7.070503175691939,
            46.20415031193876
          ],
          [
            7.070365368673482,
            46.20400996947052
          ],
          [
            7.069989344806891,
            46.20368974319839
          ],
          [
            7.069416810512052,
            46.203310570548524
          ],
          [
            7.0691513769035685,
            46.20301851863421
          ],
          [
            7.069525168095385,
            46.20276814396078
          ],
          [
            7.069621914534645,
            46.202506056813654
          ],
          [
            7.069639688511175,
            46.201968631762554
          ],
          [
            7.070084444509944,
            46.201645082977436
          ],
          [
            7.070762057496066,
            46.20142818156992
          ],
          [
            7.0711066345284035,
            46.20120379379514
          ],
          [
            7.071242673648228,
            46.20101110031912
          ]
        ]
      }
    }
  ]
}