{"type": "FeatureCollection", "features": [{"type": "Feature", "properties": {"bfs_nummer": 5407}, "geometry": {"type": "MultiPolygon", "coordinates": [[[[6.987613329667551, 46.34610417632402], [6.988599964342947, 46.34625754332837], [6.989122219409648, 46.34676456873165], [6.989200758818915, 46.346848991697954], [6.989271330618344, 46.34690738520531], [6.98984758035322, 46.347518158555054], [6.990484486220343, 46.34820905782082], [6.991048210598576, 46.34879800220302], [6.9918456863969345, 46.34928693146821], [6.992196772983388, 46.34951413260767], [6.993259204277201, 46.35040927616699], [6.9955825185084635, 46.35012480522008], [6.996083654047446, 46.350322702405656], [6.996277933892654, 46.35047406397384], [6.996506032866506, 46.35063616224304], [6.99738603231583, 46.35067055759029], [6.997654063630127, 46.351066429525765], [6.998402906214086, 46.35200367467884], [6.99886403447472, 46.353160634485135], [6.999654313972255, 46.354169172741344], [6.99986314930098, 46.354531445913395], [6.9995321829438, 46.35569090670855], [6.999546012910823, 46.355715788834004], [6.999672320754861, 46.356398885005575], [6.999590767765463, 46.35778819483594], [6.9994223289415265, 46.35859474527037], [6.999338851067169, 46.35893906797867], [6.999674035681143, 46.35969539503295], [6.999342703514062, 46.36014471553295], [6.9992911304286425, 46.36028601870068], [6.999286709948047, 46.36126360039717], [6.999314604825056, 46.36148977270238], [6.999611692078724, 46.361868039612375], [7.00030711446941, 46.36247850403439], [6.999808744974556, 46.36309260406465], [6.998851731175046, 46.363746743140496], [6.997445374326807, 46.36584903689684], [6.9962978345152695, 46.369265962616055], [6.99643138911334, 46.3706883707221], [6.998107138817762, 46.37227822051838], [7.001143065185537, 46.37215979236559], [7.006603945101253, 46.374267445463374], [7.009336926296161, 46.37552972685604], [7.012087801146501, 46.37808845704686], [7.012853804719716, 46.382441680150336], [7.014286691556624, 46.38462701747269], [7.018869290779583, 46.38465045885959], [7.023266855418983, 46.38518646733627], [7.0241235108101705, 46.38502603607773], [7.032443930701519, 46.38346746026433], [7.036259780985682, 46.3799650323149], [7.03696438598602, 46.37938550994781], [7.037365774903149, 46.37920818968088], [7.037533493358678, 46.379007299057434], [7.038060419695748, 46.37876034700506], [7.0385480849014685, 46.3786386536472], [7.0389391025515, 46.37857958644797], [7.039239752724837, 46.378505535037576], [7.039607446800958, 46.3780996875188], [7.039893196755418, 46.377983399880385], [7.040327569647574, 46.37771928894908], [7.040476792665124, 46.377592255651], [7.040499551333634, 46.37720174125276], [7.040447872517299, 46.377071211365326], [7.040363578233507, 46.3769573073799], [7.0396508632448125, 46.376455890451794], [7.039349526658152, 46.37623524044858], [7.039088993685278, 46.376139144805336], [7.039527710019298, 46.375793383538486], [7.040134404596113, 46.375472482776054], [7.038362658298616, 46.36988199463988], [7.0384595892971324, 46.36969432713751], [7.038470774752537, 46.369499708311345], [7.038323104281147, 46.36922409548658], [7.037950019774901, 46.36890774200444], [7.037680675225554, 46.36592689449952], [7.03586705040743, 46.363154077992014], [7.035099274729927, 46.361965080738784], [7.034557262866155, 46.36093115770363], [7.034299373851171, 46.36035451707566], [7.03444557772835, 46.360298366436865], [7.03477989327912, 46.359812449513186], [7.034702825017195, 46.35981497201097], [7.03457752679506, 46.35983827297928], [7.034472497395172, 46.35987908951311], [7.03410526210744, 46.360075052868794], [7.033760531875739, 46.360199300405164], [7.033559982743311, 46.360242481563866], [7.033503761666739, 46.36023715249604], [7.033347857757755, 46.36023506422072], [7.0331982922272385, 46.35932040654283], [7.03346254546951, 46.35927178786808], [7.033419478520767, 46.35907138772175], [7.033326803848668, 46.358817293990626], [7.0331002105698435, 46.358540850790426], [7.032971922660832, 46.358392859656774], [7.0328292542074164, 46.358237710291924], [7.03278162273249, 46.35819606876342], [7.03267570957308, 46.35828564592113], [7.032008525747046, 46.35751010164348], [7.0316373242859616, 46.35759699819275], [7.03135850835845, 46.3576307178315], [7.031214292437131, 46.357390381241245], [7.031212059273663, 46.3572208929455], [7.031255554515757, 46.35705211830234], [7.031316030286157, 46.35695769190546], [7.031382469433141, 46.356868441504226], [7.0314123869103895, 46.35679469410168], [7.031408526835773, 46.356720555057855], [7.031212218988292, 46.35609932821186], [7.031177480369558, 46.35582950985906], [7.03112828727825, 46.35566775943949], [7.0310422041891645, 46.355332356615534], [7.031010357000943, 46.35526548411706], [7.030936383575211, 46.35518559570723], [7.030857718942882, 46.355124860274], [7.030687186352869, 46.35503150725212], [7.030945573381718, 46.35493113735111], [7.031356314548282, 46.354763486163755], [7.032007225543393, 46.35455540542592], [7.032164867113387, 46.35449687027028], [7.0320690683730165, 46.35432848485004], [7.032017948752717, 46.35426918982538], [7.031954023716956, 46.35421795385686], [7.031875338533431, 46.35417557050356], [7.031118816169644, 46.35388471078468], [7.03013588906944, 46.35351717557607], [7.030056044848338, 46.35347721573537], [7.030008988636626, 46.35341182638603], [7.030014706809621, 46.35334096942659], [7.030143686632286, 46.353015591862786], [7.0301828495694, 46.352852820437015], [7.0301930333002245, 46.35269110472822], [7.030174687316585, 46.35252254800827], [7.030046374308679, 46.351983049747325], [7.030092791418631, 46.35197800004411], [7.030069711804809, 46.351866990031596], [7.03007667532621, 46.35175329996849], [7.030128798147947, 46.35164626815254], [7.03024917865712, 46.35149762593488], [7.030345211795561, 46.351321566424105], [7.030399216003676, 46.351137159888395], [7.030424801258295, 46.35094852157956], [7.030331984149155, 46.349955379708014], [7.030261598511406, 46.34974534449975], [7.030131460641126, 46.34955191520854], [7.029475830377642, 46.34882455759148], [7.029367527543934, 46.348699124540246], [7.029906454550314, 46.34908618258525], [7.030392204470453, 46.34801193125491], [7.030464621192961, 46.34781257726461], [7.030195288804157, 46.34743926987794], [7.0300270335575705, 46.3472712413313], [7.031059556491657, 46.34665885315593], [7.031448104132016, 46.34643275787623], [7.031314593718377, 46.346360130990156], [7.031061715183349, 46.346147988262224], [7.030594636547915, 46.34591843806298], [7.029789066879992, 46.345565859605784], [7.028862787576415, 46.34503038529357], [7.02850110228456, 46.34467527769655], [7.028697043126102, 46.34423859858945], [7.028944483953711, 46.343707489395165], [7.029748112886569, 46.343710491996525], [7.030346192946114, 46.343721112171686], [7.030425239897776, 46.34345269110709], [7.030519952196669, 46.34320806431024], [7.0305643622801846, 46.34305448604922], [7.030644774793768, 46.34288070810096], [7.030722488940828, 46.342510805712415], [7.030877634818611, 46.34167329475946], [7.030895488140755, 46.34157926407417], [7.028997969424471, 46.33928798522995], [7.026517643794565, 46.33753691123935], [7.016462810280765, 46.330751840700465], [7.008078350604976, 46.32701582611189], [7.002924801497007, 46.325692074181156], [6.985102812061654, 46.32127244927681], [6.985295385240625, 46.320973191400284], [6.98536600062931, 46.32091464170406], [6.984675491864855, 46.32080569036204], [6.984208345051993, 46.32074200139382], [6.9842035965337175, 46.32070437055578], [6.983878528128743, 46.32071412716333], [6.983648233879706, 46.32073873844761], [6.983440786705754, 46.320780902428965], [6.983157388352898, 46.32080700810182], [6.983092215071833, 46.3208062954217], [6.983000900939141, 46.32090344174795], [6.982852814129452, 46.320973551346974], [6.982405699450061, 46.321198791739874], [6.982131580227729, 46.321558263619764], [6.981935010017946, 46.32161881987938], [6.9818056376887645, 46.32197939892364], [6.981858259908676, 46.32217851777162], [6.981692322222666, 46.32202112904409], [6.981680255383687, 46.32191222126152], [6.981653338798629, 46.32179363748661], [6.981680646396442, 46.32157307150815], [6.981714274893655, 46.321526860853034], [6.981747929336474, 46.32141437804946], [6.9818025294074, 46.32136016495351], [6.981853687907926, 46.321329165241934], [6.981905381772588, 46.32126541373233], [6.981880838127195, 46.32121959739134], [6.98184880069311, 46.321184833807656], [6.981690150306812, 46.32107524305085], [6.981668109598948, 46.321040609761646], [6.981600732924877, 46.32105482049346], [6.981298322672661, 46.321148862926556], [6.980950432205804, 46.32127779453706], [6.980795571632807, 46.32138079825092], [6.980690059741296, 46.32146727873887], [6.980659881491679, 46.321504579188336], [6.980615673026854, 46.32154272197462], [6.9805546980452275, 46.32158286569392], [6.978197453874049, 46.32240590192344], [6.977106298458895, 46.32506326537062], [6.978907994794175, 46.32882902544374], [6.978209954100477, 46.32955521952338], [6.977958257504587, 46.33064832056393], [6.979787526000872, 46.333079403517594], [6.983229916483707, 46.33680638727445], [6.985510395513231, 46.339160981807076], [6.987077849213073, 46.344584054947404], [6.987613329667551, 46.34610417632402]]]]}}]}