{"type": "FeatureCollection", "features": [{"type": "Feature", "properties": {"bfs_nummer": 541}, "geometry": {"type": "MultiPolygon", "coordinates": [[[[7.4858950419213555, 47.054053322647945], [7.485650386538771, 47.054192663575364], [7.483087434037236, 47.05561043038623], [7.482566807838451, 47.05590507838637], [7.482559541823173, 47.05593699539194], [7.482577018688423, 47.055967274964644], [7.482541728670055, 47.05599616215058], [7.482116229229035, 47.05579248563566], [7.481642890434755, 47.055656611037435], [7.481392990021439, 47.055574596217824], [7.481165228811764, 47.055476183937486], [7.4809172006285864, 47.055310900908005], [7.480403848498937, 47.05492097201893], [7.479662089349821, 47.05448231398624], [7.479591497203097, 47.054455101748026], [7.479519398677111, 47.05445502796529], [7.478144388379699, 47.05484838270011], [7.477831381270933, 47.05497873530065], [7.475651225311785, 47.05432616325895], [7.475095709015342, 47.0540890943968], [7.474984439320852, 47.054083660039296], [7.474677480124948, 47.05416893736906], [7.474113421954114, 47.05439272445136], [7.474154448749342, 47.05559997555221], [7.474172215023409, 47.05563751531208], [7.474223952155543, 47.055655291723326], [7.474073656201105, 47.05563173437797], [7.474102442051857, 47.05659348846187], [7.474014481341029, 47.05659479221545], [7.474042855108592, 47.057449046865266], [7.474011706781838, 47.057479810078426], [7.473959234270065, 47.05748794826741], [7.46956564071536, 47.056788678722626], [7.469504100028673, 47.056774050947226], [7.469473448809761, 47.056732547031785], [7.46953709854283, 47.05840009422019], [7.465662675056154, 47.05756864539263], [7.46565329100892, 47.05800247603009], [7.463250898141547, 47.05757889098255], [7.463328855666251, 47.05766264521345], [7.463283401453282, 47.05768112136538], [7.463622446391078, 47.05814682041553], [7.463701807111948, 47.05827437071908], [7.463840993148227, 47.05869601765616], [7.463914561052664, 47.05896228097611], [7.463891404197106, 47.05898265057171], [7.463852491923258, 47.058974491353275], [7.463310421009527, 47.0586551387391], [7.4628111639836625, 47.0583736078213], [7.462471803874741, 47.05817371738767], [7.461906620464327, 47.05781624200445], [7.461806491595145, 47.05774474227365], [7.461315812965083, 47.057446778397605], [7.460900965007842, 47.05721062083527], [7.46076640580075, 47.05710412703536], [7.460710800779304, 47.05698311865506], [7.460654663435882, 47.05698036755349], [7.459962641990398, 47.057400764702834], [7.459549181348167, 47.05786987129941], [7.459589538164881, 47.057908263913276], [7.459424412031553, 47.05803790994921], [7.459277633821127, 47.05813285887461], [7.458874518293788, 47.058376915518174], [7.458513687944528, 47.0576073552613], [7.4584312796606, 47.05742176615889], [7.458348654985106, 47.05725590287761], [7.455830481092882, 47.05763878719339], [7.456372964734276, 47.05986824352078], [7.456405486879107, 47.05990007208434], [7.4564569581938525, 47.05991517611338], [7.456271758901063, 47.059919520800065], [7.456009435703997, 47.05995707672542], [7.456023270142023, 47.06000114112061], [7.455560472974283, 47.060732606961366], [7.455683690309216, 47.06077108833078], [7.455693865714438, 47.06103470301217], [7.455308079070255, 47.061427378639465], [7.454749634461417, 47.06185637969402], [7.455245058743589, 47.06265939408689], [7.455341953406295, 47.063280187268326], [7.4557783331369585, 47.06360298317504], [7.45615108142258, 47.063830808774895], [7.4575491855621685, 47.06377318327496], [7.458164360951916, 47.06375497853852], [7.458381488216579, 47.063542212071845], [7.458839793856784, 47.063647305560394], [7.459147630016004, 47.063978125029664], [7.4599684965347555, 47.064180180549165], [7.460422906716163, 47.064333742252124], [7.460516607928617, 47.064335443209686], [7.460335041891695, 47.06448040325666], [7.462162200286452, 47.06530555414222], [7.462039126500034, 47.06539425070592], [7.4619787424542645, 47.065551755359955], [7.462167609905058, 47.065928778459195], [7.462793513791446, 47.066312549762515], [7.462304965238023, 47.067076086629186], [7.462188744849043, 47.06731747141798], [7.462191061544133, 47.067379464144935], [7.462238312553971, 47.06741818704682], [7.462841564267233, 47.067680413010685], [7.462946502376344, 47.06768553675103], [7.4629760703936165, 47.06771587074711], [7.461570530196475, 47.06833543466104], [7.461411963661897, 47.06841075282539], [7.461477589487283, 47.068407915902924], [7.461534594796416, 47.068443372128726], [7.464114860054867, 47.070738931081756], [7.464137153573316, 47.07077712799125], [7.464118357541622, 47.07081510879831], [7.463792729194497, 47.07091710004041], [7.463500677903201, 47.07100341416516], [7.463569555982004, 47.07111204103724], [7.464286934036723, 47.071426550485434], [7.46517888164553, 47.07190077566886], [7.466489436470621, 47.07257686008459], [7.4674409742771415, 47.07307975626608], [7.467394171774757, 47.07311044942413], [7.467416207228131, 47.07315250447417], [7.467366074108993, 47.0732095176667], [7.466302067492479, 47.074101133620054], [7.466680610695186, 47.07449045419844], [7.466708031482238, 47.07455905221275], [7.466666959182824, 47.074624743084236], [7.466275914763982, 47.0749117828495], [7.466166699408824, 47.07493964761007], [7.4669861582438894, 47.07540776816807], [7.467552511052096, 47.07574372792289], [7.467702763364586, 47.075807600314064], [7.467935678681337, 47.07582532603689], [7.469266276773255, 47.074701843462826], [7.469385581481612, 47.07480297883389], [7.469453715374723, 47.07486920899412], [7.469520238417388, 47.0749740189922], [7.469584958525031, 47.074962533523355], [7.469628269288645, 47.0749031733763], [7.469776062182077, 47.074854786709885], [7.472782550735222, 47.07422070343637], [7.474132034767901, 47.074182859256986], [7.474114839847481, 47.07430596930941], [7.474182664830022, 47.07423225334206], [7.474287173387291, 47.074203051189016], [7.477626562411236, 47.0739091994655], [7.477799114981726, 47.07390309770316], [7.478004624377385, 47.07391776305401], [7.478196153153404, 47.07395323806796], [7.478382819083164, 47.07400033589089], [7.481453470821585, 47.074875369110195], [7.481644719797361, 47.074932894102545], [7.481820938461532, 47.074997287482894], [7.481969433126878, 47.075083674575545], [7.48209318795608, 47.075186288448684], [7.482194160911484, 47.07530023528711], [7.482295919754636, 47.075425110492326], [7.482342990323057, 47.075408389461806], [7.483014312691533, 47.07623221891628], [7.483126385746453, 47.07635831262798], [7.483808328625007, 47.07697159702199], [7.483914051267748, 47.07705701722562], [7.484040584757687, 47.077118619661704], [7.486108597508951, 47.077876009953435], [7.486355295627708, 47.077963331387735], [7.4890811881707195, 47.07863117681505], [7.489274830303153, 47.07870460882713], [7.489024712614035, 47.078288035042156], [7.4887881929599915, 47.07790560044833], [7.488543558918349, 47.07753007697625], [7.488323554971498, 47.0769281390318], [7.488252970764483, 47.076207161518894], [7.4880494388976215, 47.07565488550837], [7.487853518338, 47.0750989810732], [7.487931646724087, 47.07404810139753], [7.488022568155601, 47.073038558073776], [7.488040273956377, 47.072599568966574], [7.488087518867578, 47.07225702052421], [7.488115590325186, 47.07193983672617], [7.489987145617563, 47.0715382757964], [7.4911290651516955, 47.07137004800584], [7.491703473751149, 47.07130860433615], [7.492288733428414, 47.07121039126021], [7.492855998829088, 47.07109117993837], [7.493441083673223, 47.07105972999626], [7.493944538665902, 47.07085670998913], [7.4943716485934155, 47.070311231835774], [7.494788907145586, 47.069796482980806], [7.4952996077058875, 47.06943755204191], [7.495843004417467, 47.06906692744763], [7.497079189325943, 47.06839255415045], [7.497658122076388, 47.06804702593222], [7.498283101287384, 47.067704979143784], [7.4987366577574, 47.06716189904476], [7.497732409230491, 47.066796937733606], [7.4960570206085615, 47.06666360568392], [7.495882914453014, 47.06654505652989], [7.495809305850914, 47.06648894598234], [7.495131115109168, 47.06600720869136], [7.49379184336279, 47.06573235161701], [7.49322073743409, 47.06565135073013], [7.492992359752165, 47.065844372735725], [7.492763149857709, 47.06586381856343], [7.491941368625314, 47.06536339252162], [7.492000944699003, 47.06531811154634], [7.492465549979817, 47.06490859943479], [7.491524262949213, 47.063462664565705], [7.490641880307099, 47.062762739454264], [7.492174873870295, 47.06219813271244], [7.4922604674047175, 47.06221696487236], [7.492052956840885, 47.06190430480894], [7.49198493598945, 47.06177683215828], [7.491944559505029, 47.06165067806161], [7.491860447262211, 47.06131417820751], [7.491871586673059, 47.06080511100456], [7.491890816525853, 47.060251038032746], [7.491863718084815, 47.05842126200554], [7.491836417817689, 47.05839285928167], [7.491782842357714, 47.05837488468229], [7.491974867612175, 47.05836000935284], [7.491944456758188, 47.05830035945783], [7.491749607408741, 47.05832101079681], [7.491807762040468, 47.058283664124474], [7.491809542969999, 47.058233786059354], [7.4910671256753645, 47.05653019028569], [7.491066117549392, 47.0564946874632], [7.490855077315951, 47.0560115804155], [7.4899358902173105, 47.056218161971664], [7.489426617526982, 47.05631781510954], [7.488235206378464, 47.05654183426239], [7.487849921805329, 47.05654850036831], [7.487136219991879, 47.05619971196316], [7.48709968785644, 47.056161102646364], [7.487129908493847, 47.05611767130175], [7.4875911976493725, 47.05582901028516], [7.487667136445617, 47.055764790456855], [7.487396699901379, 47.05548314419617], [7.487220938771504, 47.055276431324835], [7.486932074034804, 47.0543911197108], [7.4858950419213555, 47.054053322647945]]]]}}]}