{
  "type": "FeatureCollection",
  "features": [
    {
      "type": "Feature",
      "properties": {
        "source": "swisstopo SWISSBOUNDARIES3D",
        "source:date": "2026-01-01"
      },
      "geometry": {
        "type": "LineString",
        "coordinates": [
          [
            7.439601504322571,
            47.00774805458345
          ],
          [
            7.440107232093049,
            47.008268877373794
          ],
          [
            7.439689019286257,
            47.00862578517422
          ],
          [
            7.439018790540231,
            47.00879067257102
          ],
          [
            7.438164147258257,
            47.00909966401546
          ],
          [
            7.438506178904296,
            47.0095209251066
          ],
          [
            7.438857235219295,
            47.01008775248342
          ],
          [
            7.438335057775221,
            47.010414997755234
          ],
          [
            7.437818777638428,
            47.01077259908903
          ],
          [
            7.437444048095977,
            47.010422171645445
          ],
          [
            7.435971376220966,
            47.011139437765635
          ],
          [
            7.4358849508435805,
            47.011112089989815
          ],
          [
            7.4358411425919275,
            47.010964578377745
          ],
          [
            7.435727186236466,
            47.010848097406246
          ],
          [
            7.43555193633969,
            47.010711366270144
          ],
          [
            7.435199752930401,
            47.01047474693889
          ],
          [
            7.4350082496438645,
            47.01035875697811
          ],
          [
            7.434091272581806,
            47.011347679958085
          ],
          [
            7.433009118813761,
            47.01097656727468
          ],
          [
            7.431688023549456,
            47.01137595503025
          ],
          [
            7.431687498855667,
            47.0113668429865
          ],
          [
            7.431659241395847,
            47.01134115111142
          ],
          [
            7.431529418918732,
            47.01140860509995
          ],
          [
            7.431209020288914,
            47.01159824321967
          ],
          [
            7.431026650867086,
            47.011713753449335
          ],
          [
            7.430897383145729,
            47.01175582266829
          ],
          [
            7.430615345470378,
            47.0117660013579
          ],
          [
            7.430402527445929,
            47.01181730138846
          ],
          [
            7.430237327978345,
            47.01187344426437
          ],
          [
            7.430006702567151,
            47.01192537176054
          ],
          [
            7.429605107074261,
            47.01193970263008
          ],
          [
            7.429529332628052,
            47.01193023319387
          ],
          [
            7.4291864406228445,
            47.01182201888579
          ],
          [
            7.428808535133321,
            47.01174853922807
          ],
          [
            7.428546758686337,
            47.01177853087244
          ],
          [
            7.42856741369205,
            47.01180382699913
          ],
          [
            7.428389740406734,
            47.0118828764586
          ],
          [
            7.42815621444086,
            47.012084028170285
          ],
          [
            7.428082654465265,
            47.0121123732751
          ],
          [
            7.427899473809702,
            47.012109620247145
          ],
          [
            7.427554061017109,
            47.01205079273537
          ],
          [
            7.427442775729172,
            47.012055476428735
          ],
          [
            7.4274106948172225,
            47.01207964278076
          ],
          [
            7.427146777913999,
            47.01231244284902
          ],
          [
            7.4269431705910645,
            47.01254279331214
          ],
          [
            7.42681134493375,
            47.012756393610324
          ],
          [
            7.426675608768023,
            47.01303928232381
          ],
          [
            7.426394430467691,
            47.01337456848143
          ],
          [
            7.426302304346603,
            47.01358980982368
          ],
          [
            7.426245803003805,
            47.01375963913759
          ],
          [
            7.426246808490142,
            47.013788495431456
          ],
          [
            7.4259989039999335,
            47.013836733851704
          ],
          [
            7.425135651368317,
            47.0140385765504
          ],
          [
            7.4249821124862825,
            47.014067125428085
          ],
          [
            7.424616767055172,
            47.01414482267135
          ],
          [
            7.42438014339058,
            47.01428623895744
          ],
          [
            7.424334835201371,
            47.01433570580591
          ],
          [
            7.4243318203499165,
            47.01434671536635
          ],
          [
            7.4242480468529815,
            47.0143386356144
          ],
          [
            7.424223361726683,
            47.014474772641144
          ],
          [
            7.424165413134805,
            47.01448320223357
          ],
          [
            7.423955370413755,
            47.01438503761353
          ],
          [
            7.4238814901282115,
            47.01436605692145
          ],
          [
            7.422981061091453,
            47.01433382664756
          ],
          [
            7.422594629575376,
            47.0143262861303
          ],
          [
            7.4222148567838895,
            47.01434730465624
          ],
          [
            7.421743897181905,
            47.01438727836416
          ],
          [
            7.421225776457768,
            47.0147690281267
          ],
          [
            7.4206827387496235,
            47.01515096930588
          ],
          [
            7.419872630636835,
            47.01546135150864
          ],
          [
            7.419357298448603,
            47.01570969642661
          ],
          [
            7.4190358020662615,
            47.015838889327156
          ],
          [
            7.418531260100258,
            47.016120990922516
          ],
          [
            7.418195461999577,
            47.01631849633588
          ],
          [
            7.417744292959115,
            47.01663976889217
          ],
          [
            7.417203022889954,
            47.01690435320582
          ],
          [
            7.416696819042077,
            47.017089731441835
          ],
          [
            7.416193707288395,
            47.01723396465507
          ],
          [
            7.415637412747659,
            47.01741902213905
          ],
          [
            7.415480541900561,
            47.01704423699727
          ],
          [
            7.41532831485096,
            47.01661377315646
          ],
          [
            7.415254602323095,
            47.01642792852785
          ],
          [
            7.414707458672192,
            47.016517141072434
          ],
          [
            7.414202873610441,
            47.01660639641533
          ],
          [
            7.41341374854173,
            47.01678416830951
          ],
          [
            7.412404794179638,
            47.01685259284851
          ],
          [
            7.411581819064508,
            47.01690376557687
          ],
          [
            7.4114584682952,
            47.01677049151644
          ],
          [
            7.4113881580423335,
            47.01671765523553
          ],
          [
            7.411355170419462,
            47.01664632526313
          ],
          [
            7.411221500963702,
            47.01620598391619
          ],
          [
            7.410268035764015,
            47.01624016815765
          ],
          [
            7.409416605083164,
            47.01624775497205
          ],
          [
            7.408791990086405,
            47.0162639868978
          ],
          [
            7.408277101608985,
            47.01634953441494
          ],
          [
            7.4074922029159875,
            47.016449234538555
          ],
          [
            7.406639870460603,
            47.01656988641535
          ],
          [
            7.404614127485731,
            47.01676236539049
          ],
          [
            7.404027651852263,
            47.01681011967675
          ],
          [
            7.40386325707187,
            47.01701526394349
          ],
          [
            7.40369511039949,
            47.01718442654266
          ],
          [
            7.40339423042705,
            47.01758543976073
          ],
          [
            7.403359133439682,
            47.017731112693305
          ],
          [
            7.402907839885149,
            47.018144724021305
          ],
          [
            7.402835423172887,
            47.018852980861176
          ],
          [
            7.402875629599216,
            47.01920091363777
          ],
          [
            7.402841203123959,
            47.01951614343398
          ],
          [
            7.402764063406959,
            47.01972396749396
          ],
          [
            7.402611582241679,
            47.02000885486425
          ],
          [
            7.4024328789851594,
            47.020378889725805
          ],
          [
            7.402412752039525,
            47.02043970777588
          ],
          [
            7.402405478465178,
            47.02049647322014
          ],
          [
            7.402370208404445,
            47.020733283622796
          ],
          [
            7.402288703972147,
            47.020895042216296
          ],
          [
            7.402282860606472,
            47.02116452318935
          ],
          [
            7.402255668013794,
            47.021303577894514
          ],
          [
            7.402147583996884,
            47.02140226338202
          ],
          [
            7.402080043085621,
            47.02149408081882
          ],
          [
            7.401984376880233,
            47.02168410599551
          ],
          [
            7.401939668100487,
            47.021834416673926
          ],
          [
            7.402085709522899,
            47.02236301389693
          ],
          [
            7.402142394609092,
            47.022655380644
          ],
          [
            7.4030546201719964,
            47.02245312432339
          ],
          [
            7.403212233632206,
            47.022462295417945
          ],
          [
            7.4033447074830585,
            47.0224566075194
          ],
          [
            7.403470532089054,
            47.02246078494681
          ],
          [
            7.404134317501423,
            47.022577639960375
          ],
          [
            7.4049250941737705,
            47.02275109947335
          ],
          [
            7.40519736566627,
            47.02284825606494
          ],
          [
            7.4055196546629904,
            47.023039416178904
          ],
          [
            7.405692832515835,
            47.02360826958276
          ],
          [
            7.405864310092424,
            47.02404198052771
          ],
          [
            7.406076928667827,
            47.024382955253664
          ],
          [
            7.406341406687543,
            47.02461298168426
          ],
          [
            7.407008189854408,
            47.02515429721037
          ],
          [
            7.407348511420409,
            47.02538257077994
          ],
          [
            7.407399263064723,
            47.02542263998516
          ],
          [
            7.407400210300317,
            47.025378609492506
          ],
          [
            7.407339493248672,
            47.02530748657995
          ],
          [
            7.407413753423168,
            47.02536640701346
          ],
          [
            7.407525058394584,
            47.02542194662942
          ],
          [
            7.407654046963936,
            47.02544881485097
          ],
          [
            7.408038329310778,
            47.02550816260837
          ],
          [
            7.408114756535038,
            47.02593325355729
          ],
          [
            7.408690981712457,
            47.025875176331944
          ],
          [
            7.408929760370395,
            47.02615275559681
          ],
          [
            7.40907078585593,
            47.026437252550764
          ],
          [
            7.408676061506011,
            47.02713542318769
          ],
          [
            7.408309225980497,
            47.02763492645606
          ],
          [
            7.408275949814733,
            47.02771530607961
          ],
          [
            7.408172279839539,
            47.028023169061896
          ],
          [
            7.407798143322854,
            47.02883716225805
          ],
          [
            7.407439898152276,
            47.02965472059674
          ],
          [
            7.40800514702197,
            47.029874824378155
          ],
          [
            7.408563534917494,
            47.0301377219031
          ],
          [
            7.409558734964637,
            47.03056020494466
          ],
          [
            7.4099493963285505,
            47.030620879162804
          ],
          [
            7.410558318480772,
            47.030885327125894
          ],
          [
            7.411299393466245,
            47.03095522386396
          ],
          [
            7.41178989556364,
            47.03084365242375
          ],
          [
            7.412439830049764,
            47.030885500121315
          ],
          [
            7.413569791997482,
            47.03097793419399
          ],
          [
            7.41415229768348,
            47.031010608913114
          ],
          [
            7.41492096525437,
            47.031340840711024
          ],
          [
            7.4156238484484005,
            47.03132088582946
          ],
          [
            7.416179650805058,
            47.031207591195326
          ],
          [
            7.417133151481331,
            47.03121269313943
          ],
          [
            7.41813443820188,
            47.031338923269516
          ],
          [
            7.419739177609348,
            47.03145501432619
          ],
          [
            7.42102167592634,
            47.03148251105712
          ],
          [
            7.421242832826553,
            47.03122981310221
          ],
          [
            7.421619006079428,
            47.03092340274737
          ],
          [
            7.422425975609049,
            47.030512992818736
          ],
          [
            7.423146755710158,
            47.03004499660756
          ],
          [
            7.423149588735124,
            47.02904304852679
          ],
          [
            7.42410911420582,
            47.02900918978341
          ],
          [
            7.425679814938071,
            47.02918314821039
          ],
          [
            7.426662150151452,
            47.029322821174325
          ],
          [
            7.426918472174977,
            47.0294716097457
          ],
          [
            7.427228571972505,
            47.02963246589514
          ],
          [
            7.427922146800368,
            47.03000673216578
          ],
          [
            7.42768111580781,
            47.03016940965826
          ],
          [
            7.428380334401232,
            47.03103255398819
          ],
          [
            7.429279619215762,
            47.0306912406847
          ],
          [
            7.430244704030217,
            47.03030733417846
          ],
          [
            7.431739200167996,
            47.02975974725356
          ],
          [
            7.432453736538354,
            47.0306433765434
          ],
          [
            7.4325004820714895,
            47.03071546567218
          ],
          [
            7.432494237068862,
            47.030785266777016
          ],
          [
            7.432414898110314,
            47.030961267737815
          ],
          [
            7.432316090414364,
            47.0311204916615
          ],
          [
            7.432247892725338,
            47.031108568894595
          ],
          [
            7.431977626633629,
            47.031442545985854
          ],
          [
            7.431925004383802,
            47.03152762653
          ],
          [
            7.431908664964347,
            47.03161862821668
          ],
          [
            7.4319403182259665,
            47.03170896747617
          ],
          [
            7.432007862058178,
            47.031791033669606
          ],
          [
            7.432374056576413,
            47.03208367477579
          ],
          [
            7.432869210858579,
            47.03247935144462
          ],
          [
            7.433002846438903,
            47.032617001206745
          ],
          [
            7.433082933028665,
            47.032572426386174
          ],
          [
            7.433903571501165,
            47.03330708537216
          ],
          [
            7.43407737550796,
            47.033468950469754
          ],
          [
            7.434435388064439,
            47.0338479547979
          ],
          [
            7.4350529855972205,
            47.0337333931541
          ],
          [
            7.4376957226814175,
            47.03327488238905
          ],
          [
            7.438526956885095,
            47.03551514149368
          ],
          [
            7.439053020358111,
            47.03536257145672
          ],
          [
            7.440005923880712,
            47.03508676632336
          ],
          [
            7.441652034100308,
            47.034634649255196
          ],
          [
            7.443123350316761,
            47.03425078633062
          ],
          [
            7.443105179201592,
            47.03422053660002
          ],
          [
            7.443158105937041,
            47.03419293820703
          ],
          [
            7.443159984356266,
            47.03414858364906
          ],
          [
            7.442589197192172,
            47.03262260171762
          ],
          [
            7.44255608124864,
            47.03258588485124
          ],
          [
            7.442492945061374,
            47.03258407846799
          ],
          [
            7.442481181812204,
            47.03255256916094
          ],
          [
            7.447521069569674,
            47.03167903912655
          ],
          [
            7.454706714638813,
            47.030422564499595
          ],
          [
            7.456566357776954,
            47.03008775170225
          ],
          [
            7.459211493926501,
            47.0296294729557
          ],
          [
            7.45933141622621,
            47.0296239563969
          ],
          [
            7.459562330383824,
            47.029653923850475
          ],
          [
            7.4597243047240935,
            47.029668242604075
          ],
          [
            7.4597652845137645,
            47.029670340238376
          ],
          [
            7.45976542439083,
            47.029622558562615
          ],
          [
            7.4598262758601885,
            47.0295738037158
          ],
          [
            7.459930910037904,
            47.02952989839729
          ],
          [
            7.459932872625249,
            47.02950167161353
          ],
          [
            7.459954631112049,
            47.02943127256661
          ],
          [
            7.459874835255266,
            47.02944265644521
          ],
          [
            7.459793588528631,
            47.02944409200966
          ],
          [
            7.459742672841802,
            47.02943188570754
          ],
          [
            7.459713403731207,
            47.02940077700538
          ],
          [
            7.459701668621287,
            47.02936419623629
          ],
          [
            7.45969354600603,
            47.02927860985233
          ],
          [
            7.4596955864832895,
            47.029107029095826
          ],
          [
            7.459725475141517,
            47.02910690691419
          ],
          [
            7.46000952016249,
            47.029064741888476
          ],
          [
            7.460829877063451,
            47.028957111080395
          ],
          [
            7.462104336120827,
            47.02866613913032
          ],
          [
            7.463218852129629,
            47.02842769013519
          ],
          [
            7.463481079130846,
            47.02838421671669
          ],
          [
            7.46386363811584,
            47.028289607451406
          ],
          [
            7.466244358817773,
            47.027788288615334
          ],
          [
            7.466337764792466,
            47.0276422862996
          ],
          [
            7.466315649494606,
            47.02761200514575
          ],
          [
            7.4662277518161275,
            47.027591939671446
          ],
          [
            7.46424182302566,
            47.02475137958024
          ],
          [
            7.464272759650346,
            47.024689936740415
          ],
          [
            7.466451573420877,
            47.023978900937344
          ],
          [
            7.466534151908888,
            47.024000676562956
          ],
          [
            7.466673381624063,
            47.0242246204932
          ],
          [
            7.467373156404346,
            47.024007906192615
          ],
          [
            7.466969886133245,
            47.02334757761211
          ],
          [
            7.4680926755613735,
            47.02283764429644
          ],
          [
            7.467034996005506,
            47.019644981727964
          ],
          [
            7.467223313316189,
            47.01958197107719
          ],
          [
            7.467197775563773,
            47.01954095976698
          ],
          [
            7.466103898013652,
            47.017086169292604
          ],
          [
            7.466016165155042,
            47.01707180645004
          ],
          [
            7.46480652134551,
            47.017012351759455
          ],
          [
            7.464640017712267,
            47.01702120343311
          ],
          [
            7.462382548273076,
            47.01729989187298
          ],
          [
            7.462320332009822,
            47.01728649259205
          ],
          [
            7.462284263110355,
            47.017212110578726
          ],
          [
            7.462073865216928,
            47.016898026487375
          ],
          [
            7.462028533405645,
            47.01681325690769
          ],
          [
            7.462025538654355,
            47.01679128255608
          ],
          [
            7.462033329814922,
            47.01677192365589
          ],
          [
            7.462048198700237,
            47.01675696195405
          ],
          [
            7.462224325280925,
            47.01664501073483
          ],
          [
            7.462150781840997,
            47.01659097390254
          ],
          [
            7.462442270135841,
            47.01642913994214
          ],
          [
            7.462075772774884,
            47.015958500753364
          ],
          [
            7.461901180089348,
            47.01580121120275
          ],
          [
            7.461663989278235,
            47.01536633675964
          ],
          [
            7.461593156980853,
            47.0152150533839
          ],
          [
            7.461107320587183,
            47.01391786815112
          ],
          [
            7.461942829896422,
            47.012704075575286
          ],
          [
            7.4638579397304605,
            47.01332193513197
          ],
          [
            7.46397490972602,
            47.01315226330399
          ],
          [
            7.464359881763458,
            47.012682278315744
          ],
          [
            7.464801067614347,
            47.01207166869055
          ],
          [
            7.4648589083137455,
            47.012048718520596
          ],
          [
            7.465179170425066,
            47.01154115452161
          ],
          [
            7.465473262271753,
            47.01139994680139
          ],
          [
            7.466153030404409,
            47.01113110844296
          ],
          [
            7.466833998088998,
            47.01116593941235
          ],
          [
            7.467086301793576,
            47.01117542292685
          ],
          [
            7.467098700441478,
            47.01117036472053
          ],
          [
            7.467211311252032,
            47.011043057355344
          ],
          [
            7.467258960269795,
            47.01099914091035
          ],
          [
            7.467308247751874,
            47.010970398736944
          ],
          [
            7.4673701803067,
            47.01095559584079
          ],
          [
            7.4674355405376,
            47.01095717210624
          ],
          [
            7.467497715576869,
            47.010978817117966
          ],
          [
            7.4676530925213775,
            47.01113019323616
          ],
          [
            7.467971503260799,
            47.01108587705529
          ],
          [
            7.4682749915034625,
            47.011024823894886
          ],
          [
            7.4688340096033,
            47.01146563006032
          ],
          [
            7.4692534221942655,
            47.01171000832524
          ],
          [
            7.469889835822554,
            47.0120100973209
          ],
          [
            7.4699750482663285,
            47.011998920872045
          ],
          [
            7.47081437062857,
            47.01183480506958
          ],
          [
            7.471089923012774,
            47.01165473827762
          ],
          [
            7.47110544073299,
            47.0116764121348
          ],
          [
            7.47241919362713,
            47.010985626541625
          ],
          [
            7.4722315308234375,
            47.010876039197186
          ],
          [
            7.472415219264177,
            47.00947735158198
          ],
          [
            7.471457767187737,
            47.009417813566536
          ],
          [
            7.470532795621115,
            47.009352906717716
          ],
          [
            7.470729617951551,
            47.00876482726899
          ],
          [
            7.4708249957258275,
            47.00869540429346
          ],
          [
            7.470859912181516,
            47.00858709404233
          ],
          [
            7.470879749678572,
            47.00837371639574
          ],
          [
            7.471015592673103,
            47.00790577325558
          ],
          [
            7.471309740791353,
            47.00731915909612
          ],
          [
            7.47082618900917,
            47.00672569759997
          ],
          [
            7.4711684049755425,
            47.00571023002843
          ],
          [
            7.471096815975853,
            47.005078300193276
          ],
          [
            7.471230896000333,
            47.00502718916607
          ],
          [
            7.471371777456761,
            47.00500414975088
          ],
          [
            7.471864991628821,
            47.00495384631586
          ],
          [
            7.472365199021385,
            47.00487992666293
          ],
          [
            7.472591135347539,
            47.00482410129393
          ],
          [
            7.4728020877705355,
            47.00473668908768
          ],
          [
            7.47299513365083,
            47.00461253679401
          ],
          [
            7.473245352619303,
            47.00440657509103
          ],
          [
            7.473274958610036,
            47.00439707657764
          ],
          [
            7.4732903564033615,
            47.004418165523674
          ],
          [
            7.473269971379838,
            47.00476804431452
          ],
          [
            7.47418986963996,
            47.00466862643574
          ],
          [
            7.474712105378937,
            47.00320348296711
          ],
          [
            7.4746488614722875,
            47.00234206979311
          ],
          [
            7.475086482637703,
            47.00129972805799
          ],
          [
            7.476034123824844,
            47.0006540148349
          ],
          [
            7.475992127582231,
            47.000052508413596
          ],
          [
            7.4761164446975465,
            46.999649596646606
          ],
          [
            7.47625544445576,
            46.99924417937986
          ],
          [
            7.47643211686056,
            46.99806315673861
          ],
          [
            7.4751558245842284,
            46.998361243699996
          ],
          [
            7.473307495448617,
            46.99880169863079
          ],
          [
            7.472718104615631,
            46.99890665440857
          ],
          [
            7.472310612802327,
            46.99903429494806
          ],
          [
            7.471592370899968,
            46.999254041056176
          ],
          [
            7.471509947545,
            46.999874149764956
          ],
          [
            7.47137782589381,
            47.0008113670848
          ],
          [
            7.471209775559615,
            47.00080813037492
          ],
          [
            7.470724374145989,
            47.000775764035176
          ],
          [
            7.4699542622180894,
            47.00070018706583
          ],
          [
            7.469868446811142,
            47.000729443820084
          ],
          [
            7.4700267258118584,
            47.001934096258985
          ],
          [
            7.469759886496445,
            47.0019303169309
          ],
          [
            7.4695061129696665,
            47.001919490416604
          ],
          [
            7.4692637710987615,
            47.00189474497815
          ],
          [
            7.468640117078165,
            47.001813805070626
          ],
          [
            7.468453931053583,
            47.00046538919164
          ],
          [
            7.468133560802026,
            47.000587325947244
          ],
          [
            7.467510321439453,
            47.00074000926608
          ],
          [
            7.467204435266953,
            47.000807816427475
          ],
          [
            7.466799375158358,
            47.00015907942955
          ],
          [
            7.466713041632905,
            47.00017946478656
          ],
          [
            7.466296832807934,
            47.000302849280374
          ],
          [
            7.466156548016667,
            47.000341983555444
          ],
          [
            7.466032247085164,
            47.00037272155076
          ],
          [
            7.46586938455796,
            47.000407983797814
          ],
          [
            7.46585143356885,
            47.00037359068516
          ],
          [
            7.465049788747305,
            47.000540765486704
          ],
          [
            7.464809246979002,
            47.00057970446244
          ],
          [
            7.46429503396492,
            47.000640308477344
          ],
          [
            7.463917644749964,
            47.00070980434372
          ],
          [
            7.462731152171981,
            47.00060588698066
          ],
          [
            7.461779293546686,
            47.000500266029206
          ],
          [
            7.461837059614693,
            47.00060961713988
          ],
          [
            7.461547893347561,
            47.00068165163853
          ],
          [
            7.461487693820653,
            47.00056851391567
          ],
          [
            7.461228883581823,
            47.000632985928014
          ],
          [
            7.461115841652083,
            47.000420588154604
          ],
          [
            7.4610662841660105,
            47.00041583005672
          ],
          [
            7.460677322003679,
            47.000518977053495
          ],
          [
            7.4602835879493155,
            47.00062839316788
          ],
          [
            7.459919108362407,
            47.00074083408525
          ],
          [
            7.459557299943483,
            47.00089822184043
          ],
          [
            7.458976277633933,
            47.00123103200866
          ],
          [
            7.458309581114497,
            47.000835008122614
          ],
          [
            7.458243086110574,
            47.000785644918345
          ],
          [
            7.458095535626373,
            47.000822764598595
          ],
          [
            7.457644742768534,
            47.00112531441397
          ],
          [
            7.457285359385084,
            47.00132812879722
          ],
          [
            7.456741649738435,
            47.00175189816264
          ],
          [
            7.456527977342726,
            47.00197382978601
          ],
          [
            7.456506501612974,
            47.00196086204196
          ],
          [
            7.456088061948308,
            47.00204887703505
          ],
          [
            7.455897285866195,
            47.002039000757385
          ],
          [
            7.45505552469577,
            47.001853467860045
          ],
          [
            7.454530231243818,
            47.00172793015528
          ],
          [
            7.454263491605869,
            47.00179230649911
          ],
          [
            7.453885384134272,
            47.00191001905561
          ],
          [
            7.4533819892567585,
            47.00205587315414
          ],
          [
            7.452814062996699,
            47.00216820781297
          ],
          [
            7.4519572600800235,
            47.002288217031044
          ],
          [
            7.451490900223598,
            47.00233332282442
          ],
          [
            7.450666366337587,
            47.00249065763695
          ],
          [
            7.450177129599415,
            47.00255975918426
          ],
          [
            7.449939123796917,
            47.00262434766977
          ],
          [
            7.448815020577248,
            47.00283046718766
          ],
          [
            7.448817651344154,
            47.002836322777036
          ],
          [
            7.448374275308963,
            47.00292481532045
          ],
          [
            7.448272488926756,
            47.00299742242333
          ],
          [
            7.4482474643371726,
            47.00298283428784
          ],
          [
            7.448115770110847,
            47.003093600662616
          ],
          [
            7.448115641084689,
            47.003109081215264
          ],
          [
            7.4478112160894785,
            47.003349749003014
          ],
          [
            7.447592730575831,
            47.003505550363606
          ],
          [
            7.447127891063513,
            47.00371037300624
          ],
          [
            7.4472013170330555,
            47.004279253272244
          ],
          [
            7.447499759033082,
            47.00425050275042
          ],
          [
            7.447683944992329,
            47.00507334211476
          ],
          [
            7.446664604374629,
            47.00564470527567
          ],
          [
            7.446583809257211,
            47.0057095467864
          ],
          [
            7.446536010244358,
            47.00580651667344
          ],
          [
            7.446476272984945,
            47.00591683595769
          ],
          [
            7.446500699317377,
            47.005975896188794
          ],
          [
            7.44608591129814,
            47.006208254412456
          ],
          [
            7.445999402701708,
            47.00634133250863
          ],
          [
            7.445241741876553,
            47.007549879315576
          ],
          [
            7.445068650231204,
            47.00807560505477
          ],
          [
            7.4449491023698915,
            47.008465142525495
          ],
          [
            7.444440749162096,
            47.00911537427326
          ],
          [
            7.444144326177706,
            47.008945649370084
          ],
          [
            7.4439337589022685,
            47.008724612554175
          ],
          [
            7.443628764254755,
            47.0083606469429
          ],
          [
            7.443050055389263,
            47.00799910877408
          ],
          [
            7.4424967546775065,
            47.00778034588921
          ],
          [
            7.441944155961236,
            47.00757371467046
          ],
          [
            7.44180305437164,
            47.007512065222095
          ],
          [
            7.4412824291488455,
            47.007326613589385
          ],
          [
            7.440857725573761,
            47.007268933655354
          ],
          [
            7.439601504322571,
            47.00774805458345
          ]
        ]
      }
    }
  ]
}