{"type": "FeatureCollection", "features": [{"type": "Feature", "properties": {"bfs_nummer": 5522}, "geometry": {"type": "MultiPolygon", "coordinates": [[[[6.6841439785746015, 46.69048111971183], [6.685018251082263, 46.68986925780527], [6.6850291498594645, 46.68986582161773], [6.6850472167436985, 46.689844342244875], [6.685144944682483, 46.689829876564524], [6.685212142113765, 46.68981107044294], [6.685243334484924, 46.68974002964134], [6.685298449358546, 46.68968776867635], [6.6853972381867655, 46.68963480759167], [6.685475693822819, 46.68956812793268], [6.6855328481713086, 46.689547635954625], [6.685622962327603, 46.68954472418792], [6.685722600118357, 46.6895151576077], [6.685823475922748, 46.6894437683906], [6.686202309467224, 46.68922083946326], [6.6862172274855345, 46.68920105723788], [6.686300998254213, 46.68914682646316], [6.6863082630217, 46.68911341012192], [6.6863382562269615, 46.68908131347082], [6.686337615106613, 46.68907105391884], [6.68652179519411, 46.689034848564575], [6.686160699763939, 46.6884560038596], [6.686236832768966, 46.68844310341605], [6.686234251946422, 46.688393878766085], [6.686140951016687, 46.68837239127672], [6.686058579384931, 46.688334963279665], [6.685820575228566, 46.688181627952076], [6.687995210241299, 46.68724403025923], [6.688040943924517, 46.687226700027075], [6.688079018101638, 46.68723369813051], [6.688118007971995, 46.68723126552503], [6.691243905322577, 46.68511871373392], [6.692228812367675, 46.684451566986915], [6.692237621325514, 46.68441015380487], [6.692288471358141, 46.684381790562405], [6.692229336116649, 46.6843099663105], [6.692313900275039, 46.68404649254619], [6.693021161729856, 46.68360601320012], [6.694434706062679, 46.68279232185637], [6.6944587906066, 46.68272366070825], [6.6944296558630025, 46.68265636070066], [6.694319340283384, 46.6825801633938], [6.694442684335202, 46.68247014028267], [6.694009799384699, 46.68224043142609], [6.694007363750115, 46.682199124249415], [6.693970976196612, 46.68217432728464], [6.696531881709555, 46.68052095543324], [6.696556951903055, 46.680476319363784], [6.69656221729838, 46.680293278120345], [6.69659032409543, 46.6802359865842], [6.698103763803899, 46.67896994269], [6.698128032972943, 46.678906409750745], [6.6981904222365705, 46.67896034144178], [6.698352240957057, 46.678845698328075], [6.698264483991924, 46.678783055486555], [6.699259914354548, 46.67829718413085], [6.699737944012414, 46.67731936803849], [6.69991610070316, 46.67722219973821], [6.6998643187056555, 46.67705237159189], [6.700544667532642, 46.67702925178568], [6.700619646753838, 46.67703235602375], [6.701249925868068, 46.67680848752356], [6.7014717004441415, 46.67712640077693], [6.702245491125792, 46.67678730134152], [6.7017926720715995, 46.67614287164948], [6.702670179129959, 46.6759417279657], [6.703091802851472, 46.67586537793648], [6.7029931123476, 46.67567492641673], [6.702790760293954, 46.6753232275439], [6.703045113223154, 46.67517813923812], [6.7035111097336, 46.67484721984921], [6.703448610685099, 46.67478213541615], [6.7038788743534825, 46.6746657179722], [6.703934897700402, 46.674716906500805], [6.704691337921212, 46.67451648079174], [6.704666328538661, 46.674491130879474], [6.704656561106166, 46.6744693967259], [6.704613801508239, 46.67420238354827], [6.70459777620436, 46.67417952041308], [6.704564871084, 46.6740430202593], [6.704572363492733, 46.67387674343382], [6.704517972311928, 46.67382087872325], [6.704434495171405, 46.67379911870996], [6.7043879525102446, 46.673790721983345], [6.704268622316649, 46.673800926598965], [6.704103876531544, 46.67383511795597], [6.704016498606952, 46.67385984118488], [6.7039747305089845, 46.67384633851918], [6.703941423890287, 46.67382570265186], [6.703800339182289, 46.673667731921746], [6.703790524340119, 46.673611174346746], [6.703701858778436, 46.67348115050717], [6.703584838182697, 46.67339871159256], [6.7032440154368125, 46.67348349023924], [6.7028963598493325, 46.6732453786686], [6.702837450220782, 46.67305158578629], [6.702835010436724, 46.67270378850638], [6.7028623534012794, 46.67264423257554], [6.702899552809733, 46.672427483093934], [6.7028754774631505, 46.67231469869194], [6.702805910944506, 46.67223149540731], [6.702730919592199, 46.67220104492925], [6.702644110708597, 46.67217467408052], [6.702617335528999, 46.67217351129218], [6.70214496324825, 46.672226129661446], [6.7019009885132865, 46.672224648668426], [6.701470834892083, 46.67224804902987], [6.700973335540942, 46.67180654359806], [6.7008311826970965, 46.6713361974314], [6.700761816461056, 46.67133414622086], [6.700590761673462, 46.671380894742505], [6.700244715113232, 46.67150414193383], [6.700030158061806, 46.67150193938659], [6.699953723118855, 46.67149118772573], [6.699545443932701, 46.67140649334539], [6.69939572675486, 46.671383840317134], [6.699076513198246, 46.6713600047547], [6.698904799697359, 46.67135942833145], [6.698832285418543, 46.67134870141655], [6.6986585364116245, 46.67129647451093], [6.698529849890593, 46.671226998570205], [6.6983978743163535, 46.6711686559688], [6.69831827620772, 46.67101718662307], [6.698143876725321, 46.67059387343061], [6.698158950524238, 46.67049546639087], [6.698170325362012, 46.67030482722729], [6.69818167624727, 46.670201538105786], [6.698210835006736, 46.67019083387063], [6.698270886967913, 46.67000509948051], [6.6982601916527695, 46.669965537819046], [6.698066283826024, 46.66969736695252], [6.698013055682762, 46.66965276051084], [6.697909863221804, 46.66958282005484], [6.697609960276866, 46.669467878027525], [6.696951534465977, 46.6692816984041], [6.69686703751677, 46.66924930187451], [6.696694027216929, 46.6691725179176], [6.696603732769889, 46.66910562906595], [6.696397117405545, 46.66886903793371], [6.696279170318423, 46.66863716319577], [6.696232063283245, 46.66856578803993], [6.696227116485684, 46.668422091073595], [6.69625557377726, 46.66834842041077], [6.696283677235813, 46.66830992138443], [6.6963055290076525, 46.66829836929664], [6.696390755628964, 46.66819223394432], [6.696410676593277, 46.668150074159975], [6.696427145593519, 46.668073896302275], [6.696418564346301, 46.66800430186459], [6.6962303151608555, 46.66781982664408], [6.696091939419783, 46.66772410656475], [6.696008933691167, 46.66765007694809], [6.695843679529376, 46.66762730900049], [6.6956975910748655, 46.667664596324634], [6.695550681803982, 46.667581324268596], [6.6954906811764365, 46.66757328575743], [6.695228613826252, 46.667482873562335], [6.69512289778369, 46.667406976829945], [6.695046138905253, 46.667278103354676], [6.694895689809312, 46.66713804302034], [6.694721108061313, 46.66711899940203], [6.694497008775645, 46.66710880747206], [6.694346309562948, 46.667110970078035], [6.694238860068029, 46.66706610592113], [6.694035667599874, 46.667008731395086], [6.6938541883758065, 46.6669299984127], [6.693764262393382, 46.666884250032304], [6.693541694368563, 46.666773761813], [6.693469410909623, 46.66671850324968], [6.693464438768004, 46.66670857517591], [6.693379111295503, 46.66669982985643], [6.693207701277129, 46.666582929388554], [6.693193753841183, 46.66656151766298], [6.693190491576417, 46.66655268027754], [6.693210964991905, 46.66651701070332], [6.693267290489027, 46.66639476563495], [6.693106908495383, 46.66635926017758], [6.69294491210591, 46.66636584476961], [6.692783363169176, 46.666331590650216], [6.692650997883236, 46.66621773388063], [6.692523331128841, 46.66597121804712], [6.692505659016159, 46.66595553923317], [6.692500365411286, 46.66595091660625], [6.692406912809717, 46.66586655144667], [6.692215081023026, 46.66583002880437], [6.692205025877247, 46.66581916773429], [6.69218882120028, 46.665743765569054], [6.692241041001676, 46.66567277063674], [6.692225545657629, 46.66559332494873], [6.692111339351818, 46.665451699398304], [6.692056396812887, 46.665408878015604], [6.6920695064229045, 46.665291657423595], [6.692126134798696, 46.66522312047703], [6.692098299493974, 46.66512704121732], [6.691994140570603, 46.66497711544824], [6.691867690720679, 46.66493652314024], [6.691876362475146, 46.66488593306661], [6.691923307031469, 46.66477972963493], [6.691876854230356, 46.66468064944797], [6.6914683149314556, 46.664619313105945], [6.6913662539153345, 46.664628358236754], [6.6912764048255235, 46.66462461937424], [6.691221826221643, 46.66461220622415], [6.69112071245838, 46.66455387783811], [6.691122317427038, 46.66452294235852], [6.691024297868709, 46.66438286142742], [6.690970970291374, 46.66426142574906], [6.690944129336159, 46.66419935736924], [6.690703754633202, 46.6640154297125], [6.690496894615307, 46.663780894963864], [6.690226434843783, 46.6636663068668], [6.689641043625437, 46.663354073170716], [6.689408305109942, 46.66317694003819], [6.6893089688572225, 46.663114213748], [6.6891251106550955, 46.66311498148111], [6.688942147402156, 46.66291046800491], [6.688910221746425, 46.662894784625216], [6.688827174659333, 46.662899184916384], [6.688792169695379, 46.662813672825465], [6.688823861002345, 46.66275225969525], [6.688957130333106, 46.66264959531302], [6.688959727354465, 46.66261317886315], [6.68892752677803, 46.662590027015696], [6.6887854008918985, 46.66255913369308], [6.68873625562773, 46.662539558309795], [6.688594069220958, 46.662334593150504], [6.688564924032742, 46.66231631923304], [6.68847094262452, 46.6622999564739], [6.688426360761091, 46.662085820269894], [6.688415709289406, 46.662043739041756], [6.688387426326123, 46.66195413299193], [6.6883817217893204, 46.66193214527854], [6.688381276798893, 46.66192656487056], [6.688371628413476, 46.66186874743784], [6.68842957071855, 46.66176126855891], [6.688439550913862, 46.661720133069736], [6.688539593833851, 46.661516765276616], [6.688611819050499, 46.66145328093944], [6.688624207372153, 46.66132355114361], [6.688597752433576, 46.6613176192813], [6.6884253106430425, 46.661315312459884], [6.688371604867756, 46.66134374520468], [6.688298518067238, 46.66135648705599], [6.688207389725797, 46.66130424916503], [6.688225524589354, 46.66126865503975], [6.688270244088732, 46.66112546506602], [6.6882845270712945, 46.660953557274446], [6.688264815265584, 46.66092410051067], [6.688196019848315, 46.660816325178246], [6.68817774850146, 46.66069278042659], [6.688077560542775, 46.66053962945265], [6.6880158520386, 46.66033582419116], [6.688005949698083, 46.66031506838253], [6.687968719269197, 46.66029575113846], [6.687799474152047, 46.66032683939001], [6.687757358642312, 46.66017983773677], [6.687784767943226, 46.66004121153571], [6.687791633729648, 46.65992350017659], [6.6877301972401835, 46.659747224669246], [6.687705471163803, 46.659635062183675], [6.687623699860966, 46.65957730812462], [6.687504045315688, 46.659388683039595], [6.687497327618647, 46.65936443966069], [6.687502683134611, 46.65933640770085], [6.687443200508439, 46.65913252700964], [6.687392680462724, 46.659044033153506], [6.687367462264393, 46.659026324494654], [6.687340334852264, 46.65878747445634], [6.687413640273648, 46.658740990872914], [6.687449345699044, 46.658699935451054], [6.6875036483231005, 46.658610694650314], [6.687513645593539, 46.65851207536183], [6.687483135580845, 46.65840438156657], [6.687413966195638, 46.65836973112185], [6.687323315895749, 46.65834080410203], [6.687277540990433, 46.658306587101315], [6.687258579288127, 46.65828810109618], [6.687266915962538, 46.65825335095598], [6.687225517623043, 46.658232287825285], [6.6871526069392635, 46.658195192835855], [6.687111961506962, 46.65817730126134], [6.6870929791663825, 46.658143441237385], [6.687065951737758, 46.65810466114162], [6.687014607967512, 46.65810442079272], [6.686937997234678, 46.65807970647476], [6.686949233773142, 46.658050643054864], [6.686960004750821, 46.65801841888452], [6.686948180374011, 46.65798657620921], [6.686906285702371, 46.65795428279227], [6.6868506343100895, 46.657952826313114], [6.686782529496473, 46.6579459080912], [6.686724444204866, 46.657941916743766], [6.686613276254416, 46.657912493758424], [6.686534511714451, 46.65790171759262], [6.686439949656405, 46.657899472880764], [6.686390933876945, 46.65789159222849], [6.6862573475888345, 46.65786766994166], [6.686201344992425, 46.65786424080044], [6.686177221505567, 46.657879563180984], [6.686135775939228, 46.657919042107316], [6.68610128254113, 46.65792845748342], [6.686028364358768, 46.65792941435635], [6.685939742616195, 46.65790408899335], [6.685879477920787, 46.65787841179105], [6.685762967694932, 46.65786576599], [6.685645288566742, 46.65782549480206], [6.685589665395089, 46.6578416790524], [6.685561234438738, 46.65786604968037], [6.685499316746159, 46.657855834279644], [6.68538686302707, 46.657871731874415], [6.685326813129631, 46.65786809561651], [6.685285967683882, 46.65786458673543], [6.685197286111617, 46.657852934442005], [6.685147396347037, 46.65784216884793], [6.685045576771152, 46.657817025493216], [6.68503068866692, 46.657816566999756], [6.684954147016721, 46.65778700296986], [6.68489746373389, 46.65778554781261], [6.684847604158845, 46.65777262308206], [6.684767908576042, 46.657735031634715], [6.684666415761047, 46.65771456778942], [6.684625053888288, 46.65771996103498], [6.684536685249604, 46.65771397757179], [6.684451451830742, 46.65771737065289], [6.6843614587096045, 46.65772478031054], [6.684324125807862, 46.65771301799081], [6.684287639569002, 46.65769676310639], [6.684236962892487, 46.65766755002017], [6.684184746888991, 46.657654978207596], [6.684143153570923, 46.65763023345779], [6.684143604004229, 46.65760737766597], [6.684097221982642, 46.65758871823805], [6.684044732177264, 46.65757705326835], [6.684028733306968, 46.65757848548359], [6.684002626194909, 46.65753013911414], [6.683883255572779, 46.65749977735124], [6.68379757640646, 46.65750983297937], [6.682806583562419, 46.6579854249081], [6.6816432094796, 46.65854125584362], [6.681494747635674, 46.65861089463964], [6.681099535620724, 46.658774903579975], [6.679453923415786, 46.65945965873699], [6.6784819482291695, 46.6598627244457], [6.678311705458244, 46.659933670871254], [6.677547199670025, 46.660249820267644], [6.677426422300824, 46.66030040578351], [6.67711185313134, 46.66043124193547], [6.676637822582389, 46.66062322490495], [6.677009643843451, 46.661265057027656], [6.6764839046926765, 46.66143100990143], [6.676842784069016, 46.66200788597871], [6.67631834760442, 46.662168026497866], [6.675980570964519, 46.66227121236252], [6.675593567643838, 46.66238943171518], [6.675424924581067, 46.66210933581774], [6.675370412359628, 46.662018830677376], [6.675296413006274, 46.66203020861827], [6.675194344695231, 46.662060199559264], [6.675217920249223, 46.66211991094978], [6.674156169824955, 46.662633921205455], [6.674049960886537, 46.66268763250685], [6.673742610808879, 46.66283760570808], [6.673119941723701, 46.6631352291056], [6.673214565788867, 46.66328097047719], [6.673100463962663, 46.66327291561392], [6.672319985665581, 46.66321801946283], [6.671303122504322, 46.66314638299768], [6.670192511340485, 46.66306817655992], [6.6690360991251, 46.66298669873804], [6.667866127379502, 46.66290428971581], [6.666701106965443, 46.66282219031077], [6.667053487788556, 46.66234466539489], [6.667423055817577, 46.661849003139814], [6.667791263846865, 46.66135111754467], [6.667387588568445, 46.66074693852896], [6.667290930015313, 46.6604233373214], [6.66689410712222, 46.65994376088013], [6.664978331182454, 46.65856706600474], [6.662471355784414, 46.65764978526661], [6.662449693331445, 46.657619842821866], [6.662054202418226, 46.657074866409076], [6.661628164322164, 46.65739994936799], [6.660642259925117, 46.65806161832413], [6.66025692268887, 46.65830852998095], [6.659934417521115, 46.6584656498459], [6.659489120382956, 46.658620929025524], [6.659218864126511, 46.65876966977154], [6.6571862096783585, 46.6588620708968], [6.65705545736298, 46.65899486161192], [6.656917104927566, 46.65921916829925], [6.65682157544991, 46.65929254838197], [6.65681596769708, 46.65939092547699], [6.656767194879558, 46.6594295426776], [6.65664101944706, 46.659489848178], [6.656662229155756, 46.6596129682375], [6.656583159971673, 46.659758518901526], [6.656498920594191, 46.659820911267964], [6.65643469612293, 46.65997799789927], [6.65646416633365, 46.66000096029181], [6.656417986325823, 46.66005893646815], [6.656428783485871, 46.66009733342342], [6.65638712499611, 46.66015974853372], [6.656429850066237, 46.660222834187714], [6.656416589179619, 46.66029839888819], [6.656447463094906, 46.660350697645455], [6.656447871384512, 46.66039370112388], [6.656359284820013, 46.66050257251326], [6.656338256043412, 46.66053805150239], [6.656385050922938, 46.660599815624565], [6.656383134386143, 46.66060493012622], [6.656227509500798, 46.66074140765147], [6.6561610109167395, 46.660748956461504], [6.656053106886655, 46.66085544585576], [6.656063121616216, 46.6609216349943], [6.65607957444753, 46.660950265390966], [6.6561360684720565, 46.66097305405559], [6.656327160266611, 46.660959615206636], [6.656352684115128, 46.66098354008317], [6.656353369225025, 46.661017369655596], [6.656397308846712, 46.6611786995805], [6.656234734436012, 46.66119881174469], [6.656181905416411, 46.66123767971125], [6.656177893336882, 46.661253035192175], [6.656196392240081, 46.66127484274239], [6.656241500454236, 46.66129080602866], [6.656372552320447, 46.66138103735767], [6.656342676186194, 46.66144092487739], [6.656315561313993, 46.66145459216426], [6.656270720605931, 46.66152823052221], [6.656271626202552, 46.66164590392327], [6.656360127009499, 46.6617060659733], [6.656305415169562, 46.6617575962954], [6.656361353916927, 46.66180161156464], [6.656393237741996, 46.66188252450418], [6.656384015315634, 46.66189676466677], [6.65639985910301, 46.66196650237505], [6.656418972301907, 46.661982016935404], [6.656602926384756, 46.66204652350655], [6.656702017858597, 46.66212430018748], [6.656757387145017, 46.66220762357511], [6.6568410217634595, 46.662288082598344], [6.656927595799439, 46.662401037166376], [6.6570375558185, 46.66232406779736], [6.657057741474273, 46.6622737391694], [6.657085979225185, 46.66227276372912], [6.657225444118985, 46.6623787048034], [6.657134005319936, 46.66240389489194], [6.657111375366482, 46.66241462451191], [6.6572728096752805, 46.66255454134189], [6.657265911297358, 46.662597764569256], [6.657019950548332, 46.66277230530734], [6.657028075959534, 46.66282471763302], [6.657041832847272, 46.662840195255356], [6.656970912044344, 46.66295521604062], [6.65690870032903, 46.662965223794735], [6.656851777795309, 46.662880810224145], [6.656844734927117, 46.66285287433635], [6.656828360014531, 46.66284673448716], [6.6567447272587, 46.6628922189143], [6.656718450105372, 46.66294718349759], [6.656721441251506, 46.66310131381859], [6.656647937751785, 46.66315109599853], [6.656645433198811, 46.66316161305906], [6.656749979226029, 46.663250852043824], [6.656848900665414, 46.66326843540889], [6.657001926700865, 46.66336655336851], [6.656998686016548, 46.66340081483227], [6.656926005897966, 46.663411821169845], [6.656918432374447, 46.66343849610374], [6.6569548294227285, 46.663460606459466], [6.656979111765337, 46.66346211372823], [6.6571311423973984, 46.663538814309064], [6.657228165327939, 46.66353417337238], [6.65725807550023, 46.66356209527776], [6.657269452391599, 46.66362550512454], [6.657318668152848, 46.66364671370106], [6.657344780938604, 46.663648152506575], [6.657613283208444, 46.66369468843739], [6.657654445604292, 46.66374867693845], [6.657675289414855, 46.66389736143822], [6.65759900961589, 46.66392228706708], [6.657581022143381, 46.663955268676254], [6.65762718600752, 46.664006781677756], [6.657671512340077, 46.664103963502235], [6.6577774621911185, 46.664087508714026], [6.658106539286828, 46.664138066576164], [6.658240824598922, 46.66431252903828], [6.658267736815657, 46.66438514009132], [6.6582882243415655, 46.664549537805684], [6.658414078843769, 46.664629484602806], [6.658486871541371, 46.66466586875688], [6.658571736593308, 46.66469785565369], [6.658700152765182, 46.664772404224294], [6.658767815864131, 46.664829191852306], [6.658787627134787, 46.664822760600565], [6.658896586830463, 46.664842210268006], [6.659060606194218, 46.66494966674409], [6.659191133447498, 46.66502288865294], [6.659258280006873, 46.665078404003836], [6.659297768902138, 46.66521128406318], [6.659280304054728, 46.665253346329735], [6.659222695653275, 46.66528011934458], [6.659225371793389, 46.665302897466006], [6.659308033886538, 46.665387036270694], [6.659370385721773, 46.66542263763369], [6.6594753909250715, 46.665543102153734], [6.6595054285107835, 46.66556237032513], [6.659581744246128, 46.66554500021054], [6.65960211672114, 46.665544959838634], [6.659718240475542, 46.66561132647957], [6.659731753279006, 46.66564470404904], [6.659643823026164, 46.66571616844823], [6.659629944717431, 46.66579127959205], [6.659488935659731, 46.665837362891615], [6.659473160790236, 46.665870989595966], [6.659547593686823, 46.66591971751665], [6.659687656843759, 46.666074768466736], [6.65972490272857, 46.66613781534472], [6.659800194857596, 46.66615425366476], [6.66001961916658, 46.66607128383719], [6.6600522747043485, 46.6660812320575], [6.660180755957293, 46.666106391461895], [6.660208849642132, 46.666124575613644], [6.660229181204855, 46.66616448585445], [6.660198270933226, 46.666241810520376], [6.660207065293577, 46.666284340515766], [6.660224522251146, 46.66630614024111], [6.660317373223667, 46.66638261159127], [6.660387476293651, 46.66645981764699], [6.660492805071863, 46.666513803289405], [6.660544559750464, 46.66657667027811], [6.660685379453112, 46.66661622603559], [6.660775521830311, 46.666708421319946], [6.660932628309775, 46.66680657085719], [6.6610306100335235, 46.66689890047443], [6.661064540692719, 46.667028863174494], [6.661059942653806, 46.66706678557653], [6.661017899990266, 46.66715493737257], [6.661065713110489, 46.66723747823269], [6.661256244873529, 46.6673277505018], [6.661336394040465, 46.66738813038742], [6.6614341643431505, 46.66750430642124], [6.66144512297798, 46.66758714397026], [6.6614202996056955, 46.66761396224368], [6.661365256739052, 46.66763399794871], [6.6613395456759115, 46.667695183619884], [6.661371076766019, 46.66774694588638], [6.661513113186085, 46.66780207202675], [6.661570854724185, 46.66779427119738], [6.661711058800804, 46.6677861428917], [6.661777029846603, 46.667805763830366], [6.6618093492925405, 46.667857261461876], [6.6617245648892744, 46.66796427398378], [6.6617064761883436, 46.66805060151325], [6.661746107486535, 46.66807533220545], [6.6619591582569155, 46.66805411723386], [6.661981898727823, 46.668072093483964], [6.661989991588051, 46.66809994627093], [6.661968793399956, 46.66812004239396], [6.661914981177481, 46.668208824801226], [6.661784191954958, 46.66825273146359], [6.661738669337565, 46.66831034555654], [6.661738669541803, 46.668346599218864], [6.661822827548868, 46.66835563917046], [6.661846860566991, 46.668374604718416], [6.661846289322481, 46.66840517806559], [6.661798178301373, 46.66844290241571], [6.661762541181967, 46.66853090930627], [6.661624547729857, 46.66868471519502], [6.66152394035211, 46.66875608537482], [6.661521393457486, 46.66877864772479], [6.661527363659891, 46.66879056315698], [6.661699061336264, 46.66890958297072], [6.661839350780946, 46.66891386953894], [6.6620701752533265, 46.66885652207442], [6.66218625713516, 46.66893557929418], [6.66218210343075, 46.66903342690465], [6.662300811894593, 46.66905717677555], [6.662360963790674, 46.66909986814531], [6.6626284165708505, 46.66920422877279], [6.66267800793861, 46.669264309301], [6.662777936860128, 46.66929449745165], [6.66280262147004, 46.6693136472833], [6.662853935068626, 46.669380297539405], [6.662915962544827, 46.66940168094554], [6.663031246096576, 46.669481892271726], [6.663070904695004, 46.6694948469265], [6.663238617101135, 46.66951973962622], [6.663496661204526, 46.66968703264894], [6.663687841152993, 46.6697967273795], [6.663752129912509, 46.66985995700597], [6.6637783396168135, 46.66992851380789], [6.663879898421411, 46.66999909500205], [6.664224156664562, 46.6701156066441], [6.664289957437182, 46.67014825108113], [6.664325847022028, 46.6702335071909], [6.664399341390673, 46.670321007103155], [6.664350386155181, 46.67038111768427], [6.664379745688816, 46.670447896463074], [6.66439026956499, 46.670461282110885], [6.664530102311597, 46.67050676370076], [6.6645965628451345, 46.67051990021155], [6.664749203772815, 46.67059263642371], [6.664717317894214, 46.67061985714041], [6.664684527851932, 46.670710043237094], [6.664731024613375, 46.67078475612389], [6.6647116017429076, 46.67081772894959], [6.664548612637699, 46.670874023003556], [6.664513304665543, 46.670912015536814], [6.664536150918224, 46.6709318722129], [6.664611323777321, 46.67097538431264], [6.664732608031708, 46.67103855131395], [6.664777255634025, 46.671041823688064], [6.6648046430348, 46.671054874224325], [6.6649517884930365, 46.671082673996096], [6.664975067089351, 46.67109973568642], [6.665061189022385, 46.671117962417384], [6.6651831319550805, 46.67111707337162], [6.6651964670960915, 46.67115314788345], [6.665173700199192, 46.67122882878901], [6.665102844479526, 46.67124869590799], [6.665066220770438, 46.67128730921161], [6.665075638804633, 46.67134134895813], [6.665107387884546, 46.6713965300453], [6.665187700123964, 46.67145536989275], [6.665182971615176, 46.67146613283976], [6.665233430876451, 46.67152890775461], [6.665304485889597, 46.671650026393074], [6.6653192551137375, 46.67173189990417], [6.665288312933455, 46.67178440577185], [6.665221781543352, 46.67186716592791], [6.665160563581387, 46.671907501424336], [6.665176036380662, 46.6719494376694], [6.665142482138224, 46.67209287468441], [6.665166887635456, 46.67221358624807], [6.6652119037624535, 46.67225500383288], [6.665262845218021, 46.672320660732865], [6.6652132677567915, 46.67245139449162], [6.66509552122812, 46.672478391317185], [6.665017985435406, 46.67254470389982], [6.664980031847385, 46.67270413270999], [6.664863979794416, 46.67287705500292], [6.664898508165393, 46.67291165437869], [6.664918336347287, 46.67291421818729], [6.664922143861955, 46.67290389882579], [6.665003744671317, 46.6729368391594], [6.665069226475908, 46.673036599648476], [6.665074043054358, 46.673065239468414], [6.665044416613503, 46.67318990155447], [6.665076555073022, 46.673208921652154], [6.6650950917600875, 46.67320131119473], [6.66513647255276, 46.67323199885118], [6.665224422429698, 46.67325058873447], [6.665321790199778, 46.67330504625805], [6.665496883630467, 46.67355335486022], [6.665548135766375, 46.67361568524661], [6.665722264448577, 46.673705388452575], [6.665832065355558, 46.67379519421421], [6.665917626121967, 46.67380639061183], [6.666068283150151, 46.67385509224367], [6.666213091274044, 46.673890619953404], [6.66632074770537, 46.67390214598521], [6.666403005667448, 46.67395415223251], [6.666492204997664, 46.67404984471523], [6.6664241817727605, 46.67410803634223], [6.666418880066082, 46.674140565660494], [6.666517630905387, 46.67429938447589], [6.666538329344511, 46.674350711724806], [6.666575047086855, 46.674396840263064], [6.666607406304782, 46.67442881544789], [6.666749325587294, 46.67441979296769], [6.6668393954855025, 46.67442832048387], [6.666978063959968, 46.674545938445554], [6.667011132395492, 46.674555788397825], [6.667195233238604, 46.674649515215734], [6.667271759534243, 46.674699421807766], [6.667303476535259, 46.674749834203126], [6.667416023833556, 46.67495858328015], [6.667424040697248, 46.6749920125498], [6.667546345262185, 46.67510348261995], [6.667672785178598, 46.67522740394625], [6.667761965486141, 46.67522422109397], [6.667853627800067, 46.675211977963386], [6.668005967070804, 46.67524305641303], [6.6681605006514015, 46.67533092275844], [6.66818183411921, 46.67535625588533], [6.668194168410655, 46.67538026860523], [6.668193675680345, 46.67557016949225], [6.668260656137486, 46.6756297264627], [6.668326906728176, 46.67563061573089], [6.6684154421734165, 46.675672596490784], [6.668461743748, 46.67571681018675], [6.668519330340368, 46.675811837205146], [6.668545000868066, 46.67589954142013], [6.668542831553357, 46.67598733607886], [6.668556581429146, 46.67602206349817], [6.6685821642711325, 46.67621653986608], [6.668668902611744, 46.67636609967274], [6.668693775740521, 46.67641816549811], [6.668694844373877, 46.67650804212246], [6.668686857204329, 46.676536505180614], [6.668691020003104, 46.67660193415691], [6.668643826320074, 46.67678567126533], [6.668661378469244, 46.676837876520715], [6.668672657992702, 46.67685342597587], [6.668647254446081, 46.67685676232999], [6.6686146538188895, 46.676869855724775], [6.668609146235446, 46.67688942970488], [6.6685790131491585, 46.676903619194654], [6.668512047930523, 46.67691603909942], [6.66829532112176, 46.676881287004115], [6.668126789423869, 46.676784878909395], [6.668034644769341, 46.67675754589548], [6.667725333061624, 46.67681769333501], [6.667669949795337, 46.67679707715671], [6.667528362370307, 46.67672676819052], [6.667334833162308, 46.676778982234126], [6.667038465147724, 46.67676573706541], [6.666903917037708, 46.67670590120527], [6.666708309953936, 46.67666589171422], [6.66654443442436, 46.67667350588638], [6.666416057429128, 46.67662999391187], [6.6661675190380185, 46.67658989410748], [6.666083699302548, 46.67660191963882], [6.666045444528219, 46.676580879152255], [6.665945642500953, 46.676604580325886], [6.6658735377646625, 46.67659257565931], [6.66554023365698, 46.67652114188989], [6.66549538010466, 46.67649546868687], [6.665303348748132, 46.67646141821263], [6.665113645689631, 46.67639265912441], [6.665660992455953, 46.67709589697731], [6.666285527891457, 46.67766805198588], [6.666547102609266, 46.67792072428016], [6.666682450843555, 46.67818952382987], [6.666753475727639, 46.67835921936341], [6.666721818886382, 46.67844321579857], [6.666911427245518, 46.67881225625943], [6.6669481783811335, 46.678975871876396], [6.667025528857804, 46.67899600749124], [6.667118611309144, 46.67912149324251], [6.667191541736834, 46.67914088808228], [6.66736949814757, 46.67941025421884], [6.6674749678140905, 46.67963020931565], [6.66750797774449, 46.67979056135167], [6.667636330137522, 46.68004655668914], [6.667773470897604, 46.68039183254957], [6.667733477649664, 46.680766242611206], [6.66774195019932, 46.68086930311752], [6.667803445681874, 46.68095635041883], [6.668047092419599, 46.68104751008943], [6.6681077005639064, 46.681013825772936], [6.668687175184901, 46.68161507875417], [6.668897103874028, 46.68187089506063], [6.668996916188871, 46.681985279150666], [6.669091537236688, 46.68218769801364], [6.669051868935526, 46.68243005008752], [6.668936940785127, 46.68270679759419], [6.668796857531542, 46.682868587317515], [6.668562227782579, 46.68325355608571], [6.668282989747218, 46.68351263893715], [6.668103437430537, 46.68375495208957], [6.668197413764995, 46.68414051556315], [6.66849535310237, 46.684468365669055], [6.668488129826117, 46.68471768392364], [6.668252273852996, 46.68527796865876], [6.668315029768725, 46.68531383747381], [6.6683988498889795, 46.68533014774746], [6.66848589782842, 46.68532183088509], [6.668550500883524, 46.68531992911394], [6.668622295036004, 46.68532707189213], [6.668716708696219, 46.68535217973266], [6.66881785599915, 46.68541835428155], [6.668827421022385, 46.68544423730895], [6.668854909101988, 46.68548742385896], [6.669054087818791, 46.6854535968839], [6.669294765183069, 46.685406367048614], [6.669436767484868, 46.68542190036419], [6.669525083934256, 46.68541628999253], [6.669655186520262, 46.68544127826389], [6.669792932990712, 46.68542619629391], [6.669980989358918, 46.68545724325024], [6.6700399714542185, 46.685492006048854], [6.670154571019817, 46.68554999416645], [6.670239043278854, 46.68554813570735], [6.670431361143396, 46.68557372305425], [6.6705703812342545, 46.68556008808888], [6.670608812146635, 46.68554181579863], [6.670715671626061, 46.68552840447036], [6.670776447077802, 46.68553826022244], [6.670836614071938, 46.685554130260755], [6.670928987580506, 46.68552984368029], [6.671058472255505, 46.685488157545215], [6.671090266389794, 46.685486123017235], [6.671156377927723, 46.68552516132795], [6.671201172261233, 46.68551899531861], [6.671302650183744, 46.68545203028973], [6.671315597960108, 46.685451577814945], [6.671344815323208, 46.68549279615634], [6.671434796605428, 46.68551715202186], [6.671531943028167, 46.68543305658329], [6.671537023844248, 46.68540673299851], [6.6715553804416245, 46.685402817533614], [6.6716923392842205, 46.68550638377483], [6.67177462118904, 46.685493084507144], [6.671882791885569, 46.6854517933638], [6.672038020384502, 46.68550249670175], [6.672106354311846, 46.68546806181669], [6.672255752487391, 46.68545996408051], [6.672391303742033, 46.685478778734335], [6.672409829290881, 46.68546298070123], [6.672522807990655, 46.68548803031428], [6.672584173840947, 46.68547476964979], [6.67262692195091, 46.685437814264084], [6.672719004378619, 46.685433936056896], [6.672889453550402, 46.68548986824052], [6.673006278096974, 46.685474281975566], [6.67308936869263, 46.68550524713575], [6.673107189231476, 46.685557453162296], [6.673160795616005, 46.68560270340689], [6.6732706670224085, 46.6856164865965], [6.673327631984895, 46.68565537218598], [6.673396901125034, 46.68571152275105], [6.673540109463738, 46.68574352154484], [6.673595700442875, 46.68576871489419], [6.6736963554133135, 46.685796379314795], [6.673841332692134, 46.68580509031448], [6.673936402849425, 46.68594075806444], [6.67422833104391, 46.68603195856058], [6.674328117684946, 46.686074819722585], [6.674372136769666, 46.6862062759555], [6.6743284369203195, 46.686282717532926], [6.674371017624163, 46.68630360402013], [6.67441888681137, 46.6863202980485], [6.674475936428882, 46.68631645302115], [6.674512801599106, 46.68637166557311], [6.674540368531759, 46.68642807510026], [6.6746195956392045, 46.686464320805484], [6.674685732710025, 46.68648338641788], [6.674673009163119, 46.68654177457125], [6.6747157100349055, 46.68659108876536], [6.674759612965859, 46.68662017034496], [6.6748111176631175, 46.68662942212112], [6.674868492221086, 46.68664878858717], [6.674879186421064, 46.68668745284393], [6.674903765855574, 46.686714875265324], [6.674968480149003, 46.68674211734565], [6.675017889548489, 46.686834657037295], [6.675059144911962, 46.6868937761411], [6.675062005189865, 46.68697790717897], [6.6751021506985335, 46.6870323319298], [6.675158383245123, 46.68705852750195], [6.675245546934027, 46.687126131893955], [6.6752923143996306, 46.687147765895844], [6.675459252340356, 46.687202051452914], [6.675527479747137, 46.687193593987075], [6.675595045488434, 46.6871774047745], [6.675665575541223, 46.68717158049305], [6.6756793473453495, 46.68717850974472], [6.675703841515358, 46.68726647397306], [6.675644575940646, 46.687307646594284], [6.675637492567083, 46.68734628147004], [6.675682056549766, 46.68739245937427], [6.675766604696268, 46.68743251828094], [6.675997217190897, 46.68750458305358], [6.676012520232863, 46.68755111352098], [6.676093497800796, 46.687546069760884], [6.676199982118439, 46.687494697375016], [6.676210144984383, 46.68749800396976], [6.676322737756863, 46.6876061688412], [6.6763335497884615, 46.687682796574656], [6.6764756933478795, 46.6876981420607], [6.676623031219108, 46.68767897793607], [6.676729091848818, 46.687722238596535], [6.676827326486503, 46.6877541122542], [6.6770184868059355, 46.6877698751449], [6.677095775114702, 46.687786315146404], [6.677180017326179, 46.68779263627326], [6.677253892960595, 46.68774437273297], [6.677364811622162, 46.687758428741866], [6.677403030032916, 46.68775607565269], [6.677453581168705, 46.68773113520594], [6.677478732039348, 46.687634957359606], [6.6775030772385096, 46.68757637707845], [6.677527016366809, 46.68755764594693], [6.677716779079074, 46.68754272181972], [6.677791172086886, 46.6875790226085], [6.677824255060531, 46.68760614170758], [6.678157027222498, 46.68765640410298], [6.678239382798777, 46.68765560508417], [6.678272012103007, 46.68766949697428], [6.678299759815363, 46.687675439770466], [6.6784809897651725, 46.68765380074674], [6.678595939402828, 46.68764251399948], [6.678610931748071, 46.68764450326725], [6.678683763441837, 46.687661812062466], [6.678762019686472, 46.68770326606043], [6.678858454019405, 46.68778037515372], [6.679043687980045, 46.687779812581496], [6.679149227622255, 46.68779527029105], [6.679189671168245, 46.68782981467252], [6.679220287671134, 46.6878733792316], [6.6792295564852955, 46.68790303759783], [6.679221495648788, 46.68792772245605], [6.67928470825849, 46.687997772583344], [6.679422366819308, 46.68805320626777], [6.679506309325531, 46.688098475927006], [6.679604473907072, 46.68817352692122], [6.679678901186645, 46.68821684387761], [6.679701971231745, 46.68824956290043], [6.679745324589367, 46.68826226647512], [6.67978960243035, 46.68830214366954], [6.6798161684491175, 46.68831869329637], [6.6797783057140485, 46.688380242705236], [6.679853738124004, 46.68845433233172], [6.680078853576995, 46.68863062378463], [6.6803511965906255, 46.68868380557451], [6.680572542879593, 46.688700753356656], [6.680732096326884, 46.688724036077915], [6.680766545850207, 46.688812155649686], [6.680684864064578, 46.688921991382415], [6.68065550879959, 46.68903955228532], [6.680689663748026, 46.689092855705105], [6.680835899940371, 46.68918936621428], [6.680956926209318, 46.68923794039846], [6.68105487142071, 46.689310289925444], [6.68116622220052, 46.689377600937874], [6.6814254454517235, 46.689462358396064], [6.681475672264946, 46.68945117783132], [6.6815068534786075, 46.68937195139975], [6.681505273153666, 46.68934486318514], [6.681463538566445, 46.689254086580945], [6.681396453529023, 46.68913462423188], [6.6814251601299235, 46.68903613010488], [6.681562591958254, 46.688949874142004], [6.681680770279631, 46.688931319187475], [6.6817669277035066, 46.68894943430409], [6.6818778271257155, 46.68900234808979], [6.682176129893311, 46.689190097053846], [6.6822374151846695, 46.68930376290668], [6.682243004103183, 46.68938989094231], [6.682229460138458, 46.6894420672199], [6.68243859629954, 46.68963066200666], [6.682506182946953, 46.689733214643404], [6.6827896334226455, 46.68981525129581], [6.682876018136223, 46.68979864276479], [6.682987431240655, 46.689815125344445], [6.6831079239875795, 46.689864683050835], [6.683148163920528, 46.68989445675755], [6.683190944654082, 46.6899667979936], [6.683246075787445, 46.69008231164442], [6.683386452475883, 46.69019632203557], [6.683615110311371, 46.69029841363524], [6.683731678988273, 46.69035757026864], [6.683928803003165, 46.690387034997975], [6.684012602628296, 46.69037769526119], [6.684089300172968, 46.69038072265925], [6.684108344734205, 46.69039308333825], [6.684118435009186, 46.69044739560984], [6.6841439785746015, 46.69048111971183]]]]}}]}