{"type": "FeatureCollection", "features": [{"type": "Feature", "properties": {"bfs_nummer": 5559}, "geometry": {"type": "MultiPolygon", "coordinates": [[[[6.59482608585023, 46.82514127121496], [6.595408016205591, 46.825133446953394], [6.595951562606782, 46.8250726924508], [6.596030715541669, 46.82511500886196], [6.596092824983992, 46.825290625917454], [6.596128616555389, 46.82533252308126], [6.596474841539271, 46.82549403605776], [6.5969856461365675, 46.82545786347393], [6.597068246244568, 46.825439140589864], [6.597240812499799, 46.82544185258301], [6.5973095925504435, 46.82545198535061], [6.597574772022812, 46.82551638066408], [6.597749318492898, 46.825576841947786], [6.5979690522249355, 46.82568110395787], [6.5981337520341725, 46.82572594722826], [6.598422079572457, 46.82576099570946], [6.598643516349389, 46.8257564100293], [6.59892768322969, 46.82570461647444], [6.599199671163795, 46.82563537060323], [6.59968691235069, 46.82546217652224], [6.59988281282503, 46.82540577339495], [6.600111325272933, 46.82535077904418], [6.600285691972876, 46.82528845959763], [6.600530057625471, 46.82521692953287], [6.600617110607579, 46.82518149553362], [6.600812277637256, 46.82512156807364], [6.601075791106764, 46.825049115962535], [6.601367227797273, 46.82501822213558], [6.6015192823666435, 46.825008272905166], [6.601929270620945, 46.8249726879947], [6.602206294585369, 46.82500970409169], [6.602305825140629, 46.82501457178154], [6.60251842838524, 46.82500470523906], [6.602793333777749, 46.82497487411512], [6.603155636080041, 46.82496321533075], [6.603579159544278, 46.82481554524932], [6.603691357732761, 46.8247895586973], [6.604051728033672, 46.824665884464686], [6.604366502971404, 46.82459190165369], [6.604628918848281, 46.824623497523184], [6.604855880026228, 46.82467642367617], [6.605122800646152, 46.82468970875416], [6.605373060880291, 46.824660051175535], [6.605546805841243, 46.82460347655022], [6.605868631346932, 46.82454797362544], [6.60603293466274, 46.82455007237414], [6.606262595374848, 46.82457261849781], [6.606462835736034, 46.82462463582101], [6.6067818731843415, 46.824742460119474], [6.6072187030395355, 46.82491151869239], [6.60758126487939, 46.8250186020854], [6.607770110897004, 46.825045705598434], [6.607996474253726, 46.82506129735364], [6.608256214829468, 46.82500334759099], [6.608405453662555, 46.8249465003097], [6.608556964860623, 46.82486978855422], [6.608677843904472, 46.82480769694536], [6.608953071904436, 46.82463778787419], [6.60904959726752, 46.8245656233633], [6.6091566345232255, 46.824448366955], [6.609368711806189, 46.824344927021286], [6.609595888255774, 46.82432462801551], [6.610029103989299, 46.82436374950877], [6.610401531908516, 46.82428144293879], [6.610652672216794, 46.82416029236978], [6.61087911120419, 46.82402609805744], [6.611037351089966, 46.82389500695442], [6.611168199420584, 46.823754532209634], [6.611475959455321, 46.82332631226515], [6.611548271809229, 46.82323462903276], [6.611669130823864, 46.8231563325511], [6.612119484648307, 46.82289772668271], [6.612627276509457, 46.82269619984459], [6.613113541725762, 46.82251368519258], [6.613493647338968, 46.82236547556461], [6.613844639142544, 46.82223550472337], [6.614915808892979, 46.82182069963264], [6.615386688040306, 46.821511402962535], [6.615554116261107, 46.82142948909428], [6.6156992250974405, 46.82141954295655], [6.615955914730176, 46.82141366682122], [6.616246356744829, 46.82143734188946], [6.616340954912711, 46.8214044692405], [6.616474869699198, 46.82137152005549], [6.616629352331932, 46.82128761346427], [6.616676894689243, 46.82117811671064], [6.616899123672877, 46.821094616888296], [6.617067855467932, 46.821081528732016], [6.617339156467175, 46.821105611990504], [6.617803334054685, 46.821174612796625], [6.6182461715769465, 46.82130328112555], [6.6186473849663106, 46.82138496911939], [6.618950637983653, 46.82141080739429], [6.619263119612904, 46.82136427661728], [6.619762360927817, 46.82113631704239], [6.620173561342856, 46.82098389150157], [6.620465791710271, 46.82095891017136], [6.620757256872092, 46.821002291004966], [6.621016875959902, 46.821079348139726], [6.621342079412962, 46.82121292769587], [6.621793188678648, 46.82130664774583], [6.6221653748240765, 46.821324784815864], [6.622487678671071, 46.821286241006945], [6.622662357882704, 46.821253387214725], [6.622870951255588, 46.8211869693552], [6.623198104046006, 46.821010102081345], [6.623340577581164, 46.82100005542995], [6.6237874399429355, 46.82112333364897], [6.623929417256578, 46.82117976195889], [6.624186191475457, 46.821351517714135], [6.6245358209872585, 46.821568923835734], [6.624820647388698, 46.821670350843824], [6.624997475158208, 46.82170246783606], [6.625210619107028, 46.821716312089556], [6.625415007248681, 46.82171120222108], [6.625622197319103, 46.821720127536594], [6.625277843570443, 46.820589075126264], [6.62694269515736, 46.820347223170174], [6.627916709029093, 46.8203008756433], [6.6284608561974006, 46.82034223569694], [6.628651493696435, 46.82038829852518], [6.6286964763131175, 46.82047308845739], [6.629021572467178, 46.82044165301041], [6.630570756136657, 46.82055265485326], [6.6307821709470405, 46.82055927114779], [6.630461958304116, 46.8191531391221], [6.630095332118608, 46.81919399144942], [6.62935984848687, 46.819239252632215], [6.6290643370535705, 46.819214144709456], [6.628877366548787, 46.81917718531252], [6.628388444302757, 46.81901125840491], [6.627886132840393, 46.81881140086251], [6.62760554500348, 46.81865636948664], [6.626063344365261, 46.8171095622817], [6.626061690422425, 46.81704558995283], [6.62400613346504, 46.81569868913701], [6.624909623277896, 46.81335865676138], [6.625598258493437, 46.80928640099608], [6.625441151088182, 46.80902638851667], [6.626216782602335, 46.8084481920231], [6.62639617419202, 46.808333782866434], [6.626594834326492, 46.80822742702378], [6.62680378395904, 46.80813373826693], [6.62701976897095, 46.808059989059124], [6.627246234573919, 46.807994940952284], [6.627924358344336, 46.80786663320382], [6.627950737582249, 46.80753344269986], [6.627691059544713, 46.80755084771123], [6.627497548272705, 46.80768097309451], [6.627028935255089, 46.807660997006664], [6.626474608009855, 46.80747812375434], [6.625995698716573, 46.80737755733779], [6.625377556900462, 46.80755000110408], [6.624914302433583, 46.80768685242148], [6.624270234833095, 46.80782403024013], [6.623772042186596, 46.80786168218918], [6.623825664990915, 46.807782362247735], [6.624047473302035, 46.807653057127396], [6.624116113325054, 46.80755882112279], [6.624159842016703, 46.80746575662938], [6.62418435214764, 46.80735267402974], [6.624176571715249, 46.80726086083201], [6.624104029030581, 46.807085193646635], [6.621607686998241, 46.80613229981874], [6.62085338940276, 46.8058502080103], [6.619653833633145, 46.805392932076614], [6.619576616722114, 46.80535323668058], [6.6195210088622325, 46.80460799815838], [6.619485272168734, 46.8044856766365], [6.619123943841982, 46.803510933762006], [6.619027184733763, 46.8031883752886], [6.619004403364301, 46.80286858841721], [6.619060034789896, 46.80256133861196], [6.619080894042774, 46.802482055022644], [6.616444496255234, 46.8018161129809], [6.616303810405761, 46.80186582631204], [6.615326353489653, 46.80505875791588], [6.615297975703577, 46.80508104277671], [6.615251850752259, 46.80508160939548], [6.61523535253198, 46.80511522482106], [6.6089469136419865, 46.80352430289783], [6.608907887759106, 46.80353184543461], [6.608878243954803, 46.803551150818976], [6.608029857262311, 46.80631207371818], [6.607782252813153, 46.8071260082739], [6.607789080678543, 46.80720135354473], [6.60764673551644, 46.80712979788707], [6.607358005516743, 46.80694805522549], [6.607129383227533, 46.806836926840965], [6.606886873449512, 46.806742779807784], [6.60663114144906, 46.806665798968496], [6.60466007062083, 46.80624073241756], [6.601759388325697, 46.80559455914469], [6.597789464644767, 46.80471727314812], [6.597207412368522, 46.80557768607793], [6.596861262574318, 46.80608061191859], [6.596504426097365, 46.80660460724424], [6.597183322346567, 46.80700830473737], [6.5970706678255695, 46.80704049755701], [6.597037449248621, 46.806994823247194], [6.596973282032381, 46.80696772198147], [6.596891238339394, 46.80698618788532], [6.5968468162248515, 46.80702013448188], [6.5968152236634, 46.80702961691487], [6.59676607099749, 46.80700586477756], [6.596713587128343, 46.80701078502626], [6.596692855125448, 46.80704625578453], [6.596607575556465, 46.80703708017965], [6.596541343458259, 46.80704144905361], [6.596453474882956, 46.8070219089318], [6.596431183364613, 46.80703982608821], [6.596340191785961, 46.80706074439174], [6.596287731792769, 46.80705576909631], [6.596240938737279, 46.80705704290011], [6.596190278763078, 46.80707933835661], [6.596127971095362, 46.80707572966591], [6.596090476002942, 46.80711071662205], [6.595984648784938, 46.80710849561902], [6.595953281091297, 46.80712869350735], [6.5959164736879705, 46.80712815172387], [6.59583770663662, 46.8070879878616], [6.595657492669083, 46.80708377736767], [6.595582054223511, 46.807056951861696], [6.595469531883444, 46.80705558042732], [6.595431599278577, 46.80704324553162], [6.595302750918615, 46.80704697090578], [6.595134928180054, 46.80702126140483], [6.595077126497107, 46.80703108938636], [6.59501112277775, 46.80707099269797], [6.59499904842751, 46.80710571747701], [6.59496172573235, 46.8070962656017], [6.594921421595417, 46.80706808026201], [6.594876748487211, 46.807067839824796], [6.594855510178784, 46.80712714558013], [6.594795688453765, 46.80713210059029], [6.594758189011312, 46.807100517414995], [6.594699615268427, 46.80710943988933], [6.594630785629144, 46.80714572377109], [6.5945960082441655, 46.80717444220556], [6.594532630092545, 46.807205638795374], [6.594451079644808, 46.807259370487614], [6.59437323314942, 46.807327522965096], [6.594356821857873, 46.80737975759699], [6.594386225908433, 46.80740957176575], [6.594325278535122, 46.807477849317436], [6.594336739729696, 46.80749889456856], [6.594327076957852, 46.8075218525629], [6.594259268154834, 46.80755148692824], [6.594261519947711, 46.80759999152839], [6.5942827806561715, 46.807631094814724], [6.594313154470492, 46.8076492215741], [6.59433106389166, 46.80768515786105], [6.594327450154027, 46.80773172975768], [6.594351759369296, 46.807760606654405], [6.594403182879418, 46.80777322179522], [6.5944068852821145, 46.80779609875291], [6.594384701890595, 46.80783209803539], [6.594435468762044, 46.80788653913021], [6.594432121738957, 46.807924477044864], [6.594467561622963, 46.80797043860575], [6.594575233805286, 46.80803051845641], [6.594589278292587, 46.80806228791188], [6.594645598049317, 46.80813026388767], [6.59474621264382, 46.80821431048179], [6.594784141460043, 46.80823528171255], [6.594839840714215, 46.80829272772784], [6.594886516772895, 46.808332385068816], [6.594908448444258, 46.808370869852105], [6.594918585669522, 46.80840117107047], [6.594939988452641, 46.80841491319126], [6.594979789913106, 46.808425103136926], [6.595078627652104, 46.80852227055066], [6.595104691908332, 46.808531189307246], [6.595183142007572, 46.808524842654606], [6.59519788097302, 46.80852072359245], [6.595225153962214, 46.80852776217622], [6.595240332486676, 46.80852067769192], [6.595266947612201, 46.80852789128886], [6.595317730349912, 46.80857306635307], [6.595359019198066, 46.808597030803476], [6.595369321586419, 46.80862517419446], [6.596594933283834, 46.809099578431564], [6.596255967598181, 46.80986217614269], [6.596571043878074, 46.80994149845563], [6.596114211630505, 46.812369221497946], [6.596091748333951, 46.812439763343754], [6.5951646403671065, 46.814390330224455], [6.595216632553272, 46.81445899353596], [6.597512740599223, 46.81499744783334], [6.59753007390795, 46.8150202452897], [6.597301219026651, 46.81554358512505], [6.59817243088511, 46.815731814209684], [6.5979316564118236, 46.81623743531666], [6.597493351887466, 46.81621083305508], [6.596330229707188, 46.816018563965144], [6.595894859868392, 46.816089132837], [6.595481796980502, 46.81618945244056], [6.595260598029645, 46.8161897154182], [6.594989472805071, 46.81612401976784], [6.594158418088019, 46.817166216368406], [6.593662693781282, 46.81789939727041], [6.59325267702006, 46.817774015843895], [6.593169752993192, 46.81778816355909], [6.591535080831773, 46.82026355552915], [6.5954827270629295, 46.82153428332387], [6.595011812626685, 46.82224759210594], [6.594254131049311, 46.822886081851294], [6.594156921005633, 46.82300158003925], [6.5942502131291905, 46.82296863487698], [6.594364248594005, 46.822992597950645], [6.594801129480087, 46.8230390099604], [6.594678486774276, 46.82338037623557], [6.59469021720556, 46.82341788577571], [6.59466786846592, 46.82356417290206], [6.594690692342349, 46.82360464317519], [6.5947113371186425, 46.82362530640584], [6.594715760772961, 46.82368578196422], [6.594752074012239, 46.8238186483756], [6.594891856763883, 46.82412346813987], [6.594980991258384, 46.824766138879255], [6.59482608585023, 46.82514127121496]]]]}}]}