{"type": "FeatureCollection", "features": [{"type": "Feature", "properties": {"bfs_nummer": 562}, "geometry": {"type": "MultiPolygon", "coordinates": [[[[7.765101260664945, 46.631922867635254], [7.765463383831526, 46.63198057183044], [7.765800360651968, 46.63198046967863], [7.7666752047928735, 46.63175569267018], [7.767714017235948, 46.63165554726114], [7.769265915499713, 46.63173395602706], [7.771035287736763, 46.63127902634745], [7.772497184877717, 46.63044123846629], [7.772981404255686, 46.63026453261879], [7.7736908975017895, 46.62998386786244], [7.77425482864399, 46.630015800735684], [7.774427766296145, 46.630031960626816], [7.775883781140988, 46.62921452830159], [7.7756949270644435, 46.62907473427749], [7.775719526667158, 46.62859190274321], [7.775994849612255, 46.62833601810689], [7.776425467184044, 46.628078360121314], [7.7768153405425045, 46.627889673636496], [7.776905345578721, 46.62767398086741], [7.777092536420585, 46.62744990306037], [7.777211620592654, 46.62728903147042], [7.777393394018379, 46.626934118492045], [7.777411381936036, 46.626693028854014], [7.777508055739245, 46.6265026107132], [7.777645610844028, 46.62637485052993], [7.778420217163502, 46.626236777090234], [7.778714950122504, 46.62620632187813], [7.779270091364071, 46.62620846161484], [7.779490487144748, 46.626050975666395], [7.779854625563329, 46.6258558086936], [7.779723918259049, 46.62519364390538], [7.779645624573784, 46.62466005913648], [7.779895858932717, 46.62399873664556], [7.782383043699517, 46.62388021231919], [7.784295565555115, 46.62363699124357], [7.787726374289436, 46.622888032733364], [7.788100747677074, 46.62281754452949], [7.788215604765753, 46.622813325688945], [7.7884423169364325, 46.6227807707134], [7.788561471122614, 46.62279296444665], [7.788963192882611, 46.62274440914404], [7.789513091552129, 46.62264131691241], [7.789648479070033, 46.622567497719345], [7.790152153865112, 46.622470345809646], [7.7903216993130115, 46.6224756086008], [7.7909696399257005, 46.622588559725365], [7.791353559690656, 46.622599951239394], [7.792273155099232, 46.622483140810125], [7.792621595633703, 46.62242798852451], [7.7931813440925595, 46.622335451934894], [7.79356771718874, 46.622193238571526], [7.793579663919799, 46.62199018685921], [7.793723532964834, 46.621425296447796], [7.793717703218729, 46.62130486232847], [7.793646381141667, 46.621237733016144], [7.793736901254539, 46.6210888338651], [7.79375038090919, 46.62088678444634], [7.793857331294896, 46.620691137759984], [7.793831045179798, 46.62060483450683], [7.793870411939806, 46.62043033894523], [7.793742362725468, 46.620317257308876], [7.793805485441396, 46.62008795994328], [7.793849656774705, 46.619877771994716], [7.793897255489352, 46.619833617085405], [7.793936901369652, 46.619646237379065], [7.793807131510898, 46.619390432318205], [7.7936908120467345, 46.619224193831684], [7.793769349351696, 46.619092224549846], [7.793832625644962, 46.61900215129567], [7.793998059248373, 46.61893966452207], [7.794087616691858, 46.61876233156173], [7.794218535920704, 46.61865891357599], [7.794406906169362, 46.61864598450714], [7.7944447384632864, 46.61848086691554], [7.794496092906737, 46.61835301241178], [7.794681439074594, 46.618118770633494], [7.794838248525673, 46.617811635964294], [7.794970184370469, 46.61756764792431], [7.7951891835829485, 46.61735931672007], [7.795262080913762, 46.61707953894693], [7.795283470401259, 46.616836678016895], [7.795240743791167, 46.61673193146809], [7.795241186313405, 46.616567201413694], [7.795152639729848, 46.61653822410929], [7.795130214793145, 46.61638404574043], [7.795209682772345, 46.6162158673128], [7.795254736686908, 46.61596221222574], [7.7952987556874165, 46.61584697528942], [7.795312068373568, 46.61560644558863], [7.795518668424788, 46.61556450786785], [7.795819516202763, 46.615472123565546], [7.796057205185941, 46.615359993390555], [7.796212388619588, 46.615224282271285], [7.7963812805152, 46.615051232688415], [7.796491883254941, 46.614822827262145], [7.796661280602679, 46.614724565726284], [7.796814120509996, 46.61470078558238], [7.79701668653429, 46.61454303942843], [7.797155174437147, 46.61453814213305], [7.79727247962611, 46.61451614803673], [7.797635374500226, 46.614352263313094], [7.798157848964955, 46.61414429686319], [7.79822054328262, 46.61405318756566], [7.7985241978700275, 46.61392542552727], [7.798852942009955, 46.61390179809261], [7.798977630280985, 46.61386764250007], [7.7991488466770615, 46.613792795826996], [7.799427923937793, 46.613791578795535], [7.799574523950064, 46.613705628294404], [7.799845887270796, 46.613499135706064], [7.799982533013551, 46.6134416875752], [7.800139735220198, 46.61342657208088], [7.8004425066555605, 46.61328076572216], [7.800792406819953, 46.61314933733579], [7.800885919623382, 46.61299403719655], [7.800980357862858, 46.6129030168307], [7.8011209441999245, 46.61282987741418], [7.801521618508333, 46.612575494841415], [7.80189345341814, 46.61237953972884], [7.802199789080873, 46.61235393588933], [7.802408562515894, 46.61235983951198], [7.802702470785675, 46.61229339851722], [7.80294844119781, 46.61213146722996], [7.803137730384321, 46.612045216660086], [7.803348038971679, 46.61198271023351], [7.8034895714888775, 46.611975251395435], [7.80366749882962, 46.61201250986392], [7.8037417372455735, 46.61197584049489], [7.803843693374443, 46.61194170974202], [7.803931198812546, 46.61187854225245], [7.8040370897925, 46.61182601103911], [7.804242977044352, 46.611787517940634], [7.804284087616059, 46.6117397367972], [7.804337722524647, 46.61170050678324], [7.80454037561683, 46.61163365077682], [7.804831120284977, 46.61146315339175], [7.805724703391727, 46.612211631209874], [7.807449442261851, 46.61225099535874], [7.807572308454968, 46.6118925843073], [7.806216875578658, 46.61011685994031], [7.806454946384538, 46.60846815088966], [7.805770914723478, 46.6080808922041], [7.8057652148581855, 46.607863926074614], [7.805871297075782, 46.60767542337261], [7.805875424434352, 46.60760071927152], [7.806052030143369, 46.60748734596081], [7.806097885681094, 46.6073681861854], [7.806156954090949, 46.60732663344369], [7.806185322861784, 46.60723694575089], [7.806248744628794, 46.607196297644094], [7.806302727957919, 46.6070955020243], [7.806401973094982, 46.60698283627598], [7.806418272000185, 46.606926498134456], [7.8064948957325, 46.60682147006395], [7.806618688631467, 46.60678729145123], [7.806734977833592, 46.60672833636474], [7.8069066206183155, 46.60652674068756], [7.80701893539744, 46.606472629612], [7.807251102890224, 46.6063459537561], [7.807303584852283, 46.606266768611604], [7.807272960862813, 46.606225965135664], [7.807631963503677, 46.606021704725535], [7.80768195630065, 46.60602017505155], [7.807871861525199, 46.605904441479], [7.80795789458709, 46.60580927829418], [7.808034265989262, 46.60576560869252], [7.808118655716289, 46.605672743482934], [7.808163738663393, 46.60553864494616], [7.8081002971383775, 46.60547612533744], [7.808296393470899, 46.60538773108657], [7.80854263407379, 46.60541770868305], [7.808706737912763, 46.60537903634294], [7.80885982000806, 46.60529582445973], [7.808985745053452, 46.60518076707655], [7.809234083667627, 46.6051282733411], [7.809429030768201, 46.605019414399365], [7.809582323974802, 46.604864067755294], [7.809583002174616, 46.60476872923355], [7.809732931955706, 46.60466001643791], [7.8097437844408155, 46.60459038217], [7.80982571442812, 46.60452968350876], [7.8098534098409695, 46.60448572165264], [7.809782605341, 46.60441748651808], [7.809851340204197, 46.604377969477795], [7.809957972737629, 46.60422530799263], [7.810003055450477, 46.60409211636939], [7.809988257833283, 46.60378407293628], [7.80999092816819, 46.603688027269975], [7.810034771394514, 46.60361780918079], [7.810023593692751, 46.6034930954433], [7.809885209520515, 46.60334305878562], [7.809857560387618, 46.60325263531035], [7.8096760076412615, 46.603074709133665], [7.809502886726621, 46.60296729848391], [7.8094260893671406, 46.60290408445014], [7.809541084860803, 46.602848619610974], [7.809607049139864, 46.602795554729475], [7.809704375980858, 46.602694836513955], [7.80973053788401, 46.602625376153505], [7.809789961404862, 46.60258542121646], [7.809847554477588, 46.602525960620916], [7.809933710160941, 46.6024027526517], [7.810044227930056, 46.60218551526776], [7.810126452880575, 46.602119074856695], [7.810228484204026, 46.6020764632712], [7.810413325162736, 46.60205058497581], [7.810570249722402, 46.60198873351612], [7.810717373344003, 46.6019574717327], [7.810834210243372, 46.60198029105148], [7.810878653332388, 46.60194843637233], [7.810851085025409, 46.60157541484206], [7.810913709833703, 46.60152097590568], [7.811088786712514, 46.60143263456322], [7.811167989566373, 46.6013786186784], [7.811277455891428, 46.60125398767729], [7.811342388579418, 46.6012315657876], [7.811413044318157, 46.601185457560696], [7.81156882734521, 46.60110060561478], [7.811721044296128, 46.600992762059086], [7.811811188607829, 46.60096622671996], [7.812018312551151, 46.60081884723982], [7.812132427884844, 46.600710346238905], [7.812296036231931, 46.600527888909866], [7.812357947547135, 46.600491469976866], [7.812486590880589, 46.60038337182419], [7.812682814291317, 46.60030802770945], [7.8128021352922286, 46.60022418417476], [7.812853596241271, 46.60015997612099], [7.81294163396205, 46.60008756926237], [7.813017602303685, 46.600036404390046], [7.813072950472707, 46.5999494056667], [7.813203332273989, 46.599810013958596], [7.813225624150832, 46.599740287588446], [7.813237476594249, 46.59961978802138], [7.813350120672331, 46.59955392193113], [7.813521847881284, 46.59953732963304], [7.813648129148649, 46.599471409406355], [7.813755594609731, 46.59945321832742], [7.813836997192197, 46.599480199163175], [7.814136320838638, 46.59948975105097], [7.814284851313537, 46.599461125962904], [7.814421657804087, 46.59933584577101], [7.8145752969599105, 46.599270171537455], [7.81469087746698, 46.599274271140814], [7.8147786892868885, 46.59910171046097], [7.814597834598558, 46.59886289883288], [7.814884527676449, 46.59867074986396], [7.81497169360537, 46.59856006716584], [7.815093421394442, 46.598530824476455], [7.815240594302731, 46.59834319378751], [7.8153496496252925, 46.59817678354232], [7.8154025354035435, 46.59814745432033], [7.815482507992248, 46.59803649083895], [7.815455452683151, 46.5979948593233], [7.815468059050584, 46.59796288330597], [7.815558812143615, 46.597914213206245], [7.815625158353929, 46.59784824472113], [7.81562661215233, 46.59779831434989], [7.8158805398783295, 46.59763233264557], [7.816074788224245, 46.597487032039], [7.816104504467885, 46.59742523314545], [7.8160507418094305, 46.59736401623776], [7.816134648444714, 46.597299383350716], [7.8162692430671905, 46.59727599037462], [7.816484843112925, 46.59725665616038], [7.816784201401677, 46.597155193317285], [7.8168296699842506, 46.597091625114274], [7.816869332148766, 46.597069481818906], [7.817005437391402, 46.59704376320206], [7.817102902164721, 46.59701832480795], [7.817128110685649, 46.5969559024048], [7.817215560323382, 46.59691668815016], [7.817333294425267, 46.596800021416506], [7.8174690978317285, 46.59676127616348], [7.817802355944359, 46.59661704864602], [7.817775779362884, 46.596386900537105], [7.817749984209077, 46.596079999112646], [7.817732798365113, 46.596033530530704], [7.817714818808346, 46.595875455631436], [7.817612506249672, 46.595722293983144], [7.8175357778161745, 46.595366724326425], [7.817443629332062, 46.59522050997001], [7.817307810894803, 46.595097703412556], [7.817296741779902, 46.59496285906493], [7.817332121721979, 46.59471853672174], [7.817289293880356, 46.59438612013626], [7.8172580998772885, 46.594267607594354], [7.817155663456885, 46.59409586299726], [7.8171511663997695, 46.593937716975574], [7.817052655184014, 46.59384036083577], [7.817028147550734, 46.593714864440265], [7.816987023002158, 46.593624297900504], [7.816975549642745, 46.593431307744254], [7.817018631294167, 46.59332185870225], [7.816979169635472, 46.59298708276968], [7.81679662325101, 46.59293652100431], [7.81670278359954, 46.59292673059835], [7.816518856255114, 46.59292330928567], [7.816293496407604, 46.592863585739536], [7.816298791866791, 46.59278651092937], [7.816160688127846, 46.592761591304], [7.8159739934347146, 46.592718579560746], [7.81584043232162, 46.592656633724665], [7.815539922542264, 46.59257417308899], [7.8150846530635585, 46.592294928463154], [7.814649179272031, 46.592140811458165], [7.814337157679411, 46.59198391936667], [7.813967686868318, 46.59182745020666], [7.813597893433992, 46.59157162049068], [7.8132124206836515, 46.59143653886682], [7.812916742052736, 46.59125280053775], [7.812927049528498, 46.591152688458095], [7.812691565156329, 46.59087247817217], [7.812476489269176, 46.59070530426877], [7.812268799903247, 46.59061563964133], [7.812235467779898, 46.59052017880671], [7.8115672516588965, 46.5901289897805], [7.811012512134242, 46.58978271317728], [7.810681221214384, 46.5897214362665], [7.81014283143925, 46.589503128656595], [7.80998982383106, 46.58930895780546], [7.809663057097141, 46.589202827944895], [7.809432983940438, 46.58915828262423], [7.809394776332863, 46.58910079825669], [7.809222320065005, 46.58903069755479], [7.809000946006663, 46.588998690604384], [7.80879940990246, 46.58899981262133], [7.808454002055647, 46.58893215897575], [7.808017344311803, 46.58890417289256], [7.8074799492928495, 46.58892700511113], [7.80694317974408, 46.588997262386584], [7.806487098104818, 46.58904235668096], [7.806351352939926, 46.58900532688399], [7.8062879368676406, 46.58883622980357], [7.806216136373228, 46.58874468568309], [7.8058555892566694, 46.588681356907024], [7.805543055545111, 46.58869420255053], [7.805199966809691, 46.58861516391935], [7.804961134177559, 46.588595997428584], [7.804668965422197, 46.58861993860297], [7.8044157697536, 46.58871132920335], [7.804183458105692, 46.58879032819342], [7.803989985873723, 46.58881252070917], [7.803579548760837, 46.58889871995111], [7.803206920781304, 46.588720871048935], [7.80257138516169, 46.58864716961801], [7.802327133811697, 46.58851289498961], [7.802196984986893, 46.588543174393116], [7.802005152079065, 46.58855517298593], [7.801542123901968, 46.58848905154361], [7.801311662865269, 46.58848716040892], [7.80119808529264, 46.588423742630596], [7.800661110863339, 46.58825328804413], [7.80052210972269, 46.588298311201875], [7.800146066965367, 46.58832819088311], [7.799733243288849, 46.5883131373549], [7.799583103627829, 46.58833518623125], [7.799454906250632, 46.58824502409805], [7.799303820853565, 46.58828200663916], [7.799107846920142, 46.588187057234165], [7.798877208088432, 46.58810265860652], [7.798738493678101, 46.58808887415269], [7.798396773539214, 46.58811176687236], [7.797922755912179, 46.58804187007954], [7.797581176932594, 46.587930311969956], [7.79730146079427, 46.58775810467254], [7.7970833333710905, 46.58764306969599], [7.796784639780833, 46.58757003644457], [7.796430450873262, 46.587470827978045], [7.795844474234608, 46.58747928680106], [7.795617244089837, 46.58749494938334], [7.795306696281514, 46.587446112757554], [7.794817400448068, 46.58740827800291], [7.794404268817031, 46.587291481932354], [7.794141525776059, 46.58723967050508], [7.793929858323856, 46.58716729355998], [7.7937845742498855, 46.58703829045456], [7.79365129366442, 46.586905424137605], [7.793074292865124, 46.586657785675804], [7.792838140368442, 46.58646761497716], [7.792472627068178, 46.58621243571799], [7.7920644871528415, 46.58590757069303], [7.791747574184228, 46.5856187942433], [7.791530672420763, 46.585478136811425], [7.790942118698498, 46.585352153820175], [7.790721396241829, 46.5852777852883], [7.790340232175241, 46.58513905400819], [7.790102847596157, 46.585017219558566], [7.789960791961677, 46.584846275145466], [7.789870326824938, 46.5845696808814], [7.789554594228536, 46.58449028770974], [7.789337045459847, 46.58429406497823], [7.789104851036548, 46.58445856066203], [7.789034795795994, 46.584464108102225], [7.788856251292143, 46.584400579112], [7.788768060931317, 46.58441606116194], [7.788642101094757, 46.58451896904632], [7.788389238712098, 46.584819556249485], [7.788268381174398, 46.584811380568425], [7.7880838571161215, 46.584838382679685], [7.78794190321069, 46.584923975024104], [7.787947517578543, 46.58501366263942], [7.78810423982233, 46.58517951042508], [7.788122170305677, 46.5853158902933], [7.788045596909582, 46.585452011056155], [7.787848501307591, 46.58563442263359], [7.78771336536979, 46.58593624045021], [7.787643075027957, 46.58602297472823], [7.7874985486671315, 46.58613073399336], [7.787166218885247, 46.58641196965743], [7.786751953850241, 46.586755478486296], [7.78647133976811, 46.586768476246846], [7.786225114219761, 46.58681728821737], [7.785653672286482, 46.586843806630526], [7.785413657544195, 46.58677647374991], [7.785206089887907, 46.586792278800345], [7.785016139533064, 46.58686570123511], [7.78481708555616, 46.587066635762355], [7.784700492560565, 46.58713452785295], [7.7845224636494565, 46.58717680715159], [7.784302130219981, 46.587147104222446], [7.784105702499736, 46.587127970010236], [7.783702762685039, 46.58722504451177], [7.783526895272685, 46.58720535304417], [7.783103470846253, 46.58726176351178], [7.782354581411096, 46.587199258047306], [7.782247891181577, 46.58721399913874], [7.78161637484742, 46.58720174666161], [7.780979748265231, 46.58743004759553], [7.7807759201165005, 46.58739803081031], [7.780360329783262, 46.5873605666483], [7.780191970058531, 46.58736841080865], [7.780063362296474, 46.5874852977234], [7.77899310159104, 46.58785011878507], [7.778083725646698, 46.588490607689536], [7.776748371904827, 46.58840732816415], [7.77559396757871, 46.58867611600753], [7.7744955029692235, 46.58997382718885], [7.774313885790223, 46.590126083943474], [7.774261848115754, 46.590224947491514], [7.774137871486243, 46.590327684007924], [7.773977743587075, 46.59046734613906], [7.773776097801391, 46.590818403641244], [7.773723746210084, 46.59098487971824], [7.773633095560858, 46.59134108888825], [7.7735413279657, 46.59144504444131], [7.773394298128084, 46.59168414239597], [7.772999572974653, 46.591988755140456], [7.772788062565631, 46.59219357141286], [7.772669817170556, 46.59238823096555], [7.772543585438962, 46.59261658675691], [7.772417515165674, 46.59281700434619], [7.772251221457256, 46.59293839421276], [7.772150494026053, 46.593069505463], [7.772038313114551, 46.593552709518455], [7.7718992822852595, 46.593922887334195], [7.771686007042376, 46.59405069361968], [7.771569617300536, 46.59422208888235], [7.771439553225738, 46.59431960574353], [7.7711059525186075, 46.594405460005426], [7.770943324193401, 46.594449025724195], [7.770800969681876, 46.59464946917643], [7.770115894799037, 46.59542966717473], [7.769808783977041, 46.595698500405184], [7.769554596576462, 46.59588570380251], [7.769394896454485, 46.59591201230559], [7.769197014200473, 46.595925658739105], [7.768963638546929, 46.595837206008675], [7.7687249613341685, 46.5958573634893], [7.768585997261678, 46.59585577863606], [7.768530546443398, 46.59581281225484], [7.768477220458173, 46.595749693128035], [7.768349921221157, 46.59571555534659], [7.767771081881766, 46.595468586710176], [7.7669482592893, 46.59531233831866], [7.766559536879808, 46.595194443521166], [7.766272687373252, 46.59515502146012], [7.766034469739367, 46.59508246255341], [7.765738594263546, 46.59492471814727], [7.765464143596608, 46.59480737386502], [7.765221430732061, 46.594685727803366], [7.7650536231451035, 46.59463554395964], [7.7648673847857355, 46.594567071271136], [7.764669121887889, 46.59446941421876], [7.764420852779663, 46.594384512214226], [7.764166647248427, 46.59421512006015], [7.763995419677672, 46.59413176835632], [7.763764833680729, 46.59405101505088], [7.763349101399803, 46.59408097695058], [7.763017278205193, 46.59413301667793], [7.762902113121257, 46.594086647632615], [7.762667527503843, 46.59403489769049], [7.762526328193125, 46.594034201129894], [7.762131665216209, 46.59393643319094], [7.761852067038272, 46.593815553314876], [7.761500375671846, 46.593712813693045], [7.761013733970122, 46.59352946836402], [7.760793760382321, 46.59339736962422], [7.760617686163593, 46.59330274803975], [7.7602150156648015, 46.59315124012659], [7.75976151230342, 46.592872461887694], [7.759609716614732, 46.59275413044501], [7.759468776271245, 46.59258947408072], [7.75926898408526, 46.59239381215401], [7.759022484674574, 46.592219079647045], [7.7586630575451405, 46.5920039582623], [7.7583922343721685, 46.59195249593204], [7.758092711481564, 46.591877913756335], [7.75779528606221, 46.591829187537456], [7.757397170712596, 46.5916909465909], [7.757249461490538, 46.59167407718996], [7.756962926512881, 46.591566476876444], [7.756524202414455, 46.59144534683489], [7.756021610373689, 46.591349195376836], [7.755744451147326, 46.58924043075255], [7.754644695183794, 46.5885993567136], [7.752130204484627, 46.58812043945635], [7.7484990015127515, 46.588812124587676], [7.746877125186521, 46.58834958274184], [7.744533427721391, 46.58871412630283], [7.745848739775233, 46.590630043101925], [7.749040852998512, 46.59507346828028], [7.7520971970796175, 46.59986435590015], [7.752203949420562, 46.600498240927294], [7.7499306678816495, 46.60349996815727], [7.751642318254597, 46.60565930321612], [7.752951594239652, 46.60692511230249], [7.751747838587607, 46.606986820479804], [7.750726074367646, 46.60669061401447], [7.749985402588066, 46.6075912018245], [7.749017402563294, 46.607818110528555], [7.7483500185904814, 46.60944306516169], [7.7483090286869105, 46.609556826622516], [7.748383927023615, 46.609613924309855], [7.748498239539499, 46.609635741041636], [7.748698479477493, 46.60977141473134], [7.748773811825222, 46.609904227140106], [7.748855358510775, 46.60999842205783], [7.748896659420579, 46.61010797493425], [7.749077506693271, 46.61028476737294], [7.749441501710611, 46.610599743642744], [7.749758693804681, 46.61096768520725], [7.749843241336056, 46.611149659772195], [7.7498826478766425, 46.611297062093044], [7.749814994044397, 46.61138160823965], [7.74982806870216, 46.61142164802614], [7.749941947278643, 46.61149436207532], [7.749969376334304, 46.611544941483075], [7.749987932923768, 46.61185052713573], [7.750026976626245, 46.61206187999708], [7.750151807844169, 46.61248175057089], [7.750172289107603, 46.61287438156869], [7.750229777827153, 46.61312379111859], [7.7502640150917435, 46.613325217465686], [7.751220681385702, 46.61336476875223], [7.751196293956106, 46.613949986797955], [7.751383689983907, 46.61456467282986], [7.750571824721871, 46.61480543019868], [7.750264335171038, 46.61519747049018], [7.749764482862656, 46.615330610174404], [7.750873061548788, 46.615825290389154], [7.750948550160701, 46.61636776223076], [7.7499900038130525, 46.61680811779937], [7.748885185107049, 46.61733621783513], [7.749087814596744, 46.61756432686731], [7.748951102079286, 46.61832813865515], [7.746902323713107, 46.619391467534925], [7.74622112457559, 46.619472651941514], [7.744977126807335, 46.61958135756952], [7.744710407146614, 46.62002204564745], [7.744269940316203, 46.620444401559865], [7.739863669149885, 46.62288491244907], [7.739330372008013, 46.622923112721416], [7.739075401333896, 46.62281117064296], [7.738985027974395, 46.62266514360723], [7.7367078633785535, 46.62520387002078], [7.73760625156932, 46.62595038502131], [7.737364101485227, 46.626347427341756], [7.737200527108161, 46.62670384911481], [7.736980659341473, 46.62711000108283], [7.736851362323802, 46.627389526381776], [7.7371017184394, 46.6274453970964], [7.737387109694714, 46.62758668829791], [7.73793890761415, 46.62756538901233], [7.738703748999842, 46.627597672873705], [7.7392410951354975, 46.627517997732525], [7.739957798706598, 46.627666343627766], [7.740506748524778, 46.627644617861975], [7.740895550606586, 46.627436294822814], [7.74158667251092, 46.627214324806744], [7.741988521804498, 46.6271848425442], [7.741941542975395, 46.62733024310031], [7.742202307248673, 46.6278944457159], [7.74245118134547, 46.62875276742598], [7.7425302963608615, 46.62903247645594], [7.742630093016674, 46.629318652042585], [7.743052517907673, 46.62920473955962], [7.743731307862046, 46.62909345895706], [7.744001610640562, 46.629092104796264], [7.744281418549199, 46.62896538124928], [7.744633767533026, 46.62874032048093], [7.744855340022169, 46.62848050039907], [7.745041119812146, 46.628072746240036], [7.745597441940247, 46.62760724054752], [7.746001516875685, 46.62734165683846], [7.746676815038306, 46.62796632399987], [7.746271193948377, 46.628447350194456], [7.745976148187766, 46.62882851449449], [7.74593917895083, 46.62907693601637], [7.7454140175581525, 46.62937457451643], [7.744647337304454, 46.6294493007867], [7.743982571799745, 46.62972104808484], [7.7425956166727605, 46.63011311753748], [7.7427452416335125, 46.63041032277574], [7.742834077821751, 46.63072982078101], [7.7429073201349725, 46.63097854120078], [7.742080763115337, 46.63107852293336], [7.741720781242914, 46.63142149145774], [7.741631367610896, 46.63161022256688], [7.741464730129873, 46.63180219900281], [7.741006093685327, 46.63186421553635], [7.740449786602158, 46.63182464922944], [7.74009490934526, 46.631895500440464], [7.73926283399902, 46.63186577758855], [7.738719048786558, 46.6320921875489], [7.738281789419113, 46.632433837084136], [7.737861144142429, 46.63258085739308], [7.737547878998367, 46.63259536852021], [7.737077421865514, 46.63251907485866], [7.736687735276296, 46.632682741841975], [7.7364509367249035, 46.63296002816275], [7.736401594032672, 46.63321551467425], [7.736567734604173, 46.6337319135148], [7.736498298855264, 46.633947952678675], [7.736129264163182, 46.63425748155438], [7.735796768577597, 46.63438908922514], [7.735426269615387, 46.63443261073744], [7.735145735639464, 46.63438317999812], [7.7348788262166925, 46.634403626943445], [7.734744662577846, 46.634486059671566], [7.734625625075103, 46.63491351455035], [7.734357813209198, 46.63517110443635], [7.734069459600863, 46.63530714446484], [7.733496149333373, 46.6353907109669], [7.733153674316224, 46.63572144483327], [7.732865228696686, 46.635839238924675], [7.732485526619685, 46.63581590131264], [7.732168086270074, 46.63588055930658], [7.732067058118836, 46.63596746444136], [7.732094505656229, 46.636145245542025], [7.7319501655373974, 46.63639035916387], [7.731787387694513, 46.63648653502181], [7.731454613008988, 46.636571002607305], [7.7312163011005275, 46.63657616507669], [7.7306152051312855, 46.636424166347005], [7.730335054851165, 46.63644463673815], [7.729776531808749, 46.6368215458883], [7.729022032595123, 46.63686600652321], [7.7285777504912385, 46.63673642018049], [7.728464166236129, 46.63681878403652], [7.728424251015765, 46.637335726016545], [7.728184228615932, 46.63743209249697], [7.727683412619543, 46.63745768485069], [7.727208054430877, 46.637709701697965], [7.726427257234074, 46.63779224467544], [7.725910804857658, 46.63778593421189], [7.725075533648639, 46.63800236903357], [7.724529817329539, 46.63788820546959], [7.72428206925365, 46.637779375614585], [7.723982381456228, 46.6378637205169], [7.723747057113491, 46.638020894224205], [7.723420934712156, 46.63811291389516], [7.723303631069104, 46.63846889993788], [7.723003842142496, 46.63853500833932], [7.7226815350486, 46.63863066866925], [7.722484167248851, 46.638849742619605], [7.722366559553905, 46.63908661906988], [7.722560295342089, 46.63941806490068], [7.722370693443133, 46.639621826993306], [7.721858218850109, 46.63977513255117], [7.721618407011599, 46.64012115721653], [7.721459604890589, 46.64022409049557], [7.72102175067923, 46.64041498923971], [7.7207593249779425, 46.640435418634894], [7.720475060794474, 46.64052337782691], [7.720255862225958, 46.640817182876695], [7.720124282275499, 46.640881375771386], [7.719514224476289, 46.64086309609595], [7.718994284751702, 46.64109196121433], [7.718600880533536, 46.64154448603111], [7.718298414251856, 46.64165048376687], [7.717821182487905, 46.64180546627157], [7.717171066447579, 46.642121889271806], [7.717064725181171, 46.64226967590209], [7.71713824723796, 46.64259513699889], [7.716857790826402, 46.64266507656191], [7.71607387151273, 46.64261659810944], [7.715839646668484, 46.642532598880216], [7.7155613693707235, 46.64251797205359], [7.715136021829173, 46.64260535949028], [7.714680541026005, 46.64267481820592], [7.714020817475861, 46.64264850560899], [7.713782860286573, 46.642600502652], [7.713252179410984, 46.64226442634856], [7.712681708301512, 46.64232337668227], [7.712413886218075, 46.64230960769649], [7.712158607921329, 46.642193276784184], [7.711795400847889, 46.6416535013531], [7.711471606971936, 46.64167675513459], [7.711008716942861, 46.64157080271816], [7.7105570404025965, 46.64161685627657], [7.710129615212585, 46.64155038779952], [7.709777087686814, 46.6415737141143], [7.709459342267567, 46.6415006944685], [7.708963406585041, 46.641314751474866], [7.708589610789645, 46.64126345186091], [7.708393895848313, 46.64104082337026], [7.7083415488813545, 46.64075758584736], [7.707992585682632, 46.64070893287644], [7.70780208482171, 46.64074626360721], [7.707514234951064, 46.64064257488487], [7.707212933189672, 46.64072333489426], [7.706968598418673, 46.64070321910254], [7.706533987477091, 46.64050182913464], [7.706396225407742, 46.64037531417915], [7.706305135069537, 46.64017852430464], [7.706001063548212, 46.63996243352414], [7.705266787402313, 46.639906559475364], [7.704851340002154, 46.639881432089986], [7.704717342614487, 46.63972252232758], [7.704505015145973, 46.63957009143366], [7.704178089423301, 46.63948538451889], [7.703844077007306, 46.639553609132754], [7.703426152552433, 46.63955547767562], [7.70330522472, 46.63939743543321], [7.703354110826372, 46.63924529661162], [7.7032451943874065, 46.63887493960987], [7.703103407712348, 46.638724133103366], [7.702735235939853, 46.63848209472874], [7.702551563497462, 46.63831160308973], [7.702470325413494, 46.63798884913147], [7.702246629162369, 46.63791289381595], [7.701950078089081, 46.637894686679175], [7.701606664514417, 46.63790806229206], [7.701344740872771, 46.638028296934], [7.700987265535484, 46.63837453947629], [7.700507075155892, 46.638462007316626], [7.700225421843003, 46.638554416308104], [7.69973216849133, 46.638647308165034], [7.699254321947495, 46.63867719371828], [7.698736651247527, 46.63857853116514], [7.698408805551044, 46.638573897684616], [7.698150684283832, 46.63859028044079], [7.6976205453307465, 46.638516478025295], [7.697598360020337, 46.638451411086756], [7.6976086236637595, 46.638131244328115], [7.697293241773862, 46.638146296579386], [7.696861245048814, 46.63823494450178], [7.696560432160576, 46.63822683479044], [7.696448033798227, 46.638201477850124], [7.69622083985502, 46.63835248620875], [7.696205820273328, 46.638338657843], [7.6960381598510965, 46.63845255974628], [7.695900568734169, 46.63843003874815], [7.695810689880934, 46.6384054941725], [7.6957246052357515, 46.638376848031804], [7.695504174437061, 46.638279993537935], [7.695274602690763, 46.63823561236933], [7.695041137153324, 46.63823216932362], [7.6947967600962635, 46.63824118222576], [7.694618021394024, 46.638255381975014], [7.6944395343705, 46.638303566125714], [7.694341254573051, 46.63832242490137], [7.694251194580408, 46.638328509476096], [7.69414282873207, 46.63832999321547], [7.693943089805776, 46.63831943800947], [7.6938246155558225, 46.63830985246849], [7.693679259690264, 46.63826612557947], [7.693545122577142, 46.63818627423499], [7.6933664971586655, 46.638110668916674], [7.693287745734909, 46.63808858938447], [7.693224404821385, 46.638060862213244], [7.693146418071468, 46.638018028124215], [7.693069333440999, 46.63798929697838], [7.6930624197496575, 46.638027192785366], [7.693043978655211, 46.638063297123345], [7.69301468877306, 46.63808637301128], [7.692947768824913, 46.63810582637704], [7.692870558163152, 46.63811984234817], [7.69271662293709, 46.63813179794473], [7.691532136778482, 46.638231919021635], [7.690859754427766, 46.638145599412496], [7.690349499499082, 46.63812634942641], [7.689697539692818, 46.6384952629598], [7.689244472644884, 46.63849499427028], [7.689026969039791, 46.63848620768827], [7.688518194500413, 46.63851044323256], [7.688001795998473, 46.63856975653767], [7.687802969812585, 46.63839665766652], [7.687654389794339, 46.63842324024612], [7.6872828282519805, 46.63835735752772], [7.686884876227535, 46.63826602223712], [7.686640130371116, 46.63821139555228], [7.686507773517157, 46.63756122470662], [7.68645153016562, 46.63727090759226], [7.685742160527752, 46.637307873212364], [7.685350708060335, 46.63734541561546], [7.685154341521235, 46.63735984729384], [7.684875839657873, 46.637362508961836], [7.684348354019733, 46.63737954462951], [7.684004913828506, 46.63742714318038], [7.683707067486542, 46.63771210836943], [7.683697496072104, 46.63790590323736], [7.6835850600449085, 46.6379833357271], [7.683134793977744, 46.6378622327213], [7.6828532910974126, 46.637816528384896], [7.682861287487506, 46.63772169782697], [7.682612942990528, 46.637057905524024], [7.682471089794338, 46.63655626320949], [7.681840703225773, 46.63664352016686], [7.681760580084291, 46.636651795906154], [7.680729469809307, 46.63663413938682], [7.6798525573952094, 46.636581783793176], [7.6793521569742715, 46.63644998977752], [7.679084818438041, 46.6368310745775], [7.678911027130386, 46.63739906715114], [7.678942643001038, 46.63775523367033], [7.678668757980377, 46.63783858443898], [7.678327988823663, 46.637862700995825], [7.678226226020846, 46.63788630396275], [7.677889712284911, 46.63798417316915], [7.677687150813515, 46.63795401451603], [7.677253001009723, 46.637829009532346], [7.67713632633307, 46.637728504375595], [7.676414452790976, 46.63751053240962], [7.676035083923554, 46.63736560571325], [7.675480763975061, 46.637234535392345], [7.675202263231322, 46.637162259997204], [7.675224700281829, 46.637216187041304], [7.675446962174828, 46.63786431613374], [7.675164435258796, 46.6383641647967], [7.675100959065202, 46.63878258950082], [7.675039812920507, 46.63913625200595], [7.675016320940579, 46.639439461168564], [7.6743401499987325, 46.639827677095454], [7.673694161484087, 46.63994687741054], [7.673443593661405, 46.63999148036855], [7.673182258877025, 46.63996233339368], [7.673092098601104, 46.639955322616785], [7.672690221360627, 46.639741175955535], [7.6722118036615115, 46.63965220412299], [7.671929008803092, 46.63948817565224], [7.671756131726193, 46.63937608625351], [7.671648809428906, 46.63932593150254], [7.67118037216694, 46.63911730393481], [7.670737029129036, 46.638982386888635], [7.6706526970433115, 46.63911300375752], [7.670419533063153, 46.63956235622126], [7.670270911342625, 46.63993059392583], [7.670360618454535, 46.640445857858886], [7.6704760936601435, 46.64118056973717], [7.670754982288827, 46.641647772908215], [7.670796992609646, 46.6416980628919], [7.671483449185878, 46.64248287944474], [7.671619668957271, 46.64287031000944], [7.671743812143092, 46.643188499764705], [7.671761296339311, 46.64360946635172], [7.671710918116022, 46.643740004754896], [7.671540741895649, 46.64395626218929], [7.670918648667877, 46.64418152595257], [7.6703780105729535, 46.64451277709788], [7.67024695597545, 46.64471274452934], [7.669362102310909, 46.64488997139456], [7.669623677742893, 46.645032109310634], [7.670424033409651, 46.64550128758765], [7.670964398564675, 46.64601741695263], [7.671615992564086, 46.6465782929244], [7.671655286319941, 46.64660339982222], [7.67211109798272, 46.64668270309432], [7.672281662251498, 46.646825730381806], [7.672649563237673, 46.64696386520195], [7.672874034053763, 46.64716067257012], [7.673592253324543, 46.647289779581115], [7.673742416769781, 46.647401642561775], [7.674100160135846, 46.6475399597487], [7.674324490495821, 46.64767217909534], [7.674652757020213, 46.647735096046205], [7.67486991538298, 46.647806600647606], [7.674946954805891, 46.64780014377568], [7.6751913394427245, 46.64782752244093], [7.675281632093089, 46.64786780566533], [7.67540862156154, 46.64793319034861], [7.675485919940886, 46.64798610256084], [7.675556553744322, 46.648008443761704], [7.676231909868726, 46.64861331953379], [7.676368482689565, 46.648778550299994], [7.676684719780106, 46.64880666627358], [7.676968203666609, 46.64880967163254], [7.677873762560416, 46.6488770207221], [7.678200547105688, 46.64892671850274], [7.678435992306287, 46.648992781402406], [7.678655940470096, 46.649104781172326], [7.678975918744784, 46.64938385877115], [7.6790728809286115, 46.64945112061442], [7.679226619136753, 46.64965498562304], [7.67926598398321, 46.64969179336743], [7.679334073377085, 46.64972852210962], [7.67967204174077, 46.649944619193285], [7.680332754690508, 46.65017441636635], [7.6805027239217365, 46.65020823956573], [7.680805964063287, 46.65024267893121], [7.681047991974605, 46.650324032939466], [7.681102067642797, 46.65044265934003], [7.68115470300771, 46.650522607368984], [7.681204945785399, 46.650657433915086], [7.6812756702499145, 46.6506986623742], [7.681736983418193, 46.65102601727316], [7.682015359705469, 46.65133755140053], [7.6823053093876466, 46.651607661821664], [7.682542375061346, 46.65174836785964], [7.682667999969641, 46.651811086197974], [7.683255723993812, 46.652086945996516], [7.681797239825302, 46.652802416176975], [7.680841707714347, 46.65352860552852], [7.680150410934364, 46.65437573181851], [7.679184628368746, 46.65668021759235], [7.67471842575445, 46.66252990845215], [7.671576178430898, 46.6655633286052], [7.671104570609936, 46.66619581181653], [7.670784263008004, 46.66687306225121], [7.6710599764553615, 46.66690943845786], [7.671823093657772, 46.66699199467076], [7.672260718156519, 46.667056944982534], [7.672337861151908, 46.667064883462636], [7.672258701762573, 46.667331879767], [7.672995083078502, 46.66744540238665], [7.673350139209633, 46.66750744683899], [7.674127303259636, 46.66765877784757], [7.674188731987123, 46.66766766539094], [7.674397253830029, 46.66754039885754], [7.674779532680951, 46.667375055297356], [7.675164319646438, 46.667252020109885], [7.6752337715172905, 46.66729687270197], [7.675586570848142, 46.66694440678023], [7.676064732155279, 46.66722134333855], [7.676534873963491, 46.66751281385801], [7.676419264303541, 46.66777374594732], [7.6764427353598705, 46.6677682999154], [7.676535494988892, 46.66776721659939], [7.676709645839941, 46.66782168181179], [7.677188892988597, 46.66794184382365], [7.677395471703788, 46.66795031842277], [7.677723556649361, 46.66745088398858], [7.677983898367163, 46.6670999625832], [7.678092060906865, 46.66697133351628], [7.678235399252176, 46.666925407873215], [7.678440265739486, 46.667158997958126], [7.678655774572877, 46.667414073984986], [7.679230597691984, 46.66729632812062], [7.6791965588629845, 46.667252420394384], [7.679737903838079, 46.6670999301164], [7.679858060859665, 46.667057100753524], [7.680598680337437, 46.66727177112079], [7.681027463616314, 46.66744084383], [7.6812813691604465, 46.66754541812938], [7.681620554706391, 46.667697279501056], [7.681697624527307, 46.66763595505798], [7.68182535867982, 46.667549101409364], [7.681884014066566, 46.667592065275144], [7.682205227660227, 46.66738763260764], [7.682449771045063, 46.66724929090614], [7.682715453438601, 46.667104669492396], [7.6827368346344524, 46.667122839856795], [7.682781583445601, 46.66709833036535], [7.682762519709928, 46.667081171608075], [7.6831776792381, 46.66685077234885], [7.6835181721553285, 46.666643838952], [7.683759206253828, 46.66672210512064], [7.684166661772908, 46.66682611016273], [7.6846059381912735, 46.6668467741414], [7.684922944979201, 46.66682978277911], [7.685285698930843, 46.666761066445396], [7.685734207324114, 46.66677199846574], [7.6860705052760725, 46.66674753189752], [7.68628220834629, 46.66673715147257], [7.687079115758448, 46.66696896489102], [7.687142053513404, 46.66697046531493], [7.68723877722557, 46.66707901123599], [7.687755161745692, 46.666922696285425], [7.687941568745144, 46.66685583069429], [7.688074666719996, 46.6667672760274], [7.688096051032478, 46.66679711260818], [7.68884511826914, 46.66664748984892], [7.68900827109512, 46.66665566962271], [7.6891062848075435, 46.666669469936636], [7.689217319924975, 46.66666211104255], [7.689547091050146, 46.66667901931427], [7.689712439472572, 46.66662805624583], [7.689853274879562, 46.66655473888441], [7.69012148340189, 46.66635972840973], [7.690211795695045, 46.66642031276836], [7.6908809267253835, 46.666033189865495], [7.691148312286378, 46.66589285372438], [7.691252962169397, 46.66581403691581], [7.691997386316555, 46.665662676326924], [7.692673594586302, 46.66539069727483], [7.692806941607574, 46.66527687696232], [7.693356945714348, 46.66498298250027], [7.693553856108458, 46.664846323935585], [7.6938007731379585, 46.66473232114177], [7.694022098327665, 46.66462249469076], [7.694280284971314, 46.6644742645495], [7.6946155713219255, 46.664294790759826], [7.6947470645487295, 46.664251848324106], [7.695033047266438, 46.664248787627955], [7.695270533945233, 46.664191924648044], [7.6954860799786, 46.664107170056006], [7.695625855844416, 46.66403664546744], [7.695749000637514, 46.66399695902432], [7.6958583554993405, 46.66396727056724], [7.695975345461295, 46.66394953786442], [7.6960953893585575, 46.66394760311727], [7.696260220299079, 46.6639886565275], [7.696382115780121, 46.664040754087736], [7.69654080931761, 46.664126411908164], [7.696679972306885, 46.66415518038998], [7.696753601188234, 46.664111268855834], [7.696829398888026, 46.66401254222612], [7.696952425270284, 46.66388796345279], [7.697133422413927, 46.66382283118529], [7.697480251085181, 46.66372384158253], [7.697762721990334, 46.66362366599858], [7.697918816689556, 46.6635784239988], [7.698194869409712, 46.66352171901556], [7.698370961086273, 46.66350225768265], [7.698574693979506, 46.66344876565845], [7.698756175484005, 46.66335459209162], [7.69887821786625, 46.66327389401269], [7.699090285043504, 46.66315502954192], [7.699506671697911, 46.662996738449756], [7.6997695109441375, 46.662934743829574], [7.699998117052807, 46.66286748325771], [7.700106707360683, 46.6629077955684], [7.700296706252117, 46.66289268879397], [7.700570297003583, 46.662738697254106], [7.700605891115807, 46.66265815010844], [7.700619834585058, 46.66253968265225], [7.700842311795655, 46.66245658427402], [7.700959658329362, 46.66256202213396], [7.70118085768805, 46.66257390123467], [7.7012650108930165, 46.662543284791894], [7.7013237301602295, 46.66247877759588], [7.701335387342996, 46.662414621275964], [7.7013771390206305, 46.66230002075032], [7.7014820107855355, 46.66220941035759], [7.701645780667137, 46.66202680156448], [7.701846007718209, 46.66189084965994], [7.702148918778983, 46.66172824075764], [7.7023743186674665, 46.66157297945034], [7.702648979612088, 46.66146429061078], [7.702838238705487, 46.6613575350059], [7.702938361866208, 46.661309474209204], [7.703206989162062, 46.66119109205829], [7.703427558445065, 46.66105905730409], [7.703744555446391, 46.66090129607997], [7.703989454936083, 46.660828898319764], [7.704167637247136, 46.66076906876597], [7.70446303015165, 46.66061340646223], [7.7045947363837435, 46.6605640382552], [7.7049709010339535, 46.66038780273149], [7.705342802788571, 46.66019278403269], [7.705710152792682, 46.660050326646406], [7.7062973067311615, 46.659835406746005], [7.706378375051634, 46.65981656856604], [7.706601732470806, 46.66044715085831], [7.706696870849813, 46.660760646911356], [7.706903845188897, 46.66079289622836], [7.707313876685061, 46.66084462888746], [7.707581637766862, 46.66087265880233], [7.707838893134647, 46.66087940233069], [7.708023957075304, 46.66078811078669], [7.7082688480612465, 46.66058393723284], [7.708459472851377, 46.66048143274409], [7.708796809705544, 46.66027686863161], [7.709226563051331, 46.65990900435242], [7.709390806597289, 46.659827799140345], [7.70933054674195, 46.65974359062607], [7.709536707569816, 46.659712966665104], [7.709633052248866, 46.65970540660683], [7.709737217540042, 46.659741141522126], [7.709965612295295, 46.65984037781238], [7.710139875745922, 46.65994176610885], [7.710379126448646, 46.66000138600499], [7.710682666621435, 46.66004685519452], [7.710887652730133, 46.66007098751187], [7.710956395848702, 46.66006962719415], [7.711129797735197, 46.66002511747554], [7.71116885044839, 46.66004080230382], [7.714580010173033, 46.65963578285927], [7.714589632838312, 46.659608871865636], [7.71470463441725, 46.65943988221077], [7.7150524027559735, 46.65930892947279], [7.715697215692142, 46.65903935390026], [7.716194985072454, 46.65876155927098], [7.716696757555031, 46.65830504688464], [7.7170136329279915, 46.658162235495325], [7.716713788846812, 46.65772109466281], [7.716642603059496, 46.6574037512233], [7.716442780816207, 46.657220746690776], [7.716504110470337, 46.65711449518535], [7.716448635034954, 46.65706807806263], [7.716626689863457, 46.65697070850454], [7.715720665849643, 46.65638146542616], [7.715502501179823, 46.655997401016144], [7.71526937243665, 46.65566809149026], [7.715074276491459, 46.65538232677253], [7.71596881208854, 46.654626513497774], [7.7160798647496645, 46.654474939064585], [7.716417031346522, 46.65421674945923], [7.717050687433881, 46.65402382630459], [7.71789586702261, 46.65366569216136], [7.717816384499235, 46.65328691636146], [7.718185700534401, 46.65306234757088], [7.71844428961423, 46.65289660117188], [7.718901246692717, 46.6527405963694], [7.719056718295106, 46.65265002535876], [7.719410523936872, 46.65236091192547], [7.719872507271017, 46.65228891729785], [7.720133640913934, 46.6521822341786], [7.7200723761975, 46.65199643960919], [7.720335871504952, 46.651861935837395], [7.720608083071889, 46.65176842965835], [7.721068512763785, 46.651635290717515], [7.721504203839076, 46.651518250122905], [7.722215289699731, 46.651440375443826], [7.722458346319824, 46.65140065897897], [7.7227484255835535, 46.651414745071776], [7.72318908895226, 46.65144191271025], [7.724078113418026, 46.651365444581415], [7.724253025409424, 46.65132725301856], [7.724193715163919, 46.65101918729877], [7.72464468099205, 46.65103617594274], [7.724824241632498, 46.65102761208676], [7.725050877139437, 46.650986015087256], [7.725220461313899, 46.65097573951378], [7.725398017382807, 46.65097350376973], [7.725569193865184, 46.65094323562886], [7.7257026489535425, 46.650931215089244], [7.725905955742897, 46.65094687785353], [7.725913417475496, 46.65092027719445], [7.726362993718258, 46.650461371944466], [7.7264718260552, 46.650073292053364], [7.726480091101092, 46.649823987761785], [7.726770804762176, 46.649850691628906], [7.727044647921204, 46.649920417600704], [7.727361016330615, 46.64995666210331], [7.72772156951459, 46.64995965421517], [7.728194394299985, 46.649969170097236], [7.728340554954636, 46.64988349484367], [7.728506402291214, 46.649810282255935], [7.728702917909613, 46.64967306020023], [7.728850258862213, 46.64954948330033], [7.728963489554315, 46.64935967708705], [7.728726061959532, 46.649122890633386], [7.728750122965957, 46.64895676326187], [7.729010897500572, 46.648781946663966], [7.729489532740727, 46.648498447707944], [7.729816292052178, 46.64829642934847], [7.72986255401821, 46.64806677274169], [7.7298152548416414, 46.647745458112546], [7.730713532121078, 46.647476671426396], [7.73075240838475, 46.64715973939029], [7.730820008575236, 46.64691517809563], [7.731374606279451, 46.64684295480703], [7.731906830749511, 46.64673526248295], [7.732326320601577, 46.64662406112442], [7.732745254483962, 46.64648544050626], [7.7332246219322185, 46.64633425821437], [7.733833263290551, 46.64606111066711], [7.734269270874903, 46.64577346479848], [7.73469731289677, 46.64555646160262], [7.735043278978189, 46.64540541829767], [7.735015293115261, 46.64480372123115], [7.735846381249146, 46.644581782663764], [7.736721008333558, 46.64436927602618], [7.737591281027829, 46.643960840020014], [7.738957176854325, 46.64360975128048], [7.739572197501364, 46.64332027256752], [7.739954577875173, 46.642887119449306], [7.740206075098896, 46.64243156446446], [7.740276920896256, 46.642323792087254], [7.740617797549622, 46.642085422486026], [7.740758648500181, 46.641977554455515], [7.740812478918247, 46.641922395215566], [7.740987600059348, 46.64169494816486], [7.741184183488902, 46.6413704868425], [7.742057811856768, 46.64069127266522], [7.74233832892354, 46.64054633011475], [7.743110487213514, 46.640590133269384], [7.743738204012017, 46.64065851631734], [7.744076996563699, 46.64067901981913], [7.74473572774145, 46.64069091917563], [7.745314053728657, 46.64061892328099], [7.745658787093925, 46.64046830253949], [7.746707452395168, 46.64003352245074], [7.7464000306140015, 46.639464415139535], [7.746065484489171, 46.638996199315606], [7.7458768673831395, 46.6386941250346], [7.7459839360349765, 46.63841777310766], [7.7467073543412495, 46.63782337419599], [7.746968540864386, 46.63738486326745], [7.747450612636408, 46.63709255137077], [7.7480673208779445, 46.63659342539723], [7.748973869153518, 46.63637137292204], [7.7503278135854545, 46.63601431955132], [7.750996399092551, 46.635459281984936], [7.751249838534086, 46.63495376373865], [7.7519248804354355, 46.634570680384805], [7.7523000971386935, 46.63434925908539], [7.754051764475022, 46.63396578013447], [7.755199172554177, 46.633855459786766], [7.755878652038403, 46.63374193172175], [7.75686672195008, 46.633740974860274], [7.757707042271711, 46.63355619153983], [7.75803934076151, 46.63345370558909], [7.758150350358296, 46.63342405181417], [7.7584417290657575, 46.63339409160047], [7.758867369476368, 46.63333370871859], [7.759216035417135, 46.63332993430561], [7.759852608411307, 46.63334100138902], [7.760391518233623, 46.63328695045701], [7.761065541759458, 46.63296856690199], [7.761721591436214, 46.63274038465134], [7.762249879471234, 46.63235667545038], [7.763346696236673, 46.631943172299444], [7.764013696092709, 46.63193532694551], [7.764508776810745, 46.63189874284523], [7.765101260664945, 46.631922867635254]]]]}}]}