{"type": "FeatureCollection", "features": [{"type": "Feature", "properties": {"bfs_nummer": 5706}, "geometry": {"type": "MultiPolygon", "coordinates": [[[[6.190227046890808, 46.38603322460167], [6.188599673196312, 46.385185385002124], [6.188344430568212, 46.38504608492635], [6.188109027152269, 46.38489161894519], [6.187894529850468, 46.384723078582034], [6.187866535094815, 46.384668608620224], [6.187901907130318, 46.38461744782423], [6.19250213873226, 46.381082704065726], [6.191243903007333, 46.38093071764405], [6.190311666158141, 46.38081381078379], [6.190208775949449, 46.380810876687356], [6.189112293887667, 46.38067414559799], [6.188922007453138, 46.38066160865363], [6.188391256404971, 46.38059339089179], [6.188258847143811, 46.38056835676791], [6.186325838544074, 46.380318342951995], [6.187009987129508, 46.37968857740815], [6.184951231114473, 46.37939029388835], [6.183913907238403, 46.37923125235351], [6.183583877669959, 46.37915102141855], [6.183221519373261, 46.379047228232174], [6.183177207364138, 46.37904655699387], [6.1829778114174925, 46.379001070676054], [6.182740208289466, 46.37893212836905], [6.182505934999292, 46.37884909754926], [6.182208793656979, 46.3787185760865], [6.182030395948474, 46.37861970028749], [6.181857843251494, 46.37850927419626], [6.181683401105217, 46.378380572370624], [6.181275458338683, 46.37806681256029], [6.181388821730988, 46.37803829237829], [6.18156893818967, 46.378074120839216], [6.181717947854348, 46.37808360281547], [6.1821765985475094, 46.37806548325348], [6.1827161496364935, 46.37805096752633], [6.182947999177313, 46.378031407687295], [6.1831751379871775, 46.37799578089664], [6.18476256844846, 46.37771595273479], [6.184981377550345, 46.377646933041646], [6.185190566327035, 46.37756163016382], [6.185917956578046, 46.37723104397449], [6.186265100040849, 46.37708716722173], [6.186416145932564, 46.37701965308111], [6.186490619184117, 46.3769857493149], [6.186819214434873, 46.376806218202674], [6.1870606164191315, 46.376681682006], [6.187933591253423, 46.37637204395252], [6.188622496581888, 46.376118774087345], [6.1889339997151875, 46.3759747565437], [6.1889480974114885, 46.375972753090295], [6.188984154897393, 46.375947960190366], [6.188874605479936, 46.37595178827041], [6.188739218305461, 46.375949843367664], [6.188340132732869, 46.37588856683853], [6.188131387266244, 46.37584919392741], [6.187925215782585, 46.37579291713828], [6.187892315293797, 46.37576592309751], [6.187813530186976, 46.37577216890805], [6.187725240607895, 46.375755988618366], [6.187635527496977, 46.37573446640857], [6.187498455926801, 46.375726113648575], [6.187415281194608, 46.375691636190375], [6.1873393922589, 46.37564617314342], [6.187229067625508, 46.37561660454963], [6.1870871602226485, 46.3756257415718], [6.187079903751846, 46.375500876068045], [6.187113112313259, 46.37540299839524], [6.1871009519169, 46.375338536967746], [6.187049091269937, 46.375282093410235], [6.186965468277637, 46.37524455171444], [6.18686401013177, 46.375117555683005], [6.186805058203719, 46.37501865886562], [6.1867746649502395, 46.375000778963546], [6.186549201870105, 46.37493071911209], [6.186472672046851, 46.374890007673685], [6.186448495962638, 46.374822435307784], [6.186383910702338, 46.37477107781492], [6.186303261408331, 46.374734279303425], [6.18626745400202, 46.374703204020356], [6.18620128006334, 46.37466999338891], [6.186066295253164, 46.374610821150455], [6.1858783327702405, 46.37453802607609], [6.185609227846288, 46.37447233049359], [6.185457269608863, 46.3744164874349], [6.185338304051644, 46.37436163925104], [6.185151595331633, 46.37425717913505], [6.18507716006034, 46.374199045189705], [6.185043504753179, 46.37413677452906], [6.184978067318607, 46.37408863666265], [6.184942267330931, 46.37406853720966], [6.184877481446885, 46.374076546369324], [6.18485297037164, 46.37410225755743], [6.184703554329561, 46.374178253810896], [6.184610590428497, 46.37426935095086], [6.184553811010122, 46.37429085389981], [6.184481254631703, 46.374280774633874], [6.184426176480642, 46.37425120360125], [6.184368772855464, 46.37417606486096], [6.184312997697002, 46.374126063391444], [6.184216925263212, 46.37407001923277], [6.1841605405952835, 46.37405760848682], [6.184003568880687, 46.37406125758741], [6.183884688579991, 46.374053372015766], [6.1837504626624025, 46.37398404805044], [6.183695019463507, 46.3739197360346], [6.183694530659952, 46.373890311101626], [6.183721455450067, 46.373867038147495], [6.183763430855162, 46.37385616762001], [6.183837482123041, 46.373857798362856], [6.18388047861118, 46.37383650280896], [6.183935164923108, 46.373781868824764], [6.183878899226558, 46.37372501513028], [6.183758539152491, 46.373685624249894], [6.18365575801561, 46.37366172271239], [6.183519128383564, 46.37358904294561], [6.183439754506435, 46.37353661108899], [6.183340857388242, 46.37349654914225], [6.1832581252032295, 46.37352181213869], [6.183120487779777, 46.373470803035865], [6.183055101113387, 46.37343741932653], [6.183007281907144, 46.373386326837704], [6.182976399493763, 46.373309961351474], [6.183012577298826, 46.37324072761849], [6.183056248479764, 46.37319029032681], [6.183009261222652, 46.37313695784709], [6.182959367212062, 46.37311373236288], [6.1828766491061256, 46.37308789345802], [6.182708981451786, 46.37305400444768], [6.182626084280209, 46.373047686331724], [6.182473831586561, 46.37297680231892], [6.18237567183165, 46.37291003617093], [6.182287345612922, 46.37282277647149], [6.182253079231568, 46.37273656669472], [6.182240999484817, 46.37266328868115], [6.182202453445166, 46.37257667149077], [6.182191911735386, 46.3725323802004], [6.182226190964857, 46.37247779037621], [6.18223928801608, 46.372445457365295], [6.1822563985943955, 46.37236331767144], [6.182247264910055, 46.372314354706376], [6.182222004386986, 46.37230507751368], [6.182107682984382, 46.372302557757166], [6.1820411229454635, 46.37231989333107], [6.182021670373937, 46.37234603795106], [6.182021066476682, 46.37241135699526], [6.1819954900589575, 46.37245496836321], [6.181973952034963, 46.372464535718954], [6.181875115381446, 46.37248368100753], [6.181645626830215, 46.372424821425845], [6.181566156157294, 46.37241035359263], [6.181495447523773, 46.37237115185685], [6.181464834693454, 46.372239548634525], [6.181443923849048, 46.37219964046563], [6.181320633064194, 46.37218035825291], [6.181216937482381, 46.372190452182785], [6.181153526834151, 46.37216725563601], [6.181090222028216, 46.37213389387502], [6.181048031121446, 46.37206946686437], [6.181031970243294, 46.37192694115121], [6.180999523581826, 46.37188006719345], [6.180905518530373, 46.37181982363278], [6.1807821122945965, 46.37171031063655], [6.180648006001034, 46.37166986400775], [6.180587582341501, 46.37166361425393], [6.180509382777143, 46.37175127343993], [6.180424249533216, 46.371835256740674], [6.180221773254429, 46.37190021161663], [6.180148797155067, 46.37191397494124], [6.180100229929267, 46.371884645104785], [6.180071858917913, 46.37177420882592], [6.180063607676123, 46.3716593179934], [6.1800543116685125, 46.371623038509675], [6.180012001008716, 46.37155320274754], [6.179992722696354, 46.371543811608035], [6.1799380517101925, 46.37153051804966], [6.179891027720487, 46.371489599422254], [6.179877711782686, 46.37144788611287], [6.17973839538927, 46.371378860542485], [6.179662652122324, 46.37132709610679], [6.1795386471120155, 46.37128271204565], [6.1795570820155925, 46.37123325462695], [6.179540002813145, 46.3710731915906], [6.179454879148689, 46.371016815249206], [6.17932145440034, 46.370947134936884], [6.179321350693938, 46.37090682812527], [6.179232138960177, 46.37083566038157], [6.179196094193769, 46.37082068445733], [6.1790662151850375, 46.37082220790989], [6.17885836103653, 46.37087369523633], [6.178654387326092, 46.370948347146644], [6.178581778628686, 46.37099108325477], [6.178483246863229, 46.37103631967599], [6.178376737284149, 46.37110045040357], [6.178269075552107, 46.37114144648865], [6.178170851516285, 46.371190194792604], [6.177915301154501, 46.37133642527009], [6.177867232523226, 46.37136845820906], [6.17781039212702, 46.37142054626606], [6.177742002468912, 46.3714494737765], [6.177628542691792, 46.371449109341725], [6.177540162206633, 46.37141546615727], [6.177267064582149, 46.37139397922883], [6.177171817684079, 46.371392917735996], [6.177037768709834, 46.37139484231619], [6.176963765846239, 46.371480656519026], [6.176837058806813, 46.37144577572425], [6.176768898161066, 46.371442496634316], [6.176632051236334, 46.37146355274653], [6.176472512319141, 46.37152250205611], [6.176349507050101, 46.371574841103865], [6.1763260635469095, 46.37161542514722], [6.176302935657676, 46.371677065199286], [6.176309414879962, 46.371722571338616], [6.176278566972702, 46.37175794458237], [6.176223478334026, 46.37178495027325], [6.176344622112353, 46.37186286483833], [6.177797856227693, 46.37287754779949], [6.174464925332463, 46.37534707749401], [6.171580927415639, 46.37752832513156], [6.171565999215456, 46.37756081645656], [6.171610705362862, 46.37759964338492], [6.171828279982735, 46.37766262742576], [6.172091972533581, 46.37772685576479], [6.172360962744207, 46.377780787321335], [6.17410608321663, 46.37806616160125], [6.174083542804916, 46.378129697169165], [6.173558332075208, 46.378521667629485], [6.172300142071155, 46.379444804877785], [6.17268742629501, 46.379739104328685], [6.172647891648279, 46.37976206283247], [6.170679311920594, 46.38122053632787], [6.170633075568642, 46.38119645569323], [6.170602493953823, 46.38122561375403], [6.166976885835611, 46.38414619168966], [6.16788111919075, 46.38504839899226], [6.168019415547873, 46.38517734635987], [6.168173245377526, 46.38529810986291], [6.169336856587285, 46.38615228496544], [6.16939565051989, 46.38616769899408], [6.169450848664833, 46.386147895134165], [6.16951004551434, 46.38617941784481], [6.169363329317484, 46.38631542419061], [6.169384131162077, 46.3863048702516], [6.1694233273551555, 46.38628496785514], [6.1694909950796335, 46.38630452986237], [6.172340930325981, 46.38787772492264], [6.172506262958573, 46.38797988859202], [6.17266689353914, 46.3880885671139], [6.172812570359978, 46.38820292612539], [6.172942878627865, 46.388324580480706], [6.173065060573506, 46.388454070020494], [6.173178410804214, 46.38858318178824], [6.174216557468515, 46.38996807236713], [6.175947330475387, 46.388568018445795], [6.178452244242734, 46.38654521490571], [6.1784508803968645, 46.38649202859841], [6.179665583114034, 46.38739967357663], [6.179721628501919, 46.38733263173216], [6.181922162912591, 46.38612524819161], [6.182400503782033, 46.386471077065224], [6.182694948705929, 46.38666877385669], [6.185238196583699, 46.385123943447006], [6.187316948648231, 46.386640937888274], [6.187562206915076, 46.38680127234259], [6.187831783826192, 46.3869450509512], [6.1886042022409535, 46.38733332812987], [6.188651748531869, 46.38731244078267], [6.190227046890808, 46.38603322460167]]]]}}]}