{"type": "FeatureCollection", "features": [{"type": "Feature", "properties": {"bfs_nummer": 5707}, "geometry": {"type": "MultiPolygon", "coordinates": [[[[6.158489648518813, 46.351514468904654], [6.159855180666432, 46.35113682315268], [6.1594486329595295, 46.350684193612544], [6.159252571618564, 46.35044689822046], [6.159080758550534, 46.350201230793225], [6.158889301765965, 46.349857014438086], [6.16134955936388, 46.348628557429066], [6.161387151613994, 46.34867630525982], [6.1641413029825864, 46.34730068725038], [6.164177042706104, 46.347305138494505], [6.164346745123869, 46.34751956422741], [6.1644451332094805, 46.347678818664654], [6.164505364243084, 46.34784638813956], [6.164590919294096, 46.34826389563644], [6.164713063186863, 46.348242059435414], [6.164769420822189, 46.3482653660977], [6.164828989784291, 46.34825704010046], [6.165584288202246, 46.34784700183363], [6.1662328381966685, 46.349033125068765], [6.167859404507428, 46.348137502042185], [6.167437986718469, 46.3473645379419], [6.168760270874614, 46.3466366027596], [6.16906271939459, 46.34708164239377], [6.169476785417979, 46.346853082064044], [6.168569641273845, 46.34560073718933], [6.16795875980361, 46.34473057767852], [6.166785581046582, 46.34308757369111], [6.166251178685471, 46.34238807082149], [6.165901335000726, 46.341897748645145], [6.165583084061571, 46.3414010422686], [6.165117413653962, 46.34056284740429], [6.164832306091775, 46.34006102489146], [6.164805034107755, 46.3399163187719], [6.164844400305804, 46.33986071188137], [6.164595224379412, 46.339554883297225], [6.164750352869859, 46.33952100291435], [6.1654424047433505, 46.339119592389075], [6.165667156219829, 46.33895729125327], [6.165879362839328, 46.33877541543696], [6.166168068055464, 46.33848813830668], [6.16620826420852, 46.338413098097966], [6.165361909329912, 46.33770965711517], [6.1641846260929904, 46.336777102216956], [6.163787236546724, 46.3364364032465], [6.1622347003848095, 46.334996016298966], [6.161188995953442, 46.33401505299803], [6.160581526395455, 46.33343075485243], [6.15978342634663, 46.3326431376524], [6.15813888179897, 46.33344264686654], [6.15707933460444, 46.33224924293887], [6.155586516340183, 46.33070218791776], [6.1547395965447445, 46.331204343425846], [6.154154862184903, 46.331506304349446], [6.15361094034861, 46.331756814288006], [6.1527896905763955, 46.33210215351927], [6.152014262840137, 46.33244323081957], [6.150614468001513, 46.33299805747327], [6.1491350263471345, 46.334367172584464], [6.149023485089483, 46.3343712988408], [6.148583606893966, 46.33404742461626], [6.146643627617698, 46.3329687688416], [6.146375759091334, 46.33274717477457], [6.146209572593071, 46.33256452906048], [6.145856679215731, 46.33215626719422], [6.145587853524174, 46.33187267190577], [6.145306419738739, 46.3316806005925], [6.1420415581075325, 46.333568640956926], [6.142057341886537, 46.333664197689416], [6.1408785528104, 46.33425337715938], [6.139437841001511, 46.334790593450066], [6.139224206343207, 46.334892862741356], [6.139153466262765, 46.33486856808269], [6.138827953943469, 46.33497261001944], [6.138666115731529, 46.33503210861058], [6.138646748706933, 46.33503755403353], [6.1384148646406596, 46.33517982801665], [6.138118286968834, 46.3353988208117], [6.138021221534031, 46.335426944443626], [6.137431245361033, 46.33548718503066], [6.137347053152865, 46.3355260724982], [6.137218298074791, 46.33566287297205], [6.137254931976507, 46.33579806769082], [6.137345418962425, 46.3359841745885], [6.137434766156794, 46.33614796508623], [6.137616644438432, 46.33627673341533], [6.137794385431973, 46.33635543127858], [6.138009191538283, 46.336379134307634], [6.138259448199945, 46.336375624192506], [6.138298748908975, 46.336372567247615], [6.138353224943411, 46.33640783151802], [6.138357180472064, 46.33644386451258], [6.138224318845494, 46.33654499127163], [6.137900182860771, 46.33663447157596], [6.1377070689839766, 46.33681767608116], [6.137600420763403, 46.33696309839909], [6.137587577271364, 46.33713578065845], [6.13771864109422, 46.33743914243278], [6.137906464009911, 46.33750383095544], [6.138020857812906, 46.33753816496813], [6.138177886609182, 46.33757127973011], [6.138212658212371, 46.33756754096627], [6.13887555824531, 46.337560226062976], [6.139330269133573, 46.33763778546492], [6.139441337033839, 46.33774054606274], [6.13944408771827, 46.33779383913887], [6.139315918967854, 46.33787360860332], [6.13869812528655, 46.33791194399287], [6.138451020342074, 46.3379468005553], [6.13804445904859, 46.33804379086374], [6.137850237236924, 46.33820745968225], [6.1377995315833225, 46.338263556830285], [6.13781087157487, 46.33849436717314], [6.137920950254485, 46.33873046055016], [6.137990390940054, 46.33877067443987], [6.138146110822048, 46.33877183526442], [6.138315450860093, 46.33874669261146], [6.138675706931463, 46.33867903865087], [6.138844117685184, 46.338736044008826], [6.138862976234648, 46.33880013853404], [6.138853497957917, 46.33901631447097], [6.13882011202815, 46.339293475332624], [6.13883754886918, 46.33950368076865], [6.138960029738457, 46.33969897090755], [6.139160127448778, 46.33968597526086], [6.139214321609485, 46.339663745863376], [6.139436294032911, 46.33948042030952], [6.1396247961929316, 46.339234982471275], [6.139722174174234, 46.339198934726646], [6.139944396325414, 46.339168378066645], [6.140037897708029, 46.33920202026951], [6.140142201544283, 46.33926736550703], [6.140415639579675, 46.339636514969854], [6.140552473388964, 46.339998239177945], [6.1405832550797355, 46.34011789089078], [6.140640730099833, 46.340310912580364], [6.140799582435836, 46.34042024802587], [6.141309825803105, 46.34053371311626], [6.14167545099139, 46.34057381262287], [6.141910837728784, 46.34067691650552], [6.1420719598349365, 46.34077296081639], [6.1423236817989295, 46.34082855857616], [6.142451174953242, 46.34082067192258], [6.142695919705892, 46.34079314791371], [6.1428383186600914, 46.34078065427474], [6.14303337979274, 46.34081005929275], [6.143243004374919, 46.340855195366025], [6.143682543537181, 46.34112950449926], [6.1437812932097, 46.34118841286856], [6.143973988950747, 46.34131702456252], [6.1440842839539425, 46.34134941615191], [6.144531559838977, 46.34144621237316], [6.144793843071528, 46.341380566812845], [6.144871353289117, 46.34133332018165], [6.144912861243783, 46.34109618778919], [6.144876830949537, 46.34081488465166], [6.1450363073567456, 46.34064783759251], [6.145232109081304, 46.3405699147301], [6.145534314083281, 46.3405949535058], [6.145573650099781, 46.3406123263008], [6.146048902196218, 46.34097962110367], [6.145960973137964, 46.34114199921571], [6.14570294747909, 46.34143847460972], [6.145679816466606, 46.341487872891555], [6.1458896731824595, 46.341670118768995], [6.146398821016984, 46.34180486168938], [6.146837951415309, 46.34189490705763], [6.1471294322740535, 46.34193476276954], [6.147513576332564, 46.34197729493163], [6.1477521422975, 46.34211128196994], [6.148194328444431, 46.34246191480378], [6.148286758128349, 46.3425022855656], [6.14864009348877, 46.342584138449986], [6.149085130918565, 46.34259605063756], [6.149407905290305, 46.34270724240864], [6.149430010128862, 46.342744642368466], [6.149616804138624, 46.34298574561203], [6.149647451111101, 46.343068236124246], [6.149647066233907, 46.3431117765942], [6.149509743470889, 46.34344022516041], [6.1495149597282674, 46.34358153520813], [6.149590356979159, 46.34367785112401], [6.14973327693716, 46.34381318194352], [6.15043005341499, 46.344143944338825], [6.151135452507735, 46.34441225435433], [6.151268230090613, 46.34460898824453], [6.151327359762476, 46.34476144702864], [6.151317882196168, 46.34485426767347], [6.15128616538611, 46.34487145953803], [6.151157918925017, 46.34504760675403], [6.151074989208432, 46.345180895930035], [6.15107377790949, 46.34528119698592], [6.151205970409348, 46.34545886887383], [6.151246760389864, 46.345502787907414], [6.151451044377921, 46.34562621023335], [6.151631351855551, 46.34572533783649], [6.151827080198735, 46.34580422669884], [6.151865169065314, 46.345847035140025], [6.151941859116318, 46.34595488005967], [6.151964972184157, 46.34612518344515], [6.152017890398477, 46.34627128233232], [6.152106706746712, 46.3464375646195], [6.152086545354877, 46.34654267943958], [6.152010794428283, 46.34664169187057], [6.151756788933147, 46.34690537020889], [6.151558543247888, 46.347080271768924], [6.1514407093842784, 46.34732113526811], [6.151493276688123, 46.34738345170805], [6.15163332281138, 46.34746583684874], [6.151701719582677, 46.34747975037749], [6.151760995493725, 46.34747835544866], [6.1519858813817105, 46.34742918170096], [6.152435631898669, 46.347287287688914], [6.153033293109026, 46.3471425746131], [6.153195570166893, 46.347125705295], [6.153391558740398, 46.347128112141206], [6.153535346998209, 46.34716285414371], [6.153669197445682, 46.34724363681453], [6.153938046009814, 46.34752137306552], [6.1541690290205375, 46.34771337963717], [6.1542103040964244, 46.34775344340657], [6.154228608888725, 46.34792468131194], [6.154341963529826, 46.34809151015153], [6.154424892108772, 46.34815075119686], [6.154509272311667, 46.34818050795867], [6.1550537551156275, 46.34821890501771], [6.155244004073768, 46.34829384802953], [6.155409268522895, 46.34845397729656], [6.155533182737721, 46.348597514960304], [6.15557687886569, 46.34864020580477], [6.155707200620622, 46.348689187112946], [6.155992672808692, 46.348742644607555], [6.156088011600143, 46.34874858385249], [6.156159433336602, 46.348772596416495], [6.156395780036322, 46.34884267092054], [6.1564259976984514, 46.348866945021136], [6.156456946834843, 46.34895976536138], [6.1563803630839615, 46.34909420982521], [6.1562369008912565, 46.34925532746653], [6.1562897970346455, 46.34937549512961], [6.156377634075881, 46.34945755226964], [6.1567150803891835, 46.34958247409015], [6.156979186722227, 46.349726626993984], [6.157117153775583, 46.349760128786706], [6.157653910902459, 46.34987938820217], [6.15769845819327, 46.34990760283746], [6.1577847614462655, 46.350032736440255], [6.157780110107524, 46.350252287622496], [6.157689536237779, 46.350495616247386], [6.157690570885211, 46.35062346395521], [6.157758662798153, 46.350711045435865], [6.1578396757741976, 46.350735633317946], [6.158156989518353, 46.35076720551948], [6.15828214721588, 46.350826111882306], [6.158323558267864, 46.350899176048664], [6.158252558250293, 46.35107786836075], [6.158254148995555, 46.35110900647226], [6.158378403919103, 46.35124473544431], [6.1584194971732895, 46.35128173663009], [6.158491689922839, 46.3513943842699], [6.158489648518813, 46.351514468904654]]]]}}]}