{"type": "FeatureCollection", "features": [{"type": "Feature", "properties": {"bfs_nummer": 5747}, "geometry": {"type": "MultiPolygon", "coordinates": [[[[6.512245383433013, 46.703964043439974], [6.512266002322152, 46.70393533371072], [6.5118950574880206, 46.703674216560906], [6.511588506627964, 46.70338798369326], [6.511374846585461, 46.70315089662321], [6.511160938628557, 46.702876662152896], [6.51097534136153, 46.702620020409455], [6.510861272771426, 46.70243332121769], [6.510728828326074, 46.70214967391547], [6.510454422518567, 46.701523268940996], [6.510157426133908, 46.70091820701817], [6.51000114821809, 46.700448846136695], [6.5098565269814355, 46.7001219168312], [6.5096843848894315, 46.6998297576183], [6.509559066674344, 46.69966590520702], [6.5094490315942135, 46.69976081586994], [6.50941835135513, 46.69973528636623], [6.509205784419086, 46.69949002611012], [6.509091246782357, 46.69923952946488], [6.508802663718636, 46.69898959968406], [6.508070280879918, 46.69862709991315], [6.507692430190648, 46.69842762472875], [6.507383896483955, 46.698296186499284], [6.507076529048948, 46.69819570381037], [6.506539100246592, 46.69806877747591], [6.505993850168605, 46.69796328554973], [6.50608384934321, 46.69782494246453], [6.505338516745922, 46.697653395465224], [6.505049114638913, 46.697595606070614], [6.504178539849612, 46.69736976638544], [6.504066475840372, 46.697325034917306], [6.504404606000183, 46.69645670580006], [6.504234230852558, 46.69564275943477], [6.504187728584639, 46.69555500731835], [6.502725747009608, 46.69559906083374], [6.502683251326246, 46.6955841467253], [6.502262434935188, 46.695399953765126], [6.501777773080498, 46.69515810862181], [6.500703825155551, 46.69448139209211], [6.5009028453981745, 46.69438225692358], [6.500837004992619, 46.69407854471003], [6.500868369637622, 46.69403427219626], [6.500910989612006, 46.69392172174548], [6.5009596063369655, 46.69363658480189], [6.5009723179651155, 46.69350714514744], [6.500977190785283, 46.693377371062844], [6.50097282240791, 46.6931400080571], [6.501011091098813, 46.69306709474598], [6.501110819535479, 46.693031121946426], [6.50313116266193, 46.69287384813522], [6.503747755153122, 46.692752428000446], [6.503734894598661, 46.69271750738331], [6.503647969702477, 46.69236980330109], [6.503118618137167, 46.69257219450979], [6.503031041851751, 46.692126696559086], [6.502979489337469, 46.691895611941945], [6.502879156302456, 46.691597644831035], [6.502792131093624, 46.69118085810486], [6.502703688743905, 46.69101891140814], [6.502572975837428, 46.690903855760816], [6.502265437873177, 46.69083870444136], [6.501395542315822, 46.69004024503758], [6.501202474787486, 46.68983570236719], [6.500874474531977, 46.68944427735863], [6.500701433112616, 46.68918600277015], [6.500536151599985, 46.688857540966346], [6.500439987021615, 46.68862761657486], [6.5002808691700995, 46.6877283099145], [6.500012949183726, 46.68688324329243], [6.499947217752587, 46.686754236274325], [6.49985617785157, 46.686449595348186], [6.499674001269719, 46.686092195995826], [6.499372919221709, 46.68568083694417], [6.499173966467638, 46.685395276656855], [6.499076284190261, 46.68543459326268], [6.498448403757912, 46.68560780322819], [6.4980889880532295, 46.68568589925967], [6.4978719865277235, 46.68572333023169], [6.497441523645976, 46.685804965890576], [6.4978220897229395, 46.686402577122976], [6.4978787076378905, 46.68651414742851], [6.497886216205933, 46.68684940579932], [6.498194202200245, 46.68722368031778], [6.498322592179213, 46.68714863342719], [6.498553279884163, 46.68770596060324], [6.49874727341984, 46.68814126674329], [6.49837899007523, 46.68821640266253], [6.498515472338215, 46.68855444466467], [6.4981940211234175, 46.68861269452164], [6.4982120693551995, 46.68867221824969], [6.497878363774941, 46.68872991566949], [6.497862770959718, 46.68867878768092], [6.497420039709071, 46.688750426552424], [6.497493521625587, 46.689094947614564], [6.497532626787768, 46.68941670288062], [6.497536539738618, 46.68978406530499], [6.497460110963694, 46.69025276128667], [6.497323483495082, 46.690664922372136], [6.497418811042489, 46.69087334138208], [6.4970871171188715, 46.691285678771735], [6.4969377439453675, 46.69153660468313], [6.496791513283714, 46.69183955436096], [6.496658576199953, 46.692265240412716], [6.496598675316028, 46.69261802323056], [6.496550782397793, 46.693069152271164], [6.496539697380724, 46.69327696144034], [6.496371852838128, 46.692908880564204], [6.496376675468371, 46.693470567855535], [6.49624613791984, 46.69350367297804], [6.496101551952999, 46.6931214893001], [6.495366383722225, 46.69333832525191], [6.495713769431924, 46.694040653251086], [6.495516516858452, 46.69403829034296], [6.495328499615841, 46.6940311726316], [6.495206858099567, 46.69385472174864], [6.494951387994055, 46.69344382860489], [6.49445600976153, 46.69359255477022], [6.494225335805157, 46.693259223257], [6.493761356561223, 46.69341424424756], [6.493791705649742, 46.693450579655135], [6.493536610589692, 46.6935036176362], [6.493550334469386, 46.69352622192266], [6.4930123773035495, 46.69370212911569], [6.4928724518888465, 46.693487758229296], [6.492701730101102, 46.69354571507834], [6.49264677059577, 46.6934366747538], [6.491699622580813, 46.69367727438139], [6.491135030701892, 46.6937687448808], [6.493028619775704, 46.697173444095355], [6.492453392459654, 46.69724316141664], [6.4919065846756165, 46.69734737861235], [6.491282336222569, 46.69745346809638], [6.49057256852624, 46.697552365106056], [6.490087068359665, 46.697605104820894], [6.4898557567771125, 46.69762044992793], [6.489292542267795, 46.69764607188118], [6.488815213605349, 46.69767276779539], [6.48866032576815, 46.69767705316004], [6.488447276206277, 46.69767257636575], [6.488445074566844, 46.69770845262732], [6.488303632458876, 46.69770655226223], [6.4881063314811405, 46.69772100812506], [6.487893050460114, 46.697774103580876], [6.487701589782418, 46.69785769796974], [6.487428018360135, 46.69802256990603], [6.487321008608301, 46.69811442610817], [6.487235615477663, 46.69822387949918], [6.487199834130887, 46.698261292367626], [6.4871470319605695, 46.698302206412976], [6.487079383780492, 46.69833971276235], [6.4870099355951085, 46.69836659756467], [6.486826993023983, 46.69841931516532], [6.4866150784600825, 46.698468857507706], [6.486548865938028, 46.698479099237126], [6.486473087107504, 46.69848535660824], [6.486354073363919, 46.69848387548688], [6.486236935768362, 46.698468717759106], [6.486050114715622, 46.69842271389175], [6.485873026972422, 46.69836608575873], [6.485714279876318, 46.698285321234266], [6.485386792625554, 46.69809006222379], [6.485005577191723, 46.69794599017887], [6.484902952620246, 46.69791544323851], [6.48453564832229, 46.69784246566819], [6.4840048669946055, 46.69770505288459], [6.483692709635308, 46.69765610467252], [6.483357199068053, 46.697619023492436], [6.484045776674731, 46.69845145539411], [6.484064820031377, 46.69849839506322], [6.483890131237009, 46.698609021696676], [6.483850669620532, 46.698902684541196], [6.484017691159156, 46.69971276681679], [6.484012587243115, 46.699715962614086], [6.483040009511491, 46.7003246692544], [6.483050204705088, 46.7004804873719], [6.482944977927935, 46.70052197576735], [6.482822161296987, 46.70063510576025], [6.4828175012522395, 46.70064054529635], [6.482555409893486, 46.700945311315245], [6.482384001812165, 46.70117920207812], [6.4820786226837095, 46.70180808583263], [6.482006047942538, 46.701903150265245], [6.481828726176981, 46.70183792228701], [6.481577155964911, 46.70180000299822], [6.481157016762152, 46.70172612028666], [6.481128495353649, 46.70187413709428], [6.481031491837398, 46.70209282748212], [6.481029023278783, 46.702093400462495], [6.480909524752463, 46.70212094903173], [6.480769799461142, 46.70212481143252], [6.480619739289513, 46.702084055625086], [6.4803208797449265, 46.7027639975194], [6.479966648994709, 46.702734485476604], [6.4797818410474655, 46.70269163652892], [6.4795152245845395, 46.702647386800564], [6.479307983942296, 46.70259462253666], [6.479026415499277, 46.70258155189758], [6.478819548925513, 46.70305696392478], [6.478686476011959, 46.7033845702785], [6.478588818686793, 46.70371336592578], [6.4783774986284826, 46.704593764437334], [6.478344523848563, 46.70522519612717], [6.478318606923176, 46.70556406071155], [6.47820990891332, 46.70591030539519], [6.47815543350012, 46.70617119333971], [6.478034690560857, 46.706474064806855], [6.477916843250313, 46.706438434940395], [6.477761014027193, 46.70694133639968], [6.477614766257641, 46.707624700593826], [6.477696446991113, 46.707554500555375], [6.477866559182677, 46.70719024314744], [6.478013303117729, 46.70694752396923], [6.478211131753864, 46.70672212098651], [6.478676523432172, 46.7063206984844], [6.47892567594878, 46.706121006673094], [6.4792245903301815, 46.70602096134786], [6.479699927088424, 46.70608129109681], [6.480139130787694, 46.70618798645159], [6.480604328901121, 46.706215552854076], [6.4814562848824195, 46.70630620363937], [6.481440829247529, 46.70637381465725], [6.481405929223697, 46.706932290066725], [6.48150305521083, 46.707310027130525], [6.481749358820979, 46.70763119041841], [6.481977690774042, 46.7077862142712], [6.482242180055871, 46.708026204101294], [6.482367613976722, 46.7083052383552], [6.482557650657108, 46.70855502895757], [6.4827078731107655, 46.7088523536145], [6.482851958655131, 46.70909023377388], [6.482944234270544, 46.709329325183084], [6.48302051643442, 46.70957797097695], [6.483015983409451, 46.70983353131669], [6.4828554277322255, 46.7102142586453], [6.482821395658504, 46.71048269657715], [6.482736212262823, 46.71083814736775], [6.482918635306534, 46.71108347397801], [6.482926654019705, 46.71119250255389], [6.48275174012425, 46.71143131201795], [6.482526185620076, 46.71161988399514], [6.482738232560933, 46.71234065182914], [6.482978867220809, 46.71285034966393], [6.483198284929508, 46.7130161008594], [6.483418057628803, 46.71321280124585], [6.483969058279594, 46.71373820944644], [6.4841705221900705, 46.71391443247132], [6.484491777936424, 46.714111531676025], [6.484845464872161, 46.71427363697972], [6.485164989164421, 46.71437742996922], [6.485503526861119, 46.71445564303214], [6.486246271681706, 46.71453319676925], [6.48732463076154, 46.71460968150808], [6.487835082899602, 46.71510918132135], [6.488398057220937, 46.715849052701174], [6.488582239627557, 46.71662002878282], [6.488499103482495, 46.717017513053065], [6.489084746884856, 46.71702211791631], [6.489793399460671, 46.71695668445107], [6.491477711148456, 46.716808945862105], [6.49236867342476, 46.71664109788903], [6.493162686823422, 46.71647370673992], [6.493054323846339, 46.71589523788126], [6.492024471039227, 46.715579123754914], [6.491490258645984, 46.71543991134368], [6.49130247606989, 46.71496154583192], [6.491192442000934, 46.714658630533], [6.491102279569811, 46.71442991859987], [6.490940769036239, 46.714116499010785], [6.491308659243274, 46.71407367023917], [6.491140418978063, 46.71376361341322], [6.493310811989014, 46.713375554766266], [6.495840796408973, 46.71293742981112], [6.495914658541746, 46.71314865804564], [6.496598035216692, 46.71311156165103], [6.499148129890558, 46.712672834895], [6.498420822969415, 46.711404758298286], [6.498444423967343, 46.71140135467958], [6.49867742245952, 46.71140498722339], [6.49903995397057, 46.71135301222614], [6.498837001050344, 46.710774137748146], [6.502896934791505, 46.709864944606835], [6.502934873213, 46.709894412844186], [6.502994084013669, 46.70988130630626], [6.502978594366573, 46.71023851325294], [6.504518292515432, 46.71004343069598], [6.5046381257596755, 46.70999610440927], [6.50443360685908, 46.709670287652195], [6.504251173739489, 46.70930785781316], [6.504068945817445, 46.70884252295857], [6.5061495910298515, 46.708681095917015], [6.506708379600847, 46.7086529177984], [6.506734417286455, 46.70875803423063], [6.506897614526469, 46.70897068747828], [6.50697983581599, 46.70923764410591], [6.507101007289295, 46.70918834760667], [6.507088709143329, 46.709173493388505], [6.507166693054926, 46.709148582338024], [6.507135253183439, 46.70900033926726], [6.5080317951130136, 46.708846631185395], [6.508263666468242, 46.7092102684487], [6.509090168915302, 46.70887893992207], [6.509988902392313, 46.70852949195194], [6.510564408298407, 46.70850233851126], [6.510559762158004, 46.70843042186914], [6.511446112904234, 46.70838897368303], [6.511212081453343, 46.70548245975644], [6.511066946562324, 46.70352065659417], [6.511371513548936, 46.703656099825224], [6.511597479806356, 46.70376328431606], [6.511962373365656, 46.70391163192081], [6.512245383433013, 46.703964043439974]]]]}}]}