{
  "type": "FeatureCollection",
  "features": [
    {
      "type": "Feature",
      "properties": {
        "bfs_nummer": 575
      },
      "geometry": {
        "type": "LineString",
        "coordinates": [
          [
            7.827501057350201,
            46.66490767019606
          ],
          [
            7.828113125969755,
            46.664641022391784
          ],
          [
            7.828255843356134,
            46.664588999468805
          ],
          [
            7.82845294893851,
            46.66471366258621
          ],
          [
            7.828711119210009,
            46.664858743686615
          ],
          [
            7.832747587912617,
            46.66680936201152
          ],
          [
            7.832858846552723,
            46.66670070653897
          ],
          [
            7.8333516781584605,
            46.666832408688954
          ],
          [
            7.834311305210585,
            46.66725654070486
          ],
          [
            7.834746941987606,
            46.667465653497125
          ],
          [
            7.835025468714135,
            46.6670712451132
          ],
          [
            7.8353708568981775,
            46.66659326820577
          ],
          [
            7.8357591071531445,
            46.66607552437512
          ],
          [
            7.835934732296676,
            46.66641616233054
          ],
          [
            7.836462467205935,
            46.66645850195066
          ],
          [
            7.836984838900724,
            46.66678922162229
          ],
          [
            7.837618782285382,
            46.66700800325825
          ],
          [
            7.838114633552134,
            46.667408643505034
          ],
          [
            7.83834962269399,
            46.6672902571118
          ],
          [
            7.838847860140009,
            46.66757606565848
          ],
          [
            7.8392051676150025,
            46.66778370888129
          ],
          [
            7.840995376228544,
            46.66764085948195
          ],
          [
            7.8441733380877245,
            46.66610937048013
          ],
          [
            7.84420662225279,
            46.665741951635255
          ],
          [
            7.844038284169831,
            46.66533594709989
          ],
          [
            7.843825966260215,
            46.66519861802022
          ],
          [
            7.843524076248308,
            46.66498432483178
          ],
          [
            7.843244792954735,
            46.66476816058762
          ],
          [
            7.842518326149175,
            46.66435477533885
          ],
          [
            7.842681579200859,
            46.663959370348465
          ],
          [
            7.842381088991004,
            46.663719251731
          ],
          [
            7.842015433016838,
            46.66364120303249
          ],
          [
            7.841702343851459,
            46.663552622579374
          ],
          [
            7.841476519741624,
            46.663301820967796
          ],
          [
            7.841457801863387,
            46.66303588621162
          ],
          [
            7.841258969687821,
            46.66279305799163
          ],
          [
            7.8410536438449965,
            46.66266595412972
          ],
          [
            7.840623531320391,
            46.662440509902595
          ],
          [
            7.840219939144826,
            46.66228450698713
          ],
          [
            7.840083888999221,
            46.662052898274034
          ],
          [
            7.839749588841204,
            46.661902047357735
          ],
          [
            7.839127530162316,
            46.66181508492894
          ],
          [
            7.838584936249177,
            46.66185485900488
          ],
          [
            7.837792213381331,
            46.661553581542904
          ],
          [
            7.837123393530518,
            46.66115003556555
          ],
          [
            7.837327022362746,
            46.660947813382734
          ],
          [
            7.837366038779966,
            46.66072827366663
          ],
          [
            7.837424452942879,
            46.66049751157998
          ],
          [
            7.8365459254544065,
            46.660252568028625
          ],
          [
            7.8354070270695315,
            46.65979415722354
          ],
          [
            7.8355619462793324,
            46.65941516343402
          ],
          [
            7.835559412463325,
            46.6588934256567
          ],
          [
            7.835676038552719,
            46.65883373882153
          ],
          [
            7.835484685172752,
            46.658573530984114
          ],
          [
            7.835273843437714,
            46.65829232278129
          ],
          [
            7.83493902148295,
            46.658245368172054
          ],
          [
            7.834654585785519,
            46.657978006729984
          ],
          [
            7.834714287535425,
            46.65774527149801
          ],
          [
            7.8343318751166535,
            46.65747870798154
          ],
          [
            7.833712878634172,
            46.657017397316594
          ],
          [
            7.83359026539451,
            46.656739847655984
          ],
          [
            7.833001382356917,
            46.65642703677076
          ],
          [
            7.833301073382693,
            46.65623033690235
          ],
          [
            7.833366220853518,
            46.65611676665306
          ],
          [
            7.833083829333798,
            46.65578490454924
          ],
          [
            7.832964106969549,
            46.65567017415172
          ],
          [
            7.832616710476413,
            46.65543676776447
          ],
          [
            7.832459634577921,
            46.655395030392036
          ],
          [
            7.832301269769637,
            46.655176083299665
          ],
          [
            7.832118112770289,
            46.65514073235492
          ],
          [
            7.832053902737359,
            46.654829974702466
          ],
          [
            7.832164907730749,
            46.654644731774155
          ],
          [
            7.831891314847517,
            46.654568762126054
          ],
          [
            7.831935136938575,
            46.65430700914079
          ],
          [
            7.83192352880506,
            46.65414782644547
          ],
          [
            7.831806778685011,
            46.65372390469704
          ],
          [
            7.8316991636523134,
            46.65356640200937
          ],
          [
            7.830960414919413,
            46.65329988444456
          ],
          [
            7.830660569483571,
            46.653349761042
          ],
          [
            7.828889723521937,
            46.65287645260991
          ],
          [
            7.828826217617155,
            46.652475590492564
          ],
          [
            7.8284551332180214,
            46.652009625411786
          ],
          [
            7.827985347654896,
            46.651748772454035
          ],
          [
            7.8274808473074655,
            46.65152472003449
          ],
          [
            7.827410250074003,
            46.651449793037244
          ],
          [
            7.827435921519783,
            46.65136823214713
          ],
          [
            7.827353880324509,
            46.651142244465575
          ],
          [
            7.827198960883664,
            46.6510219156854
          ],
          [
            7.827045441960798,
            46.65094191834426
          ],
          [
            7.8268125792714525,
            46.65074925952117
          ],
          [
            7.8266745932267465,
            46.65073841224988
          ],
          [
            7.826627510848323,
            46.65057587731528
          ],
          [
            7.826473780228364,
            46.6502017227491
          ],
          [
            7.826327517463116,
            46.650092931754926
          ],
          [
            7.826033413763477,
            46.64991924425373
          ],
          [
            7.82586337709051,
            46.64978293476197
          ],
          [
            7.8256790945512495,
            46.64972586188288
          ],
          [
            7.82533508587754,
            46.64960031552595
          ],
          [
            7.824848700398054,
            46.649530690110204
          ],
          [
            7.824613947526696,
            46.64953261772709
          ],
          [
            7.82448018172972,
            46.64949574716273
          ],
          [
            7.824581785956398,
            46.64939696441433
          ],
          [
            7.824610602371159,
            46.64929617885295
          ],
          [
            7.8245648906008025,
            46.64909948202039
          ],
          [
            7.824449202611193,
            46.648989002000505
          ],
          [
            7.824307507561106,
            46.64891707507598
          ],
          [
            7.824097357807643,
            46.64891212679042
          ],
          [
            7.8239458445868255,
            46.64884814873388
          ],
          [
            7.8237171790986215,
            46.6487799150175
          ],
          [
            7.823557690773643,
            46.6487442456221
          ],
          [
            7.823209631928613,
            46.64867768189284
          ],
          [
            7.823197155368343,
            46.64859839145742
          ],
          [
            7.823144112127495,
            46.6485272887918
          ],
          [
            7.8229365357904275,
            46.64842277504191
          ],
          [
            7.822904975536772,
            46.64836745022716
          ],
          [
            7.822722896980581,
            46.64826824761443
          ],
          [
            7.822697904176255,
            46.64810568170385
          ],
          [
            7.8226136458805335,
            46.6479116775621
          ],
          [
            7.822506775586842,
            46.64777824504172
          ],
          [
            7.822501225231674,
            46.64769000756428
          ],
          [
            7.822454275711268,
            46.64755326994052
          ],
          [
            7.822267601934739,
            46.64738760433743
          ],
          [
            7.822201313509402,
            46.64729957999399
          ],
          [
            7.822249515199363,
            46.6471523573852
          ],
          [
            7.8222846212747505,
            46.64700968558885
          ],
          [
            7.8222096683334845,
            46.64685833413595
          ],
          [
            7.821975501151944,
            46.64670525064006
          ],
          [
            7.8218709206138595,
            46.64654044206073
          ],
          [
            7.82165302534519,
            46.646368070599586
          ],
          [
            7.821346729210537,
            46.646231087170506
          ],
          [
            7.821158342573008,
            46.64605295755466
          ],
          [
            7.821021620970527,
            46.64598441024273
          ],
          [
            7.82098841104007,
            46.64593360623187
          ],
          [
            7.820907358815756,
            46.64584450614633
          ],
          [
            7.820764083906282,
            46.64577822938596
          ],
          [
            7.820430343351212,
            46.645706940542325
          ],
          [
            7.820144457640332,
            46.645668288832056
          ],
          [
            7.819989661105562,
            46.645599818699644
          ],
          [
            7.8197940292344725,
            46.645558588589736
          ],
          [
            7.819719398542602,
            46.64552594079563
          ],
          [
            7.81966037918972,
            46.64545835577074
          ],
          [
            7.819561411838263,
            46.64539193856017
          ],
          [
            7.819433666905813,
            46.64519891381103
          ],
          [
            7.819352899682531,
            46.64515166835156
          ],
          [
            7.81916746270408,
            46.64492714413994
          ],
          [
            7.8188530900250095,
            46.644752138435756
          ],
          [
            7.818797811384961,
            46.64464780234076
          ],
          [
            7.81866071780465,
            46.644527195722674
          ],
          [
            7.817994974643169,
            46.64415607396736
          ],
          [
            7.8177917073107865,
            46.64395989805999
          ],
          [
            7.817606824687321,
            46.643811175671026
          ],
          [
            7.817273878442087,
            46.64361768730779
          ],
          [
            7.8169638808255995,
            46.64345932180851
          ],
          [
            7.816430635579646,
            46.64320867091194
          ],
          [
            7.81616975636039,
            46.64298892536873
          ],
          [
            7.815647054398226,
            46.64264558992611
          ],
          [
            7.815603465262504,
            46.64251563009381
          ],
          [
            7.815307827030777,
            46.64212926335634
          ],
          [
            7.815190883735134,
            46.641959245027614
          ],
          [
            7.8147640367719715,
            46.64170950362466
          ],
          [
            7.814628165332661,
            46.64152554090576
          ],
          [
            7.814347705515769,
            46.64131828768359
          ],
          [
            7.813869377163587,
            46.64098499007461
          ],
          [
            7.81369562732054,
            46.64078305157833
          ],
          [
            7.813504361956516,
            46.64065810100403
          ],
          [
            7.813546778664623,
            46.640525420013226
          ],
          [
            7.8133911014717565,
            46.64018865810687
          ],
          [
            7.813210829487319,
            46.64007598596119
          ],
          [
            7.813008013593119,
            46.640044222244974
          ],
          [
            7.812664764469891,
            46.63995110954758
          ],
          [
            7.812531515122407,
            46.639859574862164
          ],
          [
            7.812400301989133,
            46.63978293011952
          ],
          [
            7.812288093957091,
            46.63975572596405
          ],
          [
            7.812191657386489,
            46.6396917229146
          ],
          [
            7.811927037396978,
            46.639600689450035
          ],
          [
            7.811302889542803,
            46.63919470553405
          ],
          [
            7.811154487621084,
            46.639136358636016
          ],
          [
            7.8111502698915185,
            46.63910420402375
          ],
          [
            7.81097054613353,
            46.63895039852794
          ],
          [
            7.810871100340488,
            46.63883769283572
          ],
          [
            7.810567733978845,
            46.63873482741151
          ],
          [
            7.810160909341194,
            46.63851835038543
          ],
          [
            7.80998391756853,
            46.63837371898599
          ],
          [
            7.8099084019252825,
            46.63828398139231
          ],
          [
            7.8098705731750355,
            46.63818018691962
          ],
          [
            7.809801839680288,
            46.63807381225924
          ],
          [
            7.809713458269781,
            46.638018038911156
          ],
          [
            7.809667705584156,
            46.63795660358228
          ],
          [
            7.809607325187256,
            46.637898903997836
          ],
          [
            7.809613550825988,
            46.63783732664802
          ],
          [
            7.809539521689029,
            46.63773370371713
          ],
          [
            7.809517262886105,
            46.63759959721125
          ],
          [
            7.809412349978836,
            46.63746393317386
          ],
          [
            7.8094208941655,
            46.6373499487407
          ],
          [
            7.809357422143226,
            46.637231601519645
          ],
          [
            7.809371701298339,
            46.63698434615071
          ],
          [
            7.809207120389049,
            46.63669997105068
          ],
          [
            7.809232913042077,
            46.63657398441088
          ],
          [
            7.809202209639082,
            46.63637555949692
          ],
          [
            7.809257571816241,
            46.636299546513875
          ],
          [
            7.809190361465903,
            46.63595723806009
          ],
          [
            7.809268852475808,
            46.6358622501328
          ],
          [
            7.809212536715655,
            46.635768347702864
          ],
          [
            7.8090197291711965,
            46.63589109840378
          ],
          [
            7.80819592100222,
            46.63637579133393
          ],
          [
            7.808085281960735,
            46.63648338652395
          ],
          [
            7.8077519747093,
            46.636600742683015
          ],
          [
            7.807415241178549,
            46.636702294612164
          ],
          [
            7.807115794406827,
            46.63674277074627
          ],
          [
            7.806725269436513,
            46.63687949630947
          ],
          [
            7.806461614820064,
            46.63688487125084
          ],
          [
            7.806075520224751,
            46.63694931839112
          ],
          [
            7.805746280927676,
            46.6369492535744
          ],
          [
            7.805471932028879,
            46.63706867124639
          ],
          [
            7.805257849890291,
            46.63713935422843
          ],
          [
            7.804851047845899,
            46.63725144161549
          ],
          [
            7.804676644599606,
            46.637340149338804
          ],
          [
            7.801440282309563,
            46.63868635289594
          ],
          [
            7.799957447586924,
            46.63958882973376
          ],
          [
            7.799761586398489,
            46.63964469179456
          ],
          [
            7.799497781626549,
            46.63970215369654
          ],
          [
            7.799205073830166,
            46.639791065053245
          ],
          [
            7.799102913475527,
            46.63982624581574
          ],
          [
            7.798973210014135,
            46.639898971234274
          ],
          [
            7.798838819775205,
            46.64003093848951
          ],
          [
            7.798740107833342,
            46.640203741097665
          ],
          [
            7.79869065777302,
            46.640370298177054
          ],
          [
            7.798653896270826,
            46.64054378681568
          ],
          [
            7.798599589570876,
            46.64073822761282
          ],
          [
            7.798520320148361,
            46.64098328451226
          ],
          [
            7.798516402141044,
            46.641344857974914
          ],
          [
            7.798433982442155,
            46.641499311816034
          ],
          [
            7.798299670929831,
            46.64163999491165
          ],
          [
            7.798084642620943,
            46.64181229982063
          ],
          [
            7.797948962778171,
            46.6419399251584
          ],
          [
            7.797940073683528,
            46.6421237786962
          ],
          [
            7.797948368863345,
            46.64222829071408
          ],
          [
            7.797921063835081,
            46.642305918939385
          ],
          [
            7.797758789101803,
            46.642427528723644
          ],
          [
            7.79755112482052,
            46.642566696541756
          ],
          [
            7.797175064285212,
            46.642856260153806
          ],
          [
            7.797047262253714,
            46.64302828901922
          ],
          [
            7.796901639046055,
            46.643183821733324
          ],
          [
            7.796752038622302,
            46.64330887157927
          ],
          [
            7.79669056805621,
            46.64338335926867
          ],
          [
            7.796600117189104,
            46.64365981754483
          ],
          [
            7.796562073961754,
            46.643832427881975
          ],
          [
            7.796510028238575,
            46.64399116588271
          ],
          [
            7.79634780279683,
            46.644121481218896
          ],
          [
            7.796172651248901,
            46.644209143597074
          ],
          [
            7.795921722512101,
            46.644305768681534
          ],
          [
            7.795723690381966,
            46.6443743413125
          ],
          [
            7.795620110026728,
            46.64438599080244
          ],
          [
            7.795376232642547,
            46.64440330523095
          ],
          [
            7.794866267436729,
            46.64452250668857
          ],
          [
            7.794583735234976,
            46.644620594772185
          ],
          [
            7.794373291487314,
            46.64472492535106
          ],
          [
            7.7941604878665585,
            46.64485191385613
          ],
          [
            7.793993231999959,
            46.64498920407886
          ],
          [
            7.793844909767852,
            46.6451177453652
          ],
          [
            7.793711481033291,
            46.64520701922953
          ],
          [
            7.793525932151455,
            46.64525201664264
          ],
          [
            7.793341628813472,
            46.64529179242321
          ],
          [
            7.793210531416705,
            46.64535230845552
          ],
          [
            7.79318315009936,
            46.64541557872893
          ],
          [
            7.793176101685598,
            46.6455001144517
          ],
          [
            7.793193573251992,
            46.64565687179159
          ],
          [
            7.79317700029996,
            46.64582681450412
          ],
          [
            7.79310786062247,
            46.64607977909768
          ],
          [
            7.792795100364753,
            46.646582561420885
          ],
          [
            7.792690192957406,
            46.646781510079926
          ],
          [
            7.792609286458972,
            46.64697343060093
          ],
          [
            7.792500448976014,
            46.64714887672037
          ],
          [
            7.792421233396427,
            46.647217956718336
          ],
          [
            7.792163282455881,
            46.64740257231709
          ],
          [
            7.791880828180991,
            46.64771184343234
          ],
          [
            7.791816950087271,
            46.64780352649749
          ],
          [
            7.791720555950686,
            46.64797681937632
          ],
          [
            7.791651325123237,
            46.64814315551956
          ],
          [
            7.7916233115495475,
            46.64827022424969
          ],
          [
            7.791620135444371,
            46.64857244175113
          ],
          [
            7.79169870396454,
            46.648846331134315
          ],
          [
            7.791589298418749,
            46.649248233685086
          ],
          [
            7.7915221225877955,
            46.64937944449469
          ],
          [
            7.79157800636731,
            46.64947575868342
          ],
          [
            7.791567977972809,
            46.64966670360326
          ],
          [
            7.791712099870764,
            46.64990484859767
          ],
          [
            7.7917697041677965,
            46.6501486314597
          ],
          [
            7.791755704160246,
            46.65030137530686
          ],
          [
            7.791769747294074,
            46.65031944903183
          ],
          [
            7.791758012007782,
            46.65047493852884
          ],
          [
            7.791762625030977,
            46.65051325456767
          ],
          [
            7.791803899111709,
            46.65055848276731
          ],
          [
            7.791795250041808,
            46.65065840581012
          ],
          [
            7.791845614838861,
            46.6507194381501
          ],
          [
            7.791835646102933,
            46.6508092991868
          ],
          [
            7.7919764443705475,
            46.650899845104874
          ],
          [
            7.792000134956272,
            46.65092692953119
          ],
          [
            7.791990237216106,
            46.650949584135375
          ],
          [
            7.7919616539903815,
            46.65096946295498
          ],
          [
            7.791960047020696,
            46.65100545937658
          ],
          [
            7.791997998966386,
            46.651069993377774
          ],
          [
            7.791993354105167,
            46.65115291132466
          ],
          [
            7.792027103179787,
            46.6512319682487
          ],
          [
            7.792130364728831,
            46.65132140676782
          ],
          [
            7.792232696911631,
            46.651372508770116
          ],
          [
            7.792247308354982,
            46.65143151970999
          ],
          [
            7.792316145588149,
            46.651486494547086
          ],
          [
            7.792462345577682,
            46.65168757021783
          ],
          [
            7.792540576251589,
            46.6518345049412
          ],
          [
            7.792597204931906,
            46.65199812148805
          ],
          [
            7.792592734838857,
            46.65212961522141
          ],
          [
            7.792606020491305,
            46.65218755974608
          ],
          [
            7.7925335412842625,
            46.65230902732072
          ],
          [
            7.792556785280176,
            46.65236557364565
          ],
          [
            7.792615887149955,
            46.652415864782355
          ],
          [
            7.792675145863697,
            46.65243818804337
          ],
          [
            7.792776785569876,
            46.65259070824086
          ],
          [
            7.792859367053737,
            46.65266154435556
          ],
          [
            7.7929335442239545,
            46.65271571063745
          ],
          [
            7.792953262797696,
            46.652768444687304
          ],
          [
            7.793067027313443,
            46.652921007954255
          ],
          [
            7.793135301650086,
            46.65293349776894
          ],
          [
            7.793240752304016,
            46.653023297306376
          ],
          [
            7.793260714691864,
            46.653145089859926
          ],
          [
            7.793309244709138,
            46.653174714574085
          ],
          [
            7.793373977763202,
            46.65317902024585
          ],
          [
            7.793431663160398,
            46.65325013120873
          ],
          [
            7.793517356206819,
            46.65328318460246
          ],
          [
            7.793533687678671,
            46.65331532912905
          ],
          [
            7.79363241916919,
            46.65341819283071
          ],
          [
            7.793712966562801,
            46.653451415004206
          ],
          [
            7.793797407310808,
            46.65354241282076
          ],
          [
            7.793839401365826,
            46.65360715852182
          ],
          [
            7.793837247490151,
            46.65370695354746
          ],
          [
            7.793715848629996,
            46.653823059748476
          ],
          [
            7.793687628118396,
            46.65399994727289
          ],
          [
            7.793832388610521,
            46.654204803812625
          ],
          [
            7.793987244661924,
            46.6543752115348
          ],
          [
            7.7939838592022,
            46.654436617121185
          ],
          [
            7.794097134641535,
            46.65448786330766
          ],
          [
            7.794149632404741,
            46.65455246824008
          ],
          [
            7.79413597288545,
            46.65463486559899
          ],
          [
            7.794151640550722,
            46.6547826326956
          ],
          [
            7.794235235878013,
            46.65489166901929
          ],
          [
            7.794273805476969,
            46.65498177485656
          ],
          [
            7.794302699415014,
            46.65508255263241
          ],
          [
            7.794427044912286,
            46.65518195349396
          ],
          [
            7.7944910083123435,
            46.655263551227456
          ],
          [
            7.794598167719663,
            46.655308204208325
          ],
          [
            7.794622531100875,
            46.65538544551888
          ],
          [
            7.794840205300133,
            46.65560134489547
          ],
          [
            7.794866795998852,
            46.65566955660605
          ],
          [
            7.79480637273531,
            46.655838232922086
          ],
          [
            7.794985507774951,
            46.65598245827726
          ],
          [
            7.795062228325278,
            46.65613218460829
          ],
          [
            7.795046025501429,
            46.65618135122704
          ],
          [
            7.795066446927427,
            46.656270874759144
          ],
          [
            7.795051550557611,
            46.656298222943484
          ],
          [
            7.795012394168402,
            46.656323712801
          ],
          [
            7.794996525892714,
            46.65645545807164
          ],
          [
            7.794937472137635,
            46.656512719535385
          ],
          [
            7.794924898492852,
            46.656595239526986
          ],
          [
            7.794959315445116,
            46.65673488791576
          ],
          [
            7.79494101759061,
            46.65677147619619
          ],
          [
            7.7949418349333035,
            46.65681029869889
          ],
          [
            7.794918766781734,
            46.6569141170616
          ],
          [
            7.794829179798265,
            46.65698718907657
          ],
          [
            7.79467200479496,
            46.65729997092851
          ],
          [
            7.7946734157502195,
            46.65734564623411
          ],
          [
            7.794619509305138,
            46.65737327792571
          ],
          [
            7.7945767508077575,
            46.65749485196879
          ],
          [
            7.794541163519752,
            46.65762021777733
          ],
          [
            7.794487186649112,
            46.65774251042019
          ],
          [
            7.794446535931534,
            46.65780521057289
          ],
          [
            7.794368182447869,
            46.65782656742912
          ],
          [
            7.794281213740013,
            46.65786102168828
          ],
          [
            7.79418642454806,
            46.65792813630459
          ],
          [
            7.794056864537984,
            46.65799651052801
          ],
          [
            7.794000200550577,
            46.65806992915897
          ],
          [
            7.79403882604514,
            46.658184179096736
          ],
          [
            7.793972415134273,
            46.65834512833662
          ],
          [
            7.793970861570521,
            46.65842093016848
          ],
          [
            7.793875249958687,
            46.65852020637753
          ],
          [
            7.793859424383461,
            46.65859726701894
          ],
          [
            7.793818918676085,
            46.65864046400901
          ],
          [
            7.793822561077617,
            46.658723662052914
          ],
          [
            7.793631686524368,
            46.65881233169491
          ],
          [
            7.793648859124663,
            46.65888281286074
          ],
          [
            7.793478466301429,
            46.658949010494915
          ],
          [
            7.793377872435266,
            46.65900603140008
          ],
          [
            7.7932497618524454,
            46.65917453928661
          ],
          [
            7.793196041107767,
            46.65921495247329
          ],
          [
            7.7931076238967245,
            46.65936782849491
          ],
          [
            7.79292925005862,
            46.65950650069476
          ],
          [
            7.793000853190636,
            46.65958713099819
          ],
          [
            7.792937204454489,
            46.65967379430081
          ],
          [
            7.792874613322792,
            46.65971646576796
          ],
          [
            7.792913085754332,
            46.65976959139432
          ],
          [
            7.792893263449574,
            46.6598031975173
          ],
          [
            7.792871426713245,
            46.6598743755402
          ],
          [
            7.792584095017424,
            46.66019838882071
          ],
          [
            7.792542520117324,
            46.6602842188362
          ],
          [
            7.792553039202367,
            46.660286426136345
          ],
          [
            7.7925588965518955,
            46.660301025840106
          ],
          [
            7.792699065511576,
            46.66033134723905
          ],
          [
            7.7927613297090845,
            46.66034041961479
          ],
          [
            7.793090741694117,
            46.66045284104196
          ],
          [
            7.793163459935558,
            46.66047409677737
          ],
          [
            7.793218557955014,
            46.660496135832695
          ],
          [
            7.7932506608837375,
            46.66049228496273
          ],
          [
            7.793363912726686,
            46.66052813148455
          ],
          [
            7.793524950282564,
            46.66061054355881
          ],
          [
            7.793598036170229,
            46.6606479539842
          ],
          [
            7.793624820847423,
            46.66062807138071
          ],
          [
            7.793656688925253,
            46.660668083703996
          ],
          [
            7.793701733458301,
            46.660703080472764
          ],
          [
            7.793778237354488,
            46.66074961968979
          ],
          [
            7.793834403578217,
            46.66076113926165
          ],
          [
            7.793940913633375,
            46.66076699684147
          ],
          [
            7.793979368400342,
            46.66077735704973
          ],
          [
            7.794031203313823,
            46.66080178970449
          ],
          [
            7.79434228158498,
            46.66089906201392
          ],
          [
            7.794592214328247,
            46.6609924581053
          ],
          [
            7.794659483629473,
            46.66102733123341
          ],
          [
            7.794710637539842,
            46.66103157956202
          ],
          [
            7.794770342826977,
            46.66105467397792
          ],
          [
            7.794831582073735,
            46.661070621065385
          ],
          [
            7.79494144054161,
            46.661144393092485
          ],
          [
            7.795000711311971,
            46.66118877234974
          ],
          [
            7.795027757634904,
            46.66121461326914
          ],
          [
            7.795040295238444,
            46.66123560586218
          ],
          [
            7.79510681200099,
            46.661294994104665
          ],
          [
            7.795218808939383,
            46.661447308826766
          ],
          [
            7.795240652753726,
            46.66145491385745
          ],
          [
            7.795275137931823,
            46.66149526838497
          ],
          [
            7.795266924578071,
            46.661505944837906
          ],
          [
            7.79528360338011,
            46.661518882396685
          ],
          [
            7.795307388018099,
            46.661509713541335
          ],
          [
            7.79533556057328,
            46.661537880731814
          ],
          [
            7.795352138906374,
            46.66153557104113
          ],
          [
            7.795385451394955,
            46.66155459162006
          ],
          [
            7.795423844379696,
            46.66156139827088
          ],
          [
            7.795456937812353,
            46.66154916877572
          ],
          [
            7.795483970715544,
            46.66155904242719
          ],
          [
            7.795533745009382,
            46.66156203531452
          ],
          [
            7.795597959822247,
            46.66155356760925
          ],
          [
            7.795621895190297,
            46.661567256053836
          ],
          [
            7.795641626443887,
            46.66156952422251
          ],
          [
            7.795657086057452,
            46.661558060457644
          ],
          [
            7.795771060126693,
            46.66155030962487
          ],
          [
            7.795903731192441,
            46.6615108716209
          ],
          [
            7.796087790618746,
            46.66147749755182
          ],
          [
            7.796140634115433,
            46.66147437254773
          ],
          [
            7.796189444586097,
            46.66148574307652
          ],
          [
            7.796257026802562,
            46.661512356317274
          ],
          [
            7.79631321472793,
            46.6615427743727
          ],
          [
            7.796363110851262,
            46.66156024044796
          ],
          [
            7.796676224673502,
            46.661713074886364
          ],
          [
            7.7967427721089395,
            46.66174119335132
          ],
          [
            7.796838559524508,
            46.661796728614476
          ],
          [
            7.7968791968375415,
            46.66182868844804
          ],
          [
            7.7969717356027575,
            46.661865163105276
          ],
          [
            7.797042330205605,
            46.66190457617239
          ],
          [
            7.797102205700289,
            46.66192742595446
          ],
          [
            7.797067721819438,
            46.661948673891274
          ],
          [
            7.797313655604535,
            46.66219033318854
          ],
          [
            7.797377877187659,
            46.6622202667076
          ],
          [
            7.797482417422633,
            46.66232068899691
          ],
          [
            7.797773324574227,
            46.66264451575523
          ],
          [
            7.797870023063062,
            46.6627345454423
          ],
          [
            7.797901128138542,
            46.66271013244691
          ],
          [
            7.797932317838346,
            46.66272995957246
          ],
          [
            7.797898210935679,
            46.662758816855984
          ],
          [
            7.798168803988392,
            46.66297430945908
          ],
          [
            7.798312198086264,
            46.66302243411565
          ],
          [
            7.798395780852386,
            46.66281976962524
          ],
          [
            7.798550909506449,
            46.66266770474144
          ],
          [
            7.798627559814306,
            46.66269984728111
          ],
          [
            7.79842830046696,
            46.66289612981677
          ],
          [
            7.798397444732284,
            46.66297179014471
          ],
          [
            7.798485601725627,
            46.66298747054452
          ],
          [
            7.798494527254623,
            46.66301125378613
          ],
          [
            7.798514177215022,
            46.66300512881353
          ],
          [
            7.798545299724071,
            46.663008898824856
          ],
          [
            7.798596204880665,
            46.66302256459911
          ],
          [
            7.798701961431887,
            46.66302242904155
          ],
          [
            7.798811775857818,
            46.66301162079037
          ],
          [
            7.798811575107787,
            46.66298342019458
          ],
          [
            7.798870498005545,
            46.662980643570414
          ],
          [
            7.7989937788031,
            46.66295146860303
          ],
          [
            7.79917518155004,
            46.66291896152073
          ],
          [
            7.7995573277983095,
            46.66291325636257
          ],
          [
            7.799575032915024,
            46.662883946677134
          ],
          [
            7.79967557998003,
            46.662896186648084
          ],
          [
            7.799732699560375,
            46.66290906763743
          ],
          [
            7.799816908946798,
            46.66294403708019
          ],
          [
            7.7998555512595775,
            46.66298209219423
          ],
          [
            7.799924135877467,
            46.663005641588924
          ],
          [
            7.799975242678055,
            46.66304749834512
          ],
          [
            7.80005541291588,
            46.66309389582153
          ],
          [
            7.800092831433988,
            46.663109096889514
          ],
          [
            7.8001940054066505,
            46.66319357814719
          ],
          [
            7.800231383282257,
            46.66320268027635
          ],
          [
            7.800256437119178,
            46.66322703299973
          ],
          [
            7.800297006939285,
            46.66324451790007
          ],
          [
            7.8003272452174786,
            46.663270392434775
          ],
          [
            7.800374159158178,
            46.66329673587559
          ],
          [
            7.8004136759450855,
            46.66333064105533
          ],
          [
            7.800446928160338,
            46.66334998419268
          ],
          [
            7.800470906304677,
            46.663381491786105
          ],
          [
            7.800575776105795,
            46.66346552020895
          ],
          [
            7.800700241714553,
            46.663523570050884
          ],
          [
            7.8007532469343,
            46.663571690378234
          ],
          [
            7.800881840701656,
            46.66365688467025
          ],
          [
            7.800903971988825,
            46.663691564486406
          ],
          [
            7.800948012929321,
            46.66370243536618
          ],
          [
            7.80100889593358,
            46.663726899114586
          ],
          [
            7.801103182713942,
            46.66379910443034
          ],
          [
            7.801197984088982,
            46.6638525162093
          ],
          [
            7.801267647104146,
            46.66388270013274
          ],
          [
            7.801327909301659,
            46.66391391238895
          ],
          [
            7.801398492835891,
            46.66395859422863
          ],
          [
            7.801570041855198,
            46.66399373463322
          ],
          [
            7.801694881427098,
            46.66405070273104
          ],
          [
            7.801925209021258,
            46.66409442640154
          ],
          [
            7.802023399358015,
            46.66410553835912
          ],
          [
            7.802083238052846,
            46.66411833755509
          ],
          [
            7.80210636750731,
            46.6641302910555
          ],
          [
            7.802129058447933,
            46.66412948117917
          ],
          [
            7.802172751791813,
            46.66415076061221
          ],
          [
            7.802218384531322,
            46.66415146989235
          ],
          [
            7.802310827859639,
            46.664176498117946
          ],
          [
            7.8023938651211155,
            46.66419011382221
          ],
          [
            7.802656654102437,
            46.664257615933145
          ],
          [
            7.802689942347385,
            46.664274340581464
          ],
          [
            7.802715714610055,
            46.6642770560377
          ],
          [
            7.802750289692797,
            46.664269470431044
          ],
          [
            7.802813872825527,
            46.66431050351343
          ],
          [
            7.802841147341802,
            46.664320923386164
          ],
          [
            7.802875115949273,
            46.66433388564598
          ],
          [
            7.802965710036224,
            46.664348097523856
          ],
          [
            7.803048457997987,
            46.664371078103606
          ],
          [
            7.803230696168251,
            46.66439627773138
          ],
          [
            7.803297583164261,
            46.66439040588697
          ],
          [
            7.803454537757921,
            46.66441753000568
          ],
          [
            7.8034922797991735,
            46.66443004823575
          ],
          [
            7.803516124806655,
            46.664447288582274
          ],
          [
            7.80354759702729,
            46.66444654931223
          ],
          [
            7.803599577358598,
            46.66446812555606
          ],
          [
            7.803682950744558,
            46.66446946923771
          ],
          [
            7.8037843524238655,
            46.6644857868657
          ],
          [
            7.803884182097919,
            46.664509242950295
          ],
          [
            7.803973357402042,
            46.66452031010365
          ],
          [
            7.80409068314747,
            46.66452826456238
          ],
          [
            7.804183722316663,
            46.66452714812476
          ],
          [
            7.8043391752016245,
            46.664525282986396
          ],
          [
            7.804382794839907,
            46.66453741327621
          ],
          [
            7.804395097352686,
            46.664519103784045
          ],
          [
            7.804507143433303,
            46.66452886485327
          ],
          [
            7.804517600621698,
            46.66454104738052
          ],
          [
            7.804540424926737,
            46.66454254846842
          ],
          [
            7.804560028408324,
            46.66452956794778
          ],
          [
            7.80471560657579,
            46.6645384966252
          ],
          [
            7.80478705863299,
            46.66453913108586
          ],
          [
            7.804818592687243,
            46.66452628317624
          ],
          [
            7.804885572750294,
            46.664528371215034
          ],
          [
            7.8050088759442255,
            46.6645198255973
          ],
          [
            7.805121871761899,
            46.664517384968
          ],
          [
            7.805255671894856,
            46.664499872748436
          ],
          [
            7.80525915210844,
            46.66451789777058
          ],
          [
            7.805364353605431,
            46.664520258597065
          ],
          [
            7.805954181255881,
            46.66450172067722
          ],
          [
            7.8061272508039865,
            46.66449261792381
          ],
          [
            7.806125898364975,
            46.66448587556931
          ],
          [
            7.806197741237884,
            46.66448249584473
          ],
          [
            7.806226835745974,
            46.66462993018272
          ],
          [
            7.806213778647825,
            46.6646313215614
          ],
          [
            7.806220528698559,
            46.664663234245495
          ],
          [
            7.8063210656446405,
            46.66465211579147
          ],
          [
            7.806314318591827,
            46.66462065288401
          ],
          [
            7.806266007036389,
            46.664625756037694
          ],
          [
            7.806230861526258,
            46.66445315348278
          ],
          [
            7.806345071764463,
            46.66443524427515
          ],
          [
            7.806355763129704,
            46.66447029272205
          ],
          [
            7.806603218225906,
            46.66444745623226
          ],
          [
            7.806594983973213,
            46.66438946108267
          ],
          [
            7.806487172493778,
            46.66438755958316
          ],
          [
            7.806475146924267,
            46.66434846742185
          ],
          [
            7.806593874977503,
            46.66432244735882
          ],
          [
            7.806661341488657,
            46.664444120430524
          ],
          [
            7.806827458371944,
            46.664373419090545
          ],
          [
            7.806803031917279,
            46.66433616607536
          ],
          [
            7.807021212825984,
            46.66433186407087
          ],
          [
            7.8071269999669894,
            46.66432432620677
          ],
          [
            7.807234017106603,
            46.6643055397598
          ],
          [
            7.807335589727423,
            46.66427970923952
          ],
          [
            7.80734819025923,
            46.664288034466075
          ],
          [
            7.807388708547667,
            46.6642994179906
          ],
          [
            7.8074083969644015,
            46.6642970965015
          ],
          [
            7.80744373308549,
            46.66430924338018
          ],
          [
            7.807498921548321,
            46.664341197416626
          ],
          [
            7.807538337336956,
            46.6643441825493
          ],
          [
            7.807568096307181,
            46.664302985445076
          ],
          [
            7.807519099017329,
            46.66426493940162
          ],
          [
            7.8075053831847665,
            46.66423293235337
          ],
          [
            7.807524881902131,
            46.66420470409703
          ],
          [
            7.80750719789686,
            46.664194371301384
          ],
          [
            7.807558199885579,
            46.66413357609294
          ],
          [
            7.80757238897096,
            46.663914936889945
          ],
          [
            7.807673148090032,
            46.663649240712765
          ],
          [
            7.807728644831441,
            46.66354831046608
          ],
          [
            7.807768167853931,
            46.66350005616634
          ],
          [
            7.807820729166723,
            46.66344771166714
          ],
          [
            7.8080402024436815,
            46.66325044764082
          ],
          [
            7.808144005078752,
            46.663143963510464
          ],
          [
            7.808172832991114,
            46.66315601428268
          ],
          [
            7.808190336816097,
            46.66313616727929
          ],
          [
            7.80811890655155,
            46.6631040142638
          ],
          [
            7.8081455012203715,
            46.66307604179552
          ],
          [
            7.808169740678951,
            46.66308585851574
          ],
          [
            7.808254232720743,
            46.663021716161055
          ],
          [
            7.8083429116511525,
            46.66299669109894
          ],
          [
            7.808352143797929,
            46.66300925506025
          ],
          [
            7.808403627977609,
            46.662990647321415
          ],
          [
            7.808399011899282,
            46.66298436534293
          ],
          [
            7.808442610419426,
            46.66295903641603
          ],
          [
            7.808458810569832,
            46.66293964337384
          ],
          [
            7.808463901664039,
            46.66291983653471
          ],
          [
            7.808448945234763,
            46.662834426661966
          ],
          [
            7.808460982190627,
            46.66282722716391
          ],
          [
            7.808472368434129,
            46.66282040758824
          ],
          [
            7.80849703205793,
            46.66289229259229
          ],
          [
            7.808512110036502,
            46.66289989001565
          ],
          [
            7.808530383770611,
            46.66289713212861
          ],
          [
            7.8086090877162775,
            46.6628465016789
          ],
          [
            7.808750086003818,
            46.662734049296226
          ],
          [
            7.80875731526244,
            46.662740322789084
          ],
          [
            7.808798321793696,
            46.66271815059172
          ],
          [
            7.80878846399141,
            46.66270963672035
          ],
          [
            7.809040668988423,
            46.66252305934123
          ],
          [
            7.809165092757753,
            46.662470930818365
          ],
          [
            7.80922580532067,
            46.66246443683149
          ],
          [
            7.809377663715728,
            46.662411769237906
          ],
          [
            7.8096385715927585,
            46.662446904134725
          ],
          [
            7.8097280749439735,
            46.66244706302684
          ],
          [
            7.809759408025285,
            46.662443362931235
          ],
          [
            7.809799147450278,
            46.66242704163869
          ],
          [
            7.8098550709086565,
            46.66238907823728
          ],
          [
            7.809872435019063,
            46.662348991294344
          ],
          [
            7.8098676191768215,
            46.66233265292797
          ],
          [
            7.809926685911217,
            46.66231483844037
          ],
          [
            7.809941578347835,
            46.66233347389662
          ],
          [
            7.8101865867072116,
            46.66224137130849
          ],
          [
            7.810267343745843,
            46.66220467622182
          ],
          [
            7.810242339829438,
            46.662178670330135
          ],
          [
            7.810347906039533,
            46.662139645526615
          ],
          [
            7.810498036442706,
            46.66205256483641
          ],
          [
            7.810446202987237,
            46.6619839711805
          ],
          [
            7.8106759867410345,
            46.66188420786878
          ],
          [
            7.810771125719451,
            46.6618547160178
          ],
          [
            7.811102104312274,
            46.66170952692121
          ],
          [
            7.81110937098149,
            46.66171931742918
          ],
          [
            7.811373192566791,
            46.66160870987456
          ],
          [
            7.811452403022372,
            46.6615715692084
          ],
          [
            7.811480677642604,
            46.66158676941681
          ],
          [
            7.811524223399835,
            46.66160155991529
          ],
          [
            7.811593559808189,
            46.661610472969464
          ],
          [
            7.811677425606004,
            46.6616004567096
          ],
          [
            7.811744420183931,
            46.661584288552675
          ],
          [
            7.811807637290889,
            46.66156223158003
          ],
          [
            7.811924493665115,
            46.661480169357375
          ],
          [
            7.811974379874344,
            46.66147842300161
          ],
          [
            7.812077392971016,
            46.66145037058864
          ],
          [
            7.8121347928783065,
            46.66142603857971
          ],
          [
            7.812190622912941,
            46.6614411754451
          ],
          [
            7.812219615401767,
            46.661437320407366
          ],
          [
            7.812249582038465,
            46.661421273114755
          ],
          [
            7.8122556777180066,
            46.66140525896066
          ],
          [
            7.812240846189839,
            46.66136335194614
          ],
          [
            7.812241783653792,
            46.66134963056394
          ],
          [
            7.8122107538316286,
            46.6612949398103
          ],
          [
            7.812231425335389,
            46.66128758571623
          ],
          [
            7.81225091073458,
            46.66128064929841
          ],
          [
            7.812297628484633,
            46.66132907272433
          ],
          [
            7.812365322515733,
            46.66138777242242
          ],
          [
            7.812410883918527,
            46.66136333509819
          ],
          [
            7.812405608026575,
            46.661356155878835
          ],
          [
            7.812490238368096,
            46.66131314959109
          ],
          [
            7.81244291068275,
            46.661271025172006
          ],
          [
            7.812464704299902,
            46.661253997073956
          ],
          [
            7.812504743708903,
            46.66122271413806
          ],
          [
            7.812531930415498,
            46.6612014674123
          ],
          [
            7.812869189891798,
            46.66084728439891
          ],
          [
            7.812920284712597,
            46.66077290305538
          ],
          [
            7.812969012116273,
            46.66073406213715
          ],
          [
            7.813235739581266,
            46.66057261546486
          ],
          [
            7.813593657213855,
            46.66037263730921
          ],
          [
            7.813660520526773,
            46.66040570146178
          ],
          [
            7.813721553037407,
            46.6603515272437
          ],
          [
            7.813932379922569,
            46.660231192636274
          ],
          [
            7.8141044410240825,
            46.66017305490467
          ],
          [
            7.814284371064945,
            46.66012865431409
          ],
          [
            7.8142801659033685,
            46.660119519607896
          ],
          [
            7.814348448953968,
            46.66010112375081
          ],
          [
            7.814394004641823,
            46.6600949647386
          ],
          [
            7.814541907761603,
            46.66004824933131
          ],
          [
            7.814832711916226,
            46.659981524421234
          ],
          [
            7.814916507696651,
            46.659956249425946
          ],
          [
            7.814970184767769,
            46.65992492965483
          ],
          [
            7.815037459293312,
            46.65991188010483
          ],
          [
            7.815065503399253,
            46.65992021652886
          ],
          [
            7.815687229461597,
            46.65974325390502
          ],
          [
            7.815839606555482,
            46.659740753486105
          ],
          [
            7.815917423989516,
            46.65974825954992
          ],
          [
            7.816038584034994,
            46.65973208973795
          ],
          [
            7.816081016132138,
            46.65972211723731
          ],
          [
            7.816097667434242,
            46.659730473084615
          ],
          [
            7.8165446429514365,
            46.659754235979555
          ],
          [
            7.816551787713923,
            46.65973898274309
          ],
          [
            7.816588114900934,
            46.659743504215335
          ],
          [
            7.816623479641795,
            46.65976174718266
          ],
          [
            7.816662855390681,
            46.659759403874766
          ],
          [
            7.816737579504483,
            46.65976921350502
          ],
          [
            7.816771871933713,
            46.65977983169263
          ],
          [
            7.816807060996629,
            46.65977292343255
          ],
          [
            7.816891119031225,
            46.65978347566416
          ],
          [
            7.817042741250001,
            46.65982061983314
          ],
          [
            7.817304295307139,
            46.659861402248175
          ],
          [
            7.817654543443813,
            46.65998133893312
          ],
          [
            7.81771992340923,
            46.659988876065384
          ],
          [
            7.817751152339082,
            46.66000788804995
          ],
          [
            7.817927795722302,
            46.66006175176343
          ],
          [
            7.818213355099404,
            46.660127064350576
          ],
          [
            7.8182415999376795,
            46.66014344141131
          ],
          [
            7.818309723798439,
            46.66016585683277
          ],
          [
            7.818335213196722,
            46.66018800922722
          ],
          [
            7.8183678551368745,
            46.660203526042956
          ],
          [
            7.8185061683827195,
            46.66023731219555
          ],
          [
            7.818664818695246,
            46.66031115994173
          ],
          [
            7.81873298221735,
            46.6603187052186
          ],
          [
            7.81882591882356,
            46.660350546083045
          ],
          [
            7.818870195069436,
            46.660355724022004
          ],
          [
            7.81893299748838,
            46.66037194981862
          ],
          [
            7.818985462148787,
            46.6603896133418
          ],
          [
            7.819014521694376,
            46.6604158916752
          ],
          [
            7.8190451509154775,
            46.66041268612247
          ],
          [
            7.819052896210515,
            46.66039931081133
          ],
          [
            7.819098038875297,
            46.660392053827096
          ],
          [
            7.81916622829218,
            46.660369814259326
          ],
          [
            7.819243608892004,
            46.660322446224946
          ],
          [
            7.81937943368038,
            46.66026983667944
          ],
          [
            7.819469112852634,
            46.66024721040533
          ],
          [
            7.819536832896666,
            46.660221445896674
          ],
          [
            7.819593388025352,
            46.66020954487688
          ],
          [
            7.819685105715373,
            46.66018327739803
          ],
          [
            7.819727974822325,
            46.66017788984577
          ],
          [
            7.8198932759252235,
            46.660177409853006
          ],
          [
            7.820026378552978,
            46.660194740582334
          ],
          [
            7.8200581805039,
            46.660207794921355
          ],
          [
            7.820190456032319,
            46.66023010280137
          ],
          [
            7.82022985368126,
            46.660247512571736
          ],
          [
            7.82024619207811,
            46.66028734453928
          ],
          [
            7.820287589659646,
            46.66030857973882
          ],
          [
            7.8204683770573125,
            46.660367814044115
          ],
          [
            7.820611161451573,
            46.66042024860399
          ],
          [
            7.820703493712983,
            46.660458836678345
          ],
          [
            7.82079426986161,
            46.66051202078539
          ],
          [
            7.820838806838892,
            46.66051152085005
          ],
          [
            7.8208367559150584,
            46.66053747108869
          ],
          [
            7.820970350512238,
            46.660615015760335
          ],
          [
            7.821001411755054,
            46.660660006773604
          ],
          [
            7.821026271887144,
            46.66071125251627
          ],
          [
            7.8210925230496855,
            46.660773460184245
          ],
          [
            7.8211459096498945,
            46.66083267040103
          ],
          [
            7.821215069437013,
            46.66094217622388
          ],
          [
            7.821287227014543,
            46.661070931580916
          ],
          [
            7.821311148218226,
            46.661094653807744
          ],
          [
            7.82135503020326,
            46.661132639135126
          ],
          [
            7.821449834895034,
            46.66117325132912
          ],
          [
            7.821509976701637,
            46.66120837543584
          ],
          [
            7.821626404471309,
            46.6612857700184
          ],
          [
            7.821668559871778,
            46.66130866636592
          ],
          [
            7.821733450181205,
            46.66132608903093
          ],
          [
            7.821798900283762,
            46.66133399241285
          ],
          [
            7.821891598824362,
            46.66131695837314
          ],
          [
            7.821945485826334,
            46.661323029401956
          ],
          [
            7.822035945274489,
            46.66134404524569
          ],
          [
            7.822105877538046,
            46.66135571155861
          ],
          [
            7.822171659909531,
            46.66136255212716
          ],
          [
            7.822219455510348,
            46.661357165079096
          ],
          [
            7.822265544157565,
            46.66134690812045
          ],
          [
            7.822360557312573,
            46.661368861939465
          ],
          [
            7.82241981841736,
            46.66136812298512
          ],
          [
            7.822608593033562,
            46.66139026509312
          ],
          [
            7.822818674126112,
            46.66138056264881
          ],
          [
            7.822889759094029,
            46.66138340889233
          ],
          [
            7.823113281797894,
            46.661433967307445
          ],
          [
            7.823130748070862,
            46.66141336247874
          ],
          [
            7.823260541225413,
            46.661440604766426
          ],
          [
            7.823391444862843,
            46.66147700070695
          ],
          [
            7.823391493729674,
            46.66148387319748
          ],
          [
            7.823400868175212,
            46.66148842936803
          ],
          [
            7.82341952051294,
            46.66148763785247
          ],
          [
            7.8234444571450465,
            46.66149598269332
          ],
          [
            7.823460121398044,
            46.66151044882305
          ],
          [
            7.823483980306776,
            46.66151422751238
          ],
          [
            7.823652483115013,
            46.66158486866234
          ],
          [
            7.823655677314619,
            46.661598585208324
          ],
          [
            7.823771146384465,
            46.661647203847146
          ],
          [
            7.823830559518364,
            46.66173385611551
          ],
          [
            7.823860033334474,
            46.661749984760164
          ],
          [
            7.823928913422259,
            46.66181009493188
          ],
          [
            7.824052793528874,
            46.66188565377265
          ],
          [
            7.824039115066628,
            46.66190604805087
          ],
          [
            7.824143455676104,
            46.66196788247117
          ],
          [
            7.824174069828908,
            46.66199915581152
          ],
          [
            7.8242403428920975,
            46.66215904504422
          ],
          [
            7.824306646710589,
            46.662226036345984
          ],
          [
            7.824390195282133,
            46.6623000039137
          ],
          [
            7.824474811819616,
            46.66236795873533
          ],
          [
            7.8246190653498084,
            46.66246752938094
          ],
          [
            7.824720619727791,
            46.662530506144385
          ],
          [
            7.824829658871503,
            46.662587664316284
          ],
          [
            7.8249372722276656,
            46.66265188877235
          ],
          [
            7.82502820584507,
            46.66268942560127
          ],
          [
            7.825104136828675,
            46.662728389479426
          ],
          [
            7.825212764158371,
            46.66276619909741
          ],
          [
            7.8254110835250374,
            46.66285603229383
          ],
          [
            7.825439298621826,
            46.662884191943284
          ],
          [
            7.825499570137393,
            46.66290393099974
          ],
          [
            7.825529846436249,
            46.66292979875365
          ],
          [
            7.825649463064266,
            46.66298221558471
          ],
          [
            7.825679482216393,
            46.662977598007444
          ],
          [
            7.825712789870208,
            46.66299431588311
          ],
          [
            7.825748256877097,
            46.66302246885798
          ],
          [
            7.825824157818857,
            46.66304979202507
          ],
          [
            7.825893924597103,
            46.66309085427493
          ],
          [
            7.825940719921108,
            46.66310984719922
          ],
          [
            7.8260395851591555,
            46.66316001315422
          ],
          [
            7.826079036075708,
            46.6631660502629
          ],
          [
            7.826096820425941,
            46.663188119132755
          ],
          [
            7.826177923321995,
            46.66321925654396
          ],
          [
            7.82620509591243,
            46.663245899283766
          ],
          [
            7.826257073236386,
            46.663264118852986
          ],
          [
            7.826278940864459,
            46.6632834481561
          ],
          [
            7.826548597435385,
            46.6634268039521
          ],
          [
            7.826571563897206,
            46.6634481085023
          ],
          [
            7.826608997774574,
            46.66346254519821
          ],
          [
            7.826672602890349,
            46.66350969995929
          ],
          [
            7.82674545331984,
            46.66354694606001
          ],
          [
            7.826782004773692,
            46.663580429431775
          ],
          [
            7.826838184814895,
            46.663607036358464
          ],
          [
            7.826865320757526,
            46.6636321408148
          ],
          [
            7.827014938107953,
            46.66380800006321
          ],
          [
            7.827030569033164,
            46.66381941630193
          ],
          [
            7.827123898734413,
            46.663957253496605
          ],
          [
            7.827176231524598,
            46.664021196186496
          ],
          [
            7.827273707320708,
            46.66416131303057
          ],
          [
            7.827304022259529,
            46.66421053281866
          ],
          [
            7.827401788991668,
            46.66436922452201
          ],
          [
            7.827474886948718,
            46.66457341006849
          ],
          [
            7.827506850232751,
            46.66468465799605
          ],
          [
            7.827527316839122,
            46.664785249284634
          ],
          [
            7.827525632412504,
            46.66483631417176
          ],
          [
            7.827516617362527,
            46.66487825548315
          ],
          [
            7.827501057350201,
            46.66490767019606
          ]
        ]
      }
    }
  ]
}