{"type": "FeatureCollection", "features": [{"type": "Feature", "properties": {"bfs_nummer": 5883}, "geometry": {"type": "MultiPolygon", "coordinates": [[[[6.8366901322341755, 46.468985992906255], [6.836414742060467, 46.46887135195485], [6.836120364515085, 46.4687420539281], [6.835935419229505, 46.46871191448371], [6.835852652692282, 46.468708514221674], [6.835852341400947, 46.468618454750114], [6.835423436007307, 46.46835493116228], [6.835355845740305, 46.46830995131621], [6.834991738634989, 46.46808177397207], [6.83468827499128, 46.467950696465294], [6.834471687822485, 46.46794578132865], [6.834412780254114, 46.467904535766884], [6.8330676584036585, 46.46767678294613], [6.8324018943779405, 46.46740460405713], [6.816282454546921, 46.42809188833548], [6.797963014711258, 46.431667709656395], [6.813656251092683, 46.46997327352162], [6.813587375631445, 46.47005222028698], [6.813513272571762, 46.470155363875755], [6.813505534680141, 46.47016134844396], [6.813461608623854, 46.47017684892761], [6.813399067320571, 46.470192066747906], [6.813298311938693, 46.470246745511815], [6.813292101569863, 46.47035602136548], [6.813278281709255, 46.47046011770344], [6.813211849939729, 46.47083659966311], [6.813222642897985, 46.47096279113514], [6.813227210808814, 46.47106320180174], [6.8132526249552745, 46.471219880771415], [6.81329173148004, 46.471307178000444], [6.813336825177573, 46.47135970216949], [6.81342290324321, 46.471369712919596], [6.813762734880029, 46.471439237256234], [6.8139345557615085, 46.471464653815794], [6.813924170822137, 46.471563462537375], [6.8139283276828415, 46.471564295083304], [6.813900891787355, 46.47170996855229], [6.81382337474385, 46.472030887066616], [6.81378189718028, 46.47209471903836], [6.813775931054806, 46.472092707042485], [6.813761061478519, 46.4721175439777], [6.813687622916434, 46.47227681752356], [6.8136217137059685, 46.4724031366608], [6.814043386050611, 46.472488312842785], [6.814172303299899, 46.47254461904109], [6.814405161141071, 46.47258521317779], [6.814848292142708, 46.47271800371261], [6.8148059002630825, 46.47278101233334], [6.814800319580044, 46.472779443386194], [6.814765811918133, 46.47282603256981], [6.814738786482884, 46.47285494076987], [6.814670092722352, 46.47296314458924], [6.81467722639817, 46.47296553164567], [6.814667500121622, 46.472984729660176], [6.814626757044051, 46.47316668326182], [6.814634418018468, 46.473168524700505], [6.814641618261532, 46.47321030549664], [6.8146868421539, 46.47321793121596], [6.814923809238046, 46.47324127602869], [6.815038171113545, 46.47326034713819], [6.815453361335572, 46.47352585143187], [6.815501574698853, 46.47354527802616], [6.815528590774944, 46.47355109398097], [6.815559020053812, 46.473554499868726], [6.815620758256897, 46.473552770351176], [6.8156478852516855, 46.473548961323424], [6.816115624419222, 46.473455456094314], [6.81624398322338, 46.47343502078083], [6.816370614163899, 46.47341763444647], [6.816498530238275, 46.47341302915082], [6.817572894888632, 46.473458207391225], [6.817666326178131, 46.4733962787141], [6.8178436289722875, 46.47329640562507], [6.818053095869626, 46.47322116829974], [6.818048452855235, 46.473170765721356], [6.81813782316172, 46.473178991544], [6.818157951183824, 46.47318368958961], [6.818229531624827, 46.47315250574704], [6.818296216442587, 46.4731156276449], [6.81839639597396, 46.47305553450484], [6.818479252934216, 46.47301631593578], [6.818524005942646, 46.472998029164465], [6.8186300265835165, 46.472959926847615], [6.818636344838004, 46.47295509458281], [6.819562539041106, 46.472723997745504], [6.819937060494231, 46.47262386739426], [6.820172542198795, 46.47252993989685], [6.82041139297301, 46.47242256360535], [6.820575439134121, 46.47235517929742], [6.820625614330017, 46.47233971013897], [6.820660343960826, 46.4723211070174], [6.8207431049047464, 46.47229005464838], [6.820802501153203, 46.472311968788176], [6.82093008507232, 46.47228945515614], [6.821157956898595, 46.47224256019076], [6.82135121938907, 46.47221626576093], [6.821456920273515, 46.4722070271218], [6.8218639346368315, 46.472198169518784], [6.822058419581967, 46.472190232170334], [6.8222076894018295, 46.472175022677845], [6.822320865501228, 46.47216106516252], [6.822878144634817, 46.472115859036], [6.823069889809869, 46.47209693018615], [6.823283064652633, 46.47207127129356], [6.823326365729984, 46.472100293364], [6.823383865441593, 46.47220891692873], [6.823540775915523, 46.472369086830994], [6.823605729543942, 46.47245202224322], [6.823583190209108, 46.47264909081407], [6.823800974888933, 46.47309332348689], [6.823825085978552, 46.473195558118775], [6.823974130919703, 46.47317628815688], [6.823976788943894, 46.47318529855038], [6.823990482272509, 46.47318339377263], [6.823988237698384, 46.473174664475685], [6.824077145714952, 46.47316408199531], [6.824165773549555, 46.47315637651219], [6.82464022114296, 46.47313438986792], [6.824828485785294, 46.473134420293626], [6.825070202296259, 46.47315147231434], [6.8252302916549725, 46.47316861265127], [6.826135229218439, 46.473279759018396], [6.826088165007962, 46.47355073308181], [6.826088698803616, 46.473760062923674], [6.826063290922594, 46.47392607207642], [6.8263144487726315, 46.473945664453574], [6.827204834572395, 46.47402652372445], [6.827608360098674, 46.47402098159392], [6.827979805853915, 46.474062431133], [6.8280539899085575, 46.47308024956365], [6.829481999107843, 46.473209660603736], [6.8295520540618355, 46.47320814805428], [6.829681057702846, 46.47319930567871], [6.829899412571308, 46.47322368850178], [6.829897144581342, 46.47322853418167], [6.829952922008324, 46.47325888018306], [6.830036372269553, 46.47319050053997], [6.830307777380892, 46.472954016135475], [6.830385014722182, 46.47288228362648], [6.830408415872798, 46.47285073470335], [6.830470702854743, 46.47289272019215], [6.830519493938109, 46.472930665968896], [6.830825276226711, 46.4731941958206], [6.830902232522781, 46.47326333742787], [6.830920640924291, 46.47327401536208], [6.830936959459311, 46.47327948243232], [6.830966996534262, 46.4732807769912], [6.831040120383369, 46.473298171442245], [6.830878720220564, 46.4733859155917], [6.83082616564999, 46.473438349855286], [6.830807371981699, 46.473477021478566], [6.830784837482993, 46.473535733902814], [6.830773899870931, 46.473583263676105], [6.830774537196733, 46.47367718454278], [6.8308101770263026, 46.47378361770146], [6.830917697981729, 46.47390456912193], [6.830955242872927, 46.47392375202688], [6.830999652200249, 46.47393460557232], [6.8310470310277625, 46.47393611926831], [6.831149764633789, 46.47391300234072], [6.831315516461062, 46.47391443091645], [6.83169566532539, 46.47393122113433], [6.831913458897698, 46.47393634599103], [6.831907317611693, 46.473855798940484], [6.832015769246877, 46.47385798093051], [6.832021669003543, 46.47388922864785], [6.832494697465003, 46.473809357346575], [6.832512259254024, 46.473810809724505], [6.832558935162769, 46.47380764099902], [6.832626761039754, 46.47379711876291], [6.832761407891368, 46.47379603980156], [6.832786472119717, 46.47380192228122], [6.832803167127083, 46.47385635597011], [6.833313238461751, 46.47379512172238], [6.8333072436293385, 46.4737711605824], [6.834384978986511, 46.473715723521714], [6.834389335628585, 46.473687049656974], [6.834748312054413, 46.473745817506384], [6.834751108729409, 46.47372856006017], [6.8350551068499055, 46.47373295944441], [6.8350731527819395, 46.473679349920694], [6.835135326139374, 46.473626874871094], [6.835145429015289, 46.47360830710986], [6.835164698839587, 46.473550026283945], [6.835174045627833, 46.473482516738336], [6.835194295903526, 46.47341803379005], [6.835288173665068, 46.473441472992455], [6.835296435328445, 46.47343620929431], [6.835312318460954, 46.473448078652254], [6.835596368741447, 46.47352479694597], [6.835644436210808, 46.47353575801597], [6.835691403079353, 46.47354968201164], [6.835693405128983, 46.47354645405465], [6.835935429258074, 46.47360765485885], [6.8360793224491525, 46.47366599423043], [6.8364095538476795, 46.473758438237006], [6.836556543666113, 46.47379484348598], [6.83661474211301, 46.47380693746609], [6.8367053944811795, 46.47381731480575], [6.836839891211374, 46.47381802957731], [6.836977334266553, 46.47379968851546], [6.837220541802737, 46.473792164206195], [6.837316527347919, 46.47407118614372], [6.837574067671035, 46.474047634304796], [6.8379254562952685, 46.47403042666707], [6.838597995141938, 46.47401977684968], [6.838753009189213, 46.47402788452508], [6.839132873781844, 46.47402242871225], [6.839665404698768, 46.47402660371272], [6.8397969966048295, 46.47403214794416], [6.839798161136978, 46.4740093047597], [6.840408523475187, 46.47403879688234], [6.840386282466127, 46.47397768681235], [6.840366633185433, 46.47397659355068], [6.840358050710088, 46.47386841691401], [6.840363319618026, 46.473827603030934], [6.840416458031126, 46.47372038220104], [6.840423677851713, 46.47369154330442], [6.840419626927216, 46.47366930193766], [6.840460830845922, 46.4736286777957], [6.840500665351765, 46.473558809660574], [6.840508864994817, 46.473535553341215], [6.840473153106186, 46.473479859999], [6.840573484314648, 46.47324954489375], [6.840577447945125, 46.473244348171974], [6.840701727847084, 46.4732268320721], [6.840776936849881, 46.47320779763019], [6.840796169446272, 46.473199442906], [6.8408117057794104, 46.47318387189682], [6.840842662184599, 46.47312790053222], [6.84090155939456, 46.47305318503646], [6.840906294149122, 46.473025322517465], [6.8409790090991605, 46.4729137967554], [6.84099224248205, 46.47287095597375], [6.840977953540242, 46.47285612731938], [6.840720322543027, 46.47276840733621], [6.840668573679578, 46.47273826777685], [6.840836906205525, 46.472563546468365], [6.840913213432523, 46.47251573073538], [6.840917894531444, 46.47251629515063], [6.840919876057157, 46.47250191175558], [6.841000054390294, 46.472504403712065], [6.8410376137509745, 46.47251188844955], [6.841035709562414, 46.472519255135204], [6.841111356855977, 46.47253116875139], [6.841775677458617, 46.472672315855846], [6.841776364411462, 46.47262184319285], [6.841759237876336, 46.47254555756021], [6.841727105901257, 46.472542959179535], [6.84172676089253, 46.47253881912664], [6.841716478398019, 46.47253849519968], [6.8417169871010834, 46.472527792731086], [6.841732784538457, 46.47252391767073], [6.841799511243152, 46.4724238746326], [6.841843532758834, 46.472375528513226], [6.841912263870717, 46.472282602805876], [6.842004244027923, 46.47218305251394], [6.84212690625053, 46.47202860887873], [6.842306097566588, 46.47178953256048], [6.8424973405590155, 46.4715082477866], [6.842241895058793, 46.47142342139455], [6.841886999889806, 46.47131403354997], [6.841717347119914, 46.47125387480411], [6.841471292927743, 46.47113237510508], [6.841193003658395, 46.47100487610298], [6.841162567283841, 46.47103746056344], [6.840999136281912, 46.47101644676619], [6.840393091401571, 46.47070441935436], [6.839252639136478, 46.470078475036026], [6.839036445313698, 46.46996915534878], [6.838889619916864, 46.46990346379803], [6.8366901322341755, 46.468985992906255]]]]}}]}