{"type": "FeatureCollection", "features": [{"type": "Feature", "properties": {"bfs_nummer": 59}, "geometry": {"type": "MultiPolygon", "coordinates": [[[[8.516950793284279, 47.544405470707034], [8.5169125595365, 47.544209015672315], [8.516920253774622, 47.54399315465941], [8.516933479698494, 47.54392876516581], [8.51695437626001, 47.543865311771356], [8.516982805581838, 47.54380320932001], [8.517018602185594, 47.54374281024261], [8.517083046810205, 47.54365923533699], [8.517155043168366, 47.54358711219545], [8.517245030416504, 47.543515217294505], [8.517337955999823, 47.54345523977182], [8.517439751369853, 47.543402276387354], [8.517558965635418, 47.543353432098975], [8.517685813484967, 47.54331417689299], [8.517808110436809, 47.54328697173589], [8.517788629267757, 47.543283357447166], [8.517772455902756, 47.54327517009017], [8.517762147950577, 47.54326406782546], [8.517758247306018, 47.543251223895595], [8.517866116903965, 47.542984617961544], [8.5178995723173, 47.542922171681134], [8.517942126631427, 47.5428623210254], [8.517993341057968, 47.542805699706484], [8.518052695284402, 47.54275285222792], [8.518126655657653, 47.54269971576365], [8.51855237215998, 47.54243169500183], [8.518832645030603, 47.54231280932524], [8.51969896104296, 47.54186932852066], [8.519767692803246, 47.54184791873649], [8.519920196600463, 47.541811146942855], [8.52004174622237, 47.54175397625633], [8.520432680707534, 47.54154067185753], [8.520816257802732, 47.54135368123235], [8.520898098540327, 47.5412963678924], [8.520990236752311, 47.54125223461251], [8.520841316854911, 47.541112679959944], [8.520908531851047, 47.54110035018575], [8.520972372747726, 47.54108149481285], [8.521204540538461, 47.54098377617049], [8.521260341111986, 47.540953005936544], [8.52131095200436, 47.54091787679621], [8.5213460083556, 47.540887974948006], [8.521376865471993, 47.54084886584374], [8.521405390211829, 47.54078525918916], [8.521411221099202, 47.540718752435424], [8.521318084679509, 47.540717733794025], [8.521320720955426, 47.54025717548786], [8.521330671539385, 47.54012362028945], [8.521281470416017, 47.54002125340469], [8.521603259027472, 47.53966702430761], [8.521505038772927, 47.53963024569353], [8.521405508395688, 47.539581966162956], [8.521322148267348, 47.539530657201084], [8.521241382147464, 47.53946779286663], [8.521205387272834, 47.53943398558181], [8.52099949036213, 47.539185642683094], [8.520914057064628, 47.539061847162586], [8.520872525192651, 47.538981157550374], [8.52084326716899, 47.5389070093206], [8.520819939462715, 47.538823379315176], [8.520806275184489, 47.53873877759459], [8.520801292496813, 47.53864152032341], [8.520805637907673, 47.53855031026153], [8.52081918361552, 47.53845952696016], [8.520844573356378, 47.53836071777926], [8.5208967011035, 47.53822865756283], [8.520959380855416, 47.538119057260204], [8.521056238665437, 47.537983484986476], [8.521177778460444, 47.53784417411035], [8.521717275926685, 47.53732615093822], [8.52187165273081, 47.53719040005869], [8.5219766200072, 47.537107495669545], [8.522021897748145, 47.537076787437485], [8.522050253613749, 47.537066268436014], [8.522085705387752, 47.53705981162765], [8.522103187884158, 47.537064514269524], [8.52211178532687, 47.53707642372438], [8.522139289562535, 47.53700394864624], [8.522179705588638, 47.53692633382007], [8.52222548152166, 47.536858194151066], [8.522279549290495, 47.536792846208655], [8.522334963178245, 47.53673684904442], [8.522899354261831, 47.53621616740153], [8.522860205845667, 47.53619960573402], [8.522930851027244, 47.536090784157054], [8.52299166528283, 47.53597926619402], [8.523046865211565, 47.53585429073162], [8.52308633367966, 47.53573881692255], [8.523330245380585, 47.53480059675408], [8.523338322177754, 47.534725191075914], [8.52334324584712, 47.53454932671217], [8.523328705112647, 47.53435361349651], [8.523308952866353, 47.53423442155937], [8.523277025507907, 47.53412584029284], [8.523240519363606, 47.53403693722123], [8.52298246592133, 47.53349840576046], [8.522842573170008, 47.533184686540935], [8.52269003775367, 47.53288851711763], [8.522624317445954, 47.53277305618405], [8.522559050787416, 47.53267331352866], [8.522486687598889, 47.53257790075365], [8.52240683581759, 47.532485831971755], [8.522042100233694, 47.531913522772186], [8.521938436604694, 47.531730857441744], [8.521821119019993, 47.53156569725339], [8.521704244247271, 47.53142809241538], [8.520809395029445, 47.53047885716859], [8.520694208902515, 47.53032870609987], [8.520558990422005, 47.5301841475709], [8.520449935640022, 47.530028506080804], [8.520398518103255, 47.529938059253574], [8.520358988959645, 47.52985619922828], [8.519860983771418, 47.52868133430323], [8.51970366500105, 47.52833201096562], [8.518940709815954, 47.526817790018896], [8.518879198682129, 47.526651224889086], [8.518839287976245, 47.526481750896615], [8.518801992361094, 47.52610378324942], [8.518811558224328, 47.525862906993765], [8.518756412956733, 47.5256239833019], [8.51861632264306, 47.52420692989694], [8.518619611630037, 47.52412372557696], [8.518642054004527, 47.52404206973044], [8.518686711666119, 47.523958425867576], [8.51882498494652, 47.523855101391675], [8.518957402990836, 47.52377667446286], [8.519007863491181, 47.523758394420234], [8.519113547426347, 47.52374971831207], [8.519208022387057, 47.52373313242314], [8.519288338786309, 47.52371182145853], [8.519357016563708, 47.52368759677587], [8.52090010311764, 47.52298266969023], [8.52100920218019, 47.52293834101141], [8.521133866607297, 47.522893497972944], [8.521261972421836, 47.52285333583655], [8.521382316377858, 47.52282065775174], [8.521561638022105, 47.52278049327395], [8.521743271526384, 47.522749535324], [8.522661222485477, 47.52262469212839], [8.522890330019724, 47.522603677014274], [8.52312157419551, 47.52259822920892], [8.523666453552208, 47.52261188061911], [8.523890075820363, 47.52262724449704], [8.524145109422273, 47.52265725374182], [8.524058138064394, 47.52175236697872], [8.524214072096857, 47.52170836986985], [8.524349779188253, 47.5216648499663], [8.524498872856523, 47.521611031448664], [8.524627885687101, 47.521558993034304], [8.525643842845856, 47.52109902772414], [8.52573255365409, 47.5210554344806], [8.525817141817413, 47.52100829099434], [8.52584776701329, 47.52098972635271], [8.525934466951915, 47.520917953462856], [8.526065339356265, 47.520787561229426], [8.52613835717449, 47.52069802620832], [8.526360531894502, 47.52039254934455], [8.526295185582002, 47.5200341488892], [8.526140143640538, 47.519446479401516], [8.52585076971921, 47.51853403994215], [8.525458614624561, 47.51755683046739], [8.52538152234124, 47.517572260089025], [8.525302145808242, 47.51744412876895], [8.525200535799478, 47.51732342866144], [8.525077972491637, 47.51721172185615], [8.524936392123697, 47.51711084305021], [8.524968478403844, 47.51707810727282], [8.524755596700246, 47.51696865045172], [8.524668475378006, 47.51703451678807], [8.524426778423969, 47.51689234609693], [8.524306891117572, 47.51683547207768], [8.524190091770173, 47.516788706150635], [8.524101735046752, 47.51675832262043], [8.523044971092187, 47.51642967919843], [8.522781425784931, 47.51635840783525], [8.522374246614927, 47.51626032636735], [8.522339652598935, 47.51617856465593], [8.5220130610259, 47.516065165697796], [8.522117072957649, 47.51559091847229], [8.522855971676133, 47.51499634444926], [8.52237170578712, 47.51477133199413], [8.522051411974191, 47.5146577392545], [8.52169535312301, 47.514549409231265], [8.521774791262938, 47.51444528240675], [8.521510116605379, 47.51430365343139], [8.521491747469618, 47.51425179090814], [8.521111994782146, 47.51386313624241], [8.520917109829204, 47.51361930347971], [8.52074974229624, 47.51336929456185], [8.520615261629425, 47.51310948875473], [8.520497459633052, 47.51284261910988], [8.520268934367488, 47.51229446694291], [8.520138001195006, 47.51201757361106], [8.519191070115578, 47.51334214770806], [8.519216926787067, 47.5133895424281], [8.51919852668772, 47.51341898290271], [8.51902078377193, 47.513362247359645], [8.518929745064135, 47.513513791479305], [8.518255010501703, 47.51410939773552], [8.518095545046865, 47.514032234477796], [8.517912966745214, 47.51395185940615], [8.517725651524394, 47.51387748264234], [8.517552955955571, 47.513815615964766], [8.517188785892419, 47.51369480010709], [8.516584644779009, 47.513505203662156], [8.515097801456621, 47.51302913654322], [8.514897748120351, 47.51332001334551], [8.514918494702904, 47.513334877663624], [8.514927387270975, 47.513354421434826], [8.514923502325232, 47.5133730315787], [8.514906908008227, 47.51339014077343], [8.51418892861171, 47.51368127671291], [8.514093547305361, 47.513711970815145], [8.513993243365041, 47.51373428254839], [8.513889298186639, 47.513747894135975], [8.513783591293052, 47.51375251830748], [8.513569669391563, 47.513746723551456], [8.513384337930841, 47.51373269378406], [8.513242769864975, 47.51371492063951], [8.513089330303634, 47.51368848765454], [8.512651129561043, 47.51358216917012], [8.512525287915581, 47.51355814194022], [8.512428927391987, 47.51354630787662], [8.51233179963892, 47.513539868676894], [8.51213126233538, 47.513542006441504], [8.511907381255924, 47.5135603976938], [8.511687043791445, 47.51359517998705], [8.51153928365154, 47.51362840806579], [8.51129463805275, 47.51370669718147], [8.510443050188485, 47.51384129823404], [8.510381476132777, 47.51383549080783], [8.510336039703693, 47.51388401485316], [8.51016254456689, 47.51390324065474], [8.510016305029055, 47.513913192445294], [8.509834024915067, 47.51391549909857], [8.509644804400432, 47.51390610459547], [8.50906385800811, 47.51384715430861], [8.508848818819603, 47.51381684163555], [8.508612956562288, 47.51377700669193], [8.508169399129448, 47.51368776577641], [8.50776721906805, 47.51359158408289], [8.507405463456148, 47.51348729253989], [8.507015702053225, 47.51336215671788], [8.506924302378254, 47.51345968367344], [8.506846828624774, 47.513550569899444], [8.505448343661202, 47.51521183389496], [8.505428059528139, 47.515227194729725], [8.505398401211673, 47.51523722710568], [8.50536578581716, 47.51523884072239], [8.505334699731142, 47.51523197625283], [8.506179306534511, 47.51555525289925], [8.506158251278103, 47.51558378016809], [8.505768713719652, 47.51663246070837], [8.507291576473719, 47.51721860850799], [8.506450576449359, 47.51811753853976], [8.506197742061948, 47.518403659811575], [8.50621094778029, 47.51837694084654], [8.506208906814399, 47.518350686214916], [8.506193110964173, 47.51832843505077], [8.5061666002604, 47.51831148155361], [8.504392429501255, 47.51763790131024], [8.50272314715354, 47.519546600285295], [8.50245892467566, 47.5194229402672], [8.502213440167482, 47.519315954563574], [8.501912672354948, 47.519194598597714], [8.501332883304896, 47.51897546669907], [8.499068621625947, 47.51800620476414], [8.499045743264176, 47.51799150112172], [8.49903254495982, 47.51797217553769], [8.499031074812624, 47.51794972933118], [8.499041176406884, 47.517930298320934], [8.498910776633705, 47.51804405134665], [8.498411890628105, 47.518497765600394], [8.497923822839185, 47.51892910750323], [8.497648743730467, 47.51915950241722], [8.497611216658434, 47.51920195844081], [8.497581432618306, 47.519245854736], [8.497407727635057, 47.519590291175284], [8.497361989105947, 47.519665823388266], [8.497314328853163, 47.51973220762143], [8.497039877906506, 47.520049203829096], [8.49672893119909, 47.52035130494404], [8.496607575046761, 47.52044566079893], [8.496474585326771, 47.52052526362556], [8.496334843107618, 47.520589843957204], [8.495626649092888, 47.52086613852965], [8.494742454109911, 47.521192397697874], [8.494668801550317, 47.521168450855065], [8.494383697625771, 47.52105854471054], [8.494220897281467, 47.52100997312585], [8.494091420935934, 47.52097988747827], [8.493972232700136, 47.52095836079641], [8.493864760721191, 47.52094376107875], [8.493679065220505, 47.52092507950862], [8.49362744776604, 47.52090810897849], [8.49353046453257, 47.5208539719136], [8.493491605719068, 47.52084828137058], [8.49345573487461, 47.520854652411295], [8.493552521752674, 47.52095577027511], [8.493632073558203, 47.521063566141834], [8.493697050261861, 47.521184950677316], [8.493737264377158, 47.52130104697049], [8.493756938249408, 47.52142322190315], [8.493755675141486, 47.52154621711401], [8.49373342107474, 47.521668656952414], [8.49368746143291, 47.52179694338155], [8.493620696647072, 47.52193405405913], [8.493531597408667, 47.5220772055965], [8.493457301405778, 47.52217610351382], [8.493291996937819, 47.52236282618564], [8.493323509121437, 47.52237363861191], [8.493291911466212, 47.52241339476746], [8.493243966554967, 47.522412266215035], [8.493092596075762, 47.522604654243736], [8.492929849591336, 47.522839465349236], [8.492834936054138, 47.52298890248069], [8.492736648644135, 47.523157061057695], [8.49263502782516, 47.52334799727761], [8.492556069698747, 47.52351129356203], [8.49244036786903, 47.52378708703821], [8.49231487460575, 47.52415647750689], [8.491940583132834, 47.52550357897687], [8.491846068026181, 47.52579814859504], [8.491785568431343, 47.525961753026216], [8.491723815684573, 47.52610770340882], [8.491549173643415, 47.52645947823065], [8.491425910224002, 47.52667994117574], [8.491313874357862, 47.52686255152566], [8.49118408743057, 47.52705545996972], [8.491032248061135, 47.52726277102344], [8.490887839246197, 47.52744031422632], [8.490719232255035, 47.527633898455356], [8.490577260068076, 47.52778570346113], [8.49040920579097, 47.527952972968684], [8.490637774984481, 47.528219683588645], [8.490691037420888, 47.52822082796448], [8.490683117765165, 47.52836817768565], [8.490685703670009, 47.528511555278136], [8.490634743587863, 47.52867303051567], [8.49056788006342, 47.52914681719824], [8.490577315913916, 47.529283359687994], [8.490664445855789, 47.52967837659226], [8.490674029810853, 47.52994044668466], [8.490639406242698, 47.53056964666284], [8.490738844331261, 47.530732931774935], [8.490832142683535, 47.53080543585853], [8.491739273900182, 47.531227156795985], [8.492457387177511, 47.531465165039435], [8.492851639457298, 47.53163029995503], [8.493437424923755, 47.53184923241807], [8.4938962197728, 47.53223594320983], [8.494194775964528, 47.53243972255065], [8.494804655978044, 47.53293470667622], [8.494925114580832, 47.53305418143354], [8.495037632084193, 47.53318637498827], [8.495325786748339, 47.53358724622407], [8.495401076915877, 47.53372737926648], [8.495545475134822, 47.5340980883821], [8.49563530551363, 47.53424335022297], [8.49575430074275, 47.53447732008591], [8.49588974333226, 47.53461266696253], [8.496191659721891, 47.534870160825186], [8.496791148659517, 47.53527662979115], [8.49697835784402, 47.53536942571373], [8.497163967173336, 47.53543854431093], [8.497140225345046, 47.535466860291976], [8.49704998844432, 47.53549354413641], [8.496830994899925, 47.536173124629535], [8.496625585628466, 47.53684280340736], [8.496561809616095, 47.53699918095996], [8.496455234552315, 47.537202775051284], [8.496270571525704, 47.53762859134013], [8.49618030912419, 47.537824390684186], [8.496074080774036, 47.53799951321534], [8.495940572050275, 47.538291598094375], [8.495600927169491, 47.53914521499806], [8.495337067505421, 47.53998496252937], [8.49527306381456, 47.54024916816059], [8.495168308105354, 47.54084746175018], [8.49522291779747, 47.540909035350616], [8.495520399749116, 47.54100405728791], [8.495686334350506, 47.54106682777051], [8.495879327027653, 47.541157620967866], [8.49604673075571, 47.54125546508468], [8.496292877685704, 47.54141732393506], [8.496469268762272, 47.541552844562204], [8.496637616706169, 47.54170799271059], [8.496866776084468, 47.54195778374731], [8.496902714068217, 47.5419854375607], [8.49694246981733, 47.54200535714894], [8.49699676280072, 47.54202152812439], [8.497055253698091, 47.542028378317525], [8.497115129744245, 47.54202541169141], [8.497167586439282, 47.5420140849137], [8.49720685928198, 47.541999091896855], [8.497241404216812, 47.541979482906854], [8.49736729599432, 47.54187834908622], [8.500208584330938, 47.54288890154079], [8.500268585594146, 47.54291010080758], [8.500971209418966, 47.54116174525775], [8.500875625054176, 47.54113529579304], [8.502036138250695, 47.53948212401759], [8.502574581028664, 47.53967283235658], [8.503647545939737, 47.53821723925615], [8.504140800493502, 47.538750751983734], [8.504346022232488, 47.538956243841184], [8.504532870210937, 47.53912373135594], [8.504963684589391, 47.53942420729185], [8.50533791964471, 47.53971084719745], [8.505697358320111, 47.540200404846175], [8.505886594514287, 47.54042882454652], [8.50639967934255, 47.54086227796905], [8.506863519457882, 47.54120925935396], [8.507114459426306, 47.54142415597475], [8.507626973438175, 47.54184672621223], [8.508622670318159, 47.54231989006055], [8.509467918392625, 47.54276992493488], [8.50997206956274, 47.543021907620165], [8.510473379518148, 47.543263849472226], [8.510660425783888, 47.54333410290249], [8.511414768371315, 47.54355140190084], [8.512212857097705, 47.54377045843981], [8.512697322701943, 47.543874848609505], [8.51334414198809, 47.54398157183908], [8.513475413084343, 47.54401562210999], [8.513599766491701, 47.544061645256484], [8.51395876216236, 47.5442313165414], [8.514262582205122, 47.54439661482488], [8.51434213541236, 47.54440486208241], [8.514410210656584, 47.54438159972594], [8.51458041970254, 47.54423658289997], [8.514790621900625, 47.544090034304915], [8.515078743917758, 47.54392757891081], [8.515399634523556, 47.54376440452256], [8.515443493299095, 47.54379823942124], [8.51546146544891, 47.54380539401198], [8.516259223431323, 47.54391278519293], [8.51621699796819, 47.5441186858924], [8.51623745606005, 47.544279840513255], [8.516259389310356, 47.54436766645313], [8.516310098506157, 47.54448180381535], [8.516950793284279, 47.544405470707034]]]]}}]}