{"type": "FeatureCollection", "features": [{"type": "Feature", "properties": {"bfs_nummer": 590}, "geometry": {"type": "MultiPolygon", "coordinates": [[[[7.885751281143158, 46.69393292352865], [7.884211537490957, 46.69391707394375], [7.882888070951183, 46.69391367583831], [7.881056382542448, 46.69384060940338], [7.879350717718698, 46.69365864786072], [7.878225014719927, 46.69351431626091], [7.87576781337725, 46.69318236517283], [7.871346422233182, 46.69254316319396], [7.871260837744522, 46.69282337751542], [7.8712538672138, 46.69311226242431], [7.871266077875005, 46.69324622406003], [7.871321511137485, 46.69349144163142], [7.871309459627101, 46.69352113689763], [7.871294240931298, 46.69354060717731], [7.871284729465923, 46.69354953989297], [7.870811642386465, 46.69379568085506], [7.870366858005395, 46.694017381535524], [7.870126179083435, 46.69415419007724], [7.869414138387566, 46.69439922539331], [7.868801162701362, 46.69496046346434], [7.868727781847527, 46.695110124189476], [7.868577847424611, 46.69529545187207], [7.868243403285804, 46.69548130471789], [7.868018941637133, 46.69576331096199], [7.867806284628435, 46.696068525765796], [7.867498813013632, 46.69637064320132], [7.867363163257062, 46.69659396010376], [7.867157420494995, 46.69687487921685], [7.866770555258628, 46.69725421264244], [7.866363061537368, 46.69764351093436], [7.866296489367146, 46.69772482120374], [7.866248873806522, 46.69785218154235], [7.866067872117486, 46.6980392421413], [7.865940615896085, 46.69839088702026], [7.865978054732882, 46.698487361754594], [7.865534623882117, 46.698907314832496], [7.8653443778496, 46.69918435783435], [7.864571719475965, 46.70017076076469], [7.864198837473767, 46.70043034184464], [7.863859633203659, 46.70077617313169], [7.863464391000698, 46.70121452455585], [7.86267300910004, 46.70213243727579], [7.862258082021311, 46.70255936829158], [7.861817224856202, 46.7030553738861], [7.861405216558822, 46.703462520389984], [7.861061161123319, 46.70379477669477], [7.860791878285254, 46.70409093708486], [7.860832685221859, 46.70425280666977], [7.860824603045701, 46.70429782406814], [7.860900407928696, 46.704403574876615], [7.8611061242125375, 46.70448772008997], [7.861206858071344, 46.70458913186295], [7.8616467687473275, 46.70469458359068], [7.862133128054328, 46.70484987903424], [7.862442626072653, 46.70521251556719], [7.862624521302334, 46.705496067076695], [7.863064282876119, 46.70594195943745], [7.86315762618991, 46.70608866513926], [7.863452606924216, 46.70620161394615], [7.863960119873552, 46.70646480224212], [7.864292766114296, 46.70648802282294], [7.86445790415421, 46.70659316929916], [7.864708565588878, 46.706696674711225], [7.865061471190828, 46.707166115344286], [7.865119429923622, 46.707494321557604], [7.865844059875745, 46.707548704564985], [7.866102430780226, 46.7076391328834], [7.866429546145682, 46.70781849446498], [7.8667337554149395, 46.70796672736274], [7.867504452207997, 46.708296017817425], [7.867993523809951, 46.70886712775734], [7.8681273068483035, 46.70918319996917], [7.8683468546258455, 46.70948446791308], [7.868406748163423, 46.709678198723815], [7.868894590133961, 46.709894847368425], [7.869192663803036, 46.70988146144595], [7.869500331120537, 46.71005418733314], [7.869727950573829, 46.710148088435126], [7.87001341684826, 46.71038331685747], [7.870061006522707, 46.71065848440192], [7.870371291370028, 46.71075539054297], [7.870822949320506, 46.71097328427298], [7.871227661530082, 46.711248199249816], [7.871728291284644, 46.71143690062189], [7.8721644545444, 46.71156409084686], [7.872822475093967, 46.711878631824554], [7.873251812993508, 46.712065403728396], [7.87334844701412, 46.71219210021692], [7.873589984161462, 46.71240297362899], [7.873717255882093, 46.71268641061115], [7.874110746194132, 46.71307316327384], [7.874106786179228, 46.713250409920434], [7.874479863419788, 46.71342622458306], [7.874805135945717, 46.7135687769058], [7.875354961043998, 46.7138219455785], [7.875564651362973, 46.71390139456998], [7.875969677521345, 46.71416106036552], [7.876430699530625, 46.71457916610141], [7.876991298978106, 46.7148655395925], [7.877406315180756, 46.71497336130843], [7.877669019606914, 46.71519418531523], [7.878048956856367, 46.71528078043909], [7.878786371270143, 46.715417177501884], [7.878902510526647, 46.71560966740792], [7.879137375566444, 46.71579492614662], [7.879335868355454, 46.7160839845253], [7.879361607813835, 46.716222419840754], [7.879826628080182, 46.716627088241346], [7.880238873102468, 46.71691206919383], [7.880644413362154, 46.716953969330106], [7.880864783408898, 46.717147069962905], [7.881424474314652, 46.71721401592267], [7.882254727593573, 46.717431433619566], [7.882917350239243, 46.71769941140476], [7.883159030898855, 46.717667257774984], [7.883504930704516, 46.71783238532632], [7.883746167661938, 46.71806251509061], [7.88409231357743, 46.71825696564089], [7.884295692944965, 46.7183955763593], [7.884646594510308, 46.71842418936798], [7.884907485456744, 46.718402498839076], [7.885220649518911, 46.71856390434739], [7.885576434747055, 46.71871018237594], [7.885785591844756, 46.71882704456906], [7.88649463667751, 46.71883543112035], [7.88668433761839, 46.71875869316929], [7.887133302030428, 46.71898262374527], [7.8875165545275, 46.718957372650834], [7.888567514094611, 46.71933898742827], [7.888833515560014, 46.719361994334065], [7.889164762407245, 46.71917499389407], [7.889319270305069, 46.719452203307014], [7.889754113991991, 46.71958718440983], [7.890379264501855, 46.719561407634025], [7.890953635097931, 46.720006113368434], [7.8919857316136675, 46.72026823037738], [7.892657320568524, 46.720329102483234], [7.893178895097728, 46.720298432622876], [7.8932158682280384, 46.72042235235059], [7.893556798953109, 46.720572803559556], [7.894163245378261, 46.72079277604603], [7.894392286951031, 46.72079970729366], [7.894900346369901, 46.721089108756686], [7.8952219874566465, 46.72119076120423], [7.896141970249604, 46.72112136192526], [7.896491266145949, 46.72120612277894], [7.896989815808133, 46.72107555106762], [7.8974659537621275, 46.72153465698022], [7.897833047696795, 46.72166441129025], [7.898518370446822, 46.722160712212876], [7.899540801748751, 46.72257631907662], [7.900759183910634, 46.72270397762848], [7.901425653799741, 46.723005682820315], [7.901955330166939, 46.723148421561916], [7.9023422945758135, 46.72349072672473], [7.9028049782922105, 46.72365193918551], [7.903431163782505, 46.72373700361201], [7.90455315256147, 46.72406851114851], [7.905590892957984, 46.72444942939493], [7.905722601315695, 46.72483944132279], [7.907042881442882, 46.72563049021736], [7.907891012544103, 46.725911605767145], [7.909261581233386, 46.72638214564983], [7.91116313686099, 46.7274543562457], [7.913670986984727, 46.72839879332228], [7.915395177001808, 46.72731129811885], [7.91616099300723, 46.7266806293843], [7.915802405048138, 46.72658244472601], [7.914698985245066, 46.726496690263374], [7.914030672544991, 46.72627573098327], [7.9130398769521335, 46.72574979880932], [7.912833515384939, 46.725806798936404], [7.912304501034685, 46.72499896419089], [7.910788219786139, 46.72496919693852], [7.908709156188187, 46.724333032063385], [7.908325074897033, 46.72388310445113], [7.908778746155705, 46.72388631333678], [7.909170200353015, 46.7239353606045], [7.909680376744935, 46.72376260166443], [7.910071843970418, 46.72365302294215], [7.910394164424776, 46.723483396957086], [7.910677872133535, 46.72330814646969], [7.910799856916243, 46.723160911542855], [7.911076981265234, 46.72293624696944], [7.9114503776801515, 46.7227296679438], [7.9116901813700755, 46.722421837684486], [7.912152005074644, 46.72209254723825], [7.912380065365134, 46.72182009046759], [7.913018362843077, 46.72136924005564], [7.913343213869785, 46.720746300736366], [7.913851145180367, 46.72026802484414], [7.9147485149663295, 46.71974893465749], [7.91518287275125, 46.71924826949885], [7.915780693622721, 46.71883041021168], [7.916157451013175, 46.71835529914125], [7.91625319324722, 46.71815854959563], [7.91626742896436, 46.718021620488685], [7.916461782187174, 46.71763341581076], [7.916520600840399, 46.71757282680592], [7.916638777464702, 46.717524457354365], [7.916764794091257, 46.71748569706839], [7.917079226656529, 46.71727798150231], [7.917491690213935, 46.717073596629504], [7.917738428204563, 46.71675921414485], [7.917876776024021, 46.71652739829861], [7.917875821219416, 46.71646108597311], [7.917955965886655, 46.71636090025837], [7.917307290789679, 46.715985858861885], [7.917554730687698, 46.71529870587358], [7.917682188321635, 46.714365955433735], [7.91781588290349, 46.71379446569475], [7.917862476194761, 46.713553492740104], [7.91806897243842, 46.71336203340725], [7.918187895852016, 46.71308564973558], [7.918192310584945, 46.712806834492774], [7.918163561718617, 46.712535483582805], [7.918179241487767, 46.712417573747416], [7.918260192189474, 46.71215959574996], [7.918063329387751, 46.71208768367649], [7.91818059551294, 46.71185594653006], [7.918292835548342, 46.71159138795077], [7.91846137127015, 46.71140882242174], [7.918785147932319, 46.71094452552596], [7.918778148811407, 46.71094424020295], [7.91875839707311, 46.71091581596871], [7.9187294669424615, 46.71089794623653], [7.918706501616129, 46.71088904712885], [7.918522393083332, 46.71084799118194], [7.918435288896644, 46.71083261484394], [7.9182419307542515, 46.710780802464605], [7.918039004170731, 46.7106822529972], [7.917806517883958, 46.71042100552757], [7.917770938324406, 46.71030799868627], [7.917743939005084, 46.71030131134555], [7.917728950712993, 46.71028643235353], [7.917720352109903, 46.71025472275997], [7.917741763952482, 46.710253661371894], [7.917737323626034, 46.71021304672017], [7.917744292844639, 46.71018782978308], [7.917877512280764, 46.710094615522266], [7.917766596721242, 46.71001304088376], [7.917758451290995, 46.70998672665373], [7.917727719813192, 46.70997208475757], [7.917723410460587, 46.709958042635435], [7.917694314276059, 46.70994789166755], [7.917683601029867, 46.70995200279001], [7.917668805450649, 46.70994261935262], [7.91766758817723, 46.70993070516342], [7.917632686347529, 46.70991031453047], [7.917631898764886, 46.70990260856324], [7.91761522928909, 46.70988688217691], [7.917620320819207, 46.70987852183692], [7.9176061802314806, 46.709860409850755], [7.91757788454421, 46.709857937793025], [7.917552158254321, 46.709845829674045], [7.917536316397054, 46.70983052256572], [7.917516443647902, 46.70979127684634], [7.917465976779361, 46.7097794163526], [7.9173973509634985, 46.70975197948549], [7.91712032333692, 46.70968197601754], [7.917104256316918, 46.7096692874647], [7.917077146425394, 46.709673683233035], [7.917062849259276, 46.709667401099736], [7.917070390558342, 46.70966100047304], [7.91704739108542, 46.70964520149786], [7.917031823276198, 46.70964604940187], [7.9169973610523545, 46.7096265292015], [7.917000266241453, 46.70960754525487], [7.916985697493227, 46.70960307247666], [7.916937900781541, 46.709600313086064], [7.916890962975934, 46.70957934293859], [7.916822245807302, 46.709559246640396], [7.916786770776202, 46.70954200652752], [7.916770163225429, 46.70954210312211], [7.916755414280157, 46.70952169972986], [7.916728330136541, 46.709512763516216], [7.916671654834412, 46.709455419611324], [7.916620752423396, 46.709451926466386], [7.916566310282973, 46.70940899323967], [7.91654463127705, 46.70941973483792], [7.91651250932119, 46.70942522188223], [7.916434317329338, 46.70939544975114], [7.916383454146853, 46.709355001869305], [7.916323107550079, 46.70931869602508], [7.916294227204065, 46.709288510504365], [7.916225253643552, 46.70926893659597], [7.9161880671378535, 46.709265152031485], [7.916162875473282, 46.709217292597685], [7.916112719008334, 46.70922714568977], [7.916040448780722, 46.7091571018686], [7.9160197094867195, 46.70915874491626], [7.916003994854379, 46.709145928807146], [7.915976950862507, 46.7091400237577], [7.915935964585614, 46.7090924641998], [7.915918086541991, 46.70908787924736], [7.915914116063093, 46.70907513097275], [7.915870935677658, 46.70906488571574], [7.915760190421281, 46.708957625362686], [7.915729785569292, 46.708942810755296], [7.915701980610737, 46.70890995775817], [7.915658849283948, 46.708899343184136], [7.915620775893917, 46.708867648629415], [7.915566369342946, 46.70884488307293], [7.915518831237671, 46.708806112783314], [7.915514247536904, 46.7087624128256], [7.9155066661099, 46.708739100690394], [7.915439209700884, 46.70868534554766], [7.915412182174786, 46.708654594335165], [7.915376728088336, 46.70863218139214], [7.9153889902088475, 46.708613904935476], [7.915355675580429, 46.70860422996257], [7.9153015353419836, 46.70849302683859], [7.915289999779033, 46.70848248714361], [7.915302268504783, 46.708464957337235], [7.915239484802172, 46.708417533555654], [7.915232953691026, 46.70838873869314], [7.91519540750873, 46.70837227140375], [7.915138826539811, 46.70831491741232], [7.915143293585934, 46.70825498780868], [7.9151152264239615, 46.708256058686835], [7.915129721272387, 46.70822107699948], [7.914972353053068, 46.708061179349286], [7.91497597665014, 46.70804203941671], [7.914956057500329, 46.70802394226243], [7.914935365217438, 46.70802492835073], [7.914895326276568, 46.70798969745794], [7.9149202115321, 46.70797332936333], [7.914914959999689, 46.70796653256999], [7.914878285292999, 46.70797469185474], [7.914806638961166, 46.70791570936111], [7.914829179365348, 46.707904820397935], [7.914796898091662, 46.707895131755386], [7.914784333356176, 46.70789835083583], [7.914761211098977, 46.707880329970486], [7.914700218057667, 46.70784454777772], [7.914705946163248, 46.70783421466421], [7.914681955281436, 46.70782298013412], [7.914673388852108, 46.7078288001913], [7.914240834527343, 46.7075937382093], [7.9140532381261295, 46.70752615257917], [7.9138972353964805, 46.70748227342103], [7.913725021753773, 46.70745375416513], [7.913564498130613, 46.70741619040756], [7.913465311634413, 46.70740755333127], [7.913466046613227, 46.70739595484724], [7.913449240241417, 46.707376333248604], [7.913452186303308, 46.70736038969083], [7.9134241238552265, 46.70735750183232], [7.913409423508398, 46.70734241426818], [7.913372978089263, 46.707332013883274], [7.913335598817577, 46.70732993825125], [7.913319151329724, 46.70734520035037], [7.913286016782044, 46.707351455014575], [7.913277572419563, 46.707359271479774], [7.913166637857094, 46.707305398706865], [7.913006476825898, 46.70723454891577], [7.912970413735572, 46.70722300425489], [7.912921959627613, 46.707215109362565], [7.912788512435312, 46.707208017281694], [7.91266152863949, 46.707192352459785], [7.912649908620304, 46.70713482855599], [7.912515317122802, 46.70708073855042], [7.912522131892109, 46.70706752252234], [7.912487792250801, 46.70705861541087], [7.912481296842355, 46.707070975462244], [7.912343595299177, 46.707024553573284], [7.912337561117398, 46.70700748692902], [7.9123158863228475, 46.70699633213679], [7.912287787731413, 46.70699824777413], [7.912266851933129, 46.70704304298211], [7.912206190187604, 46.707029855023556], [7.912169705263618, 46.707014893648925], [7.9121364321618355, 46.707011289416215], [7.912082592315958, 46.707022973154594], [7.912035698530011, 46.70700654375547], [7.91198975123853, 46.7069802509182], [7.911967727848711, 46.70695913942056], [7.911946922742298, 46.70695318963411], [7.911924853337544, 46.706929802475415], [7.91189661878748, 46.70690871681986], [7.911887990658751, 46.70687766357761], [7.911903412333369, 46.70686468196805], [7.911867007304282, 46.70685731266326], [7.911812008979215, 46.706859132977094], [7.911783608653548, 46.706822125313316], [7.911763777236931, 46.7068123752601], [7.911762631953855, 46.70680404102944], [7.911729106838175, 46.70677312694338], [7.911714479929252, 46.706764866497224], [7.9117278223249, 46.706653292288244], [7.911706712826517, 46.706620023952944], [7.9116837761594425, 46.70661106044919], [7.911693039453766, 46.706602665050056], [7.911662646791726, 46.70657552519615], [7.911603205866892, 46.70654931552813], [7.911577978110685, 46.706520633885916], [7.911549737137435, 46.70650030341178], [7.911502009796034, 46.70650058264093], [7.911489369121215, 46.7064832011034], [7.911465406646945, 46.70647651807084], [7.911448607478191, 46.70645765124578], [7.9114100510912495, 46.706443445531654], [7.911384068549283, 46.706440566592605], [7.9113434323876, 46.706426368608675], [7.911329824808194, 46.70641507183952], [7.91127049645873, 46.70640024055971], [7.911238435530238, 46.70640805594904], [7.911105916411328, 46.70635883096795], [7.9110258949918, 46.706334307536245], [7.910995672629115, 46.706341494848786], [7.910966577591507, 46.706317668473865], [7.910944475888963, 46.70629208540191], [7.910918466755552, 46.706286156895025], [7.910894626957051, 46.70627108883728], [7.910861539996247, 46.70626328251145], [7.910815864667641, 46.706233542884014], [7.910820066493117, 46.70620858060294], [7.910647227923962, 46.7061587309638], [7.910604519815051, 46.706143803807905], [7.910553408910377, 46.70611905182418], [7.910486857247244, 46.70610956654766], [7.910480805013473, 46.70612628762063], [7.910437090575867, 46.70611440518448], [7.910419298872804, 46.706100085562184], [7.910445010566376, 46.70607794906048], [7.910405289051189, 46.70605162088884], [7.910349225322544, 46.70604966650603], [7.9102972143213925, 46.70604009411673], [7.910255539207106, 46.7060236333732], [7.910249566231852, 46.70604945753753], [7.910184954710879, 46.70602403265879], [7.910176744237939, 46.706033188458235], [7.910075794434219, 46.7060079585614], [7.909959040287944, 46.705960826600084], [7.909929992752383, 46.70596175696486], [7.909906811828081, 46.70592926101769], [7.9098816705270245, 46.705907405795266], [7.909826290258855, 46.7058743413421], [7.909768989182796, 46.70585342008115], [7.909748224655967, 46.705853541854715], [7.909746953898834, 46.705830787980354], [7.90970118074429, 46.705821189847015], [7.909623996195457, 46.70578597518902], [7.909589710760148, 46.705783130142855], [7.9094811998225065, 46.705763463521926], [7.909392793385809, 46.70572498443808], [7.9093115226776645, 46.705714488963864], [7.909288243734006, 46.70572763831037], [7.909268908625392, 46.705720746141964], [7.909255657915743, 46.70570080287855], [7.909221346042377, 46.70569493505014], [7.90920060129926, 46.70569732352571], [7.909185882563481, 46.70567843927765], [7.909108982070584, 46.70566976938226], [7.909086415339088, 46.705695680085725], [7.909067637328666, 46.7056866806529], [7.9090530903418745, 46.70568449186754], [7.909043608937908, 46.7056708932791], [7.909014561509453, 46.70567332564127], [7.908947950973259, 46.70565550049814], [7.908939535355987, 46.70564568440289], [7.90891047426096, 46.70564509368632], [7.9089072301948, 46.70563297166773], [7.9088655363593805, 46.705617284070776], [7.908847929695422, 46.70561964151433], [7.908825007038259, 46.70561219749426], [7.908763726233424, 46.705607232274524], [7.908681522916512, 46.70558872485401], [7.908666870343351, 46.705577423588146], [7.908615820872885, 46.70555950787974], [7.908587627760919, 46.70554297283654], [7.908564705359562, 46.705535520105975], [7.908533929041496, 46.70553914669857], [7.90849523317129, 46.70551937104784], [7.9084787490708806, 46.70552447676965], [7.908459466842459, 46.70552059823708], [7.908423912012229, 46.70547258980653], [7.908378027007899, 46.70545160270848], [7.908266637822303, 46.70541961367471], [7.908203206121018, 46.70540934981749], [7.908192757948187, 46.70540334746829], [7.908130365614807, 46.70539231453174], [7.908108502236408, 46.70538485701946], [7.908074237005069, 46.705384287459985], [7.90805871639751, 46.705388921294], [7.908033786987567, 46.705386783745276], [7.907992428894661, 46.70540219217447], [7.90795922261047, 46.70540313807156], [7.907945537430186, 46.70538576066599], [7.9078996659841, 46.70536629370824], [7.907882039734186, 46.70536639315093], [7.907839300254261, 46.70535070049703], [7.907823470273828, 46.70532575755371], [7.90780286360072, 46.70533952465935], [7.907759038496279, 46.705317773333036], [7.907756768697438, 46.70529882880347], [7.9077079630242135, 46.705298345605556], [7.907696462150997, 46.70528854260727], [7.907613371394211, 46.70528521364249], [7.907595810987032, 46.70529138489282], [7.907531517646193, 46.705299331430766], [7.907505430255468, 46.70528581883327], [7.907462796018646, 46.705277717899754], [7.9074410182192905, 46.705278590006024], [7.90743593240914, 46.70528923491161], [7.907419227483704, 46.70527947123643], [7.9073973774908906, 46.705275036196895], [7.907354552644142, 46.70524950219166], [7.907306753533182, 46.70524445388117], [7.907239137445561, 46.70522965459783], [7.907223623392423, 46.70523506175561], [7.907194516308956, 46.70523066542912], [7.907158259446788, 46.70523693401097], [7.9071343693271015, 46.70523554716285], [7.907026170332019, 46.70521263599899], [7.906984740483709, 46.70522121748669], [7.906968936863906, 46.70519931430764], [7.906907630454248, 46.705192827938866], [7.906844369828622, 46.70519772918099], [7.906813111344045, 46.70518500245618], [7.906799676268999, 46.70519190328712], [7.906726856201048, 46.70517562275953], [7.906700104253108, 46.70519701644327], [7.906694794733057, 46.70518642301536], [7.90667297768525, 46.70518427257423], [7.906634442582306, 46.70517234030646], [7.906603361640248, 46.70517707350621], [7.906545082115418, 46.70516374684069], [7.906483775807665, 46.705155748998344], [7.906470301295837, 46.70515809815931], [7.906387086222777, 46.705140357967316], [7.90635687412857, 46.70513066736862], [7.906341130115172, 46.70511406279523], [7.906323458019071, 46.70511036602692], [7.906316301251135, 46.7051217861742], [7.906193512462899, 46.70509137181811], [7.906160274070552, 46.7050885307885], [7.906055085085286, 46.70505649658411], [7.905992575170684, 46.705033327329744], [7.905814655391184, 46.70499259077943], [7.905795832504654, 46.70497980401477], [7.9057499884532545, 46.70496337660172], [7.905737560434143, 46.704965721906504], [7.90572500729426, 46.70495668744957], [7.905716514018099, 46.70493929734061], [7.905655011969306, 46.7049130843497], [7.9056017729933235, 46.70488531610936], [7.905570534865044, 46.704874865137555], [7.905548718418666, 46.70487271502826], [7.905493262578367, 46.704830544373955], [7.905431838879936, 46.70481343387749], [7.905371710278964, 46.704820597387275], [7.905323833277026, 46.70480646296923], [7.905300996487876, 46.704807338999], [7.905267895801311, 46.70482480210245], [7.905231070478608, 46.70483197076637], [7.905211934255738, 46.70482528415406], [7.905225237484918, 46.70480776780848], [7.905210414455864, 46.70478129858331], [7.9051677152385365, 46.70476712470695], [7.905129259512657, 46.704761272793895], [7.905078532792497, 46.70477444334863], [7.905060038795541, 46.70479199918946], [7.904874810190088, 46.704731402558274], [7.9047582293918275, 46.70468686404809], [7.904693849774185, 46.70467113270637], [7.9046579177828304, 46.704651632794665], [7.904627725911882, 46.704642688454605], [7.904603679631854, 46.70462613561228], [7.904476799652824, 46.70460333655363], [7.904438082436034, 46.70457320608988], [7.904359282297586, 46.70458047274127], [7.904331202047146, 46.7045753244614], [7.904305279949937, 46.70457774265654], [7.904282390777388, 46.70457254645185], [7.904252296872326, 46.70457196708855], [7.904222242577684, 46.704575922061615], [7.904158806920382, 46.70456490135043], [7.904120450734358, 46.70457042090504], [7.904069579952998, 46.704569944805186], [7.9040383617935905, 46.704561777987905], [7.904022867145226, 46.70456793130489], [7.904003135914772, 46.704566518454804], [7.904007143700588, 46.70455360233757], [7.903979116053538, 46.70455299701996], [7.903951303904817, 46.70457288267641], [7.903921353799097, 46.70458746057757], [7.903872232206436, 46.704555101641255], [7.903817007397139, 46.704534933558975], [7.903806644944817, 46.704537269689276], [7.903781650818505, 46.704529059492835], [7.903752570570403, 46.70452771161187], [7.903683832194109, 46.70450534066794], [7.9036327522748815, 46.70448361722129], [7.903527702791832, 46.7044629681336], [7.90350391816772, 46.704470684452346], [7.90347158221715, 46.704455694253824], [7.90344356788581, 46.70445660924814], [7.903357255492578, 46.70444039028209], [7.903325952665326, 46.7044253959335], [7.90329057670122, 46.70441725486654], [7.903270904442044, 46.704422678489685], [7.90325835845502, 46.70441287924577], [7.903020101906562, 46.704358830914884], [7.902970244614472, 46.704356074109704], [7.902927807430331, 46.70436616895284], [7.9029113643513575, 46.704382185109175], [7.902887579552888, 46.7043899011445], [7.902860382800282, 46.70437033815953], [7.902827073036176, 46.70436065951494], [7.902797738398329, 46.704334268323635], [7.902751928276316, 46.70432162666556], [7.902669787831791, 46.70430843125215], [7.9026527045149715, 46.70428646113379], [7.902637590055079, 46.70427751791565], [7.902611677755868, 46.704282642813965], [7.902408480820992, 46.70423175224382], [7.9023628207906915, 46.70423352097482], [7.9023284715458635, 46.7042246108402], [7.902333460605675, 46.704204098450475], [7.90229102996186, 46.70421647793975], [7.902244219773279, 46.70420763647192], [7.902214827038312, 46.70417593811291], [7.902173338361615, 46.70417769001997], [7.90215088343957, 46.70411485631002], [7.902118577675773, 46.7041139620814], [7.902097562854896, 46.70407873940856], [7.902038194100468, 46.70405858717146], [7.90203206777351, 46.70406848028986], [7.902073732482739, 46.704082659346334], [7.902086423903442, 46.704092682974796], [7.902065595304059, 46.704103562294954], [7.9020952588267255, 46.704131778314306], [7.902053483058726, 46.704130562588034], [7.9020222656676555, 46.704105663118575], [7.901993931877884, 46.704093724038785], [7.901955392037099, 46.704081034485746], [7.901935706767892, 46.7040834173933], [7.9018897800468615, 46.70405864974357], [7.901786798242768, 46.7040364617271], [7.901756281507708, 46.703997184170895], [7.901696945604206, 46.7039808279212], [7.901610633221042, 46.70391559065643], [7.9015792252974375, 46.7039187318282], [7.901558387587813, 46.70388278841678], [7.901546542496094, 46.70389063572726], [7.901518398210898, 46.70387941549332], [7.9014849132269, 46.70385381466067], [7.90147045272522, 46.70383112316149], [7.901441558541534, 46.70381022638546], [7.90140599328889, 46.703807375059135], [7.901371466305119, 46.70376850079639], [7.9012999863492555, 46.703737260714405], [7.901271790152141, 46.70371997738712], [7.901250038974334, 46.703723888815894], [7.901236421498022, 46.70371259137776], [7.90122270662589, 46.70369142629221], [7.901247498395764, 46.70367914577171], [7.901258744256934, 46.70366392451396], [7.901235985967504, 46.70367087141523], [7.901193451381414, 46.70367261803226], [7.901167444595103, 46.70366669621123], [7.901145472220349, 46.70365088986683], [7.901113261247952, 46.703647269470515], [7.9011036652443325, 46.70362305586674], [7.901121086431479, 46.70359142848927], [7.900947553487658, 46.70348284323147], [7.900921462303035, 46.70346856479897], [7.9008819230416565, 46.70345968447757], [7.900823198619275, 46.70340161219972], [7.900800219588013, 46.703387321265694], [7.9007907341785995, 46.703374468908166], [7.900773024164374, 46.703366228607365], [7.900723050907512, 46.703352847424966], [7.90069600480467, 46.70334768541557], [7.900674234326857, 46.70334932987536], [7.900643063047098, 46.70334495827099], [7.900632551034348, 46.703334394773385], [7.90060960460563, 46.703322379558394], [7.900603257165075, 46.703311034576274], [7.9005908030221885, 46.70331034742568], [7.900545891143239, 46.703284810769176], [7.900538484907921, 46.703270438617324], [7.9005060790210955, 46.70324861120525], [7.900493611862571, 46.70324792415317], [7.900472445564118, 46.70320859960091], [7.9004472578713685, 46.703182191326334], [7.900359747119902, 46.70314929741268], [7.90033779472697, 46.703135766847005], [7.900271807917324, 46.70307848842942], [7.9002489784854255, 46.7030786167936], [7.900233828474117, 46.703056242868335], [7.90017340461955, 46.703024102728534], [7.900141395092634, 46.70303025928762], [7.900104591348615, 46.70301094142134], [7.90007133981274, 46.70296353379244], [7.900047302210573, 46.70294774459288], [7.8999963614936375, 46.70294043909106], [7.899983972299662, 46.7029458236028], [7.899953821100459, 46.70294142977369], [7.899916270445167, 46.702923437288746], [7.899885066830088, 46.70291678063021], [7.899846431215895, 46.702894231660565], [7.899804554173488, 46.70285957869189], [7.899738678420226, 46.702813670095296], [7.899722021097401, 46.70280769234407], [7.899707503857594, 46.70278742074139], [7.89966076981693, 46.70275513510634], [7.899644992710621, 46.702723596984626], [7.899651030030518, 46.702718562033084], [7.89961687284951, 46.70269980908847], [7.899608320176433, 46.70270734601439], [7.899577312510267, 46.70270982825487], [7.89953176971588, 46.70268536380868], [7.899518339424439, 46.70268366389895], [7.899480795482875, 46.70266641791119], [7.899475797157109, 46.70265530136042], [7.899444402123514, 46.70263843533785], [7.899300116360015, 46.7025655141581], [7.899279388257413, 46.70256209851506], [7.899229248029847, 46.70253052817008], [7.899216651139899, 46.70251768814322], [7.899190567572415, 46.70250419193618], [7.899164386788817, 46.70248081891415], [7.899133060462885, 46.70246278312228], [7.899049162671859, 46.702434731338926], [7.899066603380961, 46.70241911639651], [7.899012749309615, 46.70239054748732], [7.89900453784514, 46.70239823589633], [7.89898519469316, 46.702377785994756], [7.899007250966921, 46.70235908488286], [7.898816724407163, 46.70225010607277], [7.898519584967025, 46.702058796752105], [7.898425362221376, 46.70197281796136], [7.89843775302801, 46.701969169751955], [7.89839835316455, 46.701822798572024], [7.898387429286239, 46.70182366118053], [7.898370235681073, 46.70176535761586], [7.8983821868808315, 46.701763834165426], [7.898303466160138, 46.70147719958912], [7.898451390355092, 46.70142038133046], [7.8983746708688685, 46.70131679038353], [7.898286697310857, 46.70135042853066], [7.898225064686724, 46.7013295368452], [7.898176495648138, 46.70130724313663], [7.89815872571115, 46.701293371340945], [7.898174885995882, 46.70127171679372], [7.898163733937435, 46.70126726382987], [7.898146292906067, 46.70129207199695], [7.898133748328084, 46.70130222464299], [7.898110091349148, 46.70130182510178], [7.898102879910365, 46.70130717057707], [7.898082078401268, 46.70130120921541], [7.898045517115079, 46.70127941599702], [7.898017394124843, 46.70127047053713], [7.898001167145564, 46.70124888349501], [7.8979980587114875, 46.70121086218113], [7.897982451397347, 46.701149889563], [7.897921659372377, 46.70107708944917], [7.89784493161145, 46.70105539507914], [7.897830718045259, 46.70099841953923], [7.897816846064576, 46.70097545551775], [7.897751049065709, 46.70095371699025], [7.897716906133126, 46.70095487113254], [7.897708004855793, 46.70087985573751], [7.89763634236339, 46.70082949837154], [7.897674011404882, 46.700800111095994], [7.89764903532222, 46.700784469131364], [7.897611370071381, 46.70081430613216], [7.897604805890185, 46.70081118407866], [7.897645617621034, 46.700766941377], [7.897616095889547, 46.70075491593079], [7.897601197265741, 46.70077116803272], [7.8975618273559665, 46.700754234584494], [7.897605219646592, 46.700705933433866], [7.8975553516364405, 46.700684544329704], [7.897564423882575, 46.700675062452945], [7.897514552098688, 46.70065322356443], [7.897524270455055, 46.70064283953095], [7.8974744025353365, 46.70062145039127], [7.897488005181418, 46.70060655293575], [7.89743813730963, 46.70058516378012], [7.8974536782824565, 46.700567559850306], [7.8974011878484145, 46.700545281652275], [7.89736037987, 46.70058997399317], [7.897308508933277, 46.70056364533885], [7.89727943907459, 46.700527779833514], [7.897287184847085, 46.700516054492944], [7.897319917738938, 46.70052132026744], [7.8973381728827965, 46.700515399693515], [7.897339354571416, 46.70050055235475], [7.897327472449566, 46.70048710633856], [7.897298000618442, 46.700480927849455], [7.897254926202544, 46.70048964688638], [7.897191554829697, 46.700494848695634], [7.897126810612878, 46.70045995375657], [7.897114195574638, 46.70044486459033], [7.897094421072869, 46.70043814337052], [7.897000454126896, 46.700384798663], [7.896977615700397, 46.70034366320481], [7.8970329549953515, 46.70029488263478], [7.89702507195747, 46.70029041646135], [7.89700687400299, 46.7003030833988], [7.896924094553451, 46.70025528899871], [7.896957237013542, 46.70023176733221], [7.896915845440431, 46.70020764523829], [7.896863197528015, 46.700243839054174], [7.896850792314381, 46.7002642639858], [7.8968394167570155, 46.70026887943887], [7.896817118238426, 46.700220455393456], [7.896805678043042, 46.700218990022194], [7.896814871760172, 46.70020377752026], [7.896796892346067, 46.700171267520545], [7.896783896961023, 46.700118991978705], [7.89676821568316, 46.70010770250459], [7.89676595624142, 46.70008950429479], [7.896754490521178, 46.70008501656803], [7.89675226976969, 46.700071379028486], [7.896711003265589, 46.700060443985606], [7.896682151516182, 46.70004255042749], [7.896641030541432, 46.7000287093655], [7.896588808670314, 46.699997910767536], [7.8965323713050415, 46.69995411260007], [7.896504713709697, 46.699918204809336], [7.89643671265704, 46.69986451272675], [7.896406421610383, 46.699846480868686], [7.896384600347056, 46.699845083977124], [7.896354264380392, 46.69982173595527], [7.896338738328212, 46.699825613045974], [7.896323153812899, 46.69982417347631], [7.896320887821793, 46.69980522814954], [7.896288434578113, 46.69977734581708], [7.896290242530043, 46.69975154774723], [7.896270410039248, 46.6997410303873], [7.896223469550521, 46.699717775849535], [7.896246600458779, 46.6997472338649], [7.896231106033165, 46.69975489740518], [7.896208149279698, 46.69974289056452], [7.896181176902037, 46.69974304403896], [7.896136392641177, 46.69972735532064], [7.896131989319699, 46.69970462208104], [7.896105894897181, 46.699689595901546], [7.896045552048115, 46.69967551696788], [7.896014247238378, 46.69965975560628], [7.895986222497728, 46.699657637037156], [7.8959653957352, 46.69965168432432], [7.8959256861580185, 46.699625360163566], [7.895894517030485, 46.6996224895081], [7.89588924929265, 46.69961493634205], [7.895877815983935, 46.699612724180035], [7.89583589869652, 46.69957426466475], [7.895819268617728, 46.69957132688299], [7.895793122719218, 46.69955174007683], [7.895786706160695, 46.699533576627985], [7.895801122465722, 46.69952211235344], [7.8958016081603235, 46.69946978275371], [7.895783893483075, 46.699462297305026], [7.895778831799494, 46.69947446178733], [7.895714460055892, 46.699472533595056], [7.895712924945899, 46.699425519536156], [7.895684662020496, 46.699401398559765], [7.895636714737102, 46.699381179239126], [7.895629128906809, 46.69936545806552], [7.895605887001161, 46.69936456158789], [7.8955759686369245, 46.69937969521548], [7.895563449248292, 46.69935572686391], [7.8955402034714375, 46.69935282436866], [7.895505721156126, 46.699319939288706], [7.8954849489327135, 46.69929101156679], [7.895428789948362, 46.69927523406572], [7.895407975249985, 46.699241295685326], [7.89541739236778, 46.69922624373285], [7.895405336573184, 46.69918599095839], [7.895366737849972, 46.699167245734095], [7.895376816469022, 46.699137600625846], [7.895375526192453, 46.699113335545974], [7.895368083303481, 46.699095931786886], [7.895356598645458, 46.69908916805518], [7.895346043992054, 46.69907177669457], [7.895309356592096, 46.69903784792221], [7.895272772566855, 46.69901150209992], [7.895243406058047, 46.698982077838565], [7.895228809782706, 46.6989753355309], [7.895220340430432, 46.69895869146573], [7.89519733249266, 46.698942132545675], [7.895186932200341, 46.69893990723504], [7.895167029557759, 46.69892257127137], [7.89515664857695, 46.69892263078389], [7.89515025170347, 46.69890522277699], [7.8951220081037885, 46.698884888611325], [7.895120859410347, 46.6988742783301], [7.895098019066832, 46.698872894552636], [7.895087445112172, 46.69885321818482], [7.895071847803024, 46.698851796250715], [7.895048789013764, 46.698827645301876], [7.895023950675034, 46.69879558532975], [7.895031592737151, 46.69873751468252], [7.894997306594658, 46.698724653285495], [7.895006622585044, 46.6986975929025], [7.894981746104251, 46.698667206191615], [7.894972198664055, 46.6986482994571], [7.894947035275429, 46.69862264554738], [7.89491461541418, 46.698598549846444], [7.894883299159397, 46.69858127740873], [7.894865636308394, 46.698579854967946], [7.894867380690434, 46.69854798526514], [7.894856852263819, 46.698532122989434], [7.894845399769554, 46.69852914626207], [7.8948588085958535, 46.69852224697892], [7.894858744562482, 46.698514663875855], [7.894839984431743, 46.69850718252664], [7.894825208253117, 46.69848375394239], [7.894803310536278, 46.698474764867164], [7.89478968294158, 46.698461946486795], [7.894776293516654, 46.69846959234808], [7.894759534863706, 46.698456030949224], [7.894744829385622, 46.69843942971593], [7.8947446947696465, 46.69842502821723], [7.894731920106131, 46.69839551958442], [7.894700713403555, 46.698388097033366], [7.894694386934577, 46.69837901856896], [7.894681882760999, 46.69837226780088], [7.894607984584653, 46.69835218780984], [7.894602665950578, 46.69833857165683], [7.89459015480068, 46.69833408784518], [7.894592105009131, 46.69832193591396], [7.8945837514978905, 46.69831743548952], [7.894580466559213, 46.698300015005294], [7.894534747010214, 46.698295708807265], [7.8945086473787764, 46.698279926699385], [7.894507511472294, 46.69827081861163], [7.894483599761677, 46.69826640729857], [7.894478306637948, 46.69825581354806], [7.894465763546968, 46.69824754264373], [7.894397171790538, 46.698238056202314], [7.894384648129056, 46.69823054080369], [7.894353730202261, 46.698252703619396], [7.894331884026726, 46.69824826594033], [7.894299471025247, 46.69822492565911], [7.894285998122065, 46.698225771104184], [7.894297129361309, 46.6981983979725], [7.894309466858363, 46.69818695114093], [7.89430106219091, 46.69817637882636], [7.8942823342373165, 46.698172693394234], [7.894229448696957, 46.69814342583505], [7.89419809048528, 46.698150558908175], [7.894146147352571, 46.698147770811836], [7.893906185755822, 46.698057709208015], [7.893885566572179, 46.69804059176002], [7.893865857223661, 46.698041461951235], [7.893861635739786, 46.698033895460306], [7.89374409181159, 46.698007233162954], [7.893703514204697, 46.69800950912623], [7.8936827982671485, 46.69798557306395], [7.893599361192054, 46.69797691010981], [7.893525198763178, 46.697936203357926], [7.893364591931861, 46.69784016693545], [7.893302898368051, 46.69779422896396], [7.89329132463091, 46.69777837073215], [7.89326523167459, 46.69776485530363], [7.893261953886251, 46.69774818191664], [7.893281393709489, 46.697721531040386], [7.893261076126446, 46.6976624749748], [7.893242207636223, 46.69764361418587], [7.8931984331782035, 46.69762640919578], [7.893124671886752, 46.69761922834316], [7.893077566540754, 46.69758079593194], [7.89305058224767, 46.69757943708885], [7.893049382535614, 46.69756426615192], [7.893032778596356, 46.69756435924425], [7.893023552830164, 46.69757426428185], [7.89298916461525, 46.69756156453733], [7.892937832918127, 46.69751481142019], [7.892933534470841, 46.69750119100234], [7.892950100114439, 46.6974965462587], [7.892932091532619, 46.697461741822785], [7.892914467937323, 46.69746184797588], [7.892909130288921, 46.69744746715343], [7.892863093755726, 46.69741156878308], [7.892817904297728, 46.69740175471122], [7.892812185904207, 46.697374754292], [7.89274914139544, 46.69735300260666], [7.892722390928005, 46.69726905282015], [7.8926976641325615, 46.6972531479125], [7.892632067795885, 46.69725142069717], [7.892584163008854, 46.69724360572718], [7.892503019835309, 46.69721529478257], [7.89245505730617, 46.697191287462026], [7.892436143869761, 46.697170150646485], [7.892403822418304, 46.69715440203889], [7.892397425836083, 46.697138504610116], [7.892373450677674, 46.69712801205232], [7.89235772000988, 46.69711217940296], [7.892289970739266, 46.697084480983825], [7.89226192792218, 46.697081587958316], [7.892168227854065, 46.69705252667459], [7.8921483653398345, 46.6970382214988], [7.892131780756673, 46.69704058151105], [7.892087032728959, 46.69702869735994], [7.892065162182036, 46.6970197076215], [7.892061928681965, 46.69700834952351], [7.891921388137985, 46.69696587250744], [7.891869524165972, 46.69696768001086], [7.891772778545154, 46.69694621647457], [7.891720678260985, 46.696926013128135], [7.8916416315652915, 46.69690900136156], [7.891478152050795, 46.69685528366745], [7.891483220533548, 46.696843865757415], [7.8914694280995334, 46.696814360597344], [7.891440218151276, 46.69680011040928], [7.891405920450742, 46.6967949931303], [7.891385069807576, 46.69678599912231], [7.891312425950789, 46.696785631301], [7.891223961167884, 46.6967603256177], [7.8911874313243375, 46.69674004118664], [7.891161594947673, 46.69675080349001], [7.891133533304489, 46.6967456521539], [7.891115960414347, 46.696753332343036], [7.891114991251868, 46.69676091976651], [7.891094262147882, 46.69676179299959], [7.891067379688294, 46.69677255035349], [7.891027885485502, 46.69676669809121], [7.891034854010983, 46.69673859475642], [7.89101714094188, 46.69673110862812], [7.8909932428033605, 46.69672820774467], [7.89095785456506, 46.696717769045904], [7.890915065929275, 46.696715104912975], [7.890796964626596, 46.69665254921108], [7.890772364293467, 46.69665164824943], [7.890736956040476, 46.69663099940506], [7.89072658176895, 46.69663180516376], [7.890706713471975, 46.69661674412688], [7.890683809914217, 46.69661079893657], [7.890670209424551, 46.696599500054376], [7.890627527294955, 46.69658607692821], [7.890621074586514, 46.696563361309245], [7.890593905159349, 46.69654606217906], [7.890513692398465, 46.69651615430588], [7.890483386292213, 46.69649584517914], [7.890447966328526, 46.69648313960477], [7.8904353735552215, 46.69646879644885], [7.890392659264517, 46.6964530971739], [7.890387182498394, 46.69642355005512], [7.890321717536661, 46.69641707132243], [7.890283090583441, 46.69639451910668], [7.890216472547762, 46.696373642895125], [7.8901968019379805, 46.69637906430436], [7.890157396936822, 46.69638231459679], [7.890124062342281, 46.69636883577057], [7.890108701929661, 46.69638940662961], [7.890067249899374, 46.69639645228071], [7.889988236493551, 46.69638170612843], [7.889854694520655, 46.69631114107721], [7.889835782592314, 46.69629000405807], [7.889774316685751, 46.69626606664879], [7.889727477329874, 46.69625265931998], [7.889648196268523, 46.696213652540195], [7.889452659360581, 46.696169968459], [7.889422373015714, 46.69615040544214], [7.889367174815917, 46.69613175046006], [7.8893443484080965, 46.696131867880055], [7.889254725393786, 46.696095932992705], [7.889252494132839, 46.696080793020315], [7.889234883166952, 46.69608392117255], [7.889222341740272, 46.696074129366], [7.889226422323753, 46.696068032147764], [7.889153435281798, 46.696034289658634], [7.889116817468142, 46.6960064217235], [7.889074199662173, 46.69599906956091], [7.889020851551682, 46.695957639155324], [7.889005013731098, 46.695931938109176], [7.888966476746239, 46.69591849778081], [7.8889548220386185, 46.695894291440034], [7.888931938199939, 46.695889101264726], [7.888913033581096, 46.695867208457294], [7.888846537159978, 46.69585922171613], [7.888820389280611, 46.695838877670326], [7.888769488873296, 46.69583385187934], [7.888721573106416, 46.695816670624914], [7.88869225619403, 46.69579103124593], [7.888665209165696, 46.69578511130675], [7.888623096692566, 46.69572541076963], [7.888602221444447, 46.69571491420331], [7.888597696078409, 46.69567701540433], [7.88858206182346, 46.69567102294956], [7.888560729296486, 46.695615010235514], [7.888517660945767, 46.695562906299976], [7.888511247289387, 46.695544742406575], [7.888495670410038, 46.69554406615], [7.888468521671558, 46.695527522236766], [7.888451176425938, 46.69546203031145], [7.888440624136206, 46.69544456637627], [7.888393803512183, 46.69543642984127], [7.8883510199452, 46.69541379454982], [7.888211388804121, 46.69536349204848], [7.88818939124532, 46.69534379714853], [7.88805068507296, 46.69528204838808], [7.888047427078958, 46.69526758723633], [7.88800804042044, 46.695249364199256], [7.887991195663361, 46.69522669849038], [7.8879524310607705, 46.695190508673285], [7.887931759588256, 46.69519820031829], [7.8879170828514145, 46.69518311841533], [7.887896347841682, 46.69518473825122], [7.887879471705515, 46.69515828552033], [7.887891402459527, 46.695135560588255], [7.887858121273649, 46.69512989833692], [7.887834089724944, 46.69511555488526], [7.887808056313516, 46.695107318342785], [7.887775493866872, 46.695070141535645], [7.887748497250956, 46.695070283703174], [7.887726398363091, 46.695039920399644], [7.887644242532794, 46.69502588645456], [7.885751281143158, 46.69393292352865]]]]}}]}