{
  "type": "FeatureCollection",
  "features": [
    {
      "type": "Feature",
      "properties": {
        "bfs_nummer": 591
      },
      "geometry": {
        "type": "LineString",
        "coordinates": [
          [
            7.793567365603627,
            46.622192786650565
          ],
          [
            7.79393358186036,
            46.62237999741543
          ],
          [
            7.7939930972605,
            46.62248220037877
          ],
          [
            7.79433665070084,
            46.6227409237661
          ],
          [
            7.794372085583003,
            46.62280649041774
          ],
          [
            7.794604540008734,
            46.62300084474576
          ],
          [
            7.794644599226414,
            46.6231262808243
          ],
          [
            7.794852821107276,
            46.62326276937512
          ],
          [
            7.795164224535168,
            46.62352931789742
          ],
          [
            7.795201281233312,
            46.62362482569104
          ],
          [
            7.7953690929408035,
            46.62378462133202
          ],
          [
            7.795425443609157,
            46.62401225957359
          ],
          [
            7.795570634952157,
            46.6241510398849
          ],
          [
            7.795711864347437,
            46.624231405766395
          ],
          [
            7.795984314514066,
            46.62452147160076
          ],
          [
            7.796112800136263,
            46.62458572973602
          ],
          [
            7.796370552227757,
            46.62483231982096
          ],
          [
            7.796622690967614,
            46.62504909741393
          ],
          [
            7.79676634608649,
            46.62522518592227
          ],
          [
            7.796770965855259,
            46.625376855804674
          ],
          [
            7.79704077477976,
            46.6255363827691
          ],
          [
            7.79721697415553,
            46.625724791449386
          ],
          [
            7.797671379535509,
            46.62597948617146
          ],
          [
            7.797955810400667,
            46.62617128627904
          ],
          [
            7.798301965031893,
            46.62642009436727
          ],
          [
            7.798732067770253,
            46.626814086909796
          ],
          [
            7.798877673391473,
            46.62700880556394
          ],
          [
            7.799002128309984,
            46.62701339614348
          ],
          [
            7.799215961793794,
            46.62716315457654
          ],
          [
            7.799563561068516,
            46.62735848423217
          ],
          [
            7.799571437607529,
            46.62745294945785
          ],
          [
            7.7996979426471995,
            46.627545519092436
          ],
          [
            7.800091740253672,
            46.627847883924275
          ],
          [
            7.800346572213281,
            46.627927875154874
          ],
          [
            7.800507756051858,
            46.62802557840847
          ],
          [
            7.800582178596092,
            46.62809496856213
          ],
          [
            7.800635051725361,
            46.62817933280317
          ],
          [
            7.800785478845568,
            46.6282870369546
          ],
          [
            7.800923042248529,
            46.62836120105032
          ],
          [
            7.801603150805773,
            46.62864870801127
          ],
          [
            7.801868096932074,
            46.62888658203708
          ],
          [
            7.8019593832919,
            46.62904790696616
          ],
          [
            7.8022107199575235,
            46.629142828929275
          ],
          [
            7.802487314731389,
            46.629240152593724
          ],
          [
            7.803074462340851,
            46.62964108529672
          ],
          [
            7.803251606143232,
            46.62969894601547
          ],
          [
            7.803509460741723,
            46.62969065536925
          ],
          [
            7.803658096711513,
            46.62979461928669
          ],
          [
            7.8037381709802025,
            46.62989754302479
          ],
          [
            7.803650507785179,
            46.630003513204144
          ],
          [
            7.803743431079565,
            46.63014121793432
          ],
          [
            7.803715210117527,
            46.63023579837669
          ],
          [
            7.803812112443886,
            46.63042320919003
          ],
          [
            7.803950625756098,
            46.63063287683989
          ],
          [
            7.804164903188553,
            46.63084230163858
          ],
          [
            7.804465497440542,
            46.63127771651466
          ],
          [
            7.804681518056565,
            46.631479686371044
          ],
          [
            7.805053504144407,
            46.631811726714695
          ],
          [
            7.8051395391741965,
            46.631901199845856
          ],
          [
            7.8052316083598665,
            46.632010075099835
          ],
          [
            7.8051796697488225,
            46.632333518048135
          ],
          [
            7.805214958271753,
            46.63248260626596
          ],
          [
            7.805067751618225,
            46.63258752738697
          ],
          [
            7.805074273200307,
            46.63275039037861
          ],
          [
            7.805040857327966,
            46.63287607672459
          ],
          [
            7.805124542247957,
            46.632982739070776
          ],
          [
            7.805335742528078,
            46.633102116270074
          ],
          [
            7.8054138306207275,
            46.633232580844826
          ],
          [
            7.805576564278154,
            46.633420390231535
          ],
          [
            7.805809876323646,
            46.63364377492438
          ],
          [
            7.806055846552978,
            46.633809717248866
          ],
          [
            7.806179217717516,
            46.633996609021004
          ],
          [
            7.806529506012903,
            46.63421616108527
          ],
          [
            7.8068528614793244,
            46.6344941356696
          ],
          [
            7.807827666949761,
            46.63509699476554
          ],
          [
            7.808183515787792,
            46.63525861888351
          ],
          [
            7.808305154999842,
            46.635349035806975
          ],
          [
            7.808755267497204,
            46.635540793955585
          ],
          [
            7.809020929840235,
            46.635587446901695
          ],
          [
            7.809205160983397,
            46.63570199287595
          ],
          [
            7.809212536715655,
            46.635768347702864
          ],
          [
            7.809268852475808,
            46.6358622501328
          ],
          [
            7.809190361465903,
            46.63595723806009
          ],
          [
            7.809257571816241,
            46.636299546513875
          ],
          [
            7.809202209639082,
            46.63637555949692
          ],
          [
            7.809232913042077,
            46.63657398441088
          ],
          [
            7.809207120389049,
            46.63669997105068
          ],
          [
            7.809371701298339,
            46.63698434615071
          ],
          [
            7.809357422143226,
            46.637231601519645
          ],
          [
            7.8094208941655,
            46.6373499487407
          ],
          [
            7.809412349978836,
            46.63746393317386
          ],
          [
            7.809517262886105,
            46.63759959721125
          ],
          [
            7.809539521689029,
            46.63773370371713
          ],
          [
            7.809613550825988,
            46.63783732664802
          ],
          [
            7.809607325187256,
            46.637898903997836
          ],
          [
            7.809667705584156,
            46.63795660358228
          ],
          [
            7.809713458269781,
            46.638018038911156
          ],
          [
            7.809801839680288,
            46.63807381225924
          ],
          [
            7.8098705731750355,
            46.63818018691962
          ],
          [
            7.8099084019252825,
            46.63828398139231
          ],
          [
            7.80998391756853,
            46.63837371898599
          ],
          [
            7.810160909341194,
            46.63851835038543
          ],
          [
            7.810567733978845,
            46.63873482741151
          ],
          [
            7.810871100340488,
            46.63883769283572
          ],
          [
            7.81097054613353,
            46.63895039852794
          ],
          [
            7.8111502698915185,
            46.63910420402375
          ],
          [
            7.811154487621084,
            46.639136358636016
          ],
          [
            7.811302889542803,
            46.63919470553405
          ],
          [
            7.811927037396978,
            46.639600689450035
          ],
          [
            7.812191657386489,
            46.6396917229146
          ],
          [
            7.812288093957091,
            46.63975572596405
          ],
          [
            7.812400301989133,
            46.63978293011952
          ],
          [
            7.812531515122407,
            46.639859574862164
          ],
          [
            7.812664764469891,
            46.63995110954758
          ],
          [
            7.813008013593119,
            46.640044222244974
          ],
          [
            7.813210829487319,
            46.64007598596119
          ],
          [
            7.8133911014717565,
            46.64018865810687
          ],
          [
            7.813546778664623,
            46.640525420013226
          ],
          [
            7.813504361956516,
            46.64065810100403
          ],
          [
            7.81369562732054,
            46.64078305157833
          ],
          [
            7.813869377163587,
            46.64098499007461
          ],
          [
            7.814347705515769,
            46.64131828768359
          ],
          [
            7.814628165332661,
            46.64152554090576
          ],
          [
            7.8147640367719715,
            46.64170950362466
          ],
          [
            7.815190883735134,
            46.641959245027614
          ],
          [
            7.815307827030777,
            46.64212926335634
          ],
          [
            7.815603465262504,
            46.64251563009381
          ],
          [
            7.815647054398226,
            46.64264558992611
          ],
          [
            7.81616975636039,
            46.64298892536873
          ],
          [
            7.816430635579646,
            46.64320867091194
          ],
          [
            7.8169638808255995,
            46.64345932180851
          ],
          [
            7.817273878442087,
            46.64361768730779
          ],
          [
            7.817606824687321,
            46.643811175671026
          ],
          [
            7.8177917073107865,
            46.64395989805999
          ],
          [
            7.817994974643169,
            46.64415607396736
          ],
          [
            7.81866071780465,
            46.644527195722674
          ],
          [
            7.818797811384961,
            46.64464780234076
          ],
          [
            7.8188530900250095,
            46.644752138435756
          ],
          [
            7.81916746270408,
            46.64492714413994
          ],
          [
            7.819352899682531,
            46.64515166835156
          ],
          [
            7.819433666905813,
            46.64519891381103
          ],
          [
            7.819561411838263,
            46.64539193856017
          ],
          [
            7.81966037918972,
            46.64545835577074
          ],
          [
            7.819719398542602,
            46.64552594079563
          ],
          [
            7.8197940292344725,
            46.645558588589736
          ],
          [
            7.819989661105562,
            46.645599818699644
          ],
          [
            7.820144457640332,
            46.645668288832056
          ],
          [
            7.820430343351212,
            46.645706940542325
          ],
          [
            7.820764083906282,
            46.64577822938596
          ],
          [
            7.820907358815756,
            46.64584450614633
          ],
          [
            7.82098841104007,
            46.64593360623187
          ],
          [
            7.821021620970527,
            46.64598441024273
          ],
          [
            7.821158342573008,
            46.64605295755466
          ],
          [
            7.821346729210537,
            46.646231087170506
          ],
          [
            7.82165302534519,
            46.646368070599586
          ],
          [
            7.8218709206138595,
            46.64654044206073
          ],
          [
            7.821975501151944,
            46.64670525064006
          ],
          [
            7.8222096683334845,
            46.64685833413595
          ],
          [
            7.8222846212747505,
            46.64700968558885
          ],
          [
            7.822249515199363,
            46.6471523573852
          ],
          [
            7.822201313509402,
            46.64729957999399
          ],
          [
            7.822267601934739,
            46.64738760433743
          ],
          [
            7.822454275711268,
            46.64755326994052
          ],
          [
            7.822501225231674,
            46.64769000756428
          ],
          [
            7.822506775586842,
            46.64777824504172
          ],
          [
            7.8226136458805335,
            46.6479116775621
          ],
          [
            7.822697904176255,
            46.64810568170385
          ],
          [
            7.822722896980581,
            46.64826824761443
          ],
          [
            7.822904975536772,
            46.64836745022716
          ],
          [
            7.8229365357904275,
            46.64842277504191
          ],
          [
            7.823144112127495,
            46.6485272887918
          ],
          [
            7.823197155368343,
            46.64859839145742
          ],
          [
            7.823209631928613,
            46.64867768189284
          ],
          [
            7.823557690773643,
            46.6487442456221
          ],
          [
            7.8237171790986215,
            46.6487799150175
          ],
          [
            7.8239458445868255,
            46.64884814873388
          ],
          [
            7.824097357807643,
            46.64891212679042
          ],
          [
            7.824307507561106,
            46.64891707507598
          ],
          [
            7.824449202611193,
            46.648989002000505
          ],
          [
            7.8245648906008025,
            46.64909948202039
          ],
          [
            7.824610602371159,
            46.64929617885295
          ],
          [
            7.824581785956398,
            46.64939696441433
          ],
          [
            7.82448018172972,
            46.64949574716273
          ],
          [
            7.824613947526696,
            46.64953261772709
          ],
          [
            7.824848700398054,
            46.649530690110204
          ],
          [
            7.82533508587754,
            46.64960031552595
          ],
          [
            7.8256790945512495,
            46.64972586188288
          ],
          [
            7.82586337709051,
            46.64978293476197
          ],
          [
            7.826033413763477,
            46.64991924425373
          ],
          [
            7.826327517463116,
            46.650092931754926
          ],
          [
            7.826473780228364,
            46.6502017227491
          ],
          [
            7.826627510848323,
            46.65057587731528
          ],
          [
            7.8266745932267465,
            46.65073841224988
          ],
          [
            7.8268125792714525,
            46.65074925952117
          ],
          [
            7.827045441960798,
            46.65094191834426
          ],
          [
            7.827198960883664,
            46.6510219156854
          ],
          [
            7.827353880324509,
            46.651142244465575
          ],
          [
            7.827435921519783,
            46.65136823214713
          ],
          [
            7.827410250074003,
            46.651449793037244
          ],
          [
            7.8274808473074655,
            46.65152472003449
          ],
          [
            7.827985347654896,
            46.651748772454035
          ],
          [
            7.8284551332180214,
            46.652009625411786
          ],
          [
            7.828826217617155,
            46.652475590492564
          ],
          [
            7.828889723521937,
            46.65287645260991
          ],
          [
            7.830660569483571,
            46.653349761042
          ],
          [
            7.8333702129261145,
            46.652134655787144
          ],
          [
            7.8334133751334765,
            46.65210066491474
          ],
          [
            7.834030333284372,
            46.65167242386737
          ],
          [
            7.83421204768211,
            46.65157261728166
          ],
          [
            7.8345203170391695,
            46.65137782733681
          ],
          [
            7.835224859774735,
            46.65106536457084
          ],
          [
            7.835940044837022,
            46.65107906016225
          ],
          [
            7.836827298594427,
            46.65159854244805
          ],
          [
            7.837781795596309,
            46.65140086634381
          ],
          [
            7.83827536366153,
            46.6512710051455
          ],
          [
            7.839001584057267,
            46.651223742397676
          ],
          [
            7.839462866345846,
            46.6510565944222
          ],
          [
            7.839745198454146,
            46.65103479552616
          ],
          [
            7.840011493449301,
            46.65098018226703
          ],
          [
            7.840291249008251,
            46.651019651384246
          ],
          [
            7.840541965997078,
            46.6509818235994
          ],
          [
            7.840981427610454,
            46.65102574802966
          ],
          [
            7.841353332472796,
            46.650959874511855
          ],
          [
            7.841529660028897,
            46.65094928496332
          ],
          [
            7.841902127916425,
            46.65095912396992
          ],
          [
            7.842032592141976,
            46.650971571615926
          ],
          [
            7.842345077824476,
            46.65104674962901
          ],
          [
            7.8425404054766386,
            46.65118747894372
          ],
          [
            7.842652370284912,
            46.651229344132446
          ],
          [
            7.842905763832126,
            46.65126835142807
          ],
          [
            7.843199379948928,
            46.6513300914914
          ],
          [
            7.843381856079931,
            46.65145854090105
          ],
          [
            7.843653807864038,
            46.651472247940696
          ],
          [
            7.843997160679769,
            46.651461052672715
          ],
          [
            7.844168627892328,
            46.65148332838987
          ],
          [
            7.844236777829021,
            46.651483086192385
          ],
          [
            7.844323813656048,
            46.651496279275676
          ],
          [
            7.844430378004876,
            46.65150058712392
          ],
          [
            7.844552415226292,
            46.65152656431254
          ],
          [
            7.8446080930321385,
            46.65156333834394
          ],
          [
            7.844716747726751,
            46.65161987618184
          ],
          [
            7.844928130647206,
            46.651625564680984
          ],
          [
            7.844994456062804,
            46.65171981875169
          ],
          [
            7.84502698038369,
            46.65173672268841
          ],
          [
            7.845181229651043,
            46.65173791843927
          ],
          [
            7.845335878255534,
            46.651677528390444
          ],
          [
            7.845723001860045,
            46.65170723702981
          ],
          [
            7.8459443443651935,
            46.65167711244418
          ],
          [
            7.846153477343944,
            46.65161122836956
          ],
          [
            7.846424966185682,
            46.65156330129762
          ],
          [
            7.8465210548313555,
            46.651534792534655
          ],
          [
            7.84664850527263,
            46.6514850497939
          ],
          [
            7.846783848106851,
            46.651404441616386
          ],
          [
            7.846651102432693,
            46.65132013237386
          ],
          [
            7.846580522741834,
            46.65117132689123
          ],
          [
            7.846808546589717,
            46.650787315089914
          ],
          [
            7.846994201545521,
            46.65065579124849
          ],
          [
            7.8471614631692175,
            46.65040666991965
          ],
          [
            7.8472112717601705,
            46.650096816531885
          ],
          [
            7.8470319565047415,
            46.6499602658364
          ],
          [
            7.846930040030626,
            46.64974228824548
          ],
          [
            7.84811367501862,
            46.650247884284
          ],
          [
            7.848849688469223,
            46.65013401868655
          ],
          [
            7.849525295143667,
            46.649951315263884
          ],
          [
            7.849874609618033,
            46.64990952255295
          ],
          [
            7.850900018904472,
            46.649541022068036
          ],
          [
            7.851772657457186,
            46.64893641698188
          ],
          [
            7.856151091877708,
            46.64429865798249
          ],
          [
            7.856015863836868,
            46.64389890009376
          ],
          [
            7.8558628668484705,
            46.64331691007118
          ],
          [
            7.8562923877317585,
            46.643318037257345
          ],
          [
            7.857563540958621,
            46.64284913809649
          ],
          [
            7.8574914593615715,
            46.64275512826662
          ],
          [
            7.85681004546743,
            46.642287820701696
          ],
          [
            7.85665261306219,
            46.64223801295226
          ],
          [
            7.856458986909458,
            46.64209157126556
          ],
          [
            7.8560307669129585,
            46.64181076503601
          ],
          [
            7.8557300937385115,
            46.641631861556185
          ],
          [
            7.855563843607752,
            46.64150518068048
          ],
          [
            7.855419734871474,
            46.641429675929565
          ],
          [
            7.855269809153108,
            46.64139081355561
          ],
          [
            7.857380336183303,
            46.64043098638157
          ],
          [
            7.8582936527585305,
            46.639752875109444
          ],
          [
            7.858503421388574,
            46.63559155621898
          ],
          [
            7.854330686034475,
            46.633558427047895
          ],
          [
            7.855267617337356,
            46.63308951942695
          ],
          [
            7.855487722666363,
            46.6326837935675
          ],
          [
            7.855711315914767,
            46.63224984410563
          ],
          [
            7.855959718171941,
            46.63213617496637
          ],
          [
            7.856244793229601,
            46.631471350649605
          ],
          [
            7.856438699045423,
            46.63153214394279
          ],
          [
            7.856625307003375,
            46.63160834623454
          ],
          [
            7.85694127406122,
            46.63157131326818
          ],
          [
            7.857741506476128,
            46.63161707841429
          ],
          [
            7.857904496571388,
            46.6315267656792
          ],
          [
            7.858470843474515,
            46.63163233372249
          ],
          [
            7.858691254189386,
            46.63174941046116
          ],
          [
            7.858814501643307,
            46.6317864234799
          ],
          [
            7.85879904214742,
            46.631736203652764
          ],
          [
            7.858652957497903,
            46.63160859840589
          ],
          [
            7.858610648029512,
            46.63143192639823
          ],
          [
            7.858221707535561,
            46.631171934719745
          ],
          [
            7.858092685039631,
            46.63104833203626
          ],
          [
            7.858016688141113,
            46.63098640644934
          ],
          [
            7.857702529104047,
            46.63090222818517
          ],
          [
            7.85747551843476,
            46.630668958782245
          ],
          [
            7.857443307083467,
            46.630532720762524
          ],
          [
            7.857525382354136,
            46.63040662399983
          ],
          [
            7.857503788548768,
            46.630365035376194
          ],
          [
            7.857293512056621,
            46.63027066020193
          ],
          [
            7.8571097005865385,
            46.630136813524736
          ],
          [
            7.857001100453413,
            46.63002429830691
          ],
          [
            7.856885038003202,
            46.629841644159654
          ],
          [
            7.856853329633616,
            46.62973813935348
          ],
          [
            7.856650118795766,
            46.62953861374733
          ],
          [
            7.856435370803226,
            46.62950549587502
          ],
          [
            7.855863643201464,
            46.62946925805855
          ],
          [
            7.855797267606331,
            46.62938774822622
          ],
          [
            7.855700488421689,
            46.62908021649911
          ],
          [
            7.852793768335911,
            46.62805632421472
          ],
          [
            7.851992487586359,
            46.627581893892874
          ],
          [
            7.851874629969445,
            46.62728944910928
          ],
          [
            7.851269081217333,
            46.626430567400945
          ],
          [
            7.851134418299217,
            46.62584930486957
          ],
          [
            7.851162128971084,
            46.625095772739876
          ],
          [
            7.851158340694744,
            46.624603750537105
          ],
          [
            7.851257196049235,
            46.62439837273922
          ],
          [
            7.85139333963423,
            46.624203105976704
          ],
          [
            7.851607546645933,
            46.62400244688169
          ],
          [
            7.851606686538546,
            46.623889689320436
          ],
          [
            7.851915819491188,
            46.623455473227615
          ],
          [
            7.852114654681481,
            46.62319335647752
          ],
          [
            7.852079221618937,
            46.62293721636426
          ],
          [
            7.851901909073476,
            46.62261495951345
          ],
          [
            7.852085746464747,
            46.62233495077275
          ],
          [
            7.852583966059998,
            46.62232497551514
          ],
          [
            7.852554409399673,
            46.62214604200822
          ],
          [
            7.852279859702657,
            46.621872409338394
          ],
          [
            7.85211761517955,
            46.62173293510873
          ],
          [
            7.852030365987665,
            46.621564366720115
          ],
          [
            7.851809140733391,
            46.6213725531317
          ],
          [
            7.851429513727806,
            46.621065088518534
          ],
          [
            7.85116641148149,
            46.6208119128743
          ],
          [
            7.850868929539417,
            46.620516806149624
          ],
          [
            7.850725424130461,
            46.62033909359425
          ],
          [
            7.8505972189570645,
            46.620255474255266
          ],
          [
            7.850391354168725,
            46.620056315952745
          ],
          [
            7.850142002130865,
            46.61985371593192
          ],
          [
            7.849811595876853,
            46.61960731085775
          ],
          [
            7.849653141361483,
            46.61943736913795
          ],
          [
            7.849284646479579,
            46.61905190083897
          ],
          [
            7.848941325274612,
            46.61874879508344
          ],
          [
            7.8487308290569695,
            46.618453693667995
          ],
          [
            7.848544662749541,
            46.61820932994471
          ],
          [
            7.8483161997085755,
            46.61795643704809
          ],
          [
            7.847935205362628,
            46.617422544799005
          ],
          [
            7.84779508175458,
            46.61729781891263
          ],
          [
            7.847731438655326,
            46.61716485736393
          ],
          [
            7.847532875940332,
            46.6169702195389
          ],
          [
            7.847110540061784,
            46.61643309938922
          ],
          [
            7.8467136439598555,
            46.61574188979948
          ],
          [
            7.846146240607644,
            46.61494334921396
          ],
          [
            7.84561703043631,
            46.61401873014614
          ],
          [
            7.845182521478165,
            46.61352554518463
          ],
          [
            7.844972633982114,
            46.613391358208425
          ],
          [
            7.844775599007353,
            46.61323014706225
          ],
          [
            7.8443809933899455,
            46.61283576030526
          ],
          [
            7.8441040910804745,
            46.612467931753464
          ],
          [
            7.843828202204405,
            46.61223504296664
          ],
          [
            7.843552100872338,
            46.6119751672618
          ],
          [
            7.843393240231124,
            46.61167888314166
          ],
          [
            7.8432068915525015,
            46.61120280092512
          ],
          [
            7.843046262627049,
            46.61067266216467
          ],
          [
            7.842952849525691,
            46.61040313230917
          ],
          [
            7.842842335723021,
            46.6101491175542
          ],
          [
            7.84271437727764,
            46.6099362297431
          ],
          [
            7.842429836424506,
            46.6097816485704
          ],
          [
            7.842287556839258,
            46.6096049735881
          ],
          [
            7.842246835044606,
            46.60934459412581
          ],
          [
            7.842271927756507,
            46.6089318649101
          ],
          [
            7.842020477108389,
            46.608459294573564
          ],
          [
            7.841722419610225,
            46.608088521533595
          ],
          [
            7.841622483082209,
            46.607889827556335
          ],
          [
            7.841468032055935,
            46.607463852560485
          ],
          [
            7.841257637031942,
            46.60722361961255
          ],
          [
            7.841067456120582,
            46.60713712292141
          ],
          [
            7.84087766845241,
            46.60664479382321
          ],
          [
            7.841005222479687,
            46.606538221851785
          ],
          [
            7.841181280144596,
            46.60647569223654
          ],
          [
            7.841330059140017,
            46.6063519172041
          ],
          [
            7.841260364817334,
            46.60612446487726
          ],
          [
            7.840835268597371,
            46.605593025546405
          ],
          [
            7.840786812978519,
            46.60523368442815
          ],
          [
            7.840559919012613,
            46.60488444485528
          ],
          [
            7.8407032934038305,
            46.60456400828929
          ],
          [
            7.840685300425379,
            46.603898391963945
          ],
          [
            7.841027867831052,
            46.60282774187862
          ],
          [
            7.840506780989304,
            46.60271159246321
          ],
          [
            7.840114363343618,
            46.60259604915937
          ],
          [
            7.839307539009633,
            46.60260813484353
          ],
          [
            7.839188946898378,
            46.602446791339716
          ],
          [
            7.839400578002532,
            46.60220341637304
          ],
          [
            7.839416458465704,
            46.601656180733876
          ],
          [
            7.8390422849092465,
            46.601147107866424
          ],
          [
            7.837721475840291,
            46.60090280145985
          ],
          [
            7.837067291434047,
            46.600397841414775
          ],
          [
            7.837181780827401,
            46.599995955383115
          ],
          [
            7.837074598501555,
            46.59955130504734
          ],
          [
            7.835974923643617,
            46.599556896900204
          ],
          [
            7.835204759502323,
            46.59908874482923
          ],
          [
            7.834740604683133,
            46.598998719424706
          ],
          [
            7.833397632280402,
            46.598817454705234
          ],
          [
            7.832357654819174,
            46.59815535310311
          ],
          [
            7.831777379363285,
            46.598105261556775
          ],
          [
            7.831529817856807,
            46.59816009795127
          ],
          [
            7.831097038060729,
            46.59821065088483
          ],
          [
            7.830669623534355,
            46.59821283199185
          ],
          [
            7.829054508420086,
            46.597780455830204
          ],
          [
            7.828549018799275,
            46.597793808051634
          ],
          [
            7.828104417041588,
            46.59807691908099
          ],
          [
            7.827454730509904,
            46.59804492596868
          ],
          [
            7.825439133450463,
            46.598296499839044
          ],
          [
            7.825198029304593,
            46.59834100048093
          ],
          [
            7.82423555790188,
            46.59835463151883
          ],
          [
            7.821859641016724,
            46.597817612381576
          ],
          [
            7.821023250867597,
            46.59760646752957
          ],
          [
            7.820853219465697,
            46.59755306364219
          ],
          [
            7.820649565983029,
            46.59747307301971
          ],
          [
            7.820309352246276,
            46.597348273053846
          ],
          [
            7.820021593204879,
            46.59725927929106
          ],
          [
            7.8195377958401036,
            46.59712596154318
          ],
          [
            7.819345588229655,
            46.597049294736905
          ],
          [
            7.819113040271947,
            46.596920209554064
          ],
          [
            7.818976421045269,
            46.59686303913323
          ],
          [
            7.818793331098637,
            46.59680967573761
          ],
          [
            7.818197896795831,
            46.596689372371955
          ],
          [
            7.817801928653613,
            46.596616502578556
          ],
          [
            7.8174686715291175,
            46.59676073132403
          ],
          [
            7.817332868453952,
            46.596799476987144
          ],
          [
            7.817215136067207,
            46.59691614589799
          ],
          [
            7.817127686672471,
            46.59695536045408
          ],
          [
            7.817102479108307,
            46.597017784075426
          ],
          [
            7.817005015096341,
            46.597043223433246
          ],
          [
            7.816868911245013,
            46.59706894381575
          ],
          [
            7.81682924959327,
            46.59709108776226
          ],
          [
            7.8167837825966675,
            46.59715465798606
          ],
          [
            7.816484425990286,
            46.59725612295017
          ],
          [
            7.816268826785558,
            46.59727545822043
          ],
          [
            7.816134232675361,
            46.59729885183908
          ],
          [
            7.816050325926246,
            46.59736348457095
          ],
          [
            7.816104088992432,
            46.59742470200197
          ],
          [
            7.8160743733197995,
            46.59748650162052
          ],
          [
            7.815880126140524,
            46.59763180369644
          ],
          [
            7.81562619881906,
            46.59779778589
          ],
          [
            7.815624745303589,
            46.59784771662087
          ],
          [
            7.815558399212144,
            46.59791368524977
          ],
          [
            7.8154676457628804,
            46.59796235488449
          ],
          [
            7.815455039587519,
            46.59799433114506
          ],
          [
            7.8154820956385915,
            46.598035963610016
          ],
          [
            7.815402124158854,
            46.59814692849823
          ],
          [
            7.815349238737897,
            46.59817625817149
          ],
          [
            7.815240184141378,
            46.59834266932937
          ],
          [
            7.815093012059591,
            46.5985303010555
          ],
          [
            7.814971283669817,
            46.59855954296546
          ],
          [
            7.814884117522028,
            46.598670225372075
          ],
          [
            7.814597424024006,
            46.598862373772214
          ],
          [
            7.814778280621199,
            46.59910118784715
          ],
          [
            7.8146904725954895,
            46.59927375336517
          ],
          [
            7.814574892781048,
            46.59926965463823
          ],
          [
            7.814421258125081,
            46.599335334611574
          ],
          [
            7.814284454264637,
            46.59946061815137
          ],
          [
            7.814135925786655,
            46.59948924578036
          ],
          [
            7.813836604694968,
            46.599479697136545
          ],
          [
            7.813755202738719,
            46.59945271709626
          ],
          [
            7.813647737900835,
            46.59947090896308
          ],
          [
            7.813521457737542,
            46.59953683058948
          ],
          [
            7.813349732418805,
            46.599553425291205
          ],
          [
            7.813237089450788,
            46.59961929279007
          ],
          [
            7.813225237205273,
            46.59973979260489
          ],
          [
            7.813202945526049,
            46.59980951922349
          ],
          [
            7.813072564861481,
            46.59994891237031
          ],
          [
            7.813017216788479,
            46.60003591120892
          ],
          [
            7.812941248413343,
            46.60008707603053
          ],
          [
            7.812853210925352,
            46.60015948317737
          ],
          [
            7.812801750691931,
            46.600223692140254
          ],
          [
            7.8126824302094455,
            46.60030753632577
          ],
          [
            7.812486206279959,
            46.600382879758676
          ],
          [
            7.812357564174847,
            46.60049097946889
          ],
          [
            7.81229565323478,
            46.60052739887567
          ],
          [
            7.812132050249602,
            46.60070986304593
          ],
          [
            7.812017935331252,
            46.600818364565605
          ],
          [
            7.811810811181059,
            46.600965743759765
          ],
          [
            7.81172066684068,
            46.6009922790543
          ],
          [
            7.811568449539653,
            46.60110012214634
          ],
          [
            7.811412667069111,
            46.601184974789376
          ],
          [
            7.811342011785584,
            46.601231083591735
          ],
          [
            7.811277079564228,
            46.601253506072794
          ],
          [
            7.81116761454821,
            46.601378138736294
          ],
          [
            7.811088412383837,
            46.60143215549553
          ],
          [
            7.810913336274127,
            46.60152049780579
          ],
          [
            7.810850711709784,
            46.60157493704766
          ],
          [
            7.810878281081731,
            46.60194795992973
          ],
          [
            7.810833838054858,
            46.601979814683915
          ],
          [
            7.81071700178147,
            46.601956996158286
          ],
          [
            7.810569879178294,
            46.601988259233
          ],
          [
            7.8104129558967434,
            46.60205011231462
          ],
          [
            7.810228116472271,
            46.60207599255907
          ],
          [
            7.810126085485836,
            46.60211860456681
          ],
          [
            7.810043860124259,
            46.60218504444319
          ],
          [
            7.809933341418878,
            46.60240228061263
          ],
          [
            7.809847184304568,
            46.60252548673914
          ],
          [
            7.80978959064486,
            46.60258494657679
          ],
          [
            7.80973016654228,
            46.60262490076319
          ],
          [
            7.809704004072555,
            46.602694360393855
          ],
          [
            7.809606676418074,
            46.60279507755694
          ],
          [
            7.809540711488535,
            46.60284814159874
          ],
          [
            7.8094257148425825,
            46.602903604951905
          ],
          [
            7.80950251266098,
            46.60296681957683
          ],
          [
            7.809675634404795,
            46.60307423129749
          ],
          [
            7.809857188524305,
            46.60325215923957
          ],
          [
            7.809884838286055,
            46.60334258351879
          ],
          [
            7.810023223299926,
            46.60349262125908
          ],
          [
            7.81003440226045,
            46.60361733660449
          ],
          [
            7.809990559695365,
            46.60368755553443
          ],
          [
            7.809987889866969,
            46.60378360184561
          ],
          [
            7.810002687943312,
            46.60409164585679
          ],
          [
            7.809957605949301,
            46.604224838392284
          ],
          [
            7.8098509734961405,
            46.60437749996688
          ],
          [
            7.809782238400015,
            46.604417016702406
          ],
          [
            7.809853043165903,
            46.60448525218034
          ],
          [
            7.809825347833248,
            46.60452921413552
          ],
          [
            7.80974341846346,
            46.60458991357916
          ],
          [
            7.809732566313672,
            46.604659548273155
          ],
          [
            7.809582637864772,
            46.60476826275956
          ],
          [
            7.809581959380085,
            46.60486360091316
          ],
          [
            7.809428668566923,
            46.605018950605164
          ],
          [
            7.809233722599334,
            46.60512781097956
          ],
          [
            7.8089853855703915,
            46.60518030672492
          ],
          [
            7.808859461378559,
            46.605295365188006
          ],
          [
            7.80870637929077,
            46.605378577066766
          ],
          [
            7.808542276721163,
            46.60541725101922
          ],
          [
            7.808296037591373,
            46.60538727529249
          ],
          [
            7.80809994343992,
            46.60547567231962
          ],
          [
            7.808163386162501,
            46.605538193464625
          ],
          [
            7.80811830462443,
            46.60567229379833
          ],
          [
            7.808033915229071,
            46.60576515942356
          ],
          [
            7.8079575436420114,
            46.60580882878148
          ],
          [
            7.807871511780145,
            46.605903993494024
          ],
          [
            7.80768160537368,
            46.606019725535155
          ],
          [
            7.807631612131385,
            46.60602125463509
          ],
          [
            7.807272612936535,
            46.60622551942706
          ],
          [
            7.807303237522249,
            46.60626632366764
          ],
          [
            7.807250757358254,
            46.60634551110919
          ],
          [
            7.807018593324177,
            46.60647219137554
          ],
          [
            7.806906279072894,
            46.60652630311772
          ],
          [
            7.806734638058339,
            46.606727901044266
          ],
          [
            7.806618348756346,
            46.606786855992816
          ],
          [
            7.806494555403136,
            46.60682103401381
          ],
          [
            7.806417931984131,
            46.60692606247701
          ],
          [
            7.8064016332428725,
            46.606982400825636
          ],
          [
            7.806302388830266,
            46.607095067491656
          ],
          [
            7.8062484084237616,
            46.6071958668493
          ],
          [
            7.806184987240582,
            46.607236515698546
          ],
          [
            7.8061566187934694,
            46.60732620380131
          ],
          [
            7.8060975500668475,
            46.607367756131744
          ],
          [
            7.806051694859814,
            46.60748691632392
          ],
          [
            7.805875089895086,
            46.60760029057266
          ],
          [
            7.8058709625981075,
            46.607674994750006
          ],
          [
            7.805764881045565,
            46.607863498290975
          ],
          [
            7.805770580610539,
            46.60808046402905
          ],
          [
            7.806454622430679,
            46.60846773576697
          ],
          [
            7.806216550545492,
            46.61011644336735
          ],
          [
            7.807571993073995,
            46.611892180138476
          ],
          [
            7.807449130104138,
            46.612250595302044
          ],
          [
            7.805724380174097,
            46.61221121686631
          ],
          [
            7.804830795277268,
            46.61146273671741
          ],
          [
            7.804540053452052,
            46.61163323772283
          ],
          [
            7.804337401827995,
            46.61170009559622
          ],
          [
            7.804283767727774,
            46.611739326641924
          ],
          [
            7.804242657609538,
            46.61178710836263
          ],
          [
            7.804036772186318,
            46.61182560379125
          ],
          [
            7.803930881758242,
            46.61187813570377
          ],
          [
            7.803843377325275,
            46.61194130447462
          ],
          [
            7.803741422200191,
            46.61197543650705
          ],
          [
            7.803667184258716,
            46.612012106478616
          ],
          [
            7.803489257736845,
            46.61197484904991
          ],
          [
            7.803347726313658,
            46.611982309281636
          ],
          [
            7.803137419213555,
            46.612044817600214
          ],
          [
            7.802948131365815,
            46.612131069872426
          ],
          [
            7.8027021625672415,
            46.612293003208784
          ],
          [
            7.8024082566407555,
            46.61235944718861
          ],
          [
            7.802199485095241,
            46.612353545976696
          ],
          [
            7.801893151166298,
            46.61237915202039
          ],
          [
            7.8015213179422815,
            46.61257510926687
          ],
          [
            7.801120645103782,
            46.612829493693454
          ],
          [
            7.800980059595722,
            46.61290263416285
          ],
          [
            7.800885621874955,
            46.61299365518584
          ],
          [
            7.800792109656641,
            46.61314895606565
          ],
          [
            7.800442210962083,
            46.61328038631297
          ],
          [
            7.800139440654264,
            46.613426194096085
          ],
          [
            7.799982238853842,
            46.61344131010177
          ],
          [
            7.7998455923696115,
            46.61349875727128
          ],
          [
            7.799574227345493,
            46.61370524765139
          ],
          [
            7.7994276264612115,
            46.61379119702203
          ],
          [
            7.7991485477722025,
            46.61379241220338
          ],
          [
            7.798977330081525,
            46.61386725720223
          ],
          [
            7.798852640934008,
            46.61390141166116
          ],
          [
            7.798523895454288,
            46.61392503735515
          ],
          [
            7.798220239433991,
            46.61405279753169
          ],
          [
            7.798157543780131,
            46.61414390510744
          ],
          [
            7.7976350647352985,
            46.61435186563867
          ],
          [
            7.797272167478492,
            46.614515747275306
          ],
          [
            7.7971548624180596,
            46.61453774152849
          ],
          [
            7.797016374291289,
            46.614542638527375
          ],
          [
            7.796813807446719,
            46.6147003836104
          ],
          [
            7.796660966269435,
            46.6147241621131
          ],
          [
            7.7964915678705875,
            46.61482242228538
          ],
          [
            7.796380964339957,
            46.61505082668198
          ],
          [
            7.796212071162872,
            46.61522387460304
          ],
          [
            7.796056885927678,
            46.6153595833945
          ],
          [
            7.795819195643753,
            46.615471711879984
          ],
          [
            7.795518346288982,
            46.61556409413452
          ],
          [
            7.795311745009891,
            46.61560603026329
          ],
          [
            7.795298433383959,
            46.615846561317504
          ],
          [
            7.7952544143013025,
            46.61596179814182
          ],
          [
            7.795209361061692,
            46.616215454085
          ],
          [
            7.79512989350076,
            46.61638363303946
          ],
          [
            7.7951523182684985,
            46.61653781118801
          ],
          [
            7.795240864663224,
            46.616566788254794
          ],
          [
            7.7952404217362385,
            46.616731517784174
          ],
          [
            7.795283148378941,
            46.616836264374435
          ],
          [
            7.795261757526304,
            46.61707912354198
          ],
          [
            7.795188859083596,
            46.61735889987326
          ],
          [
            7.794969859395192,
            46.61756723044503
          ],
          [
            7.79483792269073,
            46.61781121736419
          ],
          [
            7.794681111806409,
            46.61811835017194
          ],
          [
            7.79449576425976,
            46.61835259015891
          ],
          [
            7.794444408849296,
            46.6184804434127
          ],
          [
            7.794406575300006,
            46.61864555938353
          ],
          [
            7.794218205224919,
            46.61865848866222
          ],
          [
            7.79408728525024,
            46.61876190567745
          ],
          [
            7.793997726387869,
            46.61893923680279
          ],
          [
            7.793832292286869,
            46.61900172292369
          ],
          [
            7.7937690153301435,
            46.61909179531807
          ],
          [
            7.793690476690345,
            46.61922376287494
          ],
          [
            7.7938067951014265,
            46.619390000010824
          ],
          [
            7.793936561545056,
            46.619645800683735
          ],
          [
            7.793896913281928,
            46.619833177319066
          ],
          [
            7.793849314532762,
            46.61987733217923
          ],
          [
            7.79380514140194,
            46.620087517807725
          ],
          [
            7.7937420186802235,
            46.620316815153856
          ],
          [
            7.793870067647038,
            46.62042989647741
          ],
          [
            7.79383069965965,
            46.620604390453046
          ],
          [
            7.79385698577453,
            46.62069069370491
          ],
          [
            7.7937500350062425,
            46.620886339885494
          ],
          [
            7.793736554214272,
            46.62108838783487
          ],
          [
            7.793646033675285,
            46.621237286426826
          ],
          [
            7.793717355021195,
            46.62130441480227
          ],
          [
            7.79372318422121,
            46.62142484821611
          ],
          [
            7.7935793131544955,
            46.62198973599972
          ],
          [
            7.793567365603627,
            46.622192786650565
          ]
        ]
      }
    }
  ]
}