{"type": "FeatureCollection", "features": [{"type": "Feature", "properties": {"bfs_nummer": 60}, "geometry": {"type": "MultiPolygon", "coordinates": [[[[8.523036506404454, 47.497611124732465], [8.522985987714751, 47.497557575381855], [8.522949605755175, 47.49749238035428], [8.522903632770248, 47.497430027524416], [8.522854435264325, 47.49737681654756], [8.522798269911487, 47.49732686393741], [8.52204977385047, 47.496765410648074], [8.521935613830136, 47.49669088681469], [8.521823280347872, 47.49662978393324], [8.521716489932935, 47.4965808170024], [8.52159301157694, 47.4965335621395], [8.519218435473338, 47.49572476699755], [8.516492403963666, 47.494793006963214], [8.515909844582682, 47.495373724191296], [8.515175221506809, 47.49606951001418], [8.515000691438477, 47.49622939531627], [8.51482020336797, 47.49638611551689], [8.51379239522791, 47.4972500662], [8.513211761119056, 47.49771404463927], [8.513121503896722, 47.49779462077694], [8.513029176049644, 47.49788769162189], [8.512906844106883, 47.49803359692803], [8.512666395422553, 47.49835940414081], [8.512613702943757, 47.498440890512114], [8.512300911288527, 47.499023582963986], [8.511974850921158, 47.49971928094133], [8.511910559881532, 47.499831240581806], [8.511835313348994, 47.49994032444984], [8.511715338031667, 47.50008369696498], [8.511439738385063, 47.50036738086313], [8.511270861702332, 47.5006587642393], [8.510837311828928, 47.50098559134358], [8.510805241361878, 47.50100325712536], [8.510764873076129, 47.50101884998679], [8.510721125705865, 47.50102945507727], [8.510680450723436, 47.50103444597922], [8.510628714493452, 47.50103460117718], [8.510582821029274, 47.501028954642216], [8.510534413035263, 47.50101643239566], [8.51049463224052, 47.50099993556074], [8.50990531086825, 47.50063030109364], [8.509753692168927, 47.50055326086329], [8.509602601713981, 47.5004918843008], [8.509480675979352, 47.50045176213423], [8.50870842652472, 47.500224714369196], [8.508359845549347, 47.50013683655638], [8.508027486473388, 47.5000655110696], [8.507814161074448, 47.50002587142824], [8.5075721728309, 47.499986559006594], [8.507197483805642, 47.49993284696191], [8.506929941111736, 47.49989923792747], [8.506768452313862, 47.49988159604339], [8.505291991262633, 47.499751389718625], [8.50501691629459, 47.499743822379365], [8.504742056834612, 47.49974170320638], [8.504384896514509, 47.499745782794264], [8.504137573252967, 47.49975267331416], [8.50375410159176, 47.49977244599502], [8.503129475022725, 47.49982282221309], [8.502136726228626, 47.499930562867895], [8.501843752737814, 47.499969825783005], [8.501552951817382, 47.50001620087792], [8.500613002508484, 47.50018074834714], [8.500201763493251, 47.500265228705196], [8.499877713802519, 47.50034369174096], [8.498338319870252, 47.500745084241764], [8.498322870886499, 47.500715165293265], [8.498237662018218, 47.500115961439526], [8.497241864762815, 47.50018666521408], [8.497159817162693, 47.500175659184144], [8.496092692907972, 47.50016051193202], [8.495692347904464, 47.50016437419476], [8.495894043208004, 47.501044787410756], [8.495959903976715, 47.50127702294549], [8.496027265482718, 47.501453207616876], [8.49572376692766, 47.501587940112046], [8.495455974194702, 47.50148902317406], [8.494971194267977, 47.50130081606202], [8.494708825553348, 47.50119015475883], [8.494482904499007, 47.50108674325996], [8.494387098035634, 47.50103794808871], [8.494277233321034, 47.50097233499455], [8.49416739262276, 47.500893877118756], [8.494076654975835, 47.50081621645695], [8.4940029480514, 47.50074127878943], [8.493903234763474, 47.50060258077216], [8.493824103000005, 47.500464936395836], [8.493579327985923, 47.49996758295355], [8.493505628655985, 47.49984810315932], [8.493180071999062, 47.49993526777938], [8.49299652378106, 47.49975338464904], [8.492778759990294, 47.499626446406474], [8.492381586931963, 47.49943385081721], [8.492027649130515, 47.499362658093325], [8.491860245039344, 47.499459479810206], [8.49152500554464, 47.49929358116131], [8.490856294334062, 47.499168850119084], [8.490909977369732, 47.49912430621807], [8.490655680030777, 47.49906238577908], [8.49035633396219, 47.499001062700465], [8.489434362810787, 47.4988523409864], [8.489018881557858, 47.49885005734999], [8.488728405732987, 47.498758526566654], [8.488471990457406, 47.49863011379402], [8.487583649260229, 47.49802376398115], [8.48730267037093, 47.4978608965114], [8.487049934301417, 47.4977295329947], [8.486927462907696, 47.4978416364274], [8.486298652858135, 47.4990859065177], [8.486221911656632, 47.49922681909972], [8.483034597972058, 47.50543081933302], [8.482544793957498, 47.50587804325873], [8.481841471079845, 47.506500371894695], [8.481240018355114, 47.50704227519612], [8.483460554104157, 47.507811103773584], [8.484901851441064, 47.50830270113275], [8.485009528878571, 47.50832850532233], [8.485121808494819, 47.508342619774545], [8.485443306138412, 47.50834203475364], [8.485569192533209, 47.508350062375584], [8.485701810204123, 47.50837093634391], [8.485837490359943, 47.50840710038008], [8.48592291271373, 47.508438627751936], [8.48745043566977, 47.509075019734595], [8.489012551100133, 47.50956148910001], [8.489080770321, 47.50959358402357], [8.48913308934584, 47.50963728243122], [8.489583725464637, 47.51021690432499], [8.4898706764216, 47.510551205201494], [8.489935792532114, 47.510636414382226], [8.48999529301539, 47.51073302574487], [8.490252761927936, 47.511261886392006], [8.490444929174904, 47.51170140132364], [8.49054429487801, 47.51199706183985], [8.490570534185323, 47.51209732991279], [8.490603534031976, 47.512299724950985], [8.490625257255937, 47.512888273586064], [8.490609277803964, 47.5131260308187], [8.49055130884833, 47.51347066595809], [8.490548398535111, 47.5135255418563], [8.490528481219705, 47.513584448874006], [8.490495251746609, 47.5136355164262], [8.490444456995668, 47.513685214451], [8.490092649442408, 47.51394053749527], [8.489785422388932, 47.514142206445584], [8.489703411458875, 47.51417972967503], [8.489618925802489, 47.51420423302323], [8.489529288027546, 47.514217953491254], [8.489437436342197, 47.514220423672676], [8.489418283873508, 47.51442622461833], [8.489257819579958, 47.51457721636447], [8.490923154685042, 47.51588438300561], [8.491653347128754, 47.51675567741727], [8.491989239260365, 47.51714123685261], [8.492100049684034, 47.517242309272866], [8.49217595753387, 47.51729865390919], [8.492257958552656, 47.517350913479156], [8.492345581874028, 47.51739877743807], [8.49243829165763, 47.517442007766654], [8.49253375950971, 47.51747969020585], [8.493078864523971, 47.517659173556616], [8.493134933790664, 47.517683200571206], [8.49319205533101, 47.517714755510305], [8.493237972001333, 47.51774704205547], [8.493282148748275, 47.517786657098945], [8.493318626571298, 47.51782971524073], [8.493330535225098, 47.517855079704596], [8.493333916433702, 47.51787893875983], [8.493330029671394, 47.51790320578503], [8.493318810295698, 47.51792663110545], [8.493305282464533, 47.517943457376916], [8.493154565841634, 47.518080460269765], [8.492342711662745, 47.518267486562316], [8.491375769265254, 47.51859606887837], [8.491507671806648, 47.51870343543273], [8.491867140204524, 47.51894809607509], [8.493017502478564, 47.51968866523613], [8.49298058848651, 47.519714707853616], [8.492905001318698, 47.51972362579518], [8.492469150670374, 47.52035177370276], [8.492528337978413, 47.52043180924172], [8.492715797725657, 47.52047395246244], [8.492848100863949, 47.52051210013349], [8.492986106829498, 47.520562617286934], [8.493126664552445, 47.520627295580304], [8.493213257166728, 47.52067509636245], [8.493303472623921, 47.52073282116127], [8.493386886617674, 47.52079506913134], [8.49345573487461, 47.520854652411295], [8.493491605719068, 47.52084828137058], [8.49353046453257, 47.5208539719136], [8.49362744776604, 47.52090810897849], [8.493679065220505, 47.52092507950862], [8.493864760721191, 47.52094376107875], [8.493972232700136, 47.52095836079641], [8.494091420935934, 47.52097988747827], [8.494220897281467, 47.52100997312585], [8.494383697625771, 47.52105854471054], [8.494668801550317, 47.521168450855065], [8.494742454109911, 47.521192397697874], [8.495626649092888, 47.52086613852965], [8.496334843107618, 47.520589843957204], [8.496474585326771, 47.52052526362556], [8.496607575046761, 47.52044566079893], [8.49672893119909, 47.52035130494404], [8.497039877906506, 47.520049203829096], [8.497314328853163, 47.51973220762143], [8.497361989105947, 47.519665823388266], [8.497407727635057, 47.519590291175284], [8.497581432618306, 47.519245854736], [8.497611216658434, 47.51920195844081], [8.497648743730467, 47.51915950241722], [8.497923822839185, 47.51892910750323], [8.498411890628105, 47.518497765600394], [8.498910776633705, 47.51804405134665], [8.499041176406884, 47.517930298320934], [8.499031074812624, 47.51794972933118], [8.49903254495982, 47.51797217553769], [8.499045743264176, 47.51799150112172], [8.499068621625947, 47.51800620476414], [8.501332883304896, 47.51897546669907], [8.501912672354948, 47.519194598597714], [8.502213440167482, 47.519315954563574], [8.50245892467566, 47.5194229402672], [8.50272314715354, 47.519546600285295], [8.504392429501255, 47.51763790131024], [8.5061666002604, 47.51831148155361], [8.506193110964173, 47.51832843505077], [8.506208906814399, 47.518350686214916], [8.50621094778029, 47.51837694084654], [8.506197742061948, 47.518403659811575], [8.506450576449359, 47.51811753853976], [8.507291576473719, 47.51721860850799], [8.505768713719652, 47.51663246070837], [8.506158251278103, 47.51558378016809], [8.506179306534511, 47.51555525289925], [8.505334699731142, 47.51523197625283], [8.50536578581716, 47.51523884072239], [8.505398401211673, 47.51523722710568], [8.505428059528139, 47.515227194729725], [8.505448343661202, 47.51521183389496], [8.506846828624774, 47.513550569899444], [8.506924302378254, 47.51345968367344], [8.507015702053225, 47.51336215671788], [8.507405463456148, 47.51348729253989], [8.50776721906805, 47.51359158408289], [8.508169399129448, 47.51368776577641], [8.508612956562288, 47.51377700669193], [8.508848818819603, 47.51381684163555], [8.50906385800811, 47.51384715430861], [8.509644804400432, 47.51390610459547], [8.509834024915067, 47.51391549909857], [8.510016305029055, 47.513913192445294], [8.51016254456689, 47.51390324065474], [8.510336039703693, 47.51388401485316], [8.510381476132777, 47.51383549080783], [8.510443050188485, 47.51384129823404], [8.51129463805275, 47.51370669718147], [8.51153928365154, 47.51362840806579], [8.511687043791445, 47.51359517998705], [8.511907381255924, 47.5135603976938], [8.51213126233538, 47.513542006441504], [8.51233179963892, 47.513539868676894], [8.512428927391987, 47.51354630787662], [8.512525287915581, 47.51355814194022], [8.512651129561043, 47.51358216917012], [8.513089330303634, 47.51368848765454], [8.513242769864975, 47.51371492063951], [8.513384337930841, 47.51373269378406], [8.513569669391563, 47.513746723551456], [8.513783591293052, 47.51375251830748], [8.513889298186639, 47.513747894135975], [8.513993243365041, 47.51373428254839], [8.514093547305361, 47.513711970815145], [8.51418892861171, 47.51368127671291], [8.514906908008227, 47.51339014077343], [8.514923502325232, 47.5133730315787], [8.514927387270975, 47.513354421434826], [8.514918494702904, 47.513334877663624], [8.514897748120351, 47.51332001334551], [8.515097801456621, 47.51302913654322], [8.516584644779009, 47.513505203662156], [8.517188785892419, 47.51369480010709], [8.517552955955571, 47.513815615964766], [8.517725651524394, 47.51387748264234], [8.517912966745214, 47.51395185940615], [8.518095545046865, 47.514032234477796], [8.518255010501703, 47.51410939773552], [8.518929745064135, 47.513513791479305], [8.51902078377193, 47.513362247359645], [8.51919852668772, 47.51341898290271], [8.519216926787067, 47.5133895424281], [8.519191070115578, 47.51334214770806], [8.520138001195006, 47.51201757361106], [8.520359579881122, 47.511927580936835], [8.52029931550041, 47.51181839940894], [8.52025768856153, 47.511754781838476], [8.520772343244316, 47.51131046568678], [8.520927946573568, 47.511239212649514], [8.520805162464422, 47.51116313143997], [8.520944838888804, 47.511034065312494], [8.520957889383615, 47.51100082484128], [8.521225548755124, 47.51051538829633], [8.521253167154239, 47.51039632798095], [8.521456976870404, 47.50998642232872], [8.52206649152143, 47.50916657427358], [8.522032159728822, 47.50909092600341], [8.521878382761972, 47.508961500355305], [8.520590026868716, 47.50854012486717], [8.520248876914454, 47.508432280906646], [8.520160123373604, 47.508414220938256], [8.519707731625125, 47.508363280583545], [8.519105009601372, 47.50835006179798], [8.518640968974971, 47.508359499375665], [8.51852297046104, 47.50834991400621], [8.51840112391723, 47.50832603574924], [8.518301663893324, 47.50829453696413], [8.517616249140152, 47.508028060547], [8.516617343042157, 47.50766617819003], [8.516482981270663, 47.5076102404409], [8.51592864197852, 47.50734738286526], [8.51583481539637, 47.50724323322718], [8.515247628141566, 47.50653392885527], [8.515094786534991, 47.506368866502804], [8.515320059544553, 47.50600646203755], [8.515855666955918, 47.50558083412761], [8.51629647240006, 47.50526059532849], [8.517026421126882, 47.504758136729784], [8.518287417891358, 47.503868204179106], [8.518700324258322, 47.503593297445136], [8.518737594163792, 47.50355980423083], [8.518761321173955, 47.503524836263864], [8.518772618507333, 47.503494184771995], [8.518776048526291, 47.50345916327087], [8.518746370319622, 47.50308943284333], [8.518591078922746, 47.5024201889307], [8.518450724658198, 47.50192417013116], [8.518310461670708, 47.501524690708194], [8.518208597498843, 47.50088643847403], [8.518050050766153, 47.50039423107638], [8.518164903031717, 47.50035563427157], [8.518273158074646, 47.500307870267676], [8.518944258838317, 47.49995819178271], [8.519237100262414, 47.49984116321223], [8.51954942578664, 47.49975354475825], [8.519789861501083, 47.49970825129051], [8.520460972424974, 47.49961434763952], [8.52092947967381, 47.49956203682533], [8.52101573129571, 47.49954722583977], [8.521090424103011, 47.499529905348055], [8.52121521256179, 47.499490592041], [8.522320366281871, 47.49907086758441], [8.522361089611424, 47.49902733871653], [8.522561642243069, 47.499061197595395], [8.522522973165547, 47.499045962684626], [8.52249206596642, 47.49902407996253], [8.522471457230148, 47.49899757646146], [8.52246217289443, 47.49896599288258], [8.52249100581822, 47.49882098858239], [8.5225352856208, 47.498666098312825], [8.522587493359895, 47.4985231418291], [8.522821319050394, 47.49808698313927], [8.522987200943733, 47.49779346923413], [8.523044093347114, 47.4977150239177], [8.523105212724301, 47.497646658098056], [8.523036506404454, 47.497611124732465]]]]}}]}