{
  "type": "FeatureCollection",
  "features": [
    {
      "type": "Feature",
      "properties": {
        "source": "swisstopo SWISSBOUNDARIES3D",
        "source:date": "2026-01-01"
      },
      "geometry": {
        "type": "LineString",
        "coordinates": [
          [
            8.085057581635201,
            46.24366000845701
          ],
          [
            8.085706547047565,
            46.24359600863737
          ],
          [
            8.086184823432017,
            46.24352814221077
          ],
          [
            8.086396782901344,
            46.243210542758774
          ],
          [
            8.086267708718372,
            46.24276112609121
          ],
          [
            8.08593009254378,
            46.24226189564397
          ],
          [
            8.085681357611808,
            46.241910948394704
          ],
          [
            8.085360704696335,
            46.241602332648306
          ],
          [
            8.085106342022145,
            46.241148053325425
          ],
          [
            8.084510691251474,
            46.24075491520397
          ],
          [
            8.084198220354892,
            46.240296467640654
          ],
          [
            8.08418145838401,
            46.23991368834437
          ],
          [
            8.084383099413746,
            46.239534079791895
          ],
          [
            8.084244137758777,
            46.23905665021621
          ],
          [
            8.084007536217308,
            46.2386870087082
          ],
          [
            8.083643768344002,
            46.23839500676652
          ],
          [
            8.083412229527758,
            46.23802533520033
          ],
          [
            8.083523713843976,
            46.237501047984466
          ],
          [
            8.083752554101741,
            46.23705615515699
          ],
          [
            8.083977230119752,
            46.23668576273263
          ],
          [
            8.083622605762288,
            46.23645317162401
          ],
          [
            8.083408389541312,
            46.23612136410515
          ],
          [
            8.083059664970099,
            46.235925620868336
          ],
          [
            8.082958635244658,
            46.235299541370914
          ],
          [
            8.083067127543156,
            46.234863251668465
          ],
          [
            8.082981145848096,
            46.23464235211826
          ],
          [
            8.08267778128702,
            46.234433665201955
          ],
          [
            8.082119270327894,
            46.23425557570523
          ],
          [
            8.081511884484259,
            46.23406705607654
          ],
          [
            8.081003014008703,
            46.233832553572185
          ],
          [
            8.09113936127035,
            46.22744019069015
          ],
          [
            8.091190719686807,
            46.22724350467395
          ],
          [
            8.091074947938415,
            46.226961251045935
          ],
          [
            8.091188183100831,
            46.22666697131552
          ],
          [
            8.091506419176582,
            46.22645284050392
          ],
          [
            8.09156777784864,
            46.22616605651071
          ],
          [
            8.09170927768508,
            46.225624126557264
          ],
          [
            8.09180280640733,
            46.22489850704382
          ],
          [
            8.091689452809938,
            46.224302012938544
          ],
          [
            8.091788523861055,
            46.2238745849196
          ],
          [
            8.091904505069836,
            46.223571292683296
          ],
          [
            8.091767231833153,
            46.223268203542034
          ],
          [
            8.091540818072962,
            46.22303237848525
          ],
          [
            8.091636858889952,
            46.22268854011771
          ],
          [
            8.091837717936723,
            46.22240579934137
          ],
          [
            8.092378666392852,
            46.22133809796842
          ],
          [
            8.092306668935441,
            46.2209997280898
          ],
          [
            8.092603162497342,
            46.22077184798361
          ],
          [
            8.09290900903978,
            46.22028367027744
          ],
          [
            8.092990388059338,
            46.21989745483819
          ],
          [
            8.093342967293768,
            46.21964505824763
          ],
          [
            8.09368750948784,
            46.219606252030076
          ],
          [
            8.093992878100005,
            46.21919175959805
          ],
          [
            8.094759612899127,
            46.21909707621635
          ],
          [
            8.094961513413423,
            46.21863208452791
          ],
          [
            8.09489041388642,
            46.218123949201406
          ],
          [
            8.095180366298857,
            46.21764468241137
          ],
          [
            8.095176748187951,
            46.21737878425994
          ],
          [
            8.094875613748213,
            46.21712521901018
          ],
          [
            8.095202638468669,
            46.21680307552955
          ],
          [
            8.095297883280534,
            46.216642296373614
          ],
          [
            8.09536315244458,
            46.21652128221025
          ],
          [
            8.095274808727607,
            46.21638466149853
          ],
          [
            8.095277446078233,
            46.21629701701217
          ],
          [
            8.095403515272283,
            46.216145549476686
          ],
          [
            8.095482725387605,
            46.21599746654812
          ],
          [
            8.095669400778768,
            46.2159017002206
          ],
          [
            8.095759753441374,
            46.21579650783674
          ],
          [
            8.095901105805373,
            46.21571868142466
          ],
          [
            8.096116880321832,
            46.2157137838591
          ],
          [
            8.096617266540095,
            46.21555038662485
          ],
          [
            8.096794760749928,
            46.2154028913621
          ],
          [
            8.097294680663156,
            46.215308537445885
          ],
          [
            8.097560255240642,
            46.215273660548284
          ],
          [
            8.09788089475772,
            46.21513293998341
          ],
          [
            8.098048319787114,
            46.215014747136166
          ],
          [
            8.098247085269893,
            46.21502343852862
          ],
          [
            8.098497264214306,
            46.21508715446984
          ],
          [
            8.098663022379819,
            46.215082903682074
          ],
          [
            8.099059706928909,
            46.21498225350524
          ],
          [
            8.099277833762276,
            46.21498993042545
          ],
          [
            8.099558386499671,
            46.21514315585833
          ],
          [
            8.099719118379898,
            46.21518391247179
          ],
          [
            8.09992548766447,
            46.21517838789992
          ],
          [
            8.100254592595975,
            46.215067297578074
          ],
          [
            8.100910212046811,
            46.214946864022984
          ],
          [
            8.101214699015468,
            46.21494616000659
          ],
          [
            8.102003658045643,
            46.214662526496866
          ],
          [
            8.10215540405723,
            46.214561241837345
          ],
          [
            8.102243098350327,
            46.214483713233534
          ],
          [
            8.102422717889487,
            46.21438456759978
          ],
          [
            8.102666463663715,
            46.214293438352826
          ],
          [
            8.102919305621372,
            46.2142044321569
          ],
          [
            8.103412043113686,
            46.21410730449356
          ],
          [
            8.103739269241792,
            46.214013262252244
          ],
          [
            8.103944666561047,
            46.21393169352108
          ],
          [
            8.104219737203783,
            46.21375211764137
          ],
          [
            8.104367664116726,
            46.21349467429851
          ],
          [
            8.104688518792168,
            46.21307588710897
          ],
          [
            8.104806451410838,
            46.212877444149
          ],
          [
            8.104887773709653,
            46.212725473779216
          ],
          [
            8.105232195592382,
            46.21258146145915
          ],
          [
            8.105477903996173,
            46.21253527611414
          ],
          [
            8.105720101571299,
            46.212520956499596
          ],
          [
            8.105918504541291,
            46.21250384517736
          ],
          [
            8.106068703256065,
            46.21247622291705
          ],
          [
            8.106222013168807,
            46.212428611145846
          ],
          [
            8.106329965443013,
            46.21219668868573
          ],
          [
            8.106876193564853,
            46.21183934676658
          ],
          [
            8.106938133892704,
            46.2117453151964
          ],
          [
            8.10692715461301,
            46.21167315183291
          ],
          [
            8.10682409171223,
            46.211520398407096
          ],
          [
            8.106816621936508,
            46.21140682406649
          ],
          [
            8.106783073835667,
            46.21131278102695
          ],
          [
            8.10691830553009,
            46.21105610195699
          ],
          [
            8.107068866269499,
            46.210837546780795
          ],
          [
            8.10705772812838,
            46.21059711567771
          ],
          [
            8.107191700019316,
            46.210485170088376
          ],
          [
            8.107312926189268,
            46.210263819353166
          ],
          [
            8.107548802642448,
            46.2101967000903
          ],
          [
            8.10770543844671,
            46.20999631585218
          ],
          [
            8.10758366908417,
            46.20961792119038
          ],
          [
            8.108014976706198,
            46.20894474091898
          ],
          [
            8.107956444316427,
            46.20862581317893
          ],
          [
            8.107634290434415,
            46.20830541379179
          ],
          [
            8.107491710918364,
            46.20818423660183
          ],
          [
            8.107441514598051,
            46.2080131972208
          ],
          [
            8.1075512922585,
            46.207796007075615
          ],
          [
            8.107516057481796,
            46.20745780700267
          ],
          [
            8.107572806171497,
            46.20737200106174
          ],
          [
            8.107718065429127,
            46.20727465138463
          ],
          [
            8.108050961475072,
            46.20717989714212
          ],
          [
            8.108086552877834,
            46.20692235813621
          ],
          [
            8.10820039542976,
            46.20675483673843
          ],
          [
            8.108209028674,
            46.20648514191191
          ],
          [
            8.1085327543203,
            46.206289893123554
          ],
          [
            8.108402365095408,
            46.206126103186904
          ],
          [
            8.108645991536163,
            46.205738159107035
          ],
          [
            8.10851297955111,
            46.20548317522003
          ],
          [
            8.108088019327587,
            46.20517453224625
          ],
          [
            8.108082352240041,
            46.2047827395494
          ],
          [
            8.10799624232194,
            46.20460329499242
          ],
          [
            8.107837252363643,
            46.204474442990126
          ],
          [
            8.107167221490418,
            46.20399572169663
          ],
          [
            8.107364578802937,
            46.20340698623319
          ],
          [
            8.107777660891124,
            46.202975356032454
          ],
          [
            8.1081049373219,
            46.20279440887642
          ],
          [
            8.108204903782255,
            46.20269402519283
          ],
          [
            8.108274026557929,
            46.202545525016625
          ],
          [
            8.10822836977807,
            46.2021827111728
          ],
          [
            8.108263038600061,
            46.202139379416344
          ],
          [
            8.108483291280773,
            46.20215120876212
          ],
          [
            8.108610295624473,
            46.20213522615097
          ],
          [
            8.109253097688663,
            46.2020896561954
          ],
          [
            8.109643494297478,
            46.20208420033583
          ],
          [
            8.109873062963565,
            46.201978242083115
          ],
          [
            8.109973527889363,
            46.20187453435561
          ],
          [
            8.110223457798442,
            46.20168730228725
          ],
          [
            8.11035982690557,
            46.20153563958498
          ],
          [
            8.110462997610785,
            46.20145188627983
          ],
          [
            8.110631332488342,
            46.201375275165475
          ],
          [
            8.110975085290834,
            46.20108531704827
          ],
          [
            8.111025378307364,
            46.200892001492655
          ],
          [
            8.111303175798618,
            46.20063300272574
          ],
          [
            8.111517767629625,
            46.200302124228074
          ],
          [
            8.111664169287172,
            46.199913249755795
          ],
          [
            8.111917869911482,
            46.19970734287609
          ],
          [
            8.112045697935294,
            46.199482763048344
          ],
          [
            8.112269149388966,
            46.19923844303817
          ],
          [
            8.112479878581906,
            46.19886744588502
          ],
          [
            8.112785429429197,
            46.1985368053796
          ],
          [
            8.113086752149675,
            46.197980949389056
          ],
          [
            8.11335914233352,
            46.197547681745945
          ],
          [
            8.11383162739843,
            46.19709777253711
          ],
          [
            8.114401503124613,
            46.19691065278533
          ],
          [
            8.115507408407117,
            46.19690389277137
          ],
          [
            8.11527471449431,
            46.19676172883286
          ],
          [
            8.114881599782832,
            46.19648544139318
          ],
          [
            8.114673347317233,
            46.196296738062216
          ],
          [
            8.114513504417177,
            46.19623634163821
          ],
          [
            8.1144366219554,
            46.19618532660523
          ],
          [
            8.114138920195675,
            46.19591807386123
          ],
          [
            8.113912976293763,
            46.19580148721824
          ],
          [
            8.11372439863106,
            46.19563717853513
          ],
          [
            8.113635331975246,
            46.1955069906673
          ],
          [
            8.11366277117568,
            46.19531674303298
          ],
          [
            8.113651746045266,
            46.19519006534868
          ],
          [
            8.113600852893716,
            46.19512865721713
          ],
          [
            8.113328523211141,
            46.194959630294406
          ],
          [
            8.113052857033919,
            46.1948129145195
          ],
          [
            8.111992885361344,
            46.194669262263815
          ],
          [
            8.111255548643436,
            46.19462497490338
          ],
          [
            8.110868904914405,
            46.194575350333906
          ],
          [
            8.11019472912161,
            46.1945001303182
          ],
          [
            8.110021731341613,
            46.194452040195294
          ],
          [
            8.109904788066055,
            46.19436098532364
          ],
          [
            8.109833248901749,
            46.19428255190639
          ],
          [
            8.109639363688656,
            46.19412972882868
          ],
          [
            8.109323584778233,
            46.19399705086085
          ],
          [
            8.108926677437884,
            46.19389495342572
          ],
          [
            8.108492109559181,
            46.193801929751764
          ],
          [
            8.107816640067936,
            46.19362869280379
          ],
          [
            8.107324089143026,
            46.19362285442659
          ],
          [
            8.106694129658674,
            46.19363122094013
          ],
          [
            8.10604743597043,
            46.193573112990094
          ],
          [
            8.10579357704275,
            46.19345962573989
          ],
          [
            8.105429259843612,
            46.1932739136453
          ],
          [
            8.10508889076555,
            46.193160845119245
          ],
          [
            8.105006740332033,
            46.193019005110486
          ],
          [
            8.10508311384712,
            46.19277197697398
          ],
          [
            8.105081374308973,
            46.19262967192883
          ],
          [
            8.104900185283162,
            46.19223903107745
          ],
          [
            8.10472671173205,
            46.19201424706032
          ],
          [
            8.104519812044703,
            46.191883217150604
          ],
          [
            8.104322467843613,
            46.1917931429473
          ],
          [
            8.103589986537681,
            46.19148578182642
          ],
          [
            8.10312844317923,
            46.19135478970017
          ],
          [
            8.102801777823416,
            46.19123920493901
          ],
          [
            8.102423003332103,
            46.19113003346573
          ],
          [
            8.102247570950237,
            46.19100817040903
          ],
          [
            8.102200271413901,
            46.190921358703335
          ],
          [
            8.10184043914009,
            46.19064403957127
          ],
          [
            8.101688678478355,
            46.19059489462291
          ],
          [
            8.101496198941323,
            46.19056111037168
          ],
          [
            8.100805067405679,
            46.19053612225313
          ],
          [
            8.100136727146712,
            46.19046572914564
          ],
          [
            8.0998445602784,
            46.19039547127915
          ],
          [
            8.099648852128551,
            46.190300359706846
          ],
          [
            8.099546053524849,
            46.19019750789742
          ],
          [
            8.09944616183513,
            46.189906975462804
          ],
          [
            8.09935262260882,
            46.189766457485
          ],
          [
            8.099059590909349,
            46.18954848095228
          ],
          [
            8.098843064806802,
            46.18941426750573
          ],
          [
            8.098729511974536,
            46.189224208538704
          ],
          [
            8.098655257314931,
            46.1890179972632
          ],
          [
            8.098597615964433,
            46.18887874440272
          ],
          [
            8.098518476469746,
            46.188794321098776
          ],
          [
            8.098294735294582,
            46.18861688746082
          ],
          [
            8.098156653807859,
            46.18851998871019
          ],
          [
            8.097841438199126,
            46.18831101748551
          ],
          [
            8.097730502091574,
            46.18816550799168
          ],
          [
            8.097659762737795,
            46.18813182597802
          ],
          [
            8.097044197917644,
            46.1880420447498
          ],
          [
            8.096672098674317,
            46.18801308572984
          ],
          [
            8.096414571418672,
            46.18791383056092
          ],
          [
            8.0959772000475,
            46.187778017958024
          ],
          [
            8.095744053841637,
            46.18767142276778
          ],
          [
            8.095430978668304,
            46.18746154186843
          ],
          [
            8.095217789247746,
            46.18729212823629
          ],
          [
            8.09512543545897,
            46.18724986217273
          ],
          [
            8.094883439209609,
            46.18715555105175
          ],
          [
            8.0945813747139,
            46.18697539832417
          ],
          [
            8.094394520637108,
            46.18687266985225
          ],
          [
            8.094171146169934,
            46.18678967397702
          ],
          [
            8.09390094072467,
            46.18676624111076
          ],
          [
            8.093648539256742,
            46.18665609194126
          ],
          [
            8.093456102074732,
            46.18650560808917
          ],
          [
            8.092988868094466,
            46.18619810843708
          ],
          [
            8.092652975935438,
            46.18605395011466
          ],
          [
            8.092159551196174,
            46.18588499146402
          ],
          [
            8.091658372411882,
            46.18578317584505
          ],
          [
            8.091143960563992,
            46.185755119765815
          ],
          [
            8.090645440800447,
            46.18573568669521
          ],
          [
            8.090155903128023,
            46.18567339719708
          ],
          [
            8.089792893519386,
            46.18568917176423
          ],
          [
            8.089481267829159,
            46.18560217710263
          ],
          [
            8.089135953662266,
            46.18555847478406
          ],
          [
            8.088915543540868,
            46.18550896122672
          ],
          [
            8.088080482929344,
            46.1853914631665
          ],
          [
            8.087814412468674,
            46.18532724064888
          ],
          [
            8.087523191481337,
            46.18526747992063
          ],
          [
            8.087256562624615,
            46.18522806996377
          ],
          [
            8.086945456360121,
            46.18527134382443
          ],
          [
            8.08623302020098,
            46.185483340816816
          ],
          [
            8.085852788957904,
            46.18550055076275
          ],
          [
            8.085399494754524,
            46.185492548226
          ],
          [
            8.085066427003298,
            46.185475301274614
          ],
          [
            8.08481205943086,
            46.18557428011716
          ],
          [
            8.084664109510655,
            46.18569231522372
          ],
          [
            8.08453000903047,
            46.185887266791966
          ],
          [
            8.08439205456099,
            46.18607293846804
          ],
          [
            8.084191482588292,
            46.18617602553016
          ],
          [
            8.083836937781527,
            46.18625082654755
          ],
          [
            8.08359020565384,
            46.1861964601272
          ],
          [
            8.083386644988417,
            46.18608967079005
          ],
          [
            8.08302321592809,
            46.18584893526367
          ],
          [
            8.082882273193137,
            46.18578101010113
          ],
          [
            8.082142119194065,
            46.185477908833406
          ],
          [
            8.08188146810397,
            46.185324645233955
          ],
          [
            8.081659049595467,
            46.18527989679893
          ],
          [
            8.081569974423708,
            46.185269545462255
          ],
          [
            8.080988866893488,
            46.18536535397581
          ],
          [
            8.080434576303789,
            46.18541347298045
          ],
          [
            8.079966954971914,
            46.185484405879635
          ],
          [
            8.079602516300685,
            46.18556382862518
          ],
          [
            8.079231149605201,
            46.1856147815022
          ],
          [
            8.078969109518164,
            46.1855896474305
          ],
          [
            8.078187478318078,
            46.18541538743009
          ],
          [
            8.077854105735492,
            46.18527243949426
          ],
          [
            8.077548948167165,
            46.18516080768992
          ],
          [
            8.077384003185582,
            46.185034421217395
          ],
          [
            8.07421700646772,
            46.18352477350089
          ],
          [
            8.073670746804169,
            46.18181239343833
          ],
          [
            8.073499203714613,
            46.18038223949656
          ],
          [
            8.073381554073253,
            46.17993109153044
          ],
          [
            8.07353291104534,
            46.1779246385407
          ],
          [
            8.072717711328211,
            46.17621323462573
          ],
          [
            8.072637854667253,
            46.17599411142703
          ],
          [
            8.072481784039494,
            46.17567860209321
          ],
          [
            8.072446775025988,
            46.175571072890946
          ],
          [
            8.07249929008879,
            46.175331929019364
          ],
          [
            8.072287541824474,
            46.17448380740781
          ],
          [
            8.072208686290248,
            46.17437836813346
          ],
          [
            8.072238163723464,
            46.17425729839156
          ],
          [
            8.07208299577522,
            46.17410919663936
          ],
          [
            8.07207622012178,
            46.173966200302296
          ],
          [
            8.072039048330824,
            46.173898624775205
          ],
          [
            8.07193141618484,
            46.17380724521756
          ],
          [
            8.071857659694441,
            46.173667952672055
          ],
          [
            8.071822844568532,
            46.17350217396954
          ],
          [
            8.071893612802677,
            46.17335734877545
          ],
          [
            8.071990241969973,
            46.17329300857272
          ],
          [
            8.072112974214013,
            46.1732519292191
          ],
          [
            8.072245694840566,
            46.17322910931854
          ],
          [
            8.072383828540262,
            46.173181817130384
          ],
          [
            8.072481226332238,
            46.17305555362794
          ],
          [
            8.07226724824359,
            46.17279606230263
          ],
          [
            8.072038293043455,
            46.17268174888918
          ],
          [
            8.07180584556843,
            46.17255207165012
          ],
          [
            8.07154292851082,
            46.17222914444256
          ],
          [
            8.071233043518285,
            46.171909016408236
          ],
          [
            8.07124944568688,
            46.171778070710786
          ],
          [
            8.071202266576428,
            46.171689230747326
          ],
          [
            8.071055261010034,
            46.17164229446771
          ],
          [
            8.070797267573724,
            46.17164175888035
          ],
          [
            8.070605388665117,
            46.17155956634533
          ],
          [
            8.070515108442594,
            46.17146318570436
          ],
          [
            8.070489165074312,
            46.17137423570697
          ],
          [
            8.070431563393406,
            46.17123727185015
          ],
          [
            8.070467052390727,
            46.17107047899494
          ],
          [
            8.070475789201366,
            46.17091816612299
          ],
          [
            8.07037093203593,
            46.17069894737351
          ],
          [
            8.070231840410342,
            46.1705512930734
          ],
          [
            8.070057413606554,
            46.170449490064875
          ],
          [
            8.06973023371368,
            46.17033958008586
          ],
          [
            8.06957806270885,
            46.17028110207895
          ],
          [
            8.069454803845296,
            46.17020345421719
          ],
          [
            8.069399710108241,
            46.170108360608985
          ],
          [
            8.069343761429343,
            46.16978925674045
          ],
          [
            8.069174700266933,
            46.1695912116852
          ],
          [
            8.068932232577938,
            46.169461053819305
          ],
          [
            8.068614341713037,
            46.169308286529855
          ],
          [
            8.06842131973929,
            46.16923262772685
          ],
          [
            8.06801854294752,
            46.16916273392898
          ],
          [
            8.067884932209274,
            46.169096458834815
          ],
          [
            8.067764554558384,
            46.1689370027394
          ],
          [
            8.067673022171617,
            46.16875255737656
          ],
          [
            8.067679986190257,
            46.16855478057208
          ],
          [
            8.067505318095641,
            46.16829068969606
          ],
          [
            8.067231195727048,
            46.16810933803262
          ],
          [
            8.06716386141459,
            46.16803014418481
          ],
          [
            8.067117469607492,
            46.167748058124225
          ],
          [
            8.066984638084868,
            46.16744442188093
          ],
          [
            8.066921589993786,
            46.16713023219275
          ],
          [
            8.066827491421495,
            46.16703162097139
          ],
          [
            8.066769607956756,
            46.166913962041974
          ],
          [
            8.066798670780882,
            46.166732578885664
          ],
          [
            8.06683687255313,
            46.16662075487984
          ],
          [
            8.066793331672805,
            46.1665230320188
          ],
          [
            8.066506769643008,
            46.16619919944293
          ],
          [
            8.066336777578814,
            46.16601852647744
          ],
          [
            8.066222207735176,
            46.16578895882766
          ],
          [
            8.066063041872416,
            46.16556214854947
          ],
          [
            8.065946474233602,
            46.16536695591011
          ],
          [
            8.065748618618633,
            46.16506637805689
          ],
          [
            8.065685181024111,
            46.1649483446217
          ],
          [
            8.06566174130067,
            46.16481380670317
          ],
          [
            8.065484277448832,
            46.16455239117092
          ],
          [
            8.065246772401744,
            46.16449086344955
          ],
          [
            8.065040093742269,
            46.16442477436545
          ],
          [
            8.064887186829163,
            46.16436233607822
          ],
          [
            8.064488945352375,
            46.16425651132741
          ],
          [
            8.064276142044536,
            46.1642206718591
          ],
          [
            8.064098205449637,
            46.164069716936645
          ],
          [
            8.063744364212925,
            46.16368049025309
          ],
          [
            8.063499209627981,
            46.1635101153784
          ],
          [
            8.063367822403105,
            46.163263230985876
          ],
          [
            8.06324323765386,
            46.163078919995094
          ],
          [
            8.063082112759972,
            46.16296533831644
          ],
          [
            8.062735508610524,
            46.16285098187529
          ],
          [
            8.06250475759795,
            46.16270553380228
          ],
          [
            8.062312474215204,
            46.16255465534705
          ],
          [
            8.06217994881981,
            46.162480496292595
          ],
          [
            8.0620271415932,
            46.162342173615656
          ],
          [
            8.061839725644585,
            46.162249965457335
          ],
          [
            8.06146600778062,
            46.162094922531814
          ],
          [
            8.061254955358566,
            46.161945000372704
          ],
          [
            8.061181908422379,
            46.16182323919714
          ],
          [
            8.061362290342764,
            46.1614990602124
          ],
          [
            8.061386294736753,
            46.161413062505694
          ],
          [
            8.061346889265456,
            46.161323681002564
          ],
          [
            8.061190023170315,
            46.161128705736814
          ],
          [
            8.06100243191091,
            46.160929851375094
          ],
          [
            8.060831999064279,
            46.16081645276844
          ],
          [
            8.060159009841765,
            46.16038642183284
          ],
          [
            8.060035962854482,
            46.160290123364746
          ],
          [
            8.059916710510372,
            46.16023711891678
          ],
          [
            8.059825800650348,
            46.16015602641002
          ],
          [
            8.059713538414094,
            46.16008017884067
          ],
          [
            8.059534723917187,
            46.16002723151181
          ],
          [
            8.059412402406565,
            46.159964941695684
          ],
          [
            8.05932777747548,
            46.15995825491588
          ],
          [
            8.059216901588101,
            46.159855096841795
          ],
          [
            8.059174045113124,
            46.15974643747378
          ],
          [
            8.059195753075866,
            46.15965293234059
          ],
          [
            8.059117434280482,
            46.15953934008719
          ],
          [
            8.058966828269684,
            46.15948389803647
          ],
          [
            8.058606876077775,
            46.15946127908296
          ],
          [
            8.058271747210426,
            46.15938449378684
          ],
          [
            8.057997089099464,
            46.159365938996764
          ],
          [
            8.057857652915349,
            46.15924399991081
          ],
          [
            8.057863993129526,
            46.15910799293015
          ],
          [
            8.057792678060508,
            46.15902490229698
          ],
          [
            8.05764357053587,
            46.15893013843391
          ],
          [
            8.057533904781746,
            46.15880880050152
          ],
          [
            8.05749277909984,
            46.15869828689595
          ],
          [
            8.057392145471276,
            46.158591382672164
          ],
          [
            8.057393523578318,
            46.1584446528681
          ],
          [
            8.0573225112287,
            46.158272816268024
          ],
          [
            8.057262630806715,
            46.157953566717026
          ],
          [
            8.0572060755926,
            46.157795099684655
          ],
          [
            8.057166643604205,
            46.15765115713536
          ],
          [
            8.057022783452428,
            46.15744215250417
          ],
          [
            8.056978293745434,
            46.15730876271824
          ],
          [
            8.05683104937949,
            46.157229370524135
          ],
          [
            8.05660024107148,
            46.15707078602375
          ],
          [
            8.056385132786772,
            46.15698848094313
          ],
          [
            8.056013109490648,
            46.15682989365432
          ],
          [
            8.05559158265398,
            46.15677741159149
          ],
          [
            8.05534219581494,
            46.156714317928596
          ],
          [
            8.055234234485278,
            46.15658716620876
          ],
          [
            8.055224753409865,
            46.15645839747496
          ],
          [
            8.055159468337385,
            46.15635152329806
          ],
          [
            8.054942827768414,
            46.15616176851675
          ],
          [
            8.054699765413021,
            46.15602793163254
          ],
          [
            8.054526891371342,
            46.15584023134886
          ],
          [
            8.054366338865687,
            46.15574976268585
          ],
          [
            8.054097603453817,
            46.155674987204506
          ],
          [
            8.053888495202505,
            46.15546616320405
          ],
          [
            8.053753284179033,
            46.155345275674165
          ],
          [
            8.05365390027433,
            46.15511835688905
          ],
          [
            8.053491596561548,
            46.154919262763876
          ],
          [
            8.053203248946877,
            46.15473587718669
          ],
          [
            8.052788031796025,
            46.15441770328198
          ],
          [
            8.052414263197338,
            46.15430859091172
          ],
          [
            8.052198611646158,
            46.15429730306104
          ],
          [
            8.051912294545717,
            46.15419599923252
          ],
          [
            8.051559468738917,
            46.15417636891495
          ],
          [
            8.051384960723166,
            46.154088346685604
          ],
          [
            8.051081821253472,
            46.15402072246297
          ],
          [
            8.050741011104918,
            46.153925099585045
          ],
          [
            8.050431444269249,
            46.15396060074548
          ],
          [
            8.050295343835815,
            46.15389791702966
          ],
          [
            8.050278038938478,
            46.153686743480314
          ],
          [
            8.050235812362775,
            46.153562964469536
          ],
          [
            8.050109350170741,
            46.15346505463759
          ],
          [
            8.049907674824228,
            46.153356045971165
          ],
          [
            8.049874687583191,
            46.153229608049806
          ],
          [
            8.04982121661534,
            46.15311878976029
          ],
          [
            8.049632841107524,
            46.15302288756307
          ],
          [
            8.04940459636987,
            46.152852787051366
          ],
          [
            8.049203739372281,
            46.15276221418993
          ],
          [
            8.049019510737697,
            46.15251263070732
          ],
          [
            8.04874917680935,
            46.15238540554748
          ],
          [
            8.048661619730575,
            46.152212519631874
          ],
          [
            8.048559041494203,
            46.15209113494233
          ],
          [
            8.048473621432613,
            46.15194722193137
          ],
          [
            8.048309466053938,
            46.15180691832071
          ],
          [
            8.04799500176717,
            46.15169153416219
          ],
          [
            8.047729620059188,
            46.15154354449299
          ],
          [
            8.047482170426838,
            46.15145967882148
          ],
          [
            8.047256579453464,
            46.151427672776705
          ],
          [
            8.047060588809277,
            46.15148369301972
          ],
          [
            8.046754867298773,
            46.15149617908573
          ],
          [
            8.046513906897495,
            46.151570576032555
          ],
          [
            8.0463595275704,
            46.15148698072017
          ],
          [
            8.046057595838,
            46.1514155133957
          ],
          [
            8.045827895594284,
            46.15139682243314
          ],
          [
            8.045532633251424,
            46.15139188701736
          ],
          [
            8.044979798946759,
            46.15122808182753
          ],
          [
            8.044566524583946,
            46.15123547180107
          ],
          [
            8.044310113635081,
            46.15120079149209
          ],
          [
            8.043765865042971,
            46.1511103763087
          ],
          [
            8.043479505691476,
            46.15098362928772
          ],
          [
            8.043327080714755,
            46.15083520444985
          ],
          [
            8.042609827457648,
            46.1507219966079
          ],
          [
            8.042427308931657,
            46.15068560357787
          ],
          [
            8.042169119196977,
            46.15064069967537
          ],
          [
            8.041483417027155,
            46.15005908333083
          ],
          [
            8.04075355800125,
            46.149619751371034
          ],
          [
            8.040589862377438,
            46.14947174281297
          ],
          [
            8.04050051222088,
            46.14923325376027
          ],
          [
            8.040335323047055,
            46.14911044111517
          ],
          [
            8.039880930022193,
            46.1490108477492
          ],
          [
            8.039708472217056,
            46.14892711476386
          ],
          [
            8.039587337294838,
            46.14875197181173
          ],
          [
            8.039402490664832,
            46.14863146636965
          ],
          [
            8.03741112777482,
            46.14743332422943
          ],
          [
            8.036840399536414,
            46.14701380519887
          ],
          [
            8.036174401314957,
            46.14595519351023
          ],
          [
            8.035379755652048,
            46.14456376480701
          ],
          [
            8.03504460747453,
            46.14352750741237
          ],
          [
            8.035077586536753,
            46.14215409483922
          ],
          [
            8.035077398216005,
            46.14155777216567
          ],
          [
            8.035396969531343,
            46.141242670020446
          ],
          [
            8.03572625513873,
            46.14069326455101
          ],
          [
            8.03554112163481,
            46.13993146984219
          ],
          [
            8.035561555904376,
            46.139479502045745
          ],
          [
            8.035563586708099,
            46.13886057024197
          ],
          [
            8.035603541757608,
            46.1379963020856
          ],
          [
            8.035670963458944,
            46.13716949127633
          ],
          [
            8.035678715497287,
            46.136743669438374
          ],
          [
            8.035727450003739,
            46.13614879753589
          ],
          [
            8.036229932602291,
            46.135726215386214
          ],
          [
            8.037207879146123,
            46.13462235993161
          ],
          [
            8.037768153987301,
            46.133895936774145
          ],
          [
            8.038063721098242,
            46.13304299561608
          ],
          [
            8.038205599601772,
            46.132462084492715
          ],
          [
            8.03872613291077,
            46.13163243362348
          ],
          [
            8.038489261418793,
            46.130295097170354
          ],
          [
            8.03868896284646,
            46.12967880366519
          ],
          [
            8.03841461185458,
            46.12947254782686
          ],
          [
            8.038675466961479,
            46.12905366648024
          ],
          [
            8.038168811064516,
            46.128155867831566
          ],
          [
            8.03810865974215,
            46.12722727084622
          ],
          [
            8.037948058594024,
            46.12689472962028
          ],
          [
            8.037890587855287,
            46.12598592717694
          ],
          [
            8.038056001811853,
            46.12542909927244
          ],
          [
            8.038109900291802,
            46.12441470671912
          ],
          [
            8.037695473212569,
            46.12356049630655
          ],
          [
            8.037495557289407,
            46.12354644379779
          ],
          [
            8.037240996427705,
            46.12345108867617
          ],
          [
            8.036908083167988,
            46.12313790990563
          ],
          [
            8.035296204770317,
            46.12248983502875
          ],
          [
            8.034608479400399,
            46.12209018513711
          ],
          [
            8.033369932796601,
            46.1219718537883
          ],
          [
            8.032307986720154,
            46.12178655130679
          ],
          [
            8.031087824316417,
            46.12111044869055
          ],
          [
            8.030235225388392,
            46.120675375332404
          ],
          [
            8.02966700000326,
            46.12061142235704
          ],
          [
            8.029162615889526,
            46.12048516960617
          ],
          [
            8.028257788187545,
            46.12042583012483
          ],
          [
            8.026400364059374,
            46.12064233648952
          ],
          [
            8.025584950440392,
            46.12055626035512
          ],
          [
            8.024011517182533,
            46.120848713459274
          ],
          [
            8.023810057775455,
            46.12097784878287
          ],
          [
            8.023381350556404,
            46.12101236460739
          ],
          [
            8.023199420681017,
            46.1211364320155
          ],
          [
            8.022714664909136,
            46.12126229984745
          ],
          [
            8.022254808380099,
            46.12150785184265
          ],
          [
            8.021824754763504,
            46.12189278174758
          ],
          [
            8.021402652107767,
            46.122438999483265
          ],
          [
            8.020427769706107,
            46.12295228876206
          ],
          [
            8.019701214548954,
            46.124055693275565
          ],
          [
            8.019042061365573,
            46.12454098766162
          ],
          [
            8.017524966202071,
            46.12506064445315
          ],
          [
            8.016052195439224,
            46.12574819436711
          ],
          [
            8.015750026601435,
            46.12616938356811
          ],
          [
            8.015221123367022,
            46.12636441522291
          ],
          [
            8.014934052877491,
            46.126439655025685
          ],
          [
            8.014447708289051,
            46.126659105300796
          ],
          [
            8.013831653742532,
            46.12699483706059
          ],
          [
            8.013495777766035,
            46.12711691093624
          ],
          [
            8.013056248008207,
            46.127224847947815
          ],
          [
            8.012824007353382,
            46.12732282366253
          ],
          [
            8.01243374098886,
            46.12757587967325
          ],
          [
            8.012164508666347,
            46.127588950811734
          ],
          [
            8.011926610295669,
            46.12772752439661
          ],
          [
            8.011734017066974,
            46.127917593351
          ],
          [
            8.011562180597515,
            46.12819940365839
          ],
          [
            8.01146617830946,
            46.12844592542374
          ],
          [
            8.011502206725714,
            46.12862304964029
          ],
          [
            8.011610981852014,
            46.12885387847207
          ],
          [
            8.011595621064506,
            46.12910385938378
          ],
          [
            8.011510192664163,
            46.12940754076127
          ],
          [
            8.01142316793652,
            46.12962082250336
          ],
          [
            8.011478741763117,
            46.12991211211593
          ],
          [
            8.011314958618895,
            46.13051709987431
          ],
          [
            8.011309183741023,
            46.13071898565419
          ],
          [
            8.011345382103555,
            46.131023219588464
          ],
          [
            8.011569298439856,
            46.13158387993258
          ],
          [
            8.011584758223758,
            46.131848727504874
          ],
          [
            8.011619527792995,
            46.13206715779818
          ],
          [
            8.011889150201673,
            46.132408259340295
          ],
          [
            8.011941497079496,
            46.132698557661804
          ],
          [
            8.012137480868885,
            46.13317209962361
          ],
          [
            8.012357087523329,
            46.13339740836666
          ],
          [
            8.01218271112007,
            46.1339178909055
          ],
          [
            8.012348780754056,
            46.134315929867164
          ],
          [
            8.012232012204429,
            46.13468031275322
          ],
          [
            8.012037484011024,
            46.13489782919322
          ],
          [
            8.011870893158182,
            46.13500338581649
          ],
          [
            8.011717454910514,
            46.13516501819423
          ],
          [
            8.011013371958743,
            46.13630890392438
          ],
          [
            8.010763077329868,
            46.13641685310273
          ],
          [
            8.010121240722896,
            46.13682410332622
          ],
          [
            8.009783478255644,
            46.13719294797057
          ],
          [
            8.009306502123074,
            46.13734181026359
          ],
          [
            8.009147763255342,
            46.13746936283483
          ],
          [
            8.008785573238134,
            46.137879249682186
          ],
          [
            8.008639301905323,
            46.138073307450625
          ],
          [
            8.008145620225587,
            46.13848249731465
          ],
          [
            8.007904795075357,
            46.13874055008173
          ],
          [
            8.00785059411665,
            46.13892865533754
          ],
          [
            8.007845983342165,
            46.139131803532514
          ],
          [
            8.007400893311921,
            46.13963674830099
          ],
          [
            8.00725174369481,
            46.13997780096685
          ],
          [
            8.007229696003778,
            46.140283768847496
          ],
          [
            8.007024617423838,
            46.14060793874983
          ],
          [
            8.007402172562992,
            46.14114677541745
          ],
          [
            8.007374883732343,
            46.14154586719543
          ],
          [
            8.007542852179686,
            46.14221414643689
          ],
          [
            8.007427020153612,
            46.142573751813615
          ],
          [
            8.007494084898012,
            46.14279740936269
          ],
          [
            8.00744489106396,
            46.142932513009306
          ],
          [
            8.007711504991931,
            46.143418112538654
          ],
          [
            8.007772704807925,
            46.14367733287667
          ],
          [
            8.00773364832097,
            46.143867430847244
          ],
          [
            8.007761357133589,
            46.14426338506521
          ],
          [
            8.007583380212825,
            46.14452174118176
          ],
          [
            8.007407486453287,
            46.14491682259843
          ],
          [
            8.007306186763936,
            46.145230934952096
          ],
          [
            8.007349984858376,
            46.14552173742402
          ],
          [
            8.007002803471229,
            46.14618494541903
          ],
          [
            8.006536991375109,
            46.14673090381586
          ],
          [
            8.00645178789265,
            46.146937164863665
          ],
          [
            8.006476168059526,
            46.14716445601951
          ],
          [
            8.005465192163356,
            46.148532944491656
          ],
          [
            8.005530613278324,
            46.14881400471543
          ],
          [
            8.005416178444017,
            46.14914626281867
          ],
          [
            8.004964818266863,
            46.149877743370396
          ],
          [
            8.004862193473784,
            46.15015370899048
          ],
          [
            8.005040974721634,
            46.15135042317103
          ],
          [
            8.004941183607363,
            46.151400751106024
          ],
          [
            8.005216415886913,
            46.15172970588976
          ],
          [
            8.005612459749665,
            46.15263459449675
          ],
          [
            8.005611477659897,
            46.152988584061596
          ],
          [
            8.005417687331214,
            46.15339689505368
          ],
          [
            8.005373550641744,
            46.15372123504369
          ],
          [
            8.005140385072195,
            46.154103916112334
          ],
          [
            8.00490626970062,
            46.154394133644495
          ],
          [
            8.004859347908265,
            46.15461260684923
          ],
          [
            8.004679237795148,
            46.15479468464413
          ],
          [
            8.004261493755314,
            46.15501699372359
          ],
          [
            8.004004014478559,
            46.155240676444905
          ],
          [
            8.003847453965674,
            46.15547229186383
          ],
          [
            8.003836928252491,
            46.15566709454068
          ],
          [
            8.003973647909183,
            46.155919291459476
          ],
          [
            8.003956909303529,
            46.156090376332074
          ],
          [
            8.003637330915732,
            46.156516945245166
          ],
          [
            8.00308922927425,
            46.15705485353639
          ],
          [
            8.002955032825616,
            46.15720800258084
          ],
          [
            8.002847291923489,
            46.15769134507758
          ],
          [
            8.002850821001106,
            46.15800761972475
          ],
          [
            8.002955422398838,
            46.15827086320272
          ],
          [
            8.002971459330041,
            46.1589065162169
          ],
          [
            8.003409517234399,
            46.15960411992266
          ],
          [
            8.003544727497658,
            46.15994609409869
          ],
          [
            8.0038033224828,
            46.16035150121091
          ],
          [
            8.00387846240879,
            46.16055669742528
          ],
          [
            8.004080006501521,
            46.16075313796688
          ],
          [
            8.004416145314003,
            46.16139475428178
          ],
          [
            8.004530861371121,
            46.16184549026682
          ],
          [
            8.004660941654427,
            46.16209857439701
          ],
          [
            8.004539495929542,
            46.16229730617059
          ],
          [
            8.004414949929183,
            46.16258043395888
          ],
          [
            8.004440083775709,
            46.16301288927757
          ],
          [
            8.004587748670193,
            46.16341708693679
          ],
          [
            8.005024077431402,
            46.1638503338415
          ],
          [
            8.005584937797412,
            46.16412687722938
          ],
          [
            8.00608440638806,
            46.16420759960198
          ],
          [
            8.006886276986275,
            46.16425759023952
          ],
          [
            8.00753943947483,
            46.16437927380996
          ],
          [
            8.00810042656613,
            46.16460666006624
          ],
          [
            8.00869066875948,
            46.16496200528692
          ],
          [
            8.008849654191224,
            46.165262796664614
          ],
          [
            8.00898059887404,
            46.16544724263398
          ],
          [
            8.009530113557537,
            46.16578670458413
          ],
          [
            8.009680996176746,
            46.165835914007985
          ],
          [
            8.009835915747015,
            46.16598131300328
          ],
          [
            8.009941555328629,
            46.16616714519996
          ],
          [
            8.010616163027418,
            46.16629135647936
          ],
          [
            8.01082474747014,
            46.16640291915648
          ],
          [
            8.010854986381716,
            46.16656654377048
          ],
          [
            8.01073692230937,
            46.167210036060204
          ],
          [
            8.010849684440068,
            46.16762756347393
          ],
          [
            8.010844738165282,
            46.16782875283575
          ],
          [
            8.010582394231543,
            46.168278306043774
          ],
          [
            8.010369448176322,
            46.168492485246645
          ],
          [
            8.010096183323416,
            46.168572562642396
          ],
          [
            8.00979923848106,
            46.168688724295734
          ],
          [
            8.009236122637923,
            46.16902385592018
          ],
          [
            8.008705272313401,
            46.16921335972257
          ],
          [
            8.008254323339498,
            46.16921839508783
          ],
          [
            8.007840856874251,
            46.169166188464516
          ],
          [
            8.007266775368276,
            46.16899994803878
          ],
          [
            8.00647768673902,
            46.16891464094391
          ],
          [
            8.005845482145856,
            46.16879003905804
          ],
          [
            8.005205551245218,
            46.16858320572793
          ],
          [
            8.004634342412336,
            46.16853897468927
          ],
          [
            8.003950167319427,
            46.16834121671239
          ],
          [
            8.00367968182733,
            46.16835543332085
          ],
          [
            8.003222951906157,
            46.168043906156605
          ],
          [
            8.00308129844891,
            46.16824351992045
          ],
          [
            8.002762928899097,
            46.168432671981584
          ],
          [
            8.00251693379062,
            46.168646749278366
          ],
          [
            8.002277554257969,
            46.168911070589466
          ],
          [
            8.001961962038376,
            46.16910651257274
          ],
          [
            8.001567348747516,
            46.169234419954705
          ],
          [
            8.001128827287971,
            46.1692869887247
          ],
          [
            8.000716026770583,
            46.16931009256249
          ],
          [
            8.000302227398215,
            46.169412281954024
          ],
          [
            7.999767541713035,
            46.169645149351155
          ],
          [
            7.99937072341051,
            46.16992472918252
          ],
          [
            7.99888424330492,
            46.17014961680299
          ],
          [
            7.998262911200532,
            46.17055697522991
          ],
          [
            7.997705186394387,
            46.1710453466391
          ],
          [
            7.99715627376697,
            46.171456982506214
          ],
          [
            7.996911559854681,
            46.171755448715146
          ],
          [
            7.996757531224965,
            46.17205480701246
          ],
          [
            7.996510566180578,
            46.172294423926374
          ],
          [
            7.996224239015063,
            46.17246982453713
          ],
          [
            7.995880949357328,
            46.17260853250932
          ],
          [
            7.996045581225552,
            46.17286726761329
          ],
          [
            7.996019144351498,
            46.17314652869576
          ],
          [
            7.995902829141068,
            46.17338271123161
          ],
          [
            7.996010855757269,
            46.173691373292186
          ],
          [
            7.996032158541052,
            46.173965289359764
          ],
          [
            7.996104935976659,
            46.174257123098215
          ],
          [
            7.996016200632831,
            46.174483184395505
          ],
          [
            7.995865794895849,
            46.174603480150786
          ],
          [
            7.995499103957905,
            46.175281258744576
          ],
          [
            7.995439430048988,
            46.175539741215516
          ],
          [
            7.995297875024745,
            46.17581841767386
          ],
          [
            7.995256650481902,
            46.17606780439583
          ],
          [
            7.995349039540085,
            46.176263916701146
          ],
          [
            7.995530265412483,
            46.176447518949885
          ],
          [
            7.995549424409093,
            46.176638423444544
          ],
          [
            7.995483030633266,
            46.17688317548097
          ],
          [
            7.995159021189377,
            46.177124878067325
          ],
          [
            7.99494094889362,
            46.177356172038095
          ],
          [
            7.994897758476324,
            46.177630207815845
          ],
          [
            7.995044875909667,
            46.178393884161025
          ],
          [
            7.995025312397623,
            46.178659635519445
          ],
          [
            7.995092130042778,
            46.178973970847046
          ],
          [
            7.995248416328416,
            46.179173528992386
          ],
          [
            7.995272117322663,
            46.17938058565658
          ],
          [
            7.99514054729141,
            46.17978601761498
          ],
          [
            7.995163292790528,
            46.18009364310797
          ],
          [
            7.995265083435304,
            46.18040582712192
          ],
          [
            7.995610421703351,
            46.18115273912174
          ],
          [
            7.995967532361102,
            46.182029275646904
          ],
          [
            7.996191385084524,
            46.182946148922476
          ],
          [
            7.996222872613175,
            46.1833088035101
          ],
          [
            7.996154521325498,
            46.18362356203926
          ],
          [
            7.995894894625036,
            46.18397552559332
          ],
          [
            7.995192919601438,
            46.184771738923004
          ],
          [
            7.99465178031662,
            46.185117717472224
          ],
          [
            7.994128715423753,
            46.185559131063194
          ],
          [
            7.994148292408776,
            46.1862363201456
          ],
          [
            7.994073877867654,
            46.18633751074649
          ],
          [
            7.994128272316618,
            46.18648592620312
          ],
          [
            7.993891191176276,
            46.1868922798935
          ],
          [
            7.9937020721989,
            46.18705464724791
          ],
          [
            7.993406571488633,
            46.18726369379771
          ],
          [
            7.993018840653315,
            46.18772807900689
          ],
          [
            7.993054715229712,
            46.187981314970244
          ],
          [
            7.993346147684664,
            46.18843894158009
          ],
          [
            7.993396168880975,
            46.18865784302057
          ],
          [
            7.993336512794581,
            46.18909497210704
          ],
          [
            7.993097043333206,
            46.18949106260755
          ],
          [
            7.992864292005361,
            46.18977235115145
          ],
          [
            7.992732039551266,
            46.19012887346799
          ],
          [
            7.992759567743435,
            46.19075897584722
          ],
          [
            7.9926219801597105,
            46.19107387359411
          ],
          [
            7.9923392856691615,
            46.19141261905023
          ],
          [
            7.992241979266918,
            46.19163826057077
          ],
          [
            7.9922895585869,
            46.19175713210887
          ],
          [
            7.992017562405118,
            46.19181036939039
          ],
          [
            7.991745248610078,
            46.19201114780623
          ],
          [
            7.99167282594147,
            46.19218862949149
          ],
          [
            7.991646898796926,
            46.192453592870905
          ],
          [
            7.991529685004108,
            46.192722070206685
          ],
          [
            7.991596943158092,
            46.19374573414818
          ],
          [
            7.991913079610055,
            46.1941084280655
          ],
          [
            7.991870971636905,
            46.194319594795175
          ],
          [
            7.991468573596595,
            46.19444871854205
          ],
          [
            7.9914705887583715,
            46.19485706442534
          ],
          [
            7.9910800909942346,
            46.19501692123988
          ],
          [
            7.9908247029101975,
            46.19521014816312
          ],
          [
            7.990554132364724,
            46.19537153147602
          ],
          [
            7.99024482621615,
            46.195713379083706
          ],
          [
            7.990812368360162,
            46.19590716765194
          ],
          [
            7.991773422062405,
            46.19642359805479
          ],
          [
            7.991821564067904,
            46.1965886875551
          ],
          [
            7.992016774427562,
            46.19669469263634
          ],
          [
            7.991921424682385,
            46.19706827840519
          ],
          [
            7.991946669672243,
            46.1973692536514
          ],
          [
            7.992070694433768,
            46.19768556915255
          ],
          [
            7.992259390963258,
            46.197922800624674
          ],
          [
            7.992512687098389,
            46.19845391442575
          ],
          [
            7.992686251652054,
            46.1986638540696
          ],
          [
            7.992946037217263,
            46.198810517134234
          ],
          [
            7.9931347355538165,
            46.1988611650498
          ],
          [
            7.995217028547194,
            46.20187740671904
          ],
          [
            7.992225414102329,
            46.20372163148388
          ],
          [
            7.989926339845916,
            46.20378805972959
          ],
          [
            7.987756606488653,
            46.20645368343923
          ],
          [
            7.986223753035309,
            46.20846690172326
          ],
          [
            7.984327557070579,
            46.21020704825181
          ],
          [
            7.982960867228104,
            46.21115350630678
          ],
          [
            7.982676495894127,
            46.21649059526371
          ],
          [
            7.983141532712235,
            46.21725722098629
          ],
          [
            7.9836872130466565,
            46.22028779256337
          ],
          [
            7.983594101367463,
            46.221605480156306
          ],
          [
            7.982965443906033,
            46.22228394814372
          ],
          [
            7.982914553830181,
            46.22346437183109
          ],
          [
            7.9818197406517175,
            46.22421584487386
          ],
          [
            7.980769731786197,
            46.22540013298643
          ],
          [
            7.9803149380818255,
            46.22986343429636
          ],
          [
            7.981340951697276,
            46.23261478233702
          ],
          [
            7.980471645784795,
            46.23362950199361
          ],
          [
            7.979676669506802,
            46.23599472529798
          ],
          [
            7.980775555744857,
            46.23852395727955
          ],
          [
            7.980236676882062,
            46.239539898289735
          ],
          [
            7.980412106587704,
            46.24077139588933
          ],
          [
            7.97979913595537,
            46.24212225290185
          ],
          [
            7.9809160747058545,
            46.242755106467705
          ],
          [
            7.9821452025330855,
            46.24424694322987
          ],
          [
            7.983682523936489,
            46.24544582772621
          ],
          [
            7.984652032794471,
            46.24876191878711
          ],
          [
            7.983476779621798,
            46.25106155294285
          ],
          [
            7.982181730233852,
            46.25295276365515
          ],
          [
            7.9821556601462715,
            46.253585277316624
          ],
          [
            7.981782986476126,
            46.254379957935726
          ],
          [
            7.981563395211609,
            46.256179366632004
          ],
          [
            7.981620182540172,
            46.25772222021082
          ],
          [
            7.983392639678925,
            46.25977155515505
          ],
          [
            7.98327797567254,
            46.26074166813817
          ],
          [
            7.985502089456215,
            46.259842195416816
          ],
          [
            7.987885214085928,
            46.25954883804777
          ],
          [
            7.989388006820316,
            46.25721080743722
          ],
          [
            7.991685785279556,
            46.255461970725925
          ],
          [
            7.992762403815189,
            46.25466576533025
          ],
          [
            7.993956548683737,
            46.25554389857971
          ],
          [
            7.996558219013366,
            46.256448466074694
          ],
          [
            7.998830665196111,
            46.25660849778005
          ],
          [
            8.001133022538005,
            46.25641479867953
          ],
          [
            8.002366541591648,
            46.25649169451414
          ],
          [
            8.004412219810684,
            46.25712829040316
          ],
          [
            8.004844014269565,
            46.25742993026786
          ],
          [
            8.005171202570182,
            46.25836718072854
          ],
          [
            8.005091737301647,
            46.25859257345628
          ],
          [
            8.006898255505053,
            46.259779850662575
          ],
          [
            8.008779846565588,
            46.25984360764729
          ],
          [
            8.0105076148654,
            46.259601387943235
          ],
          [
            8.013922520885998,
            46.25989626036138
          ],
          [
            8.016769345473634,
            46.2605259153421
          ],
          [
            8.019406892872267,
            46.26170672347628
          ],
          [
            8.020380374478911,
            46.2623839263719
          ],
          [
            8.023309196369985,
            46.26430026831589
          ],
          [
            8.023952431830116,
            46.26547802956118
          ],
          [
            8.03116874478209,
            46.274286779983406
          ],
          [
            8.031177320462826,
            46.27427610198742
          ],
          [
            8.031171192340489,
            46.27401815942749
          ],
          [
            8.03133511035815,
            46.27381486743889
          ],
          [
            8.031373329295414,
            46.27365645697722
          ],
          [
            8.031581407923007,
            46.273343858496354
          ],
          [
            8.0315650715645,
            46.27307666767891
          ],
          [
            8.031934742241512,
            46.27274224387857
          ],
          [
            8.032078756341102,
            46.27241897816659
          ],
          [
            8.032025442036305,
            46.27221091316883
          ],
          [
            8.03207852691323,
            46.27204917704272
          ],
          [
            8.032533637126576,
            46.27172553026183
          ],
          [
            8.032588609352807,
            46.27154553136282
          ],
          [
            8.032824354110588,
            46.27138376313911
          ],
          [
            8.032726483747764,
            46.271185701796114
          ],
          [
            8.032912056015478,
            46.27083073137707
          ],
          [
            8.033061647222052,
            46.27045728311088
          ],
          [
            8.033450376830006,
            46.27017548798637
          ],
          [
            8.033537841064208,
            46.2700253461368
          ],
          [
            8.033391334999068,
            46.269769922340515
          ],
          [
            8.033502628882932,
            46.26918763753727
          ],
          [
            8.033757173783467,
            46.268825655338965
          ],
          [
            8.033937401081479,
            46.26852299529289
          ],
          [
            8.033789329162342,
            46.26810392734985
          ],
          [
            8.033836387776617,
            46.267475956965434
          ],
          [
            8.034076188055156,
            46.267025091340514
          ],
          [
            8.034131290639335,
            46.266679989727
          ],
          [
            8.034462564542274,
            46.26640765996544
          ],
          [
            8.034643022268002,
            46.266057220459814
          ],
          [
            8.034622715508307,
            46.265754346358484
          ],
          [
            8.034712938237597,
            46.265526545665146
          ],
          [
            8.034663619041877,
            46.26530101790719
          ],
          [
            8.034912937790985,
            46.26499717386589
          ],
          [
            8.034899114433466,
            46.26452956023618
          ],
          [
            8.034780654821057,
            46.26436142149864
          ],
          [
            8.034745290862176,
            46.26396390917999
          ],
          [
            8.03463663674595,
            46.26387263338161
          ],
          [
            8.034603290283497,
            46.263658167415336
          ],
          [
            8.034582555714254,
            46.263435808644516
          ],
          [
            8.034898497849067,
            46.2631879190457
          ],
          [
            8.035011465205883,
            46.26303475400863
          ],
          [
            8.035041077856869,
            46.262755384120496
          ],
          [
            8.035152670725786,
            46.262525401428114
          ],
          [
            8.035391545582389,
            46.262274776913735
          ],
          [
            8.035389733220793,
            46.262039544400956
          ],
          [
            8.035467896682773,
            46.26190635327069
          ],
          [
            8.035742570608642,
            46.261811257813676
          ],
          [
            8.036127880253003,
            46.261455156288676
          ],
          [
            8.036181634792516,
            46.26077848187678
          ],
          [
            8.036166333123484,
            46.26057894422845
          ],
          [
            8.036230624999185,
            46.260257542158286
          ],
          [
            8.036410441235898,
            46.26003943240723
          ],
          [
            8.036328656909879,
            46.259679147742354
          ],
          [
            8.036371580496501,
            46.259503762468206
          ],
          [
            8.036681477016835,
            46.25928568501005
          ],
          [
            8.036930085195024,
            46.258814435928535
          ],
          [
            8.036883945990443,
            46.2585705317899
          ],
          [
            8.036864258077783,
            46.25836030333709
          ],
          [
            8.037216082979162,
            46.25803082279455
          ],
          [
            8.037557699172526,
            46.25786664934045
          ],
          [
            8.037988101144231,
            46.2574881638743
          ],
          [
            8.038247146653324,
            46.25709502170098
          ],
          [
            8.038452503266667,
            46.25697087916645
          ],
          [
            8.038728596802908,
            46.25689906809844
          ],
          [
            8.039036180512653,
            46.25674396745315
          ],
          [
            8.039225864201148,
            46.25648190092227
          ],
          [
            8.03957056238414,
            46.256201199386474
          ],
          [
            8.0396659171806,
            46.256003422587945
          ],
          [
            8.039946223730002,
            46.25584041295352
          ],
          [
            8.040384122484387,
            46.255869931276365
          ],
          [
            8.040448925122073,
            46.25583577126495
          ],
          [
            8.041182454901678,
            46.255822998996514
          ],
          [
            8.04135220993638,
            46.25567384319757
          ],
          [
            8.041800050946494,
            46.2555683199689
          ],
          [
            8.042077540576233,
            46.25563291568793
          ],
          [
            8.042559156023144,
            46.25532912017375
          ],
          [
            8.043179818821342,
            46.25496742021951
          ],
          [
            8.043503115116886,
            46.25476727097983
          ],
          [
            8.043629917133304,
            46.25449854313873
          ],
          [
            8.043746506332992,
            46.25435421076846
          ],
          [
            8.04405750691259,
            46.25421157332426
          ],
          [
            8.044101669841604,
            46.253943817685006
          ],
          [
            8.044996551850822,
            46.253398968669764
          ],
          [
            8.045103336365015,
            46.2531281423773
          ],
          [
            8.045259051294162,
            46.2530183318545
          ],
          [
            8.046134561570794,
            46.25281557385991
          ],
          [
            8.046397292594921,
            46.25256241371286
          ],
          [
            8.046209556742367,
            46.25186247173525
          ],
          [
            8.046819081177452,
            46.25148911664202
          ],
          [
            8.0476327287646,
            46.25150990305769
          ],
          [
            8.04877021201115,
            46.25171094303083
          ],
          [
            8.048892094545018,
            46.25171326356487
          ],
          [
            8.04967799052117,
            46.251453846236856
          ],
          [
            8.050086904854197,
            46.251264037722635
          ],
          [
            8.050413172703449,
            46.25104748892049
          ],
          [
            8.050824908569794,
            46.25091077414839
          ],
          [
            8.051794503528125,
            46.25034939093017
          ],
          [
            8.052964019986687,
            46.24974210578901
          ],
          [
            8.053835586724643,
            46.248761057122266
          ],
          [
            8.05448746218193,
            46.2484448057674
          ],
          [
            8.054723054016405,
            46.248192367384746
          ],
          [
            8.055418374234765,
            46.24776206713474
          ],
          [
            8.055528637480236,
            46.247608176252655
          ],
          [
            8.05557999516912,
            46.24740297001011
          ],
          [
            8.055998075267064,
            46.24690402722154
          ],
          [
            8.056257701382105,
            46.2467026320611
          ],
          [
            8.056364120437912,
            46.24650629174528
          ],
          [
            8.057205018493098,
            46.245932213975586
          ],
          [
            8.059413871425152,
            46.24362279383467
          ],
          [
            8.06122661417003,
            46.24256522770906
          ],
          [
            8.066406348603039,
            46.24122885048355
          ],
          [
            8.067879819193713,
            46.24148900478757
          ],
          [
            8.068369619917151,
            46.241508229979075
          ],
          [
            8.068951048171863,
            46.24146936895097
          ],
          [
            8.07035051592461,
            46.241555940674274
          ],
          [
            8.072029082657796,
            46.2420398922823
          ],
          [
            8.073887798847851,
            46.242326229491326
          ],
          [
            8.074867486642281,
            46.24234924229887
          ],
          [
            8.07621224900174,
            46.242601016058856
          ],
          [
            8.076690525333342,
            46.242598230224644
          ],
          [
            8.077028904518714,
            46.242641930911724
          ],
          [
            8.077904201855173,
            46.24261745919849
          ],
          [
            8.078240566707656,
            46.242687165809805
          ],
          [
            8.079581428138733,
            46.24308907234222
          ],
          [
            8.080894166046612,
            46.24344631409378
          ],
          [
            8.081608601675475,
            46.243513414423184
          ],
          [
            8.082629313228102,
            46.24348385173177
          ],
          [
            8.083681979896607,
            46.24355684894995
          ],
          [
            8.084352445597643,
            46.243687783697396
          ],
          [
            8.085057581635201,
            46.24366000845701
          ]
        ]
      }
    }
  ]
}