{"type": "FeatureCollection", "features": [{"type": "Feature", "properties": {"bfs_nummer": 6113}, "geometry": {"type": "MultiPolygon", "coordinates": [[[[7.588410125677181, 46.27743295696625], [7.585902697596646, 46.27710013430817], [7.584011392699072, 46.276610132278776], [7.583924865309916, 46.276567549451386], [7.582877909003825, 46.2764424690806], [7.580603021856132, 46.27590743077316], [7.579511853168693, 46.278041638887835], [7.57931301569467, 46.27840457379283], [7.578948674998342, 46.279131575645344], [7.5784453606270645, 46.28002976779016], [7.57832784483374, 46.28011766273523], [7.578007907594857, 46.280718678605865], [7.577766428272294, 46.281198883193], [7.577331053827991, 46.28202785476659], [7.577166729523277, 46.28236138297346], [7.576974066957396, 46.282715706828476], [7.576062933102508, 46.28405824600005], [7.575576341814145, 46.285315901792494], [7.575510705215558, 46.28567781474967], [7.5754769613375155, 46.28582570547158], [7.575376991838176, 46.286364326149425], [7.575279399753989, 46.28684770181448], [7.575219817690791, 46.287207955870365], [7.575036707318772, 46.28810637372503], [7.574757900865974, 46.288728437226], [7.5746902627128705, 46.28894690731335], [7.574626941982506, 46.289059001126226], [7.574139582358218, 46.29024124561111], [7.57394745991101, 46.29067191432996], [7.573751550937339, 46.29115703908039], [7.573486073033233, 46.29164267086641], [7.572893192642577, 46.291521516668695], [7.571721620018771, 46.29136837470222], [7.571036865490849, 46.29126594835482], [7.570737156986771, 46.29153576689242], [7.569925128725633, 46.291384772200956], [7.568989369781479, 46.29133684807387], [7.568492577053791, 46.291247016855806], [7.568389525064516, 46.29146475470157], [7.568081591446225, 46.29208135826537], [7.567665689485856, 46.292865368684055], [7.567675701950616, 46.29334868844432], [7.56769180543737, 46.293672316954435], [7.567491829631895, 46.294203715071525], [7.5673744156541485, 46.294558260151796], [7.567177074206195, 46.29507565782085], [7.56706385625524, 46.29549979787137], [7.566999906430689, 46.29568420834823], [7.566990725368649, 46.2957926064769], [7.566952123533174, 46.29586767310848], [7.566475108742459, 46.29656707663641], [7.565257909896248, 46.296151095635814], [7.56194573670857, 46.2958279820513], [7.560460727116675, 46.29573160089009], [7.560145895776845, 46.297142029192806], [7.5598894628732625, 46.30159068742138], [7.559704072165865, 46.30170362666708], [7.560400004063699, 46.30333919961504], [7.560405817170364, 46.30388690179205], [7.560676551062281, 46.30437194470563], [7.5611057153162236, 46.30470289269522], [7.561136275920232, 46.30484478399443], [7.560953947862626, 46.30554793476153], [7.561094679962316, 46.30600725390343], [7.560858115213835, 46.30658808634291], [7.560812005261395, 46.30689457216621], [7.560644793364673, 46.30704081344335], [7.560065945901189, 46.30710575964604], [7.560043261750481, 46.307108302606835], [7.559636061689293, 46.3070184466355], [7.559134263973358, 46.307071143968486], [7.559130824019022, 46.30705929133829], [7.558948189673696, 46.30707708881175], [7.558852960239815, 46.30713984386756], [7.558747031474295, 46.30726620928402], [7.558664813293183, 46.307408346049115], [7.558702653195702, 46.307681341884106], [7.558708653310595, 46.307747867248175], [7.5587419820095745, 46.307834064496284], [7.558957983184323, 46.3079833803551], [7.558999687314619, 46.30801756477209], [7.559134704957295, 46.3082442831865], [7.5591466285014794, 46.308324241770976], [7.5591385642637645, 46.30848197986542], [7.559079255634206, 46.30859429013617], [7.558938905227378, 46.30884140464399], [7.55894002834572, 46.30890354533561], [7.558988096721891, 46.30905713117442], [7.55890948061382, 46.30920307854774], [7.558843264538894, 46.30925613272095], [7.558821979534787, 46.30926966661619], [7.558752693104927, 46.30931375533702], [7.558692686507427, 46.309363087732095], [7.558649929856872, 46.309506379398606], [7.558513085266524, 46.3096669786059], [7.55843521372054, 46.30995244725095], [7.558544355143824, 46.310080988397274], [7.558476872747504, 46.31030325202605], [7.558505983014996, 46.31044831248208], [7.5584361332305265, 46.31060334538537], [7.558497130396682, 46.31085107635643], [7.558882540065135, 46.31152755725436], [7.559236107895311, 46.31198864273031], [7.559593633592063, 46.31232283972981], [7.55973502621283, 46.312661223006664], [7.559937010708237, 46.31284912532414], [7.559888734119873, 46.31310220644017], [7.559748711427166, 46.31348293525517], [7.559832290570729, 46.31366507162843], [7.559696997382693, 46.31396654301865], [7.559355049808389, 46.31433716714064], [7.558618433882388, 46.314729913080484], [7.558343043462048, 46.31491469488305], [7.558143130568422, 46.31523640009408], [7.557878694855176, 46.31547498297883], [7.5574704734100395, 46.315653155280216], [7.557441445416235, 46.31580833537699], [7.557201771827994, 46.31592388982786], [7.557288668379469, 46.31617238235851], [7.557292198351666, 46.31651833531362], [7.557246819199118, 46.317258087907035], [7.557143144413405, 46.31745843999187], [7.557244507228296, 46.317736264455895], [7.557187018540999, 46.31818925297617], [7.557020247060087, 46.318342795175596], [7.556743774516417, 46.31867433959237], [7.556484318423567, 46.318698410892495], [7.556377352704921, 46.31892288225838], [7.556393588265397, 46.319028187311446], [7.556358785011794, 46.319150834906246], [7.556283983931182, 46.31926334049484], [7.556139016813925, 46.319416515650694], [7.5560553651120665, 46.319585532492574], [7.556128739375372, 46.319654363574685], [7.556252241368331, 46.31967394627381], [7.556498378005188, 46.31966622605265], [7.556686692926087, 46.319691651148375], [7.556819596491139, 46.31973595228842], [7.556915152164677, 46.31979477487927], [7.55708240047035, 46.31994257058512], [7.557356931388124, 46.320215294311794], [7.557445290133165, 46.320313524715154], [7.5575268067804755, 46.32042965453678], [7.557579864151526, 46.3205401554464], [7.5576153924649665, 46.32069177594589], [7.557599171541478, 46.32082718625738], [7.557535165172743, 46.320954163730015], [7.557404647145486, 46.321059368834405], [7.557260015529942, 46.32112275879997], [7.557037890847145, 46.321201611743696], [7.556902588460026, 46.32125653563191], [7.556800155989021, 46.321321230553025], [7.556553404131274, 46.32149270903037], [7.5565095847790476, 46.321511366309224], [7.55641710669938, 46.3216770358354], [7.5563392206067075, 46.32174547423977], [7.556238842786095, 46.32180027142608], [7.5559993529429015, 46.32190270883759], [7.555648610356688, 46.322063462030826], [7.555361872286884, 46.3221610892043], [7.555065710083268, 46.32241299122597], [7.5549111568504825, 46.32252117800475], [7.554617106641019, 46.32266226929883], [7.554364355991838, 46.322747616108295], [7.553761995710347, 46.32285941197843], [7.55349365368057, 46.32287903243407], [7.5532535135983965, 46.32284275280016], [7.552986655014364, 46.32282061238562], [7.55255134641511, 46.322845075854715], [7.552545648011316, 46.322845873161256], [7.552337982916531, 46.32287286939146], [7.551909878333947, 46.322996932159874], [7.551561802273973, 46.32315055400993], [7.5512633593246985, 46.3232453037233], [7.550985705246796, 46.32348037283696], [7.550733959284547, 46.32375649953244], [7.5506695808054465, 46.323964722781106], [7.55060975060867, 46.32411140262891], [7.55045979986909, 46.32431800071394], [7.55024410897206, 46.32456972329132], [7.550239843223062, 46.324719647822896], [7.550157165094174, 46.32476801787158], [7.550107642914301, 46.324781406813976], [7.550412307695357, 46.324796322000246], [7.550532351023543, 46.32469464375795], [7.550575574466936, 46.32462362567881], [7.550624529841331, 46.32456818233671], [7.550710005442929, 46.32451646331101], [7.550895688337724, 46.32445466067124], [7.550928584467758, 46.3244197251182], [7.551082615519301, 46.32436047190665], [7.551139755466128, 46.324301134262825], [7.551208183997038, 46.324301156632615], [7.551264288871984, 46.32430685835324], [7.551399273502188, 46.324292961604115], [7.551418983474035, 46.32428007836181], [7.551585615850915, 46.32423691425832], [7.551702112776972, 46.324173919299675], [7.551815968474725, 46.32416499062424], [7.551859656998619, 46.32413148350456], [7.5520423320123555, 46.32412959280008], [7.55212358652251, 46.32411583865603], [7.55222974898614, 46.324160261291254], [7.552520770143214, 46.324110045176575], [7.5534638457915095, 46.32503427523876], [7.55348226766545, 46.32502643052267], [7.553543915121673, 46.32501215533494], [7.5536031903338605, 46.32498124054614], [7.553905845930758, 46.32491103901293], [7.553943077792698, 46.32489480920843], [7.553990579121726, 46.324884056409935], [7.554076649183563, 46.32487533351448], [7.554227447333214, 46.32483560002734], [7.554320383218786, 46.32481931371121], [7.55439316577082, 46.32479027386337], [7.5545147507049775, 46.32475182901692], [7.554594189189269, 46.32473879458464], [7.5546789186923275, 46.32471037213291], [7.554945397321878, 46.32466512256285], [7.555096548365986, 46.3246087455997], [7.555229467907564, 46.32458854959754], [7.555315760914764, 46.32456291368867], [7.55536197989907, 46.32455998781448], [7.555408292487659, 46.32454006010941], [7.555714376977088, 46.324436116583485], [7.555897626545928, 46.324392839254116], [7.55598753843903, 46.32435964283053], [7.556206769516155, 46.32432325459083], [7.556273958400613, 46.32429017132231], [7.556338206466927, 46.32427832082213], [7.556368027290108, 46.32425805879743], [7.556533107316228, 46.32421938695941], [7.556812318779231, 46.32411951634358], [7.556945709920339, 46.32407808805333], [7.557157831897244, 46.32405744776514], [7.557378609562554, 46.32401664780961], [7.557501790956505, 46.3239976286347], [7.5577207807562825, 46.32452992939337], [7.557832193441903, 46.32490681392308], [7.557924325002927, 46.325253574735534], [7.558385761907086, 46.325973353114556], [7.5587165983235955, 46.32643610522289], [7.55894836695871, 46.326794430631416], [7.559009669158981, 46.326852919264034], [7.559381583422824, 46.32714884596253], [7.55970174210756, 46.327655783687355], [7.559734485344949, 46.327846278073444], [7.559852790917275, 46.328083998998046], [7.560325182924204, 46.32854127914664], [7.560716049578053, 46.32889007498704], [7.56090606880795, 46.32907572260665], [7.562498861816244, 46.32915741646995], [7.564163176889877, 46.32927004253289], [7.565195987988147, 46.32934411443073], [7.566410057486444, 46.329501731996295], [7.5673364709749835, 46.32965884339164], [7.568649936543482, 46.33000261660216], [7.56907539117756, 46.33018080286373], [7.5695782495768755, 46.33024696576673], [7.570676119240004, 46.330734344452274], [7.570545132549599, 46.33124563423158], [7.570351223256451, 46.331891381774675], [7.570258942377321, 46.33240801365932], [7.570154617487849, 46.332820758968694], [7.570127113973806, 46.33338228395062], [7.570106734083311, 46.333935813426216], [7.570336905869607, 46.33487415130652], [7.570763978983196, 46.335332527798826], [7.57122640099247, 46.335839799916236], [7.571622821034748, 46.336284717835674], [7.575005407777275, 46.34017025817569], [7.5757590525575305, 46.339478315066756], [7.577465783695314, 46.339761761970706], [7.57865964559929, 46.34011438862745], [7.579213087881147, 46.34055059532076], [7.58051136911046, 46.340839230336236], [7.582908160143218, 46.34166252948094], [7.585077824670818, 46.34098643524095], [7.585317481436094, 46.34103506901117], [7.586892117158053, 46.338278323015885], [7.591358561616331, 46.3356098059221], [7.5923819800049, 46.33463627276728], [7.59405556938859, 46.33343484329536], [7.594241282906499, 46.33259377979511], [7.594282637838353, 46.33153477024999], [7.593340268350925, 46.330644697139455], [7.592212844025486, 46.32950987151858], [7.591501720700089, 46.32850856408021], [7.5908535480508155, 46.32762976969195], [7.590401702333758, 46.32695035196681], [7.589943161096727, 46.32627660446426], [7.589810154713963, 46.3260699348856], [7.589440337369895, 46.32546263808929], [7.588770261114794, 46.32461761471887], [7.588293818857288, 46.32402185551397], [7.5882003667007, 46.32326747413337], [7.587741894426392, 46.32249916811964], [7.586993210274249, 46.321260752260294], [7.586576463600714, 46.32056419259169], [7.586250768129874, 46.32009827933177], [7.585674402548559, 46.31925002140787], [7.5852045858709305, 46.31849085893626], [7.585067545151906, 46.31841702762858], [7.584932718264887, 46.318273089243895], [7.584562468365905, 46.31824018983921], [7.584514671661731, 46.31812144486198], [7.584413653779556, 46.318006078545444], [7.584399210217392, 46.31785799145076], [7.584326050465528, 46.317751062483254], [7.584152670944692, 46.317705657418465], [7.583769808339859, 46.317712542102946], [7.583907969473168, 46.31750152446725], [7.583825969416946, 46.31698387431483], [7.5837267422076575, 46.316520433505396], [7.583727420782011, 46.316487660966004], [7.583763416456392, 46.31649055664214], [7.583774501387422, 46.31636770612927], [7.583802367152835, 46.316194017215764], [7.583809442225493, 46.316135427722685], [7.583836867708548, 46.31602568076612], [7.583596639451318, 46.31555229979467], [7.583660039038401, 46.31553995802129], [7.583757922403087, 46.3154845011513], [7.583767013223862, 46.315466156290206], [7.583798776073557, 46.31539090311261], [7.583836199334482, 46.31521304748989], [7.583842574388632, 46.31519375273731], [7.583839656352937, 46.31516559994626], [7.583850344004146, 46.31513743904503], [7.5839863684347035, 46.314930536744114], [7.583974993013936, 46.314875767663885], [7.583982387184724, 46.31479063235315], [7.584041534133828, 46.314624640940806], [7.584048705056837, 46.31449480610639], [7.584164594540782, 46.314279346892334], [7.584224279922546, 46.31420377907606], [7.584204208724596, 46.314188871895496], [7.584267434684492, 46.31411204011529], [7.584356998467706, 46.31403421202872], [7.584600554101868, 46.31397039989948], [7.584739963701285, 46.31390053181238], [7.584823284264542, 46.31364453246626], [7.585093687410399, 46.31370289992429], [7.585397118645915, 46.31372798486402], [7.5854923263618295, 46.31373187422964], [7.5857038099833165, 46.313758363302995], [7.585912267993587, 46.31373137715355], [7.58613400000642, 46.31367315852206], [7.586331313752786, 46.313644296829004], [7.586518281830071, 46.31365425546664], [7.5868038806388585, 46.31370479994986], [7.586804383895437, 46.31365119356223], [7.586853449567043, 46.31365363950962], [7.586851860298302, 46.31352743169777], [7.586839281192751, 46.313484574572605], [7.586807745810365, 46.31348851987311], [7.586846790649679, 46.31191695599163], [7.5868800303991675, 46.311895548081225], [7.586914218304947, 46.31187912250311], [7.5868596414940574, 46.31162474222571], [7.586844649457374, 46.311620551790966], [7.586821385646808, 46.3113568388295], [7.586799484802276, 46.311308533743954], [7.586745713925177, 46.31126957162689], [7.586686774298918, 46.31124894041029], [7.5866152498116515, 46.31120220200449], [7.586485503194022, 46.31115041175455], [7.58643852295893, 46.31111180951132], [7.586225318006857, 46.31101145180559], [7.585927459955514, 46.31077521633868], [7.58585882767444, 46.31071252459282], [7.5856485450225275, 46.310486214141406], [7.58552855960784, 46.31019157305149], [7.585455530831631, 46.31002848630753], [7.585395132049699, 46.30985046856777], [7.58537536631994, 46.30973123881651], [7.585397566133527, 46.309630512966116], [7.58536791194937, 46.309459175312924], [7.584781047996151, 46.30852467160165], [7.583813046904775, 46.30700483796707], [7.5814524559012595, 46.30337220156677], [7.581510697879051, 46.30258794393351], [7.581265784970853, 46.30167984564582], [7.581385370602427, 46.30132015828259], [7.58147760453764, 46.30099396882131], [7.581493867308371, 46.3006412205199], [7.581493497295396, 46.30054428400786], [7.581468813053199, 46.30003792381555], [7.581470360925502, 46.29965656984352], [7.581536252896235, 46.299115030230695], [7.581541507094151, 46.29901989462195], [7.581541309860639, 46.29856664164852], [7.581525881598758, 46.29787754948591], [7.581285439857971, 46.29686414393887], [7.581252305330044, 46.29640015611415], [7.581252985041064, 46.295968689653876], [7.581301063924519, 46.295449644648386], [7.581999471353177, 46.29383087649513], [7.582736171308511, 46.29252939599768], [7.583389338780132, 46.29139096046974], [7.585177567243948, 46.28878777226516], [7.585661172052248, 46.28801183587731], [7.586125981480195, 46.28479111493193], [7.588410125677181, 46.27743295696625]]]]}}]}