{"type": "FeatureCollection", "features": [{"type": "Feature", "properties": {"bfs_nummer": 613}, "geometry": {"type": "MultiPolygon", "coordinates": [[[[7.644200194561409, 46.953094793078215], [7.644104686826913, 46.95336612385754], [7.644086344541029, 46.95356871041931], [7.644094118042425, 46.95373678973227], [7.644111194669926, 46.95389853783436], [7.644202349780364, 46.95426347211545], [7.644831281670751, 46.95461080188401], [7.64520554802688, 46.954845507541116], [7.645497666648621, 46.95508932794234], [7.64701577228812, 46.954686440920426], [7.647394586741643, 46.954841110223335], [7.647560035601256, 46.95492596746322], [7.647730534248952, 46.95504251432058], [7.647887124477777, 46.95517678876876], [7.648357337221916, 46.95571229837183], [7.64934649342023, 46.956857729434695], [7.649498613433727, 46.95701225801166], [7.649659248603518, 46.957153637756264], [7.649846784778565, 46.957286827199034], [7.6500336844308165, 46.957408206869175], [7.65024474675649, 46.95752662732393], [7.650489106613162, 46.95764643433346], [7.650946538082777, 46.957853397986526], [7.65147843154655, 46.958101860742346], [7.651704350337439, 46.95818822808943], [7.65194518370481, 46.958258573865734], [7.652103076269249, 46.95828536549221], [7.65235649727949, 46.95884967626183], [7.652490582197807, 46.959180252823174], [7.652618902290847, 46.95946479351244], [7.652831430672549, 46.95990571143523], [7.653068284996304, 46.96015262874104], [7.6539141671298765, 46.9602824688398], [7.654402306859025, 46.96036653174774], [7.655051415700259, 46.96045584926563], [7.655405608230664, 46.96075146546432], [7.656025938534143, 46.96085115720273], [7.656484554005856, 46.961059553075955], [7.6566936875545855, 46.96075887103815], [7.6569235605292985, 46.96052874283321], [7.657119954346553, 46.960366654006634], [7.657181487621215, 46.960313060473716], [7.65752149970636, 46.96019415314127], [7.657906944293112, 46.960078783602064], [7.658004545601556, 46.96008760149006], [7.65805407905037, 46.960126771035505], [7.6580974299877935, 46.96009632946931], [7.658716262469134, 46.960492653295404], [7.658818357585878, 46.96053673213404], [7.6589198381592265, 46.960575064135476], [7.659103620049574, 46.96062664109929], [7.659402671612801, 46.96071476879525], [7.659532257184635, 46.96075012282536], [7.660020201980701, 46.960754824020334], [7.660289375035913, 46.96076860746933], [7.660501253043964, 46.96081476679258], [7.6608704556508505, 46.96103699927886], [7.661090651624026, 46.96112128999902], [7.6618343645638465, 46.961991954124], [7.662439625619067, 46.962424657440984], [7.662725239704227, 46.96251959299625], [7.66297258460865, 46.96270689359], [7.663159804721091, 46.962861938446906], [7.663747442365418, 46.96333839018953], [7.66365170430909, 46.96349092147786], [7.663649210941349, 46.96352309338679], [7.664286495770955, 46.9635842891766], [7.664660444813962, 46.963635960787954], [7.664972166038231, 46.96370300966405], [7.665204595225864, 46.96375822325196], [7.665953455467387, 46.9639919605706], [7.6660455242086565, 46.96397054960575], [7.666574289323095, 46.964303346919664], [7.666731434837201, 46.96483716828113], [7.666653658465184, 46.965131599027664], [7.666647084194496, 46.965304508374906], [7.666727552864219, 46.96544761543279], [7.667110515648979, 46.96589857558637], [7.667451992172289, 46.96617394055789], [7.66841507238273, 46.96656055934437], [7.668265716614482, 46.96690076157052], [7.669241426370696, 46.96704711274967], [7.66918032293303, 46.967212208670865], [7.669298575531319, 46.96722250486534], [7.66966681902042, 46.96729710053147], [7.669899721241925, 46.967320001871535], [7.670335662171525, 46.96730857279791], [7.670641514660349, 46.967330489113365], [7.670911908968862, 46.96737228366419], [7.671311689066041, 46.96744920304031], [7.671908864230111, 46.96756903259506], [7.67225129940966, 46.967660250228754], [7.672672532862979, 46.96780478281342], [7.673036063138941, 46.96789049479311], [7.673225493710106, 46.96799921990502], [7.673476078353333, 46.96807765724523], [7.673980711158981, 46.96807323984734], [7.674036349573594, 46.968103853375396], [7.674148154542949, 46.96815656997078], [7.674467836490214, 46.968241387101855], [7.674739536114316, 46.96829444990787], [7.675145931591277, 46.968414771018274], [7.675481401026126, 46.96854206403821], [7.675778039846358, 46.968764514775174], [7.6757457295904645, 46.96884567289313], [7.675575757892719, 46.96912392887783], [7.675443089188096, 46.9692791530643], [7.675453430248299, 46.96935679592078], [7.67546185075996, 46.96956546693949], [7.675553334539718, 46.969753385528996], [7.6757286888545755, 46.9699902898821], [7.6758617538875304, 46.970124853405125], [7.6761121901564024, 46.97027058879886], [7.676414816878448, 46.970349291708416], [7.676990563717394, 46.97044549019205], [7.677398441756987, 46.97059023936989], [7.677853935859767, 46.97084849646293], [7.677875813360123, 46.970880545691365], [7.6782978247895715, 46.97098428848063], [7.678307588656995, 46.971016812620555], [7.678724120457405, 46.97121449324642], [7.679196981017798, 46.97172776701966], [7.679547934212236, 46.97201957297387], [7.679654886214096, 46.97207719680086], [7.679857226895191, 46.972039892199824], [7.6800284915521, 46.97203273208389], [7.680191047090925, 46.97212032632342], [7.680245457896025, 46.9722331095685], [7.680248404845572, 46.97256828847183], [7.680514357813775, 46.972538117909146], [7.680894320967141, 46.97251848369221], [7.68119135761986, 46.97248644714089], [7.681551100326903, 46.97233111474394], [7.6815709298482, 46.97230471687923], [7.681774399304714, 46.97215401100056], [7.682006049796182, 46.97197294905705], [7.682131704325444, 46.97188831568286], [7.682374495128509, 46.971794051502044], [7.682576041783708, 46.97168966517153], [7.683201223751711, 46.971372304388474], [7.683652977206213, 46.97164687385436], [7.684409887897857, 46.97211121820654], [7.684704021852029, 46.97231083044352], [7.685003264697088, 46.972555271872075], [7.68529569109216, 46.97238957367706], [7.686109881827285, 46.971904141508396], [7.685917809065078, 46.971772469624405], [7.6858816232632, 46.9717306479033], [7.6858462374279215, 46.971625453369434], [7.6857827072689835, 46.971566950383476], [7.6857291453287715, 46.971472724154744], [7.685711192662247, 46.9714694704446], [7.685791505742698, 46.9713162367649], [7.685797992033188, 46.97127780446367], [7.685738073815872, 46.97114137776912], [7.685611451043592, 46.970875734849855], [7.686782230306264, 46.970300375126115], [7.686768231617644, 46.970057049696635], [7.687727935273015, 46.96986092485966], [7.6876236413529995, 46.96950647061208], [7.687518763967296, 46.969065240932785], [7.687460244874146, 46.968634758838014], [7.6880616849130785, 46.96850968319206], [7.688676361956132, 46.96807732853647], [7.689358596913088, 46.96812545216039], [7.689591448050246, 46.96812339749158], [7.689811183119623, 46.96812378144136], [7.690137574781947, 46.96805575752117], [7.690522463607963, 46.96799552958545], [7.691049889747867, 46.96796161349066], [7.691408134946718, 46.9679112186801], [7.691735925869067, 46.96786199632572], [7.692431788216256, 46.96769258680574], [7.6934542506695545, 46.96762405970546], [7.6939670900892185, 46.967516213007606], [7.6943252286397925, 46.96743898575598], [7.694647205996347, 46.96734827313832], [7.695003817830308, 46.967486266608454], [7.695174399964377, 46.96738605760332], [7.695230919974423, 46.96741172976802], [7.695412954259967, 46.967478696528396], [7.6956628897277435, 46.96756055099534], [7.695856794158407, 46.967628129894926], [7.696030132118485, 46.967755582285115], [7.696203791175925, 46.96781534492878], [7.696396037482549, 46.96781620902429], [7.696412487300053, 46.96781309569522], [7.696562771238397, 46.96807924848104], [7.696577500664013, 46.96824381778394], [7.696510263963856, 46.96843391921377], [7.696308166254236, 46.96865158712988], [7.6968701587552015, 46.96897218368056], [7.697926189206053, 46.969435986402026], [7.698365157621529, 46.96953193810988], [7.698635896076158, 46.969589138579316], [7.699154414943286, 46.96969219195336], [7.6993170134721565, 46.96972643685695], [7.699594024862301, 46.96966765433577], [7.699861672491108, 46.969672506162446], [7.700344957396943, 46.96969322799026], [7.700557658969006, 46.969689081539684], [7.700560122424043, 46.96960926166115], [7.700649199095015, 46.96929801191041], [7.700848080821185, 46.969062873002464], [7.700881325330789, 46.96894920627274], [7.7008195981152285, 46.968413386844674], [7.700753456090935, 46.96828245994042], [7.70052639053112, 46.96811236532338], [7.7009108817759975, 46.967898046065386], [7.701231207961335, 46.967751113719224], [7.702141664810424, 46.96744717239362], [7.7022475660352185, 46.967287066256944], [7.702098736901686, 46.96658235557288], [7.702700418536068, 46.966478320477], [7.7027279255737255, 46.96646598764161], [7.7026980012703055, 46.966403395853256], [7.702644810302591, 46.96623439039323], [7.702540433604268, 46.96600238332154], [7.702526690632471, 46.96575856410608], [7.702402046396599, 46.96545794303186], [7.702344855135297, 46.9653732585505], [7.702283284668542, 46.96530119542051], [7.702237688068875, 46.965174593672494], [7.702044188278887, 46.96481606611827], [7.701900260448702, 46.96463919053795], [7.701868809884933, 46.96454081012127], [7.701769581276423, 46.964460260549515], [7.701690009911742, 46.96432867200015], [7.701629612426023, 46.96418693800862], [7.701643047925856, 46.964075330904535], [7.7016352939408765, 46.96399154036919], [7.70161467466638, 46.9639342701631], [7.701512560979354, 46.963862632211416], [7.7014700978139645, 46.96381748351379], [7.70146952728041, 46.96370054721208], [7.701442722485147, 46.96359266618762], [7.701389771235929, 46.96351183051138], [7.701337039408085, 46.96347597023056], [7.701297359032208, 46.96342208973233], [7.701296920546417, 46.96333213884952], [7.701283474489361, 46.96326920313893], [7.701230655315274, 46.96321535265598], [7.701204070423499, 46.96315244703295], [7.701217034082085, 46.96311643665746], [7.701243136702219, 46.96308039625414], [7.7012953856889945, 46.96301731052268], [7.70130830546581, 46.96297230513034], [7.701294859500121, 46.96290936943653], [7.701320874091986, 46.96285533860718], [7.701360071563691, 46.962810273039004], [7.701399005728057, 46.96271123685369], [7.701425020237896, 46.962657206157694], [7.70143785209715, 46.96259421059684], [7.701424537695969, 46.96255826020143], [7.701384945643333, 46.962522369913955], [7.701358536387204, 46.96249544473232], [7.7013584486590805, 46.96247745453709], [7.701384550830554, 46.96244141403991], [7.701476347180964, 46.9624052234824], [7.701515544180248, 46.962360157839704], [7.701554314975458, 46.96232199254319], [7.701606945248943, 46.962243011423936], [7.701619732702608, 46.96217102049192], [7.701606374415487, 46.96212607506529], [7.701632125049511, 46.96201807382616], [7.701605364676965, 46.96191918791167], [7.701591611417293, 46.96179328669635], [7.701564938983404, 46.96171239090708], [7.701525040274746, 46.9616135350415], [7.701485053919112, 46.961496688928584], [7.701484571111392, 46.96139774273062], [7.701509970490638, 46.96121778065147], [7.701535677017156, 46.96110078435274], [7.701521046335863, 46.96079498111703], [7.701560154360999, 46.96073192528837], [7.701651684133091, 46.96064176388808], [7.7018336444246875, 46.96051094392842], [7.70189819883878, 46.96045550250642], [7.701926491310882, 46.96041625463479], [7.701926271616134, 46.96037127925514], [7.701899467601304, 46.96026339832158], [7.701938530714139, 46.96019134709473], [7.701938179038246, 46.96011938628397], [7.7018984566650746, 46.96005651096406], [7.701885054695882, 46.96000257041874], [7.7018845272821626, 46.95989462918551], [7.701910627823675, 46.95985858852405], [7.701949734718734, 46.95979553256486], [7.701962609118812, 46.95974153185119], [7.701935497530673, 46.959570685058544], [7.701895160161913, 46.959381878188715], [7.701894588763046, 46.959264941814865], [7.701907067514037, 46.959129985181214], [7.701932816229245, 46.9590219839819], [7.701919106905736, 46.95890507785329], [7.701931849201796, 46.9588240917583], [7.701983961195218, 46.95873402016263], [7.701996791295911, 46.95867102427472], [7.702009401547727, 46.95856305290819], [7.7019953404116235, 46.95837418591708], [7.702008302286145, 46.95833817528856], [7.7019948567232746, 46.95827523970903], [7.70202056071196, 46.95815824314411], [7.702006587569862, 46.957987366335644], [7.702019197793238, 46.95787939515794], [7.7020449014082235, 46.95776239840414], [7.702057335442293, 46.95761844659627], [7.702122275942932, 46.95746537930683], [7.702148111248639, 46.95737536802106], [7.702120868421568, 46.95717753604233], [7.702120252639357, 46.95705160461434], [7.702086712852492, 46.95701947876726], [7.702022622149498, 46.95694045888796], [7.702000302642474, 46.95692191693392], [7.70201201730745, 46.95690226256418], [7.701989806455698, 46.956868320537296], [7.701975897876955, 46.956775090089636], [7.702012962053246, 46.956748829142185], [7.7020473666576, 46.95674827353646], [7.702065718200423, 46.95673180625861], [7.702061988836886, 46.95668110876303], [7.702053813726093, 46.956645443552205], [7.7020609529213715, 46.956611632216806], [7.702040973038215, 46.95657716346025], [7.702038453004347, 46.956558845940826], [7.702102972944092, 46.95653227916554], [7.702118363203867, 46.95651742878477], [7.702123939611611, 46.95650253804738], [7.702109954341746, 46.95648502030924], [7.702036212301262, 46.95642565907038], [7.701918218977724, 46.95641643980223], [7.701893273059706, 46.95641149571603], [7.701825731948976, 46.956403185855244], [7.701806089059615, 46.95638657170117], [7.701812282666034, 46.95632051477478], [7.701782369297481, 46.95622919194875], [7.701752846115919, 46.95619891870526], [7.701737008142925, 46.9561570552918], [7.701726323420872, 46.956037848294876], [7.701668019025471, 46.95598121300217], [7.7016583767016655, 46.95593018725136], [7.701693164020429, 46.95590047750293], [7.701695123822529, 46.95587405403802], [7.701628642183806, 46.95581887667649], [7.701621091410511, 46.95576569631405], [7.7016262088654575, 46.95573484001245], [7.701623420791876, 46.955710001673246], [7.701592580326404, 46.95569507721612], [7.701577354946771, 46.95567369449447], [7.7015884613677255, 46.95559941368674], [7.701548040669248, 46.95554344797831], [7.701574511839049, 46.95551911837749], [7.701580938686364, 46.955446989078034], [7.701519698382351, 46.955394282348266], [7.70153206823434, 46.95536892361392], [7.701532102557052, 46.955340957411124], [7.701539817590205, 46.95532012487778], [7.701583609748724, 46.95530245707383], [7.701649449770438, 46.95528283187668], [7.7018107318550735, 46.95524718307505], [7.701860901785215, 46.95510171475692], [7.701867856261864, 46.95503279556036], [7.701864508144203, 46.95498746732191], [7.701866843429054, 46.95493034246906], [7.701903932696472, 46.95474007182964], [7.7019386095862306, 46.95458041740319], [7.701974340027736, 46.954437473583525], [7.702012662203805, 46.954314142410475], [7.702044063993189, 46.95425321792772], [7.702040141167398, 46.95417364627944], [7.702048200292834, 46.95411578859731], [7.702119461575286, 46.954025754251894], [7.702148581740294, 46.95394158226868], [7.702151948656692, 46.953880595969814], [7.702138637695733, 46.953836936761135], [7.7021028743875055, 46.95375804979268], [7.70206304377622, 46.95368556769273], [7.702043869695339, 46.95363835979733], [7.7020231247130715, 46.95354657528978], [7.7020836915673545, 46.953370454473706], [7.702236896865116, 46.953178010434385], [7.702261137944968, 46.95312511680477], [7.702266880767469, 46.953079911584425], [7.702300302764056, 46.95302935385014], [7.702287441418483, 46.95295941870603], [7.7024196618895235, 46.95280110532238], [7.702411994601016, 46.9527349361254], [7.702509844233354, 46.952666860649586], [7.702554467083619, 46.952551106635894], [7.702569527841675, 46.95247460376169], [7.702625857277904, 46.95243706323922], [7.7027174983137074, 46.95239963963556], [7.702742156060999, 46.95237023176843], [7.702777888113848, 46.95228998431128], [7.70283492267405, 46.95222488055089], [7.702868364613763, 46.95213306156992], [7.702995665120675, 46.95204636985697], [7.7031848673071455, 46.9518238876989], [7.703214616113458, 46.95172385541409], [7.703278043698782, 46.9516446863853], [7.703324275934959, 46.95161102780042], [7.7033438231312275, 46.95155493363617], [7.703419033164739, 46.95147836391599], [7.703458931098499, 46.9514415356444], [7.70349191669068, 46.95135075181555], [7.703537588012477, 46.95130994333394], [7.7035836269339955, 46.951245080641165], [7.703592015435396, 46.951163816417456], [7.703740494125574, 46.950963555350704], [7.703832658434697, 46.95080090721447], [7.703846168358988, 46.95072472251828], [7.703873056051175, 46.950534852359766], [7.703948316323769, 46.950466251984125], [7.703955074827062, 46.95042756595542], [7.703885404555373, 46.95039618967143], [7.7038704861681415, 46.95036766435713], [7.7039744335352776, 46.950301381495805], [7.704018540061381, 46.95025784182619], [7.704032172626396, 46.95020129345646], [7.7040327333937, 46.95014178878641], [7.704026156426317, 46.9500412466366], [7.704034607628383, 46.9499888660231], [7.7040465970144965, 46.94995611368327], [7.704165833089927, 46.94982041526332], [7.7042195423407875, 46.949718429392306], [7.704274239848341, 46.94967308398751], [7.704293533282659, 46.94963781407801], [7.704300969404016, 46.949595438364916], [7.704280231194856, 46.94947886325092], [7.704301948963047, 46.94937313731781], [7.7043350952243665, 46.94932879522861], [7.70446573803742, 46.94917855178547], [7.70451918857987, 46.94915218008589], [7.70461470461995, 46.94908158041421], [7.7047074868448435, 46.948976121537555], [7.704826470515382, 46.94889116494094], [7.704945329959156, 46.9487519043935], [7.70500019363162, 46.94860230368973], [7.7052005203613145, 46.94845274343873], [7.705337686645296, 46.94836612505864], [7.705358331062394, 46.94832801845777], [7.705381399974054, 46.94822242424957], [7.705424263133082, 46.94818038003717], [7.705494714434913, 46.94814438849618], [7.705503001233779, 46.948112220316375], [7.705473486023022, 46.94808836172711], [7.705381548567468, 46.9480401179805], [7.705308272336073, 46.94796176000101], [7.705278922559418, 46.94785187048368], [7.705274664567606, 46.94778772646035], [7.705324887220905, 46.94773053536414], [7.705338805240913, 46.94770554131957], [7.705339847251129, 46.947677204049505], [7.705312859495824, 46.947638470387524], [7.705226136762755, 46.94755288412649], [7.705189867286132, 46.947464653362125], [7.705135028206954, 46.94740369428195], [7.705095552949184, 46.9473152550445], [7.704990654279338, 46.94725667875045], [7.704927258643035, 46.947170651332], [7.704864023080266, 46.947138226231786], [7.7048489428622915, 46.94707155261847], [7.704807535391128, 46.94703059435323], [7.704763292781111, 46.947016619445506], [7.704686798911889, 46.94695919131062], [7.704682549331348, 46.94689925698241], [7.704609492078373, 46.94683280771708], [7.704522255386533, 46.946788960098104], [7.704421178392985, 46.94678053171536], [7.704369090320324, 46.94676573817433], [7.704341986553473, 46.94672988300331], [7.7043415822682375, 46.94669051184082], [7.704317513859259, 46.946649549351875], [7.704291773633028, 46.94663182533727], [7.704261217991877, 46.94660182495463], [7.704249674116094, 46.946554239898624], [7.704175321023937, 46.94652049995087], [7.704034711345654, 46.946464757644854], [7.7039918615617085, 46.94643208708232], [7.703972091222901, 46.94638895583305], [7.70392889462899, 46.94634720076162], [7.703880809044122, 46.946320856957946], [7.70376881867536, 46.94623785573767], [7.703718550132329, 46.94621364863732], [7.703680329357481, 46.94616332758903], [7.70361005447231, 46.94613338275999], [7.70358646473922, 46.946088101266234], [7.70349169432768, 46.94597281239079], [7.703468320219583, 46.94588584647941], [7.703431234296357, 46.94585251486198], [7.703409348623424, 46.94579843218664], [7.703364677486335, 46.9457664672362], [7.703306039745617, 46.9457389870413], [7.703276191986655, 46.945700448377835], [7.703262367541939, 46.94566433742024], [7.703220395621183, 46.945636333171215], [7.703157010009874, 46.945567422734875], [7.703119656100167, 46.94549012286521], [7.703085312092251, 46.94543729215151], [7.703032641387032, 46.94538907307881], [7.702992998726384, 46.945340509079166], [7.702951667691051, 46.94530115132397], [7.702909745319161, 46.94527513472541], [7.70290064446501, 46.945243312518826], [7.7028883413058535, 46.94517180194683], [7.702897324589538, 46.94512606765958], [7.702982239061355, 46.94501592385265], [7.7029885065315415, 46.944981565652924], [7.702982623761046, 46.94493904077557], [7.70284259102731, 46.94479086103118], [7.702795854611944, 46.94470977769877], [7.702763182645144, 46.94464416991494], [7.702718871770708, 46.94452455484608], [7.702703087030772, 46.94444478528245], [7.702707534744142, 46.94440895593824], [7.702699198222895, 46.94438292508952], [7.702681786479557, 46.944351697776604], [7.702643308163311, 46.944296564724034], [7.702625277207616, 46.94426495194681], [7.702622702201931, 46.9442245873674], [7.702635383559258, 46.944132078297514], [7.702669242856036, 46.94404865088252], [7.7026795294957155, 46.94396602406179], [7.702642140289453, 46.94376047030507], [7.702599688396404, 46.94359923859537], [7.70257812582966, 46.9435249606534], [7.702604848508065, 46.943437951581984], [7.702613526514441, 46.94335137055831], [7.702595930405174, 46.94330653402194], [7.702610828638833, 46.94311961502117], [7.702598068269125, 46.94307257244656], [7.702456427339347, 46.94296222988003], [7.702436079976122, 46.94292948028544], [7.702362223033329, 46.942861673051176], [7.702245190285675, 46.94276348022434], [7.702237524918018, 46.94270004549222], [7.702177098359692, 46.942633601679944], [7.702163234010209, 46.9425836291182], [7.702137503420109, 46.94252703619914], [7.702093037760456, 46.94248803596531], [7.702024453539613, 46.94244541212719], [7.701958557950239, 46.94235895738075], [7.701857501681904, 46.942194288717715], [7.701668764540584, 46.942037853711135], [7.701508878727703, 46.941861535878104], [7.701244553375026, 46.94167710041682], [7.701229195729362, 46.94162769794776], [7.7012246447805435, 46.94154273065662], [7.701235496075607, 46.94148935528332], [7.701215188982447, 46.94144302266963], [7.701061871542455, 46.941277016443564], [7.700896122493771, 46.941114842822685], [7.700774773847661, 46.94107841993262], [7.700757030039664, 46.94108647531508], [7.70066754431282, 46.941033940889476], [7.700548555841367, 46.940934482792095], [7.700288987760288, 46.94069740455147], [7.700071969153416, 46.940567657703276], [7.700035159751456, 46.94039236222639], [7.700078572426982, 46.940274417474114], [7.700097041251698, 46.94006640676249], [7.7001631655901885, 46.93984636914901], [7.700210206590275, 46.93972382885454], [7.700274075583972, 46.93958054315591], [7.700287956459264, 46.939523499757605], [7.700062084592019, 46.93950639220423], [7.7000614702216605, 46.93949615703531], [7.700030970901525, 46.939354417632636], [7.7000034465116025, 46.93935504696262], [7.699577250029012, 46.93939946445219], [7.6992654253260655, 46.93942099760881], [7.698965617823082, 46.9394833414874], [7.6985315005509065, 46.93960406201756], [7.698010572964644, 46.939543018927374], [7.697855453992184, 46.93969042250947], [7.697783808940211, 46.93967356504887], [7.697401251320538, 46.93950520788816], [7.696935397358027, 46.93937671302048], [7.696701110162919, 46.93963154320967], [7.696410947869384, 46.93968524784755], [7.696215875809256, 46.93973439443258], [7.695927073396337, 46.93979529112562], [7.695804633018609, 46.93982888348597], [7.6954313862996, 46.93997628586155], [7.695237560383869, 46.94003939704123], [7.695009230904556, 46.94012431729303], [7.694755832431963, 46.94018235231652], [7.694376911982039, 46.94016193135815], [7.694034401719307, 46.94023664218854], [7.693678650113245, 46.940241506920735], [7.693487796182044, 46.94027548209213], [7.69310121282974, 46.94017588904738], [7.6928155869916655, 46.940176403729424], [7.6927117893816, 46.940131108400244], [7.692350231887975, 46.94013296781761], [7.692176518733024, 46.940052718515105], [7.6919541564642575, 46.93994679479691], [7.691755974645121, 46.93997525152904], [7.691412640841216, 46.939771087066525], [7.691096838600986, 46.939620633750906], [7.691274008657936, 46.939581466425246], [7.690943890967434, 46.93953446250255], [7.69061037259752, 46.93948188810703], [7.690202062798846, 46.93940730315869], [7.689588865230979, 46.93931103585949], [7.689568512067151, 46.93937109607514], [7.689333053932886, 46.93939855933465], [7.689232064236768, 46.9394478393347], [7.689148318092674, 46.93954790476168], [7.689114408212448, 46.939680891973595], [7.6891061596407, 46.93988994974822], [7.688869750315043, 46.93987716033798], [7.688838616587082, 46.940347743898855], [7.6888240206621665, 46.94049371554444], [7.688679792407761, 46.94105493888373], [7.688244003398141, 46.94169812480254], [7.688110636877574, 46.94187839269214], [7.688134621211155, 46.94236896282663], [7.6881365444991925, 46.942579925304635], [7.6881359371543265, 46.94293064437802], [7.688131182422352, 46.942964647757144], [7.688116666572773, 46.94300380860777], [7.687916021695913, 46.94300520651498], [7.687703555682328, 46.94301223361083], [7.687426089211975, 46.94301377884345], [7.687004930292643, 46.94298034498977], [7.6869311004771586, 46.942976933599866], [7.686867060426752, 46.94304007520271], [7.6867112360273495, 46.94307993725735], [7.686293283942076, 46.943106656096546], [7.685820957693123, 46.9430249809006], [7.685685130832932, 46.94303514077652], [7.685519835993269, 46.943095304655245], [7.68537127522682, 46.9431730000063], [7.685034833034306, 46.94325751152911], [7.684728068665323, 46.9432402946011], [7.6846990956648735, 46.9431513489371], [7.6846756191552315, 46.94304373480144], [7.684628716447293, 46.94289136450367], [7.684434213366517, 46.94291460174112], [7.6841590623755724, 46.94291394866028], [7.683892700581762, 46.94290519825189], [7.683698345162606, 46.942903256026675], [7.683498528547191, 46.9429163650061], [7.6832824859864015, 46.942908126282404], [7.683027944695628, 46.94288196053077], [7.682789652131712, 46.94286190357769], [7.682481541207097, 46.94286573232011], [7.682105849967353, 46.94289757942817], [7.6818386669060015, 46.94292221572101], [7.681559982097582, 46.942971046004345], [7.68130760117678, 46.94301906476727], [7.681067013404371, 46.94311066705487], [7.681069139727547, 46.94317755983984], [7.680870636021963, 46.94320549482427], [7.680800617730063, 46.94322020567098], [7.680687386485272, 46.94325511191987], [7.680422142490605, 46.94327609888739], [7.68025641478366, 46.94330545743936], [7.679904014259055, 46.94330363462442], [7.679721387077609, 46.9433076431852], [7.679355085378702, 46.94333114243994], [7.67915822401107, 46.94334771922226], [7.679084619601302, 46.943347738394735], [7.678942439569021, 46.943344446929814], [7.678713018259895, 46.94336105504497], [7.678499579832719, 46.94338914328663], [7.678358204320914, 46.94342799189884], [7.678152397797743, 46.94346229721232], [7.6780124182066105, 46.94349023134798], [7.6777637652584145, 46.943553724873475], [7.67770097738408, 46.94356427200723], [7.677517574894002, 46.943615872282194], [7.677433568975879, 46.943648807461635], [7.677083975968728, 46.94386954734027], [7.677110681522554, 46.943897035173244], [7.677074051735129, 46.9439212633919], [7.676852072338279, 46.944154349314985], [7.676714129526996, 46.944278229664754], [7.676643046566129, 46.94433794338417], [7.676403865584396, 46.94442099695918], [7.6761233448835595, 46.94452991547091], [7.675569670426929, 46.944610737737655], [7.675208883955439, 46.94470533678601], [7.675107429781689, 46.94482464188709], [7.675041783226176, 46.94489668436836], [7.6747760518489425, 46.945168911791555], [7.6743853093050385, 46.945662773959114], [7.674013314448309, 46.9459181086594], [7.673518997299553, 46.94618120282824], [7.6730479038798745, 46.94638510457348], [7.672694662572908, 46.94652719257103], [7.672190919847922, 46.94650902142428], [7.6717192709944575, 46.946595235291475], [7.671207015887699, 46.94678402977236], [7.670749109403806, 46.947091637453035], [7.670377249662018, 46.947335662905964], [7.670074898346792, 46.94742042233057], [7.669713814679708, 46.94762090509263], [7.669553419902499, 46.947716118086895], [7.669046385974838, 46.947944444613654], [7.668695229724722, 46.94798270310385], [7.668369741041563, 46.94802129603642], [7.667875884772537, 46.94805132750242], [7.667288993661739, 46.94810394028857], [7.666502190212918, 46.94816532062982], [7.666110823379825, 46.94819749775244], [7.666026515682405, 46.94820581430298], [7.6653551466911125, 46.9482835539931], [7.664912865277074, 46.94829399523539], [7.664509974499308, 46.94789882914066], [7.663821970478283, 46.94789614862114], [7.663499227392785, 46.947847342711704], [7.662751258728826, 46.94783459057181], [7.662232432752001, 46.94780492708727], [7.661957734900261, 46.9476817409533], [7.661722113118218, 46.94748805476759], [7.661527765405161, 46.94721210774094], [7.661286524738172, 46.946795664648754], [7.661111608009347, 46.94642411394169], [7.660551015713549, 46.946260926021324], [7.6596912202810365, 46.94592020559531], [7.658806043961208, 46.945781622802315], [7.658386599158844, 46.94566996648601], [7.658020697814201, 46.94576916246704], [7.656549310817367, 46.94615468835194], [7.652130374702323, 46.947301858488395], [7.65064930207992, 46.94769091475258], [7.65028730071672, 46.947622893679714], [7.6498744273604915, 46.94758509880539], [7.649444671835104, 46.947516039182986], [7.6486528526934014, 46.94746980274839], [7.648678986697294, 46.9476135074122], [7.648688250038038, 46.947813408194826], [7.648730296281133, 46.94832634399277], [7.648662660740716, 46.94870075694727], [7.648604066263229, 46.94911355349007], [7.648645129818555, 46.9494885238039], [7.648713290804792, 46.949744654858875], [7.648703354317047, 46.94980732419679], [7.648270426573113, 46.94971685877185], [7.647390092272784, 46.949510097694], [7.646613000983071, 46.9492870144684], [7.646410049984441, 46.94921406293546], [7.646370151458315, 46.94919559598093], [7.645983224473892, 46.94895901163228], [7.645434847488425, 46.94861866861958], [7.64519648822529, 46.94871086636937], [7.644926065911298, 46.94915742358595], [7.644461264118084, 46.94976804975884], [7.64401125290475, 46.95018780689733], [7.6438439745457005, 46.95051777130486], [7.643866372717387, 46.950921967043556], [7.644124810414468, 46.95136254999449], [7.6442792269516575, 46.95198571590364], [7.644359660887302, 46.95218882785738], [7.644385249136208, 46.95222975520256], [7.644405725485944, 46.95227019694497], [7.644421110376046, 46.95230862388475], [7.644445788697277, 46.95238647811031], [7.644461507633308, 46.95246079525809], [7.644466589633526, 46.95249818817013], [7.644467698533964, 46.95254781265349], [7.644463775888423, 46.95259737415884], [7.644454847031402, 46.95264662977307], [7.6444406387814485, 46.95269629058628], [7.644421330421959, 46.952745141952015], [7.644397052335338, 46.95279293175713], [7.644200194561409, 46.953094793078215]]]]}}]}