{"type": "FeatureCollection", "features": [{"type": "Feature", "properties": {"bfs_nummer": 6134}, "geometry": {"type": "MultiPolygon", "coordinates": [[[[7.2770684640970105, 46.115285282330824], [7.2768888913179435, 46.115643599324436], [7.276733135624059, 46.11582328474719], [7.276435014672224, 46.11602976025459], [7.2761113172094305, 46.11613724541082], [7.276019693039816, 46.11649695248107], [7.2757858387566055, 46.11683844799476], [7.275500669988892, 46.11703594311953], [7.2751381302051366, 46.11715236200293], [7.274749390556707, 46.1173766769505], [7.2748130592670055, 46.11770961256473], [7.27461875653221, 46.11779928261014], [7.273619100257007, 46.11899423264033], [7.273386122239501, 46.119038867243574], [7.273448963859949, 46.11964166238187], [7.273615952314742, 46.12002872783171], [7.27367912713037, 46.1205235870756], [7.273548671149891, 46.120883216776896], [7.27305519045355, 46.12151218697765], [7.2728595795811986, 46.12202465417131], [7.272829717424093, 46.12332898458473], [7.272527754510451, 46.124053318825766], [7.271404628244986, 46.124001538786736], [7.270977210823495, 46.12416281729559], [7.270134071947453, 46.12488119669927], [7.26968051771637, 46.12512340047803], [7.268903219190811, 46.12546405160367], [7.268553152256476, 46.125706398486614], [7.267930675134958, 46.126182212976886], [7.267386536799664, 46.12642427609775], [7.267087550598589, 46.1268736016456], [7.266475835914797, 46.128024092247074], [7.265917358940968, 46.12869791302387], [7.265333799808054, 46.129119801927445], [7.264768661617358, 46.1296808049713], [7.264238676543177, 46.131054518374306], [7.262894943580786, 46.132023522033336], [7.26157843700677, 46.13264728082032], [7.2610339244478554, 46.13324839182173], [7.260266935233219, 46.13406558670471], [7.259848203030837, 46.134502147321], [7.260044466880801, 46.13482341795564], [7.259693600578487, 46.1357509507285], [7.25940088993271, 46.136933137107675], [7.25942157852189, 46.13717199076466], [7.258504296656576, 46.13767033500386], [7.2583903309704825, 46.137849675002585], [7.25779036752545, 46.138989064526754], [7.257511194470779, 46.13931996994417], [7.256796151984884, 46.13961218713208], [7.256338218477582, 46.139946573460094], [7.255880548854982, 46.14062662905757], [7.255695971145842, 46.141327208853674], [7.255467147072079, 46.141606657752554], [7.255056426470925, 46.14190397323371], [7.254891329596552, 46.142351912403065], [7.254358202475199, 46.14261097401458], [7.2542792728506, 46.14291137539086], [7.254366367308169, 46.14355411300045], [7.254500223157067, 46.14407893478434], [7.254574919806277, 46.14445271337145], [7.254426792979478, 46.144930906718486], [7.253952430115874, 46.145470610357336], [7.25338670194255, 46.145786812918004], [7.252924063366607, 46.1465328883914], [7.252269564463427, 46.14683678679335], [7.251158574044234, 46.147670072171614], [7.2507125843078395, 46.14793195720702], [7.250527327899984, 46.148131858601324], [7.250208695003945, 46.14879640385302], [7.24988399921624, 46.14912362020182], [7.249286541584622, 46.14950171900196], [7.248986810364592, 46.150159100206906], [7.248291206156675, 46.151175383117504], [7.248033751543001, 46.15203369563536], [7.247933607423573, 46.15231260080473], [7.247833252625773, 46.152960488675525], [7.247973296867095, 46.15337442326502], [7.248009829201814, 46.1535392239176], [7.247989827484066, 46.15389637353689], [7.247991188997233, 46.153950907098256], [7.247965873176707, 46.15401636973035], [7.247922690533697, 46.15409034785537], [7.247798309621551, 46.154248971299516], [7.2477052715148504, 46.1542736047044], [7.24753374064699, 46.15429813102574], [7.247432532924968, 46.15429387440677], [7.247294975755185, 46.15427932770706], [7.247186465204366, 46.15428310955216], [7.247089233877303, 46.15431484206134], [7.247006543710192, 46.15437802957776], [7.246955054455871, 46.15443959729512], [7.246863423006666, 46.154501824964264], [7.246788150038689, 46.15458292544238], [7.246674479613865, 46.154742312403265], [7.246637049627389, 46.15485428817724], [7.24630253780632, 46.15547272660454], [7.2460470722299, 46.15589049252022], [7.245997321220044, 46.15595032670337], [7.245831456686371, 46.15600693887815], [7.245666030617536, 46.15604571321832], [7.245461295033899, 46.15598182468337], [7.245374845216398, 46.155987352152636], [7.245237173551147, 46.15602191827278], [7.245109551198885, 46.156077111165395], [7.245039857894301, 46.156127652848426], [7.244918013952761, 46.15619928090829], [7.244669493437011, 46.15630015956305], [7.244569121975, 46.15632172842906], [7.243806118306861, 46.1567717402651], [7.24356124989888, 46.15694998485292], [7.243432133593524, 46.156958755630846], [7.242783908373276, 46.156762877849694], [7.242667250584458, 46.15674867687929], [7.242624599043057, 46.15682698915546], [7.242583701098911, 46.15693939780533], [7.242485990966455, 46.15711913809515], [7.242396624771386, 46.15722517440927], [7.242177654605642, 46.15738842941282], [7.242080406159323, 46.15743323707786], [7.24198318713345, 46.15745559161386], [7.241756654329326, 46.15745520354583], [7.241497935425267, 46.15742061095592], [7.241206627349848, 46.1574200898853], [7.241141943229949, 46.15740914546695], [7.241019682035517, 46.15743684342394], [7.2409548138564235, 46.15747629139475], [7.240809110294644, 46.15772340280264], [7.240614375578693, 46.15788048117076], [7.240434676350188, 46.15812754149795], [7.2401100221488965, 46.158419324046605], [7.239979948998764, 46.158592762533004], [7.239923890396821, 46.15864392905703], [7.239859101980494, 46.15867168266676], [7.239794356979552, 46.158676992328395], [7.239406340873195, 46.15857826162747], [7.2393577469379276, 46.15859166794049], [7.239300164313001, 46.15863115514704], [7.239267253671931, 46.158766003184766], [7.239185123472749, 46.15888733356549], [7.239137141103505, 46.15894568359021], [7.2391134619871975, 46.15901310810184], [7.239129361773668, 46.159086054159204], [7.239161496065514, 46.15914817159384], [7.239168535454607, 46.15921565936572], [7.239112358627204, 46.15930551485763], [7.2390633994515206, 46.15941788052811], [7.239046803849069, 46.159530295656474], [7.239030539493873, 46.159552755668194], [7.239030125192225, 46.15966519934869], [7.239094499452643, 46.15976069269167], [7.239255755606582, 46.15991299459236], [7.239294585658789, 46.16013253582861], [7.239384152027403, 46.160200160891165], [7.239505329183176, 46.16025077726029], [7.239666773149106, 46.16035267694525], [7.239666690580014, 46.160375165723245], [7.239698888701351, 46.16042020018974], [7.239706483862116, 46.160555164706686], [7.239770385788029, 46.16078016697654], [7.239834618460148, 46.16091521439049], [7.239858396587082, 46.161050199305095], [7.2397111865339125, 46.16125235595055], [7.2396787398671805, 46.16127478735065], [7.239573914825063, 46.1614095253703], [7.239492195548944, 46.161611798411016], [7.239508047027714, 46.16170180014792], [7.239596553122444, 46.161836890300975], [7.239620578632367, 46.16190439961894], [7.2396204134340465, 46.16194938619632], [7.239563432092903, 46.16203924077854], [7.239474161739096, 46.16211196457508], [7.23936063152511, 46.16217383254567], [7.2392955714755, 46.16226367289868], [7.2391088945201965, 46.16242078128374], [7.2389785438509415, 46.16265894074769], [7.238808273102399, 46.162751364066466], [7.238622014709357, 46.16279059376688], [7.238581495360345, 46.16280760410295], [7.2384841711576735, 46.1628694820786], [7.238373777737182, 46.162961075856984], [7.237948339262947, 46.16334625236277], [7.237583305254064, 46.16358757950416], [7.2375337873939545, 46.16363247760283], [7.237468709165839, 46.163722316237795], [7.237370944568129, 46.163902061810006], [7.237240195147435, 46.164244603653316], [7.237135377648906, 46.16435686012217], [7.23694073030027, 46.164474388421695], [7.236843464809085, 46.16451920051527], [7.236649004002544, 46.16458631726577], [7.236551795992392, 46.164608631173614], [7.236478992442592, 46.16460309370087], [7.236406252623691, 46.164580473660884], [7.2362770833587415, 46.1645011061517], [7.235905523346118, 46.16432678462102], [7.23584095970356, 46.16428168996683], [7.235517688785214, 46.16417407582565], [7.235452957156238, 46.16417395870156], [7.235355782720382, 46.16419086543952], [7.235145077761306, 46.16427420583271], [7.235006415637017, 46.16435850416851], [7.234836733316971, 46.164504788582235], [7.234666594541222, 46.16456570385157], [7.234552193210398, 46.164650037546224], [7.234551346140915, 46.16487494316835], [7.234608111819829, 46.16505495700595], [7.234559074245403, 46.16518439472467], [7.234477863082261, 46.16526253528974], [7.234380542315389, 46.16532441816941], [7.234283314052652, 46.165358397479245], [7.234153807266133, 46.165368992572986], [7.233927325795399, 46.16534608992541], [7.23386254844263, 46.165357629685246], [7.233789577103686, 46.165396222117614], [7.233716432227297, 46.165480655494584], [7.233659364876527, 46.16559299528385], [7.233634599321337, 46.16572246747794], [7.233609395493631, 46.16575573198281], [7.233423597704228, 46.16588491821472], [7.233358799120714, 46.16590187302306], [7.233123393080317, 46.16588978290085], [7.232841282015989, 46.16581098504114], [7.23273518118086, 46.16583864949132], [7.232516888266, 46.16600112250741], [7.23241959252726, 46.16605217350263], [7.232290018493938, 46.16607983962676], [7.232248757041103, 46.166079763695784], [7.232225328989848, 46.16606805339988], [7.232054575631317, 46.166073990752444], [7.231989714385444, 46.16610719961987], [7.23184417889143, 46.16628684263436], [7.231787020903587, 46.16642168821129], [7.231705673543896, 46.16653398279714], [7.231616361408022, 46.166612943174506], [7.231437167085921, 46.16671340002254], [7.231348687665109, 46.16678070216126], [7.2312673390508, 46.16689300572844], [7.231193823763003, 46.16707278151546], [7.231176088467485, 46.16727515832976], [7.231160535183111, 46.167320107485], [7.23115976044702, 46.1675225156852], [7.231191869996585, 46.16759004181085], [7.231191525677568, 46.16767999693525], [7.231141740642067, 46.167792358740336], [7.2310611928392365, 46.167904654636644], [7.23102856642943, 46.167972061225704], [7.231028386263555, 46.16802245401125], [7.230978760045855, 46.16808982922296], [7.230890325417207, 46.16815171704089], [7.230793113887675, 46.16817944144187], [7.230404736719569, 46.16816791770824], [7.230243027074342, 46.16813345239681], [7.230136593621274, 46.16813507201459], [7.230730697900226, 46.16850478826305], [7.232498771270276, 46.16928846647822], [7.232749016629386, 46.16941996567479], [7.23393239394592, 46.1698051854353], [7.234969273767821, 46.1698579977605], [7.236893951645266, 46.17019992653163], [7.237509340288216, 46.171141277395876], [7.23827144605606, 46.17165766578651], [7.239526830430154, 46.17216041473967], [7.2408013230612, 46.17256402471554], [7.241611457249401, 46.17305061651323], [7.242964867171118, 46.17355850824833], [7.24384558732155, 46.173978831129304], [7.244729699883228, 46.174538665682476], [7.2452906412080385, 46.17501849393252], [7.245702526486052, 46.176233696417], [7.246449558894225, 46.176995668967095], [7.2464731197861605, 46.17790951270862], [7.246744742764482, 46.17924242807912], [7.251103225306802, 46.18258348231697], [7.252140233913669, 46.17977562564537], [7.251794170535863, 46.1787675837317], [7.251670142951812, 46.17861232217768], [7.251660833669433, 46.17845075603734], [7.251687014910014, 46.178455450351564], [7.251558821422539, 46.17808204861699], [7.251442136008703, 46.17796860089245], [7.251513167825798, 46.17794905498836], [7.25144798911583, 46.17775918627864], [7.2513677357462365, 46.17756176035628], [7.251323955778029, 46.177493608760166], [7.251180602785656, 46.177344394137535], [7.251040773518601, 46.17720596080194], [7.251031883587097, 46.177178005943], [7.251002755819026, 46.17699595805299], [7.251015921678452, 46.17693722995842], [7.250897828750674, 46.17674100879615], [7.2509706927127775, 46.17658479693093], [7.24994631751778, 46.174064140112115], [7.255453108324409, 46.17437160760354], [7.255870586102455, 46.17334739762745], [7.2559100291984615, 46.172883736500324], [7.256092361650659, 46.17256007788786], [7.256828810526729, 46.170109318114676], [7.257047516527482, 46.16986142400552], [7.257156324990772, 46.16975494118314], [7.25731098041566, 46.16958685032035], [7.25879991802173, 46.168222087014875], [7.260293249904721, 46.166893182241495], [7.26108237677086, 46.165798098841286], [7.263149301118432, 46.164684874694366], [7.268251211567327, 46.161923689235216], [7.269683354134121, 46.162473821851165], [7.271241818873853, 46.16242862044139], [7.275291997142689, 46.16150254791303], [7.277349320118741, 46.16083047992943], [7.275779340274242, 46.15899726902745], [7.2776957864286755, 46.15847105194475], [7.281403912724541, 46.158083928767745], [7.282039008562102, 46.157751152761364], [7.284904666381631, 46.156488850179585], [7.284973651856022, 46.156487604882024], [7.285079183870143, 46.15649400162987], [7.285123132987183, 46.15649322537896], [7.28517046611643, 46.156485958978415], [7.285207559393096, 46.156474351609674], [7.285245341798772, 46.15645706889528], [7.285276102393803, 46.1564373209366], [7.285306861471192, 46.15641353396895], [7.285360683193797, 46.15635932849953], [7.28537462866733, 46.15633957538786], [7.285396482334325, 46.1563201479568], [7.285429969367659, 46.15629753424509], [7.285482581755134, 46.15626816421248], [7.2855178180743145, 46.15623578382203], [7.285555240623676, 46.15621295941315], [7.28559233554121, 46.15618703131729], [7.285671782346367, 46.156120743932746], [7.285746412913399, 46.15606857341498], [7.285816926099764, 46.15602592366035], [7.285835589650267, 46.15602216192787], [7.285906221598948, 46.15601968546727], [7.285925529559929, 46.15601694118635], [7.285953692566336, 46.15600919827947], [7.286003138988343, 46.155977529155095], [7.286021975959205, 46.155971932530555], [7.286050450699007, 46.15597297868041], [7.286072468163576, 46.15597791112946], [7.286080527636801, 46.155975052474176], [7.286105323360069, 46.15595410838182], [7.286129643094895, 46.15594594654532], [7.286173088285657, 46.15594006863301], [7.286216218429414, 46.15593110463936], [7.2862770648159305, 46.155914590398325], [7.286329520594228, 46.155903597007296], [7.286363006833978, 46.15589473684933], [7.286385866759042, 46.155880932820814], [7.286409069259806, 46.15586040064274], [7.286434518708684, 46.155846312084435], [7.286465576699036, 46.155840210456915], [7.286541852788992, 46.15583291971772], [7.28659219949272, 46.155826223388054], [7.286646266984894, 46.15582208682124], [7.286686165462415, 46.15582529820066], [7.286764700139595, 46.155806459795706], [7.28684871615885, 46.15578097232692], [7.286873154021284, 46.15578140127715], [7.286899088883126, 46.15577427618887], [7.286939467168873, 46.15577267596357], [7.286996239628187, 46.15577796148473], [7.28707137586815, 46.15576627006417], [7.287124968389392, 46.15576070241435], [7.287167932422913, 46.15575092850032], [7.287226683871697, 46.15573359265045], [7.287305571536793, 46.15571351341523], [7.287452912025817, 46.155678486015965], [7.287509411814635, 46.15566082302911], [7.287562082714127, 46.155642237445754], [7.287613267874497, 46.15563654954898], [7.287659167892869, 46.15563689961996], [7.287698783253213, 46.15563959792204], [7.287741051285785, 46.15563329504226], [7.287770818447105, 46.155625778924424], [7.287825220905906, 46.15562217322715], [7.287854799909629, 46.15562180838817], [7.287889479901226, 46.15562572314223], [7.287907564252155, 46.155625342688104], [7.288066184413424, 46.15556524201439], [7.2881063574531595, 46.1555536652763], [7.288185194562946, 46.15555151334002], [7.2882075770953, 46.15554624508085], [7.288221477841327, 46.15553748414991], [7.288256520068832, 46.15549971450073], [7.288286548260502, 46.15550068136804], [7.2883132232160595, 46.155506582436146], [7.288408183570571, 46.15554374493739], [7.288475097601647, 46.15556072837461], [7.2884941000603245, 46.15556067287892], [7.288511034082268, 46.155559679145966], [7.288589476595514, 46.15554119978792], [7.288638547253683, 46.15552307672138], [7.2886864830812845, 46.15551274226643], [7.288753911246917, 46.15549373523411], [7.288815109298716, 46.1554807918333], [7.288940830758934, 46.155464615216424], [7.288960651272264, 46.15545898364531], [7.288996424300666, 46.15546095697459], [7.289050258143722, 46.155466300552575], [7.2891024508706765, 46.15548002587906], [7.2891270421787135, 46.15549048466954], [7.289148744674656, 46.1555017491889], [7.289241906440494, 46.15557631187966], [7.289290272179033, 46.15560711423819], [7.289330491561076, 46.15563013356989], [7.289368805521778, 46.15564000775442], [7.289411602812966, 46.15564825079417], [7.289453768446006, 46.155650852754334], [7.289487312710846, 46.1556488913958], [7.289526882855394, 46.15563514508836], [7.289557554666152, 46.15561874235353], [7.2896213625852475, 46.155603004916465], [7.2896396871972975, 46.15560000689762], [7.289668526618859, 46.155600243203686], [7.289701772797134, 46.155607870889185], [7.289736073974145, 46.15562728427718], [7.289771056296272, 46.15563904320344], [7.289843157986544, 46.155648018070735], [7.289857762281004, 46.15565632236131], [7.289894356414095, 46.1556656545791], [7.289927962093825, 46.155664997910634], [7.289950541096222, 46.15567309740651], [7.290001642771581, 46.155678922822055], [7.2900506612490545, 46.15567496709842], [7.290075421532142, 46.15567580953905], [7.290104493637591, 46.1556809036898], [7.290134825723611, 46.15569385267899], [7.290179940434817, 46.15570672217205], [7.290206781167526, 46.15570888068906], [7.2902289759459595, 46.15570598675755], [7.290267136083166, 46.15569195084381], [7.290298338416593, 46.15568966244931], [7.290330927464429, 46.15570100441533], [7.2903486934221275, 46.155717669931086], [7.290405459684027, 46.15571580202418], [7.290494480836419, 46.15572442100221], [7.290594732638517, 46.15574443437197], [7.290637508887319, 46.155755780552326], [7.290668642205688, 46.155769315319986], [7.290687508591448, 46.15578124159485], [7.2907572854686595, 46.155840633247216], [7.290809430478659, 46.1559054080001], [7.29084583715272, 46.155936167329195], [7.290952014029354, 46.15598138485844], [7.2910382990822775, 46.15602539813366], [7.291062030090409, 46.1560335345519], [7.291095457945697, 46.1560411620597], [7.291176638309667, 46.15607247502542], [7.291209550407312, 46.156093640184395], [7.291236658066916, 46.156116776766304], [7.291261529952879, 46.15614331962794], [7.291296668349617, 46.156169381490216], [7.291335221232105, 46.156186937813274], [7.291381358930112, 46.15619520256844], [7.291395640639401, 46.15619375504594], [7.291506532109672, 46.15613327935174], [7.291579857442258, 46.15608263107807], [7.291607063174566, 46.15606004267225], [7.291643235363829, 46.156062779595], [7.291673185811657, 46.15606860279417], [7.291755908530668, 46.15607527776014], [7.291794182659642, 46.15607630861975], [7.291863865692676, 46.15607526665328], [7.2919315166888765, 46.15606442523566], [7.291973514851261, 46.15604775742531], [7.2919967122352425, 46.15603307096626], [7.292030155536171, 46.15600628083296], [7.292057346015082, 46.15598930576864], [7.292092169145877, 46.15597402289077], [7.292129656772661, 46.155969061420606], [7.292179571739532, 46.15596861390464], [7.292218002632818, 46.15596904194441], [7.292272185989585, 46.15597459101072], [7.292284472673985, 46.15597368946965], [7.292382418767531, 46.15592243381002], [7.2925573273126805, 46.155791704508246], [7.292577734083461, 46.15577491829297], [7.292596066512909, 46.15575453114474], [7.292612791101882, 46.155730345732266], [7.292620446013017, 46.15569012728724], [7.292627404386009, 46.1555961411472], [7.292629805285192, 46.155512188304066], [7.292623139981262, 46.15546375620781], [7.292614454080945, 46.15543982552884], [7.292596347044944, 46.155415027959144], [7.292598872001541, 46.155352196595295], [7.292605954641652, 46.15530332347669], [7.292618731021843, 46.15526471282366], [7.292651116733126, 46.155207362984065], [7.292655058091642, 46.155195421980196], [7.292652159784384, 46.15516623677743], [7.2926475760313245, 46.1551476461495], [7.2926518795620225, 46.15513101898085], [7.2926596284739444, 46.15507522978198], [7.292647477908426, 46.15505455121524], [7.292640937063684, 46.15498409852727], [7.292628600481734, 46.154965218867666], [7.292607544033856, 46.15494944022773], [7.292594058354614, 46.15493426519993], [7.292587050956437, 46.154916804757754], [7.2925711811131135, 46.154897713450005], [7.292554525904398, 46.15487220707107], [7.292537512930693, 46.15485462553516], [7.29250693070176, 46.15483842053965], [7.292487473683725, 46.15481994519945], [7.292474018047029, 46.1548032679793], [7.292451758012734, 46.15476831832831], [7.292449925218077, 46.15472307664743], [7.292459472647296, 46.15469137022115], [7.292474803377788, 46.15466550060696], [7.292495948174582, 46.15463884703251], [7.292522230264954, 46.15461759768848], [7.292561731029205, 46.154600098638575], [7.29256939409573, 46.154590474458765], [7.29257009240197, 46.15455244241824], [7.292564727128252, 46.154530864141236], [7.2925529068679635, 46.15450777523601], [7.292543114790278, 46.15449582566409], [7.292534025443234, 46.154448847988704], [7.2925452285682395, 46.15441274491863], [7.292556874056242, 46.15438064564303], [7.292576074094408, 46.15435509594693], [7.292595225607406, 46.15433795714398], [7.292645783208666, 46.15430983080619], [7.292660753871157, 46.15429268667788], [7.292685634379688, 46.15423422052832], [7.292690128160788, 46.154209344426036], [7.292708440437702, 46.154061263194535], [7.292713810033719, 46.154042856242825], [7.2927121081153725, 46.15403077297321], [7.2927036705446975, 46.15401567645837], [7.292653906931796, 46.15396075697135], [7.2926180057408745, 46.153925186704825], [7.292597028055426, 46.15388511093735], [7.292599192466828, 46.15386488268006], [7.292624460432674, 46.153802009656566], [7.292625833996893, 46.15378229328548], [7.292635343737742, 46.15376941509366], [7.29266859201302, 46.15375195307139], [7.292684266052779, 46.15372840533671], [7.292692286920183, 46.15371089267872], [7.292695353331089, 46.15368743646529], [7.292689610922964, 46.15362330861063], [7.2926896488139015, 46.15359965029075], [7.292701817792188, 46.15357500027297], [7.292746708340138, 46.153536152940006], [7.292770029732814, 46.15351824622593], [7.292785074365257, 46.15350244275476], [7.292785399024186, 46.1534924762112], [7.292779562398591, 46.153463386370824], [7.292782465166552, 46.15344778301093], [7.292791115491886, 46.15343197114829], [7.292802301978794, 46.15342120888132], [7.292840613259331, 46.153402998060265], [7.292864746362619, 46.15338166514283], [7.2928780113232206, 46.153363448723205], [7.292887068251913, 46.15331201501913], [7.292890971613562, 46.153265917317825], [7.29289073412753, 46.15322907093347], [7.292898602138864, 46.153205719712886], [7.292898041691987, 46.15316867514672], [7.292894730978735, 46.15314834976685], [7.292868376985536, 46.153095601242185], [7.292859494870056, 46.1530725339002], [7.292859165135271, 46.152997842978415], [7.292850135224396, 46.152976808497606], [7.292846062112698, 46.152941576373095], [7.292845188638578, 46.15290543999236], [7.292847309077089, 46.152877457480834], [7.292853278979937, 46.15284757300375], [7.29287234817314, 46.15280316873834], [7.29287416221249, 46.152778415263306], [7.292879157805032, 46.15274981581906], [7.292885256875721, 46.15273442331187], [7.29289677805206, 46.15271469296351], [7.292923137198712, 46.152693263711974], [7.292930346676483, 46.15267887110482], [7.292934370722483, 46.15266496915476], [7.292935196426031, 46.15264192356805], [7.292943733254101, 46.15260569157334], [7.292962130797564, 46.15257992519324], [7.29297937272626, 46.1525699626363], [7.292995672113135, 46.15256392988899], [7.293011189088189, 46.152531116067024], [7.293022539315067, 46.1525219552163], [7.293065683825836, 46.15247727596824], [7.293084532759505, 46.152461666005166], [7.293110695563724, 46.152455430007834], [7.293142477205669, 46.15243902714666], [7.293171822780148, 46.15243329905594], [7.293212815824725, 46.152428170582276], [7.293230848114469, 46.15242263462361], [7.293247789112014, 46.15240894721319], [7.2932613890365605, 46.1523862058578], [7.29327327530776, 46.15234603770294], [7.2933136885753695, 46.15223843917369], [7.293327454704916, 46.15220673822822], [7.293368500959672, 46.15218650609267], [7.293378555926904, 46.152177649433874], [7.293412029628102, 46.152119077524965], [7.2934104633250945, 46.15209984300685], [7.293378860280249, 46.152040053336485], [7.293368698567766, 46.15201629170556], [7.293363801676652, 46.15199373336287], [7.293364093032613, 46.15194311591159], [7.29337182377105, 46.15190809732022], [7.293382099948334, 46.15187469212161], [7.293405138925361, 46.15184109663399], [7.293424424148002, 46.15177851223557], [7.293434950483287, 46.15166172830024], [7.2934569790557315, 46.15160433847985], [7.293482834652274, 46.151563010800054], [7.293512860572681, 46.151525719162876], [7.293543837413977, 46.15150046419224], [7.293564210471371, 46.151461737563785], [7.293638692604033, 46.15142591550001], [7.29364489941207, 46.151389383100714], [7.293655304728441, 46.151346226497424], [7.2936861261455705, 46.15127736045129], [7.293697688467942, 46.151256631892544], [7.293718629935531, 46.1512328209077], [7.293747708156758, 46.151220426963654], [7.293756939321336, 46.15121462776697], [7.293768803109252, 46.1511972095938], [7.293794870308809, 46.15114434072575], [7.29382596724365, 46.151112716777064], [7.293831286371328, 46.151098393639806], [7.293829351884861, 46.1510619231534], [7.2938337125899055, 46.15103818051341], [7.293873406303575, 46.150957281180524], [7.293890833544822, 46.15092621528947], [7.29391287668757, 46.150896945461106], [7.293956640127436, 46.15080921534256], [7.293970971857939, 46.150764201723106], [7.293977865957337, 46.15073682794029], [7.29397800765493, 46.150717649353965], [7.293972821286666, 46.15069675465181], [7.293975470287276, 46.150654685393825], [7.293979557728477, 46.15064108922325], [7.293975775274347, 46.15062280515496], [7.29398015658974, 46.1505912270863], [7.293984379693575, 46.15057044359407], [7.293995070384848, 46.150551161751466], [7.293993163870642, 46.150523461618974], [7.294004617070524, 46.15049488824891], [7.29401196453922, 46.150457628762496], [7.294025753076344, 46.15040757696937], [7.294025406772825, 46.150396691837415], [7.294020025413273, 46.1503810054754], [7.293986507891166, 46.15031109296859], [7.293971794305297, 46.150285814238785], [7.293961814593416, 46.15026175595916], [7.2939365230104265, 46.15021840938502], [7.2939044546205025, 46.15017795978336], [7.293887039907094, 46.150136710443064], [7.293880693539413, 46.15010923866394], [7.2938793882845685, 46.15008426517185], [7.293880146951936, 46.1500618940587], [7.293884968727283, 46.150025432331475], [7.293860339450411, 46.15000066238706], [7.293832537521873, 46.14996189087962], [7.29382526705197, 46.14994604018851], [7.293834029136973, 46.149917067546966], [7.293845305815099, 46.14989642813987], [7.293845447209061, 46.14988709985641], [7.293835505710227, 46.14985850794289], [7.293833417089066, 46.14984576744582], [7.293843615627006, 46.14983144165239], [7.293842592689424, 46.149788009541936], [7.293817343919237, 46.149743349853495], [7.293783917538083, 46.149702691689235], [7.293755572774207, 46.149678375910426], [7.293742940734697, 46.149658902052835], [7.293739904394584, 46.14963272086317], [7.293754804669506, 46.14952022293038], [7.293772144445382, 46.14946358227336], [7.293784534052867, 46.149438131654755], [7.293819453706581, 46.149278532252836], [7.293849546867367, 46.14922492157789], [7.29386928247891, 46.14917752303883], [7.293920655420078, 46.14907008384906], [7.293939169864832, 46.149038523689185], [7.2939510652113455, 46.14901397216335], [7.293958409864438, 46.14898751681342], [7.293973315562785, 46.148887550648936], [7.2939633818357485, 46.14886576836525], [7.293948074747455, 46.14884970059579], [7.29392099486401, 46.1488365320525], [7.293908080905957, 46.14882086286255], [7.293896410344912, 46.148799986717684], [7.29389193152823, 46.14876137148874], [7.293876557131652, 46.14869757197487], [7.293862982757454, 46.148672375647735], [7.2938514718927925, 46.14865962294117], [7.29382990271273, 46.14864755888889], [7.29381966702979, 46.14863711070203], [7.29381696226094, 46.148622471305295], [7.293820384519834, 46.14855740119566], [7.293816729889547, 46.1485203883327], [7.293783516697898, 46.14844845193284], [7.293765827041052, 46.14842310631103], [7.293757117377, 46.14840343955959], [7.293758053500886, 46.14838730257524], [7.293761980128004, 46.14837088159269], [7.293794305337437, 46.14832446090068], [7.293808025140046, 46.148299974466234], [7.293819042607492, 46.14827448603285], [7.29382439555376, 46.14824737107423], [7.293826717278928, 46.14819223105105], [7.293820998388962, 46.148148064497526], [7.293812177112969, 46.148126679789186], [7.29380273239185, 46.14811578306399], [7.293789489534337, 46.14807343354927], [7.293757108172718, 46.14805845861517], [7.2937685883976835, 46.14802921930497], [7.293778189322222, 46.14801077275268], [7.293792251967522, 46.14796000277491], [7.293805302362321, 46.14789051032917], [7.293803243271746, 46.14787625796978], [7.293779710568395, 46.14782412475118], [7.293782346149792, 46.14778711113199], [7.293791427651275, 46.147754865009716], [7.293783577975027, 46.14770406575538], [7.2937847569978915, 46.147669676999804], [7.293796737427883, 46.14764220182226], [7.293815659302285, 46.147617983109726], [7.293839041518957, 46.147600436031354], [7.293886725463711, 46.14757485161495], [7.293891722116979, 46.14752128045354], [7.2939006595568205, 46.147474793031776], [7.293899356937317, 46.1474344104184], [7.2938899651591385, 46.14737941701218], [7.293890463842933, 46.14734775306862], [7.293894900340051, 46.147319728579824], [7.2939062640898955, 46.147295392230745], [7.293931990218403, 46.14727725436051], [7.293974133373742, 46.14726167444714], [7.294011686551376, 46.14724446069303], [7.294049875918743, 46.14721679490421], [7.294092321124509, 46.14716574627323], [7.294126963644904, 46.14711896053954], [7.29405087510091, 46.14708522788913], [7.294022094971177, 46.14706457317446], [7.294014802791561, 46.147061820028306], [7.2939875795670845, 46.147059041237846], [7.2939994833715325, 46.14697242714635], [7.2940004071942175, 46.14694633207246], [7.294012978599088, 46.14689129510331], [7.294019256843293, 46.146852037414554], [7.294017301718556, 46.14680376415919], [7.294012109264019, 46.14679024625374], [7.2939874799024205, 46.14677100908744], [7.293954048740368, 46.14675694171268], [7.293934198711402, 46.14674592324803], [7.2939249838449465, 46.1467263903848], [7.293905136365112, 46.14669504186294], [7.293866936184346, 46.14666400270975], [7.293825885248929, 46.14661476124543], [7.293790201758989, 46.14656703852279], [7.293765567799441, 46.146525366213545], [7.293761553805265, 46.146501810300535], [7.2937571321227335, 46.146451572684825], [7.29377538065953, 46.14635456015771], [7.293779141287153, 46.14631788991762], [7.293776485067999, 46.14629001820191], [7.293761737332454, 46.14624890713863], [7.293733919894543, 46.146207158626886], [7.293669187293882, 46.14614282836648], [7.293650801941635, 46.1461069390535], [7.293601477051842, 46.146040263033186], [7.29354980239897, 46.14596171832218], [7.293542894407273, 46.145936377672975], [7.293547771789827, 46.14591764594283], [7.293545409348093, 46.14588638304001], [7.293527803257749, 46.14585921149592], [7.29350677172309, 46.145835309899994], [7.293499234851936, 46.145812865094314], [7.2935001777910635, 46.14579420940607], [7.2935129224977295, 46.145771224122285], [7.293524804389727, 46.14573701138442], [7.29352352604711, 46.145673204334415], [7.293504179267679, 46.14561473514788], [7.293493572754892, 46.14557394461298], [7.293503946956258, 46.145513184122684], [7.293498693614811, 46.14545973486185], [7.293480890220215, 46.14541943892293], [7.293467311929776, 46.14537700789263], [7.293398735620188, 46.14525568711383], [7.293394393670903, 46.14521478808484], [7.293404435823907, 46.145181346761014], [7.293427156785077, 46.14514945102716], [7.293438915362896, 46.14512264170494], [7.293471330588587, 46.14508556797036], [7.293473536487317, 46.145073741597805], [7.293464641704572, 46.14505098923386], [7.293462777728975, 46.145031826300375], [7.293469906642905, 46.14493137354349], [7.293477114286914, 46.14492690309774], [7.293511228244696, 46.14492713613364], [7.2935110705774, 46.14491357976901], [7.2934841824245265, 46.14489733520264], [7.293472174172127, 46.14485326843422], [7.2934689064234535, 46.144831548972284], [7.2934737814649155, 46.14480891344433], [7.2934791124160006, 46.144794842329084], [7.293488829219825, 46.14478128961757], [7.293491644790229, 46.1447689513567], [7.2934859067486215, 46.144722454722945], [7.293473505619511, 46.144689766793896], [7.2934705313182215, 46.144674443543416], [7.293471244250886, 46.14466435138448], [7.293493596208072, 46.14463483899859], [7.293511121905535, 46.14460498768883], [7.293530851440423, 46.1445833971885], [7.2935541483826, 46.14454901066364], [7.293577955884983, 46.14452692171982], [7.293601608670571, 46.14451426891994], [7.293632797203082, 46.144500231515934], [7.293686214503029, 46.14446388674034], [7.2937045275801475, 46.14444439925755], [7.293718138306944, 46.144426614925365], [7.29372611484035, 46.14441053247277], [7.293723722811604, 46.144395237004794], [7.293695762378319, 46.14435888550283], [7.293681770407482, 46.14433542479075], [7.293643595497643, 46.144300463588806], [7.29363197196686, 46.144286676310784], [7.293671587906905, 46.14425705096538], [7.2937012093598, 46.14423847751327], [7.293728450246647, 46.14421488173762], [7.293770144551815, 46.144196926578836], [7.2937995911624975, 46.14418088093519], [7.293821662120605, 46.144164402879525], [7.293872285021003, 46.14414204253518], [7.293895628564703, 46.14412869626589], [7.293906274360537, 46.14411613432064], [7.293936502798206, 46.14409323507828], [7.293953274214962, 46.14408874097601], [7.294000143052562, 46.144071593308546], [7.2940377324302395, 46.14404971097184], [7.294058092656767, 46.144029218513644], [7.2941033420779595, 46.14399317761231], [7.2941110052164015, 46.14397799399077], [7.294118637086744, 46.14394552115986], [7.294142223022168, 46.14389011302694], [7.294143755859983, 46.14386867895717], [7.294162867513632, 46.14385533643133], [7.294188502921858, 46.14384143522774], [7.294206475095881, 46.14375106347024], [7.2942154609468295, 46.14372997135015], [7.294223968557312, 46.14372809326603], [7.2942814115538175, 46.14372498311033], [7.2943081801094225, 46.14370846610188], [7.294322336693641, 46.14369441516663], [7.294363307155397, 46.1436466741963], [7.294381561656647, 46.14362953432289], [7.294419348819396, 46.14358178074251], [7.294456044648983, 46.143531013211614], [7.294487546166359, 46.143481947901606], [7.29450266726736, 46.14345083406262], [7.294515894876441, 46.143440614267554], [7.294525341456135, 46.14343601169434], [7.294560750114925, 46.1434356703037], [7.294587347980582, 46.14343933868738], [7.294638823582916, 46.14345601065416], [7.294696925187071, 46.14337012234112], [7.294762752675963, 46.14329419385216], [7.294786523539533, 46.14328539066305], [7.294813125069184, 46.143277904456404], [7.294995739753598, 46.14323937623081], [7.295057116705654, 46.143221400682975], [7.295072710557056, 46.14320696478067], [7.295086564932523, 46.14318478149107], [7.2950930332362365, 46.14316128437096], [7.295093637135584, 46.143138571522215], [7.295098018047055, 46.14311163542432], [7.295113136637567, 46.14307626606316], [7.2951481556046565, 46.143051968793664], [7.2951769043641965, 46.14303993351216], [7.295206571360802, 46.143023275821506], [7.295262116290265, 46.142983919207396], [7.295328654617187, 46.142883929945846], [7.295447958294721, 46.142723945362775], [7.29549871502887, 46.14267482315588], [7.295529145836906, 46.14265310202663], [7.295558897761324, 46.14262385985126], [7.295573672097452, 46.1425962805506], [7.295585125958514, 46.14256661895246], [7.295599853844968, 46.14249303661969], [7.295599853868473, 46.14246369327006], [7.295590418069471, 46.14243005588206], [7.295575487884487, 46.142399182085846], [7.295528293258498, 46.1423397151981], [7.295518708953407, 46.142318185523386], [7.295512904581887, 46.142291326238], [7.295513029689281, 46.142273371235895], [7.295509364627684, 46.14225481770414], [7.295494496547835, 46.1422249694943], [7.295480264756331, 46.142204090662844], [7.295412729034868, 46.14215848686099], [7.295383165660649, 46.14212152219203], [7.295381260381077, 46.14211284802768], [7.295384701639874, 46.142103479053915], [7.295415100496918, 46.14208878325152], [7.295426115385982, 46.142078245511286], [7.2954443450373425, 46.142050544428294], [7.295477173811593, 46.1419879951657], [7.295504462120997, 46.1419162452924], [7.29551541641175, 46.14185516130133], [7.2955216317208915, 46.14177054782158], [7.295521683169966, 46.141707003119286], [7.295512449632656, 46.14164094583516], [7.29550241498968, 46.14159403919938], [7.295482606589532, 46.14154350390528], [7.295420656754373, 46.14144621897915], [7.295402907739977, 46.141404825727165], [7.295387680117018, 46.141344661913166], [7.295382207707487, 46.14130490343103], [7.2953803548576595, 46.14126173125491], [7.295382260412696, 46.14120672585512], [7.29534938029109, 46.14113718393538], [7.295304714526358, 46.1410761638706], [7.29524602040743, 46.14101049323894], [7.295187728170809, 46.1409397406629], [7.295058232894057, 46.140801501475984], [7.295058252482091, 46.14079410711662], [7.295064450232393, 46.14077981211543], [7.295076117979629, 46.14076702642623], [7.2950989978472425, 46.14074736460794], [7.295179427044951, 46.140712420867445], [7.2951956902642365, 46.14069904729987], [7.295206122317304, 46.14067396303754], [7.295207770326076, 46.140638036769495], [7.295203308298125, 46.14058331993552], [7.295195295367776, 46.140559903317495], [7.295152026312582, 46.14052389270775], [7.2951202180417845, 46.140509225286294], [7.295088726408731, 46.14049715797415], [7.29505815069721, 46.140491001711396], [7.295029802266597, 46.14048913906136], [7.294977194433981, 46.14047592927351], [7.2949624070083186, 46.14046470176621], [7.294918089021809, 46.14040456320525], [7.294903221709735, 46.14037466970099], [7.294867628559556, 46.140333019184204], [7.294638363552594, 46.1402333591403], [7.293850820843066, 46.13993235087159], [7.293710589658333, 46.13977042935984], [7.293341087616968, 46.13969176976462], [7.292831035470515, 46.139523700868104], [7.292841104855378, 46.1393599055107], [7.292838352074228, 46.139334588509435], [7.292844565517151, 46.1392329468163], [7.292842901423093, 46.13917811659425], [7.292820823062742, 46.13912614806277], [7.292790519375759, 46.13907237855759], [7.292773626523416, 46.13903121983613], [7.29275642376123, 46.13899944312375], [7.29275753252853, 46.13898176832916], [7.292783303183658, 46.13893616729637], [7.292788840776543, 46.13891730187722], [7.292787570375495, 46.13890372592944], [7.292764860413284, 46.13886515038896], [7.292765017543896, 46.138854859671966], [7.292779569394026, 46.13883310940473], [7.29279268809555, 46.13880536628018], [7.292792241893551, 46.13878369551979], [7.292784175163351, 46.138761520055915], [7.292764608483607, 46.13872344344602], [7.2927613032270155, 46.1387014720269], [7.292767625532118, 46.13867951312265], [7.292792607805087, 46.138614336933976], [7.292807166625125, 46.138561147191844], [7.2928105024602825, 46.13852858776459], [7.29280766122783, 46.13848335473329], [7.292801849106446, 46.13846008476534], [7.292787001568148, 46.13844278512819], [7.292776181329032, 46.13842441122583], [7.292780136225257, 46.13840696489676], [7.292784576539271, 46.13824778524589], [7.29278838313356, 46.13821338227661], [7.292783562509718, 46.13818235047578], [7.292771981479215, 46.13815340583824], [7.292760864153865, 46.13813484259532], [7.292741565867678, 46.13812213390265], [7.292623568333732, 46.138063095537646], [7.292606258650859, 46.13805187336902], [7.292608035821314, 46.13803591776278], [7.292600809990155, 46.138033038712386], [7.292590887902206, 46.13803192836701], [7.292562356443368, 46.138036146173654], [7.292543637719536, 46.13803403482348], [7.292523347386588, 46.13802449105195], [7.292505270238359, 46.13800999357935], [7.292444532358599, 46.13792744355416], [7.292431830973675, 46.137906206800764], [7.292416390647694, 46.137816339571394], [7.292418602927119, 46.137783023066795], [7.292427454901285, 46.13773007815209], [7.292424305489362, 46.13769853618988], [7.2924012854743046, 46.137631661421366], [7.292354252542157, 46.13758231381294], [7.2923355855281, 46.13755156067381], [7.292316442893057, 46.13751006620049], [7.29230295886633, 46.13748635445076], [7.292267676717443, 46.13744128556867], [7.292238496523998, 46.13739355288867], [7.292230178741619, 46.13734949974704], [7.292218262195004, 46.137329945938546], [7.292163380481062, 46.13727854576042], [7.292113819181419, 46.13724557554269], [7.292060185784848, 46.137206266724625], [7.292034462869785, 46.13719136372957], [7.291997451020117, 46.13716396870763], [7.291963892968962, 46.13713221524572], [7.29192813909501, 46.137108581961115], [7.291916570169167, 46.137060998095194], [7.291910984408492, 46.1370163996533], [7.291914464184076, 46.136978550741915], [7.291928646430478, 46.136945087829076], [7.2919572401560835, 46.13692252853314], [7.291946614886463, 46.13688485902655], [7.291921553575254, 46.13684062186653], [7.291889885033269, 46.13680411232882], [7.291845340446839, 46.13678225767723], [7.291810265169776, 46.13671363832929], [7.2917864785586515, 46.13665751975577], [7.291767050326725, 46.136626180824216], [7.291736008666339, 46.13659245188836], [7.291698695141894, 46.1365573205532], [7.2916462891901155, 46.13652394168362], [7.2916203013376775, 46.13648289726117], [7.291618454516492, 46.13644820790581], [7.29160597702238, 46.1363828028451], [7.291556177610113, 46.13629493189858], [7.291495055685727, 46.136212011770226], [7.29140194799486, 46.13610486033765], [7.291316981249785, 46.136020919029605], [7.291237944910296, 46.135968874748116], [7.2911764498140545, 46.13593292844466], [7.291110555937541, 46.135906286852844], [7.2910458988768765, 46.135891134154], [7.290978406286259, 46.13589084726222], [7.290801958735671, 46.13590111234566], [7.29074671679662, 46.135902019969734], [7.290709044772294, 46.135894243053855], [7.290679865507105, 46.135880135425374], [7.290672045880735, 46.13586268271061], [7.290671457056675, 46.13582720348291], [7.290680615071101, 46.135790558840185], [7.290674674558661, 46.135767351540075], [7.290662426761042, 46.135760408798234], [7.290637019388963, 46.13575343059929], [7.290606265904504, 46.13574725512726], [7.290595921467445, 46.135735133452435], [7.290595317326484, 46.13571473072451], [7.290604772257521, 46.13568303385021], [7.290603897292144, 46.13563863963382], [7.290599233695775, 46.1355980095808], [7.290577300400666, 46.135569833393696], [7.29054372969494, 46.1355386733346], [7.290474646638023, 46.13548627330986], [7.290446351960844, 46.1354516569824], [7.290416154860188, 46.13540774584237], [7.29039981546161, 46.13536880065957], [7.2903904563910125, 46.13528995163316], [7.290375636498379, 46.13523952107555], [7.2903211800533105, 46.135190072293966], [7.290282978079305, 46.13516340388436], [7.290242419736498, 46.13514197675929], [7.290198692772636, 46.13512470132079], [7.290184190804442, 46.1351140943338], [7.290170757264147, 46.13504418111307], [7.2901648195394895, 46.13500128285657], [7.290152550790903, 46.13496430381386], [7.290132711795918, 46.134937011947386], [7.290132751186465, 46.1349133000285], [7.290153571774409, 46.13489870962476], [7.290180714829966, 46.13487652656063], [7.290202686959867, 46.13485729620689], [7.290212335868698, 46.13484456229783], [7.290214928875871, 46.134823822017296], [7.2902114913366205, 46.13477034800536], [7.290217660808756, 46.13476187340151], [7.290253404306214, 46.13474593564876], [7.290287809196625, 46.13470848764997], [7.290347180869608, 46.13462607701773], [7.290388384699214, 46.13458177449296], [7.290447123403313, 46.13452262590531], [7.290482838125706, 46.13450296398532], [7.29049929699265, 46.13448879987658], [7.290500179731424, 46.13445937658066], [7.290477305858221, 46.13443468050152], [7.290449077288343, 46.13441864904646], [7.290409707728001, 46.13440269273659], [7.2903645584634615, 46.134375745092164], [7.2903506179341395, 46.13436333970021], [7.290339993296245, 46.1343354932591], [7.290288380350167, 46.13426379275457], [7.290278530926175, 46.13424585153143], [7.29027980509527, 46.134234177001304], [7.2903016968291325, 46.134211078267064], [7.290309119272986, 46.13419387952043], [7.290308998244406, 46.13417666188769], [7.290297449366888, 46.13415089229962], [7.290251727891248, 46.13410137359251], [7.290234361047544, 46.13407856459062], [7.290205997518127, 46.13405987899347], [7.290204614019144, 46.13404532223426], [7.290211880884008, 46.13402346338772], [7.290212730330298, 46.134001497286626], [7.290211036483849, 46.13399160887908], [7.290175918467857, 46.13396833571172], [7.290125232457253, 46.13395050196644], [7.290109409093965, 46.13393582703757], [7.290090935779714, 46.13390603595983], [7.290061636711672, 46.13386522893586], [7.289946324918093, 46.133727433791655], [7.289881314014218, 46.133639478425195], [7.289853879857842, 46.13361232016546], [7.289831631537983, 46.1335861672707], [7.2898280644911315, 46.13356578746652], [7.289829031995775, 46.13354799545102], [7.289835840746569, 46.13351397411646], [7.289833221396302, 46.13348311604627], [7.289803182820549, 46.13341976555624], [7.289746848328773, 46.13331542327668], [7.289745929545635, 46.13329662127375], [7.289750969211438, 46.13328486167316], [7.289770468496074, 46.13327066550281], [7.289786037776685, 46.13326465920858], [7.289798749007577, 46.133253422759466], [7.289806948188812, 46.133236117229984], [7.28981199978499, 46.133215362308135], [7.289808036435578, 46.13315097608762], [7.2898000572790345, 46.133135331258835], [7.2897930246405, 46.13311424530603], [7.289802194921707, 46.13307312975654], [7.289800022767052, 46.13306313280572], [7.289789995186655, 46.13304421067564], [7.289789124503807, 46.13300793046083], [7.289782703283942, 46.1329904077233], [7.289773631598134, 46.13297683944535], [7.289771150591034, 46.1329615076476], [7.289771179273289, 46.132941627381946], [7.289774358105401, 46.1329195834167], [7.289771872081505, 46.13290138207158], [7.289764516606972, 46.1328894981658], [7.2897398821726265, 46.13287016087139], [7.289689898689939, 46.132823372040576], [7.28966718708941, 46.13279663447308], [7.289659056988628, 46.13277486388431], [7.289657036380634, 46.13276160201056], [7.289672768817954, 46.13273859444237], [7.289700440065259, 46.132716988133495], [7.289765804942927, 46.1326850872522], [7.289773197564751, 46.132674113788504], [7.289775941711971, 46.13263130741399], [7.289780534489479, 46.132603319567465], [7.289789205224039, 46.132569795788996], [7.2898040767647965, 46.13254450196792], [7.289840387133746, 46.13251488301967], [7.2898558772681, 46.132499871855025], [7.289855270580524, 46.13248027787034], [7.289837702992259, 46.13245076701131], [7.289808454055358, 46.13241569947672], [7.28977448044425, 46.132381399374054], [7.289737091087072, 46.13232355336851], [7.289725180555434, 46.132293069498566], [7.289730590586269, 46.1322689415476], [7.289762922895843, 46.13218965296969], [7.289775581621286, 46.13216434691625], [7.2897800625581075, 46.132129746396664], [7.28982764604974, 46.13207049296091], [7.289847640621454, 46.132040681123186], [7.2898724628564695, 46.13198694819572], [7.2898835650694656, 46.13197252502371], [7.289910439422487, 46.13196289048308], [7.289956897474126, 46.13195524284439], [7.289971849955891, 46.131923831728706], [7.290002882191959, 46.13189837045991], [7.290046569101467, 46.13187273728046], [7.290095605573233, 46.13184968397756], [7.2901618189513515, 46.13179086883049], [7.290209249080277, 46.131773147518466], [7.290251646234929, 46.13175067001836], [7.290260886973702, 46.13172616946919], [7.290254956094292, 46.13170441050556], [7.2902325983345895, 46.13168540017823], [7.290219375245886, 46.131671341294606], [7.290242560219156, 46.1315823621555], [7.290275450194367, 46.13149759640301], [7.290305599208966, 46.131482721800644], [7.290358746503004, 46.13144196167344], [7.29040848761717, 46.131383520895746], [7.29044979291132, 46.13131566004933], [7.290507545235631, 46.13116683487519], [7.2905465737816835, 46.13115530950866], [7.290598803118034, 46.13114240689481], [7.290685947144855, 46.13112720285616], [7.2907950975473215, 46.13111299123094], [7.290837295729101, 46.131092051567975], [7.290899450653181, 46.131026385301816], [7.290959751470784, 46.13095729805674], [7.291006477464064, 46.130884993104885], [7.291111628743108, 46.13080424384361], [7.291158767810796, 46.13075049474006], [7.291178068499674, 46.13068070638372], [7.291152399775379, 46.130623425391015], [7.291081199040005, 46.13052886999222], [7.291084772478821, 46.13050901262887], [7.291101875772369, 46.130490531482316], [7.291205972465643, 46.13045942735644], [7.291260743663323, 46.13043461798146], [7.291310770263205, 46.130370483237414], [7.291353671435945, 46.13029555374877], [7.291372177606232, 46.13025123032004], [7.291423439723049, 46.13019402323752], [7.2915019427815135, 46.13012510367667], [7.291647678616626, 46.13000691540884], [7.291770402646017, 46.129886366355784], [7.291885629370841, 46.129705906352505], [7.291926780432029, 46.12960298872985], [7.291939564999015, 46.12949276578379], [7.291947495620137, 46.12939773028127], [7.291956425765911, 46.129330132544034], [7.291942221182969, 46.12926293589701], [7.2919225768277816, 46.129212067531796], [7.291895903354939, 46.129176914172774], [7.291875237713124, 46.12912572044043], [7.291842699029457, 46.129072981720256], [7.291818341195659, 46.12902828657934], [7.291777876305491, 46.12897382833595], [7.29176495020572, 46.12895033293421], [7.291733545578454, 46.128908849049814], [7.291722792472833, 46.12888078664685], [7.291721140011414, 46.12876968004235], [7.2917244306484035, 46.128734745866566], [7.29173417069104, 46.128692758783885], [7.291747919197477, 46.128646764647904], [7.291729168197855, 46.12862441328853], [7.291700416050888, 46.12859726288158], [7.291684753469408, 46.12857147001962], [7.2916846038542085, 46.12855026710622], [7.291689955441737, 46.12852336831728], [7.291704141045974, 46.128502193316415], [7.291717772094281, 46.12847090688899], [7.291712100782666, 46.12845352916398], [7.291682496124569, 46.12841645585885], [7.291693505847454, 46.12836873918392], [7.291687747763516, 46.12832119865078], [7.291685363243366, 46.128270028150226], [7.291676144727741, 46.128239089133714], [7.291659394473484, 46.12819459305913], [7.291593192332945, 46.12807518919565], [7.291536650215429, 46.12801479113441], [7.291483991107555, 46.12796335776117], [7.291399651407912, 46.12791056970186], [7.291341026543823, 46.12787878372252], [7.2912737564685735, 46.12777172863836], [7.2912512855546305, 46.12770908956698], [7.291223286165046, 46.12765280338371], [7.291171843125374, 46.12757299902041], [7.291112664154653, 46.12752152069146], [7.290964376653231, 46.127420449612636], [7.290884433486345, 46.127368763614015], [7.290743010182615, 46.127321763005405], [7.290653784592514, 46.12728649887587], [7.290584734237933, 46.12724456876118], [7.290478844516539, 46.12719074297221], [7.290407252296875, 46.12716543360813], [7.29031040507337, 46.12716416321866], [7.290230441494446, 46.12715336160729], [7.290164016636835, 46.127130928578254], [7.290031902284304, 46.12703024576805], [7.289990513658972, 46.12693160807223], [7.289950949766919, 46.12688953741565], [7.289918958726087, 46.126789121804705], [7.289788897077039, 46.12673756616256], [7.289711722126077, 46.12669129758246], [7.289702197120083, 46.12664510083977], [7.289667391942097, 46.12660854104181], [7.289649777543944, 46.12653531052591], [7.289538740381259, 46.12649130083351], [7.289484884367184, 46.12645278211313], [7.289431036444367, 46.12641116822238], [7.289317649884272, 46.12630880890216], [7.28925567789458, 46.12624363380105], [7.289153863907932, 46.126115607099045], [7.289128993874715, 46.12606554019082], [7.289134692390162, 46.126002191321206], [7.2891459057814325, 46.1259372926664], [7.28914986910164, 46.125898086057774], [7.289158132278638, 46.125861790453854], [7.289162070848114, 46.125826829603746], [7.289179697432729, 46.125768120142915], [7.289205277083306, 46.1257198736993], [7.289209685448105, 46.125664628342356], [7.289209988466745, 46.125620198799346], [7.289214707956678, 46.12554586493498], [7.289205336669147, 46.12551964912727], [7.289142283605006, 46.125457802039875], [7.289080086012466, 46.12540942220129], [7.289066553155036, 46.12539085518683], [7.289064158472287, 46.12537252782312], [7.289068404496252, 46.12533382462249], [7.289078840051531, 46.12528389484289], [7.289103596969956, 46.125200897506836], [7.2890874267741275, 46.12514434830703], [7.289073687749355, 46.125032526792396], [7.289063619448104, 46.12497301757051], [7.289065214561242, 46.124915475407605], [7.289069169579111, 46.12487476721172], [7.289048391343307, 46.124805060205496], [7.289059354968035, 46.12477003688489], [7.289060731225194, 46.12474948377816], [7.2890519571889145, 46.124726973900145], [7.289021151065468, 46.124695223143895], [7.2890062807989295, 46.124664483472635], [7.288985515927571, 46.12459948158935], [7.288967656641057, 46.124559327550266], [7.288979877128832, 46.12451882732852], [7.289007763670722, 46.12447854595268], [7.289024862126802, 46.1244472461306], [7.289039306810674, 46.1243979431242], [7.2890355701268845, 46.12435526409628], [7.289019127902895, 46.124285186241], [7.2889362153319395, 46.12418721423667], [7.288943336657361, 46.12412889672969], [7.288930442182418, 46.12408073509837], [7.288864568174527, 46.12401038285143], [7.288793631788079, 46.12396018250095], [7.288710357899056, 46.12392269494329], [7.288707572032506, 46.1238774702222], [7.288709054320986, 46.12383735196049], [7.288705240476767, 46.123808381101625], [7.288663126012661, 46.12376820459753], [7.28865012248461, 46.123689313412115], [7.288654305015173, 46.12360808778978], [7.2886425003728705, 46.123530953121616], [7.288648035942199, 46.12348007277155], [7.288637474198436, 46.12340256181511], [7.288646870476333, 46.123373006023414], [7.28864914867597, 46.12335383054206], [7.288638233223128, 46.12332934803113], [7.288602840688948, 46.12329583716443], [7.288523507522686, 46.123265200282155], [7.288488672658686, 46.12318921308669], [7.288467639332602, 46.12316530179856], [7.28837385184919, 46.12308963181204], [7.288405967808416, 46.12301236701328], [7.288421002942155, 46.12296462947678], [7.288437801702282, 46.122929416372784], [7.288454789422687, 46.12291474956542], [7.288524747912317, 46.122873751931664], [7.288575575145036, 46.122846024044335], [7.28867777821473, 46.12275572852964], [7.288759812285356, 46.12269849199844], [7.288830827306536, 46.12263556480422], [7.288905575999387, 46.12256500527819], [7.28908310744562, 46.12240944097184], [7.289061401874598, 46.122343060314925], [7.289061177677758, 46.122283562901565], [7.289056629976785, 46.12222522977633], [7.289044665120479, 46.122177843004884], [7.289030421185437, 46.12214534083912], [7.289035743616588, 46.12208231567995], [7.288978207687714, 46.12200063035862], [7.288939363509527, 46.12192893744278], [7.2888910916744925, 46.121889148768986], [7.288808526838264, 46.12178784652459], [7.288792839420899, 46.121744179091785], [7.288692129522993, 46.12159960293649], [7.288655151547589, 46.121522245185304], [7.288647880877029, 46.12145686421737], [7.288623594043645, 46.121314144636415], [7.288559153203149, 46.121260238364684], [7.28852264340146, 46.12120578500233], [7.2884883727902405, 46.12118811694756], [7.2884481227954785, 46.12114363463326], [7.288387231884124, 46.121111069882375], [7.288345932722084, 46.121085565977054], [7.288258603846112, 46.12101010287135], [7.288228723611724, 46.12097659900654], [7.288204275459114, 46.12095756761621], [7.288054869359352, 46.12089025128943], [7.288005405690712, 46.120846925147], [7.287973089967169, 46.12081008948001], [7.287925761855988, 46.120766379228975], [7.287889051557539, 46.12074695340445], [7.287792617472083, 46.120703572991175], [7.2877787031916625, 46.120646108843516], [7.287760804781235, 46.12053715649838], [7.287753850114223, 46.120512175505105], [7.287462257456736, 46.12034606684723], [7.287418119859535, 46.120318319154066], [7.287394254933702, 46.1202898430926], [7.2873885223063075, 46.120272033193075], [7.287410397436816, 46.12020241933174], [7.28742347218994, 46.12017129462666], [7.287428447399234, 46.120098950015226], [7.287448541362983, 46.12001869237577], [7.2874838230449175, 46.11991504944197], [7.287562219336396, 46.11972356057989], [7.287370381387665, 46.119695234260895], [7.287142150736042, 46.119645241638075], [7.286991158716293, 46.11961446042872], [7.28679997941345, 46.119572982789016], [7.286610842795225, 46.11953673438418], [7.286402456236927, 46.11953343759234], [7.2861890902117885, 46.11954374425553], [7.285994843378065, 46.119549398874994], [7.285874652908635, 46.119541534448906], [7.285530687081696, 46.11952455896491], [7.285327833670047, 46.11952243696548], [7.28505405385163, 46.1195383161598], [7.284817289222807, 46.11958380429446], [7.284731681411649, 46.11960607654927], [7.284644570139733, 46.11962486566163], [7.284547501711142, 46.11954214336288], [7.284444559546547, 46.11940526857673], [7.284313505772822, 46.11925121850019], [7.284125951328738, 46.11911966173068], [7.283907627115382, 46.11901417638494], [7.283747941739649, 46.118953569082926], [7.283604722269398, 46.11890700822455], [7.2831646119866775, 46.11878171342144], [7.283120551462761, 46.11871019143483], [7.283079190608652, 46.11865815784467], [7.282994193529499, 46.118585401562214], [7.282859818915681, 46.118459610753916], [7.282794512586039, 46.11839039834584], [7.282682183577643, 46.11829949510077], [7.282617146852815, 46.11823572564799], [7.282489494149045, 46.118125334227145], [7.282408126280085, 46.11806835096526], [7.282335607727417, 46.11802891255724], [7.282303354119691, 46.11800841162444], [7.282249359485087, 46.11796451062254], [7.282208702761473, 46.11788854026537], [7.282171925655229, 46.117844275486775], [7.282074646515886, 46.11776099392402], [7.281965906345782, 46.11769578618243], [7.281894320488596, 46.1176561508474], [7.28185466712694, 46.11763603522541], [7.2818561351097655, 46.1175801657362], [7.281842282648909, 46.117503647880866], [7.281607903025616, 46.1173626841582], [7.281469815715745, 46.11731924010465], [7.281350824158382, 46.1172744542937], [7.281261010181443, 46.11724919428968], [7.281066567134131, 46.11720486994321], [7.280865904276265, 46.11708901344734], [7.280780351985059, 46.117030907767095], [7.28073336946028, 46.116987168193816], [7.28072590729674, 46.11692454872763], [7.280693740193802, 46.11681275195247], [7.280645963205547, 46.11674882540153], [7.280584059930814, 46.11667201523916], [7.280534720593232, 46.11661606542025], [7.280487786083878, 46.11657373790224], [7.2804207857840035, 46.11654151111042], [7.280405614636959, 46.116487750207234], [7.280271972644311, 46.11641160367963], [7.280180398797216, 46.11636530946587], [7.28007673684798, 46.11633904906881], [7.280002766930166, 46.11627974479575], [7.279930563050008, 46.11624029640858], [7.279803301003249, 46.11619005661023], [7.279643674230594, 46.116144727096184], [7.2795257320577775, 46.11612315981694], [7.279416509130075, 46.11611006060181], [7.279307338752888, 46.116114151257115], [7.279236459862965, 46.11612137307082], [7.279100770623059, 46.11613949536526], [7.279001849936952, 46.11615939663058], [7.278862627987397, 46.11619120518401], [7.278738905037791, 46.11614756343238], [7.278610072824569, 46.1160864268149], [7.2785167522793115, 46.11602800347347], [7.2784391593273154, 46.11598749430057], [7.278329747048119, 46.11592503575066], [7.278228556958747, 46.11586410892838], [7.278066382996568, 46.115784447174875], [7.277913706794837, 46.11571251718101], [7.277734214356142, 46.11563291183129], [7.277556619316034, 46.11555925524644], [7.27724205404771, 46.11539595067236], [7.277240366387104, 46.115350576066646], [7.277106584368317, 46.11529780508474], [7.2770684640970105, 46.115285282330824]]]]}}]}