{"type": "FeatureCollection", "features": [{"type": "Feature", "properties": {"bfs_nummer": 614}, "geometry": {"type": "MultiPolygon", "coordinates": [[[[7.68883074987942, 46.86160506557241], [7.688835779402847, 46.861598029244256], [7.689267544488158, 46.86166898729107], [7.6898309723693625, 46.86203471028678], [7.690229753141488, 46.86225352100225], [7.690515240772876, 46.86243868432985], [7.690845745495358, 46.86252675189018], [7.69092562175292, 46.862573495963844], [7.691109478068973, 46.86261061123135], [7.691447307764925, 46.86261303363642], [7.691938720014838, 46.86240257395581], [7.692125560085778, 46.86229591715378], [7.692437428280703, 46.86217438385824], [7.69270213183962, 46.86205489686902], [7.693099416187568, 46.86196500679091], [7.693384316662614, 46.86190455491153], [7.693617197972663, 46.86189542829288], [7.693951892434481, 46.86191808915358], [7.694201104890418, 46.86197337719792], [7.695569506495895, 46.86218587842296], [7.697106194654221, 46.862686814496136], [7.697920939577342, 46.86301440432177], [7.6991371739346794, 46.863431272696516], [7.699239011438748, 46.86345870201159], [7.699431899075619, 46.86349303063104], [7.699787000610393, 46.86356463512988], [7.699972554788237, 46.86359564220554], [7.700273018031115, 46.863639493222394], [7.700490059865735, 46.8636593722425], [7.7006993239198795, 46.863714188574065], [7.701013953383927, 46.86376906028342], [7.701079857945374, 46.86386400793172], [7.701359455693762, 46.86410155471163], [7.701426963093932, 46.864269603618204], [7.701526447401988, 46.86436800957873], [7.701868474634369, 46.864343927696], [7.702148837715933, 46.86432042727726], [7.702438518217754, 46.86426058161103], [7.702600400457971, 46.864237253157754], [7.70265176096417, 46.86411974570631], [7.702864186499433, 46.864023860913115], [7.7031296141029415, 46.863915754538574], [7.703265398155204, 46.863876788127335], [7.703950845957286, 46.86402313313231], [7.704221675538574, 46.86410171935094], [7.704511682861424, 46.8642207847529], [7.704803424393661, 46.86433488893126], [7.704670475434375, 46.86457903545963], [7.704568620509213, 46.86474859176156], [7.704448501689717, 46.86493806978036], [7.704747103823843, 46.865003826111355], [7.704959171669235, 46.865061398932774], [7.705063212764184, 46.86507169090267], [7.705176681380855, 46.86510277595694], [7.705402075017784, 46.86514710254737], [7.70551404032533, 46.86516319556048], [7.705770258129337, 46.8651895668813], [7.706000914959896, 46.86519484007018], [7.706299710124561, 46.86524606369377], [7.7070603071636485, 46.864735850093105], [7.707408550066864, 46.864674900036505], [7.708024445048438, 46.86456156093683], [7.7085015814039926, 46.86447726724404], [7.708998254996035, 46.86445266354989], [7.709424620906431, 46.86462995237459], [7.709572223940715, 46.86479857971042], [7.709742682644124, 46.86481984617494], [7.71021015212597, 46.86494146166283], [7.710451658834804, 46.86481994699849], [7.710773057589178, 46.8647783452733], [7.711062525847031, 46.86475854245774], [7.711468794142809, 46.864686493611174], [7.711504769916622, 46.86467634215847], [7.711643904094594, 46.86480009244341], [7.7120237972965215, 46.86518610342342], [7.712120144350151, 46.8652487690275], [7.713215019158504, 46.86548134446682], [7.713324324584659, 46.865479274726795], [7.713393647226364, 46.86540622827694], [7.713450474060638, 46.8653080696602], [7.713469339398284, 46.86520104259401], [7.713448379696459, 46.86510289938296], [7.713399317440311, 46.864995090439905], [7.7132627514739545, 46.864792049988836], [7.713157553703887, 46.864593342158216], [7.713114854523747, 46.86447802483222], [7.7131022697389335, 46.86437084828683], [7.713114414786352, 46.864262668066885], [7.71315346126021, 46.86415759878176], [7.713225961500356, 46.864057243848606], [7.713378648850399, 46.86386991821222], [7.713425834651942, 46.86378722758432], [7.713453557161159, 46.863699249324], [7.713917736821611, 46.86377783258785], [7.713987676459772, 46.863749229997225], [7.714024608829075, 46.86372631090142], [7.714043858136492, 46.863707680246], [7.714106681083053, 46.86363123920108], [7.714123052594415, 46.863603826853236], [7.714135655330118, 46.86357548794027], [7.714144513444238, 46.86354579079288], [7.714149198913009, 46.863515662992924], [7.714147550208393, 46.86343693847179], [7.714153505027635, 46.86341656740879], [7.714161991411521, 46.86340396239411], [7.7141883762956995, 46.86338306540997], [7.714312909836563, 46.863315516508614], [7.714452331599229, 46.86316665760919], [7.71462956083787, 46.863081440937194], [7.7150417507711655, 46.86308311006252], [7.715442338714035, 46.86296551813202], [7.715617120701375, 46.8628996368038], [7.715764317147031, 46.862643893351525], [7.7158190896702585, 46.862484201406176], [7.7159068823468475, 46.86232137268106], [7.715998238904135, 46.862165784719494], [7.716047617931241, 46.8619418788136], [7.716063579001853, 46.861794171840224], [7.716009519634449, 46.86154898053194], [7.716136171399839, 46.86153754675565], [7.71618615222622, 46.86153036408168], [7.716233929777057, 46.86151805945116], [7.716323790542291, 46.86148268783751], [7.716371804987292, 46.86146801676374], [7.716494577046151, 46.8614443758605], [7.716984288750757, 46.861248445367174], [7.717041259072913, 46.86122343475378], [7.717095013316668, 46.86119527468682], [7.717145198337244, 46.86116418168527], [7.717191461008383, 46.86113034548808], [7.717233501117123, 46.86109400097726], [7.717271005119005, 46.86105540064264], [7.717303738420006, 46.86101480606531], [7.717331466201713, 46.86097249639315], [7.717424279892597, 46.8608136632469], [7.717706231217764, 46.860514140772764], [7.7177459217105335, 46.86046233862724], [7.7178273069454875, 46.86034316729034], [7.717848622308725, 46.860306153274706], [7.717867742884925, 46.8602479515423], [7.717881395879846, 46.860116477735524], [7.717919990303345, 46.859979761412966], [7.717924220989579, 46.85994840203352], [7.717922906805922, 46.859932663331186], [7.717913541214533, 46.8599018409291], [7.7178860121461215, 46.85985569853462], [7.7178688641790565, 46.85981107816205], [7.7178521984445885, 46.85974054984642], [7.717847830431069, 46.85969223703724], [7.717849101189365, 46.85964385672736], [7.717855998898575, 46.859595678689], [7.71787730541034, 46.85952407747117], [7.71788060067266, 46.85949946700555], [7.717878282877959, 46.85947480713222], [7.717860536519119, 46.85941841337434], [7.717859356201408, 46.859385448273805], [7.717862051441288, 46.85936904316729], [7.718067451320348, 46.85881197914054], [7.718163036967914, 46.85867289291039], [7.718194065172903, 46.85861750451546], [7.7182129634901475, 46.85855960023765], [7.7182177149556255, 46.85853009266519], [7.7182198845615755, 46.85844520685358], [7.718224635186057, 46.85842817598208], [7.7182403014397325, 46.85840454290205], [7.718304015631813, 46.858355569733895], [7.71831510021773, 46.85834362381507], [7.718322663919744, 46.85833043611061], [7.718326816798119, 46.85830942166513], [7.718325227943496, 46.8581951931705], [7.718481235116679, 46.85797698023088], [7.718498548882035, 46.85793479449541], [7.71850286841614, 46.85791306002535], [7.71850264111343, 46.85786923514218], [7.718490628883335, 46.85782619459432], [7.718467259005777, 46.857785403613086], [7.718392132606599, 46.857679252566506], [7.718371204101853, 46.85763887837152], [7.718355279515044, 46.85759744857297], [7.718344465085622, 46.85755525056987], [7.7183388281631995, 46.8575125724533], [7.718342221410352, 46.857375473985876], [7.718335209539574, 46.85734584233265], [7.718319930937154, 46.85731771501833], [7.718278733534793, 46.85727055360837], [7.718254607581957, 46.85723815701588], [7.718238377428503, 46.857203510481746], [7.718230480256428, 46.857167521151446], [7.7182297303087335, 46.85714933427552], [7.718234656475923, 46.85711308865384], [7.718260876673021, 46.85704103465632], [7.718270494019598, 46.85701931422184], [7.71829717424074, 46.856977843365854], [7.718333261506095, 46.85693983983791], [7.718469318826645, 46.85683523291392], [7.718494513158654, 46.8568056932706], [7.718508255351665, 46.8567727903387], [7.718509651344018, 46.8567385684203], [7.7184380238723245, 46.85622212035059], [7.718440581387509, 46.85614394345263], [7.71844696269035, 46.856105077017], [7.718469801235498, 46.856028461168485], [7.71856696149888, 46.85577947449475], [7.718575601727341, 46.855680684095155], [7.718590622421635, 46.85563391634643], [7.7186023855830985, 46.85561134520844], [7.718634587760204, 46.85556780982182], [7.71865504189571, 46.855547232342786], [7.718703366786699, 46.85551011624217], [7.718757627681435, 46.855477249580346], [7.71879107130421, 46.855448085714414], [7.71896294690352, 46.85523215397772], [7.719091831045919, 46.85517640900211], [7.7191148526156, 46.85508721777671], [7.71900573932235, 46.854983354150946], [7.719077129082065, 46.85498413308593], [7.719078366974833, 46.85491451479642], [7.718911704029575, 46.85490182502934], [7.7188361100181275, 46.854879251442064], [7.718727061158127, 46.85485075972018], [7.718607444540167, 46.854802234009476], [7.718464869110014, 46.85472613939633], [7.7182046465752485, 46.85458153498724], [7.718262408315678, 46.854526018347414], [7.718278414055651, 46.854502366174174], [7.718247959872795, 46.854490953337596], [7.718272033869742, 46.854351601499495], [7.7182709874939475, 46.854286288845], [7.718257002771119, 46.85422170035881], [7.718209076211311, 46.854100137047865], [7.718198990755723, 46.854008598053234], [7.718188437576306, 46.853983751529654], [7.718162126551522, 46.85394940844163], [7.717875096623816, 46.85366341676039], [7.7178665309409595, 46.853650106515495], [7.71786173708586, 46.853635923485875], [7.717860901323445, 46.85362138001242], [7.717864026290785, 46.85360698880809], [7.717875906633348, 46.85358677454098], [7.717957458290623, 46.85348893213154], [7.717968230477293, 46.853467452066766], [7.7179727101726865, 46.853433582731824], [7.717965865530158, 46.85333982284944], [7.71796895772123, 46.85332163571216], [7.717976550639209, 46.85330406728676], [7.717988111038963, 46.8532879644103], [7.718011815529443, 46.853267199335825], [7.718092100455057, 46.85321872568462], [7.718103489702552, 46.8532075616848], [7.718114904842915, 46.85318872466491], [7.718118428178481, 46.853175313003504], [7.718122249424126, 46.853085188407846], [7.718137180781305, 46.85303384262742], [7.7183189625119715, 46.8526732251501], [7.718324988387571, 46.8526569378426], [7.718326221734643, 46.85263179276471], [7.7183218091579935, 46.852615279051506], [7.71831336208295, 46.85259952195492], [7.718262791520247, 46.852536759166284], [7.718257986053967, 46.8525203273969], [7.718259984361769, 46.85250362712298], [7.718268622771973, 46.852487954181086], [7.718316372982725, 46.85243905599664], [7.718350865871557, 46.85239506547153], [7.718371780931509, 46.852347222191554], [7.718376858304105, 46.85232245487684], [7.718380236558246, 46.85227093036535], [7.718392333902658, 46.85223198699356], [7.7185886414933735, 46.85188176024519], [7.718726601361617, 46.85172172866724], [7.7187768658954665, 46.851669882810604], [7.718804889954729, 46.85164537389823], [7.718866383145918, 46.851599563311076], [7.719074748117349, 46.85147152682684], [7.719146265176356, 46.85141945780843], [7.719179267946317, 46.851391743337686], [7.719239462303818, 46.85133331506961], [7.719328140903735, 46.85123807131535], [7.719352263243134, 46.85120714925121], [7.719369202112292, 46.851174058884936], [7.719378555193415, 46.85113957494928], [7.719398200358521, 46.851014185854304], [7.719456000647228, 46.850810740078714], [7.719516791555605, 46.8507108777885], [7.719535107206929, 46.85066272581106], [7.719542821676728, 46.850613241518694], [7.719536723383463, 46.85049198135475], [7.71953656788642, 46.85042179088041], [7.71954473946998, 46.85035183188493], [7.719561161852826, 46.850282563359436], [7.719508329648205, 46.8501705212083], [7.719492181875873, 46.85005565423038], [7.719566324084203, 46.849871049770464], [7.719518054440613, 46.84956986021002], [7.719882377295603, 46.84945086666851], [7.720081159528484, 46.8492623042249], [7.720213184772866, 46.84911536472286], [7.720356737301507, 46.84891874267406], [7.720425092888372, 46.84883208437827], [7.720499297120717, 46.848645176659936], [7.720760957217015, 46.848539925359376], [7.720869289563509, 46.84849124595991], [7.720968184164499, 46.84840544775195], [7.721051926878852, 46.84828555792354], [7.721203422523735, 46.848094608768754], [7.721248761533217, 46.847964541168], [7.72119940286634, 46.84790019339062], [7.721052844609938, 46.847596179134634], [7.721243211657565, 46.84755037354582], [7.7211291449195185, 46.84732443998828], [7.720940818469304, 46.847103330738875], [7.721477360018966, 46.84716490371016], [7.721623040824571, 46.847050799737225], [7.721706644954815, 46.84691243484286], [7.721845456995776, 46.84672371373027], [7.721894118337656, 46.84633507646785], [7.722057620791002, 46.846122062907504], [7.721744984975012, 46.84594185756194], [7.721634882996957, 46.845819298064605], [7.721427988920348, 46.845669461315545], [7.721287026877658, 46.84546174741705], [7.721167994974452, 46.84538603059628], [7.720783581031243, 46.845352624079936], [7.72049580350503, 46.84536434202125], [7.720141562708967, 46.84538487585603], [7.719861205311558, 46.845182771271034], [7.719683392383426, 46.84508768478361], [7.719403762757885, 46.84493139225719], [7.719210965621351, 46.84480062255879], [7.719076717570236, 46.84477561964651], [7.718754635244038, 46.844739759316894], [7.7184245641907605, 46.844735609675816], [7.718199623129221, 46.8446300673233], [7.718017081900491, 46.84455768535654], [7.7177174279418415, 46.844490418387295], [7.717397421379785, 46.844434516927414], [7.71737373810673, 46.84444598962453], [7.717031965174754, 46.84467393563665], [7.7169131260750605, 46.84479442943506], [7.716839809838835, 46.84494894062104], [7.716659286621887, 46.84489912107275], [7.716370947988822, 46.844796497923475], [7.715798094478748, 46.84474527858292], [7.715460585225612, 46.84480425770429], [7.715107271877232, 46.844816039542295], [7.714791848631317, 46.84483070645836], [7.714479234222299, 46.844948606095905], [7.714391851611368, 46.84509943548139], [7.714135386999183, 46.845351237823365], [7.714038649224593, 46.84545990047879], [7.713855902582787, 46.84555495238901], [7.713696870307396, 46.845557087423494], [7.713482010478711, 46.84543760327235], [7.7133471330597105, 46.845358441797806], [7.713056906105314, 46.84516453091575], [7.712756441850464, 46.84510766854815], [7.712362639703923, 46.84501838512977], [7.711769048352975, 46.844961800547665], [7.711446143047167, 46.84493867741524], [7.711201055517995, 46.84502640594016], [7.710987492369009, 46.84470175225438], [7.7108083979899735, 46.84471307056031], [7.710557448013679, 46.84457867391831], [7.71012542949539, 46.84455284697583], [7.710028919621247, 46.84455432563333], [7.709651683261816, 46.84460054566213], [7.709652413036624, 46.84449526171744], [7.709660255723956, 46.84439143606114], [7.709653371109334, 46.84422401195913], [7.7093536595588805, 46.84417689003772], [7.709379798270797, 46.84410835556078], [7.709567715603086, 46.84398752766669], [7.709642534347256, 46.8438960032138], [7.7094545127792635, 46.84372166540753], [7.70950349115021, 46.8435176968633], [7.709508376661953, 46.84348287295193], [7.709211708500582, 46.843518915179224], [7.70907827968798, 46.84338108754991], [7.708871838630397, 46.84330274693846], [7.708909175644963, 46.84323722701881], [7.708873267641266, 46.84315073148165], [7.708883813374131, 46.843054852295445], [7.708976396826894, 46.84297397317335], [7.7093452070234605, 46.842791749026844], [7.70931786487523, 46.842685309598764], [7.709132958286602, 46.84251878472303], [7.709065348880808, 46.84235322323583], [7.709073349843387, 46.842246744010055], [7.709165291298645, 46.84211404323247], [7.7094102535896605, 46.84200358628533], [7.709553678085804, 46.841960303824024], [7.70970902333027, 46.84181350089494], [7.7097221372435385, 46.84163413862347], [7.709697904841644, 46.841327685651024], [7.709590271388819, 46.841217062083885], [7.709368885449655, 46.84118951819302], [7.7092805463154095, 46.841020603984724], [7.7092150307982665, 46.84085156445578], [7.709611028425286, 46.84078706095211], [7.709743217645458, 46.84069210838904], [7.709699801484605, 46.84047018914133], [7.710061566287093, 46.840272703442515], [7.710375783453378, 46.840239504901405], [7.710352841671458, 46.84011190453867], [7.710220810610328, 46.840029351380124], [7.7103440951993445, 46.83993179169979], [7.710541340686528, 46.83996152298395], [7.710602593549661, 46.83977805285715], [7.710686713362966, 46.839619112398054], [7.71072318956295, 46.83945179023932], [7.710744133787187, 46.83926158423143], [7.710649784182957, 46.83903991591583], [7.710564651804357, 46.83889114339092], [7.710749309827069, 46.83868197610561], [7.710815147695114, 46.83859477099939], [7.7106848321137305, 46.83832351214079], [7.710665888899358, 46.83813547580487], [7.710750406552892, 46.837826772613866], [7.7107322495804596, 46.8377249076538], [7.710610139865059, 46.83762790304102], [7.710419035918785, 46.83754028271069], [7.710004007722257, 46.83740962807024], [7.709613329708552, 46.8372774933138], [7.70962842069187, 46.83720760852148], [7.709805498343823, 46.83685717911883], [7.709858315770044, 46.836612730251446], [7.709716577445378, 46.83657907160238], [7.709387498639549, 46.83651715074237], [7.709112939810553, 46.83647395481297], [7.707206966342221, 46.83619788369134], [7.706763130085375, 46.83607771784884], [7.706110298908533, 46.83593349814811], [7.705661739952798, 46.83583018734504], [7.705382718768081, 46.835795151614775], [7.7045992587432846, 46.8356399828225], [7.703292167546034, 46.83543182018528], [7.702837956815613, 46.83535285296072], [7.702030690331927, 46.83522923245687], [7.701706351626154, 46.835173512484424], [7.701532011669509, 46.83515108125819], [7.701015756436037, 46.83504023548863], [7.7004811662649955, 46.83494832056786], [7.699958320377231, 46.834831513576404], [7.69988316162453, 46.83487244299625], [7.699393037103753, 46.83477799225654], [7.699262800245089, 46.83476214174126], [7.6990915864397556, 46.83472411164353], [7.698884424768666, 46.83469287344622], [7.698370082768578, 46.83459071922212], [7.698294919354859, 46.83459269756969], [7.698175564757266, 46.83455269575675], [7.697998008588001, 46.834522918183325], [7.697493761809973, 46.83445338130748], [7.697094673031091, 46.83437416984578], [7.696918225280825, 46.83435115270737], [7.696674880488856, 46.834340060671785], [7.696228769523711, 46.834286974879866], [7.696269009926338, 46.8342182407556], [7.696214028816658, 46.83420291020073], [7.695963905226623, 46.83418565231819], [7.695380315261849, 46.834116986409065], [7.694303294486012, 46.833905061551484], [7.6938958316687955, 46.833885487163045], [7.69355642835855, 46.833811373902805], [7.692952601141997, 46.83370250345991], [7.6923319619638235, 46.83360820303899], [7.692077192273454, 46.833574889786235], [7.691403938622688, 46.83345434516075], [7.6912090590547235, 46.83341266797507], [7.69089797670279, 46.833367045010995], [7.690034467747185, 46.833228003830634], [7.689241989934784, 46.83309136423017], [7.689072834177851, 46.83307040628682], [7.6887090921719, 46.833016626093034], [7.687920325135298, 46.832890233000015], [7.687219973463036, 46.83277299812979], [7.686824969096314, 46.83269522607551], [7.684876924550194, 46.832363856054634], [7.683967764113805, 46.832203601632344], [7.683056494662796, 46.83205114324604], [7.681184562156627, 46.83177214334853], [7.680558927917678, 46.831665087519724], [7.680514922970118, 46.83184852386826], [7.680457184279842, 46.83225816827323], [7.680517799929682, 46.832441527831016], [7.680525899395569, 46.83255263933738], [7.679980751995246, 46.832434481601354], [7.679700886200732, 46.832381502668845], [7.679460431656321, 46.83234262607474], [7.679358807596139, 46.83222390352352], [7.678805757445122, 46.8325674180102], [7.678384386968142, 46.83284246927936], [7.6781566429432395, 46.832998124558245], [7.677792346182358, 46.832765960179685], [7.677039068508897, 46.83226611124389], [7.67705380097485, 46.83222749945408], [7.676108026629817, 46.8314901085406], [7.676041519708057, 46.83151051281644], [7.67600178192918, 46.83123052486286], [7.676347662959619, 46.8309212581665], [7.676782407322585, 46.83041356558922], [7.676829857338907, 46.83013195675822], [7.677755664479411, 46.830089233522685], [7.677367509039476, 46.82933031388797], [7.677264047532458, 46.82913770376826], [7.677182762605399, 46.82887080879923], [7.677069492603323, 46.82884881722984], [7.676995422585461, 46.82874641494573], [7.676865415385109, 46.828620308853424], [7.676758784876504, 46.828534552576045], [7.676590919906098, 46.828430419585295], [7.676418542336735, 46.82834312581814], [7.676161653547791, 46.82819259804474], [7.675793842004544, 46.82799582828474], [7.675604953939147, 46.82787269441931], [7.675319400826009, 46.82777126924349], [7.6751211039460765, 46.827710834167036], [7.674938842134525, 46.827615903746725], [7.674796552767901, 46.82752065662972], [7.674601036516128, 46.82740351604498], [7.6744801508201395, 46.82748231339128], [7.674075098496643, 46.82769575473282], [7.673729075866473, 46.827840699157434], [7.673413999463668, 46.82798972589829], [7.6731116472784935, 46.828169075294134], [7.673002407042224, 46.82825958564567], [7.672827992564071, 46.82843551432623], [7.67272375407945, 46.82860986901436], [7.672651754623275, 46.82870817366402], [7.672567686020592, 46.82880392122211], [7.672423792468176, 46.828928296946245], [7.672296135464618, 46.829000781029876], [7.672176406642986, 46.82913072010411], [7.672045180045666, 46.82937840453575], [7.672107052059974, 46.82949591091218], [7.672333810208478, 46.82963904180785], [7.672601190527024, 46.82974676421689], [7.672890794327685, 46.82982883079715], [7.67308336017596, 46.82995074652143], [7.673163389022174, 46.830041471277106], [7.6736723817862265, 46.83027958468801], [7.673741992320587, 46.830300806468436], [7.673949670967244, 46.83031626813422], [7.67402754845966, 46.83036076173111], [7.674136871207654, 46.83043886910139], [7.674302153216451, 46.8305815380122], [7.674366722992537, 46.8307272016929], [7.674543533385046, 46.83103664606503], [7.674582538125261, 46.83111745185564], [7.674653084445484, 46.83128074303467], [7.674722301305398, 46.831427718851124], [7.674730769775433, 46.831491216628535], [7.674821708046374, 46.83161753182499], [7.674947877027803, 46.831848417471946], [7.675002160134263, 46.831918874280056], [7.675173813212786, 46.83235673821606], [7.675145958635458, 46.832533050671344], [7.675164313496543, 46.832944585558735], [7.675404672274968, 46.83334405389541], [7.675504981166874, 46.83353764435851], [7.6756853167389, 46.83366079612151], [7.6756260683630035, 46.83412678662816], [7.675621343453261, 46.83447528445476], [7.67554440954713, 46.83474350384944], [7.675479123298701, 46.835019633316115], [7.67538128176543, 46.83524916183644], [7.675297432995618, 46.83539944898144], [7.675174485602894, 46.83570929436557], [7.675067591391133, 46.83595255007606], [7.674988403875316, 46.83615314677023], [7.674893332054095, 46.83634551841024], [7.674512956295783, 46.83654025777951], [7.674418719994031, 46.83655500579161], [7.674292742630735, 46.836580433262775], [7.674256217190043, 46.83657909589095], [7.6742204478756255, 46.836573798999], [7.67418636598737, 46.83656468458724], [7.674154456763267, 46.836551805628545], [7.674139741872892, 46.836544090749406], [7.674113251346437, 46.83652634313753], [7.674023688029412, 46.83645539107209], [7.673991920011114, 46.83643878773332], [7.6739582332529475, 46.83642405932788], [7.673922864280399, 46.83641133134921], [7.6738860755365055, 46.8364006662388], [7.67384810329301, 46.83639215338252], [7.673809052638076, 46.83638583758307], [7.673769369536006, 46.83638178092034], [7.673729316402797, 46.8363800458044], [7.673689207778295, 46.836380622582624], [7.673649305902637, 46.836383519773136], [7.673577723180963, 46.836410922151835], [7.673160126677854, 46.83623079799364], [7.673076543764977, 46.83603015633709], [7.67322972676297, 46.83568650752469], [7.672271116755713, 46.835673087005574], [7.672108599619285, 46.835505213949], [7.671984206613188, 46.83535384993502], [7.671899496394674, 46.83511854114445], [7.671517737874529, 46.83485315971839], [7.671422273807367, 46.834853271946], [7.671287814629757, 46.835441309029896], [7.670987533483624, 46.83571167916102], [7.670766360322246, 46.83596772043777], [7.670609458519558, 46.83619118496945], [7.670665359127199, 46.83628146634078], [7.670746750909207, 46.836446960597996], [7.6708428135546916, 46.836625395173115], [7.6715810970307015, 46.83645148979309], [7.671726600746542, 46.83658889515069], [7.671250581394508, 46.83704684458181], [7.671308412749308, 46.83757221316404], [7.670556082613421, 46.837543954042765], [7.669708289845958, 46.83742468908226], [7.669481739809884, 46.837581942810914], [7.669345354850438, 46.83773140479371], [7.669210041325428, 46.83782182811403], [7.669132099203738, 46.83789894890621], [7.668939066649722, 46.83797376361631], [7.668689945565754, 46.838194118576155], [7.668507542694534, 46.83832130064222], [7.668334514863269, 46.83838744875727], [7.66825825764654, 46.83844816718462], [7.668268731427203, 46.83847899136482], [7.668253219736079, 46.83870925934042], [7.6682535985457605, 46.83902963800304], [7.66820521569606, 46.83919041940504], [7.668134772332903, 46.83930848987896], [7.667975198507893, 46.839487655376836], [7.667311363683814, 46.83925996966432], [7.667010519165129, 46.839220996195785], [7.666992882996842, 46.83929431649549], [7.666832232575922, 46.83940586342468], [7.666768756392657, 46.83950456071583], [7.666613836953188, 46.839682202668115], [7.666399002583302, 46.83977137728503], [7.66627049104223, 46.83991984846434], [7.666262054411355, 46.84001766261813], [7.6661604600453455, 46.840173546645346], [7.6661322269907535, 46.84029593934602], [7.665966921799816, 46.84044889980421], [7.665613787287222, 46.840648737671955], [7.6653565978573415, 46.84066132664696], [7.665273028571377, 46.84083995059665], [7.665103931775302, 46.84093996181617], [7.664898284590793, 46.840970870488896], [7.6647792819212635, 46.84109390046079], [7.664563118834172, 46.841162123789715], [7.664484121185843, 46.841362704621474], [7.664253859218101, 46.8414894070395], [7.664113359518375, 46.84149429744878], [7.663988008640105, 46.8415512501653], [7.6638949365467335, 46.84176630468646], [7.663697825412193, 46.84198743703163], [7.663518305788227, 46.84203528430807], [7.66328323198918, 46.8423144473667], [7.663179070221705, 46.84242030164647], [7.662890879270686, 46.84255579511936], [7.662578583118182, 46.84271778135274], [7.662445640169861, 46.84284189755356], [7.662422452243462, 46.84295031868049], [7.662210068500277, 46.842974425987066], [7.66201906919329, 46.84317043723604], [7.661873690591991, 46.84350281006864], [7.661583548064371, 46.84397459508723], [7.661528252106052, 46.844000537118916], [7.6613801781390745, 46.844039630502024], [7.661325668154153, 46.84406863833865], [7.661218635115335, 46.84413171413258], [7.660983907643952, 46.84422292310897], [7.660903290333471, 46.84423484516088], [7.660710167778142, 46.844209950437765], [7.6606199227081335, 46.84421748319943], [7.6604663753087925, 46.844268064060756], [7.660359702460734, 46.84426585931725], [7.660253237429963, 46.84424399028293], [7.659929230187327, 46.84425259371454], [7.65981200815319, 46.844225842456524], [7.6596543504933585, 46.84421085399208], [7.659512209559326, 46.84421051582986], [7.659375421206363, 46.84420465306593], [7.659186060093511, 46.84420809337962], [7.659088025692821, 46.844183094555895], [7.658995687268865, 46.84414030988012], [7.6588704053283045, 46.844117270283625], [7.658780961148269, 46.84414443683468], [7.658710326561565, 46.84414826034014], [7.658628330269269, 46.84408241849281], [7.658506679792543, 46.844001404950426], [7.6584350533617425, 46.84397088570463], [7.657995794444735, 46.843943219392195], [7.6575566977372915, 46.84398136111117], [7.657412631433004, 46.84397483521419], [7.657318736165977, 46.84401988287453], [7.657216630054598, 46.84403482066285], [7.657120486987291, 46.84401039218009], [7.657069090379679, 46.8439863913883], [7.656993959492089, 46.84396761692415], [7.656803590067774, 46.84396793377108], [7.65663653227766, 46.843900515960144], [7.656415202316745, 46.84378507526388], [7.655938205989834, 46.84364416733801], [7.655715813241804, 46.84364204203455], [7.655500226098311, 46.84362067151215], [7.655176569600126, 46.843673419501194], [7.655087622897476, 46.84372033597249], [7.654979153362362, 46.84373399750588], [7.654902902342634, 46.84372658503821], [7.654690558436977, 46.843752172804905], [7.654235198324448, 46.8437393203888], [7.653829778395496, 46.84373082509538], [7.6535183692184505, 46.843732073889214], [7.653132137943155, 46.84371899831032], [7.651922298954804, 46.843722645366505], [7.651430385155497, 46.84369894635714], [7.651085195135769, 46.84364430926676], [7.650699978790529, 46.8435188976505], [7.650207696829569, 46.84319618891385], [7.650402977343714, 46.84305203497564], [7.650354393381012, 46.8430321998454], [7.650325971620746, 46.84299546120582], [7.650299044094873, 46.84289509538818], [7.650279053777209, 46.84276176685898], [7.650237776174603, 46.842552107130686], [7.650186169836853, 46.84249015211132], [7.65006961437509, 46.84242380104731], [7.649931358955026, 46.842369885405915], [7.649748368386995, 46.8423145587591], [7.649605652629251, 46.84229998768176], [7.649348152616877, 46.84228627486776], [7.649164168888633, 46.842282015732934], [7.648900313045959, 46.84230928739064], [7.6486662260310085, 46.84236281538142], [7.648490645062503, 46.84242939610513], [7.648389468563449, 46.84250808324576], [7.648351714114911, 46.84255914671008], [7.648324474677117, 46.8426848880951], [7.648265276947764, 46.84276071010644], [7.648201185581456, 46.842791681119685], [7.648119700937546, 46.84278969794028], [7.647991308850711, 46.84274012482986], [7.647839431254278, 46.8426990949725], [7.647646625059451, 46.8426783070392], [7.647760129032464, 46.842891561355295], [7.64781368935141, 46.843055827524914], [7.64793448810416, 46.843182298478], [7.648008402439003, 46.84327385391848], [7.648097991591752, 46.84335062834854], [7.648181944567376, 46.84347831777234], [7.648278568836843, 46.8435976271542], [7.648466850779331, 46.84374865801157], [7.648649259862722, 46.84385573863664], [7.648867134175575, 46.8440372903853], [7.649006830152348, 46.84414040077811], [7.649119257437526, 46.84420643707892], [7.649177331661265, 46.844286209939725], [7.649222259617611, 46.84438357481298], [7.649225856217959, 46.84442168172164], [7.649169376126525, 46.84457585874144], [7.649152484866057, 46.84463833592171], [7.649135129955133, 46.84472983322598], [7.649158906672865, 46.84482584334163], [7.64915965322069, 46.84488283668181], [7.649156834364339, 46.84493978361538], [7.649097489328135, 46.8450585519934], [7.64906827119523, 46.845130388829425], [7.64906098715797, 46.84517878868297], [7.6490154649696205, 46.8453089289045], [7.649002773797918, 46.84535260666777], [7.648980283151538, 46.845465422931326], [7.648946891996333, 46.84556668211232], [7.648958517852377, 46.84565004803823], [7.649029436329441, 46.84577215695488], [7.649029568836183, 46.84580606982651], [7.649004529969396, 46.845870343878616], [7.6489448611094355, 46.845977040773484], [7.6489171676412555, 46.846063420786464], [7.648899347299702, 46.84615347054251], [7.64886547977141, 46.846563175408534], [7.648839897708443, 46.846838311291044], [7.648822869584117, 46.84693664424156], [7.648776477334457, 46.84709322243728], [7.648761901120485, 46.84716129957537], [7.648206394734208, 46.84715333204962], [7.647708593989919, 46.847109911106614], [7.647305133281254, 46.847136264457276], [7.646734100756347, 46.84732534964329], [7.646735600053582, 46.84745236215457], [7.64703758659996, 46.84761623329653], [7.647124681886317, 46.84780281074886], [7.647081369892069, 46.848032172251024], [7.647047143577877, 46.848292200120305], [7.647119798751457, 46.848585840227415], [7.647004111178432, 46.84875018935238], [7.646955335035001, 46.84898741419613], [7.646952164768298, 46.849130851278126], [7.647067738357246, 46.84925229636521], [7.647011982270276, 46.84944441184259], [7.6469780628616535, 46.84960406033597], [7.6469507997172546, 46.84995663722051], [7.646550131959468, 46.84997248985487], [7.646701356684416, 46.85045112285615], [7.646427644027308, 46.850710626329864], [7.646006751987395, 46.85125730378886], [7.6460598129710675, 46.85169679510894], [7.64580083585908, 46.85186331675186], [7.6456816501291485, 46.85197329288371], [7.6455806094457675, 46.85208631258751], [7.645369287959633, 46.85245420696909], [7.645267651910673, 46.85262450098192], [7.645249190780789, 46.852676131496665], [7.645205139183151, 46.85283868468859], [7.645197365439812, 46.852859729785806], [7.645175256394627, 46.852900392540555], [7.645145648819532, 46.85293806433236], [7.645128197376407, 46.85295544776715], [7.64508757880853, 46.85298712148773], [7.644809367787623, 46.853159846787], [7.644794529687049, 46.85316801425776], [7.644762326366401, 46.85318185298397], [7.644745131346807, 46.853187451991815], [7.6447091439113946, 46.85319581932464], [7.644670925728148, 46.853200313660565], [7.644631432682133, 46.8532005914486], [7.644592381894098, 46.85319649668656], [7.64457332897618, 46.85319284278316], [7.644256526406631, 46.853114189163584], [7.644213719069195, 46.853104928676935], [7.644126688324445, 46.853089846467554], [7.644081297996766, 46.853084053768036], [7.6439896013119375, 46.85307640087053], [7.643696944383071, 46.85307505295535], [7.643447988543719, 46.85308012982364], [7.643246704954344, 46.85309802072772], [7.642810857549268, 46.85310231400438], [7.64246715158296, 46.85307920456497], [7.642263651961605, 46.85306928427751], [7.642130945973753, 46.853056080691964], [7.641983273788635, 46.85303452875595], [7.641675209254056, 46.85300494875602], [7.641493653990105, 46.85301094588909], [7.64139470439499, 46.853093500152475], [7.641248844454413, 46.853247613487866], [7.6411716761397335, 46.853418391045764], [7.6411565849597265, 46.853516682605445], [7.641166467826941, 46.85363467474864], [7.641199827122513, 46.85379257358127], [7.641328114886344, 46.85407488975886], [7.641587507709363, 46.854414265491904], [7.6416599740360915, 46.854496273604404], [7.641735918856598, 46.85456523231572], [7.6419202930326815, 46.854725103762476], [7.642294407353252, 46.855006569528754], [7.642739730075139, 46.85525389609419], [7.643342709432337, 46.85554893000576], [7.643656454360693, 46.85568571963871], [7.643771037390967, 46.85578667631534], [7.643856893945177, 46.8557883669928], [7.64401546687706, 46.85595364262113], [7.644233830767928, 46.856275978094594], [7.645233125484129, 46.85605707617083], [7.646024564540925, 46.85589069634366], [7.647273085060683, 46.85557722852897], [7.648011787200064, 46.8551952394749], [7.64828251421896, 46.85486071390257], [7.6489931262424875, 46.85457348049816], [7.649743130021131, 46.8543088828214], [7.6502504202878665, 46.85420981016794], [7.650866260648226, 46.85423262848283], [7.6515469571368255, 46.854169112342674], [7.652168805672991, 46.854401674413076], [7.65301059344958, 46.85454061329227], [7.653650251424994, 46.85450083665116], [7.655373933165447, 46.85466240011095], [7.6558399736829905, 46.85483977957833], [7.656205601137587, 46.85503365620191], [7.65742469030506, 46.85553896329669], [7.658165502725726, 46.855523292407256], [7.658903573621321, 46.855816055121224], [7.6598569843353355, 46.85604587043657], [7.6602196696747775, 46.85602200791427], [7.6603954800230705, 46.8563236141771], [7.660701693282549, 46.85652399627583], [7.6615216411504825, 46.856705299663126], [7.661845997483076, 46.856880636104826], [7.662444718094153, 46.857064063925165], [7.662853398865898, 46.85729650641656], [7.663397755757826, 46.85765258242198], [7.663864351795464, 46.8578781616734], [7.6642338695120396, 46.85804331026095], [7.664657397595044, 46.858156646938035], [7.665155468909758, 46.85833652717785], [7.665484612267876, 46.858437992931805], [7.666030773911319, 46.858558349549206], [7.666427341290882, 46.858663978134054], [7.666803577095262, 46.85882698173014], [7.667209418094713, 46.85894162937274], [7.667359568049195, 46.85895054150823], [7.667403051682086, 46.85895642773416], [7.667608948419436, 46.85901806684846], [7.667706785044694, 46.85885645781399], [7.668008829682739, 46.858893076986426], [7.669088912123887, 46.85877377567713], [7.669346379141209, 46.858664882806586], [7.669548611543409, 46.858540871236166], [7.6705344702953004, 46.85803242739656], [7.670712404022007, 46.85788531776186], [7.670896286623312, 46.85771597755898], [7.671006679068868, 46.85758887504174], [7.67108139104489, 46.85741031029492], [7.671175008254155, 46.85711210529965], [7.671248895168899, 46.85693709538431], [7.671385981691536, 46.85670608723728], [7.671507579172074, 46.856477835799936], [7.671576309966751, 46.85627230559719], [7.671530613514077, 46.85599622287603], [7.6711581801703925, 46.85574693290762], [7.670892468470444, 46.85550509002372], [7.6707484471533, 46.85518119680184], [7.671598810361276, 46.85526366023084], [7.672129457378789, 46.85541812942978], [7.672446343328093, 46.85554578453018], [7.672725150854024, 46.85576103277428], [7.6731049272499945, 46.855737174477305], [7.673632205736933, 46.85563998863643], [7.6738899380118974, 46.855591426180354], [7.674189024733858, 46.855587403393756], [7.674544615191381, 46.85564676046982], [7.674787976483161, 46.855823835500594], [7.675125966365841, 46.85592658645039], [7.675461993176913, 46.855985262143854], [7.675645188705674, 46.8559930153846], [7.675822538775353, 46.85597140257401], [7.676003763541317, 46.85593050377308], [7.676880051667749, 46.855823955903766], [7.677211860268311, 46.855906851705775], [7.677711688736873, 46.856150296161665], [7.678441904133753, 46.85617280392099], [7.679151062610862, 46.856174736222485], [7.679445606295796, 46.85606579656789], [7.679774823396088, 46.85588707054188], [7.680025075427824, 46.85573258058114], [7.68030941045484, 46.855602494356326], [7.680706651687356, 46.85571641181307], [7.680884740599301, 46.85585999899605], [7.680969086890152, 46.85592797926495], [7.681344185939699, 46.855992799113814], [7.68173852711094, 46.85605581319941], [7.682104973726582, 46.85613245902545], [7.682101197118409, 46.8564001139697], [7.68203197865666, 46.856683577758474], [7.681914530241714, 46.85689153833401], [7.681823314431551, 46.85704274603989], [7.681683968198691, 46.85718715632456], [7.681395036156674, 46.857427368893354], [7.681903643484604, 46.857627764799666], [7.682250497082934, 46.85769925810438], [7.6824982352527815, 46.857609487949595], [7.682843356225752, 46.857592913151144], [7.683045677462402, 46.85765857086353], [7.683191747664021, 46.85784062495441], [7.683459213737606, 46.85769429353871], [7.6836480708985375, 46.857630356244655], [7.683775305525424, 46.857591925824174], [7.683908342235117, 46.85758073039577], [7.684395528942438, 46.857643915396764], [7.684649002099753, 46.85791213837431], [7.684670192505373, 46.858121713377976], [7.684974295169276, 46.858150521675846], [7.685166422113791, 46.857958480493906], [7.68522299150263, 46.85788342746393], [7.685243260230374, 46.85784797812015], [7.685261704208311, 46.85781210091079], [7.685278283944908, 46.85777575995279], [7.685293013125782, 46.857739081144004], [7.685305942843771, 46.85770176751893], [7.685316956755007, 46.85766418812015], [7.68532600246059, 46.857626334187174], [7.685333106614115, 46.85758832245457], [7.685378372747554, 46.85736722675989], [7.68557458707218, 46.85713798920826], [7.685882655978588, 46.8574750963855], [7.686053765541754, 46.857670864150464], [7.686184744124096, 46.85790558689525], [7.686189715015167, 46.8581628809724], [7.686111602226198, 46.8586240006593], [7.686040637180646, 46.858916899861406], [7.685957072735589, 46.85890457633096], [7.685893033075215, 46.859014908082784], [7.685761886409894, 46.85927898966204], [7.685813156075721, 46.859449575853866], [7.6858123706990495, 46.859698786503245], [7.685777775789603, 46.859941934740995], [7.685628024789947, 46.860224882933394], [7.685697759168943, 46.86050692813625], [7.686098017705482, 46.860673578261235], [7.686408877023241, 46.86083411332274], [7.687054654094851, 46.86115858150072], [7.687336375454686, 46.86127002584031], [7.688193985521959, 46.86147797988565], [7.68883074987942, 46.86160506557241]]]]}}]}