{"type": "FeatureCollection", "features": [{"type": "Feature", "properties": {"bfs_nummer": 6152}, "geometry": {"type": "MultiPolygon", "coordinates": [[[[6.961709928793143, 46.27992419684027], [6.960855972244366, 46.27929772623155], [6.959271115305221, 46.27810998392525], [6.95771336510669, 46.2769894977378], [6.957579370548962, 46.27687587660307], [6.957657266722414, 46.27682864797575], [6.956998055239004, 46.274336055088504], [6.957074869248968, 46.27424231408666], [6.957116390964697, 46.274203314443504], [6.956936321400343, 46.27413687667821], [6.957536685879295, 46.27346867634028], [6.9581362450583635, 46.273045028968134], [6.958473349164193, 46.27281344624171], [6.959505390725332, 46.27151008962286], [6.959982835998636, 46.270314067113674], [6.960508271776368, 46.26897629249539], [6.962268351692029, 46.264573890656145], [6.961958317436479, 46.26445725526358], [6.96060294549007, 46.26402234062374], [6.9580759779561525, 46.26329581049622], [6.957983000575564, 46.263341985545075], [6.95741439750926, 46.26488672793377], [6.951972592873213, 46.26390374182808], [6.951874456238525, 46.263954675414496], [6.9520888205213485, 46.265072624464985], [6.952088263782149, 46.26513326250509], [6.9520710696519945, 46.26524699403588], [6.952032194628403, 46.26534122814083], [6.9520015223041165, 46.26544788480433], [6.951983248263313, 46.265550384909886], [6.951975840737004, 46.265640193845094], [6.951898033431757, 46.26564115362272], [6.951608394028082, 46.265603794623345], [6.951524767951841, 46.26570822545815], [6.951436134953001, 46.26579242116396], [6.947408567436121, 46.26472915222492], [6.946684859422138, 46.26464070078597], [6.944686476344759, 46.26437686669857], [6.944679149454128, 46.26433823368653], [6.943950235375092, 46.26439106003644], [6.943748612020052, 46.26399678125658], [6.943658448963316, 46.26367891582535], [6.943679700873604, 46.263581485594656], [6.943768306936325, 46.26339451016491], [6.943779330380046, 46.263334907438455], [6.941954173467519, 46.26324053777038], [6.940734131200209, 46.26322701042871], [6.940729309452821, 46.26314465955069], [6.940593221069498, 46.26315660001697], [6.9404802373697265, 46.2633276241419], [6.9402893865114175, 46.26345975753388], [6.940240854407513, 46.26361486498248], [6.9401794465940805, 46.26377092288242], [6.9400070083965595, 46.26388925655337], [6.939700825910361, 46.26423680561184], [6.939576775730314, 46.264472468928496], [6.939279452069912, 46.26472632881428], [6.939237100509115, 46.26487181043028], [6.939262767388554, 46.265083505680906], [6.939048904238549, 46.265338894606785], [6.938980707693863, 46.265518868689625], [6.938929916125228, 46.265752534911435], [6.938792897339274, 46.26609849171395], [6.938732383088091, 46.26620889018665], [6.938622365963834, 46.26633536966356], [6.938464094194826, 46.266460663567045], [6.938341446427923, 46.26671755307703], [6.938251323508475, 46.266786502149586], [6.938126350854225, 46.266842387665804], [6.937930605975337, 46.266895656234226], [6.937628843498838, 46.26679906966912], [6.937519575462244, 46.2668580558359], [6.937601131120665, 46.266943077728335], [6.937856882226746, 46.26713852291236], [6.938028470013685, 46.26732920404338], [6.9381369566149065, 46.26749286950452], [6.938164701764531, 46.26763357918074], [6.93804194697228, 46.26792272689494], [6.937952866016836, 46.26799939884461], [6.937754991000546, 46.26808201088054], [6.937699867873835, 46.268316152114586], [6.93765343600717, 46.26836329996059], [6.937562101319508, 46.268395918066815], [6.937258681008473, 46.26842317724006], [6.93711964201519, 46.268598436589826], [6.937328225348705, 46.26878224860154], [6.937315412078216, 46.268923794658164], [6.9371844290208164, 46.26904272220205], [6.9371259602589195, 46.26949818134348], [6.936679201933301, 46.269816526943885], [6.936297014414518, 46.27011364964792], [6.936703528436732, 46.270327838035705], [6.937064944180931, 46.27061469832416], [6.93735368294543, 46.270633196105955], [6.937250918863076, 46.27104167854311], [6.937245469862349, 46.27145590157095], [6.937276758863635, 46.271754697773936], [6.9366414778654315, 46.271954206475705], [6.93601177746033, 46.272078355971175], [6.935664318165185, 46.272139336169005], [6.935604089503337, 46.27212365687006], [6.935052432844586, 46.271728397435346], [6.93484938601006, 46.27147914806339], [6.934596215274253, 46.27132672467513], [6.934334622511903, 46.271018119039745], [6.934268621109537, 46.27092308839035], [6.934134803983051, 46.27074710952205], [6.934082725651041, 46.27059343875578], [6.933781163998416, 46.27022557425559], [6.9331453175605695, 46.270264580607545], [6.9327410330593615, 46.270391390026745], [6.932055974949637, 46.270552310120515], [6.931841067626794, 46.27057592975271], [6.931630140577007, 46.270612305626855], [6.931461540089888, 46.27078044157779], [6.931164335710682, 46.2708735512925], [6.930952128095491, 46.27091355489707], [6.9308414115516745, 46.27073630066797], [6.930524561427431, 46.27044778380416], [6.930327102999539, 46.27009884837043], [6.930371100734686, 46.26997185658105], [6.93036396016299, 46.269550301965076], [6.9296504428549826, 46.269300890743644], [6.92933548887424, 46.268997277396224], [6.929161268822366, 46.26898330315434], [6.929003244289102, 46.26906932578266], [6.9287340015570935, 46.269101447420574], [6.9286543341218, 46.268903857829265], [6.928351777291948, 46.2687971501824], [6.9275672838701805, 46.26849955336698], [6.927202949634947, 46.26839261554659], [6.926182807256085, 46.26832135493854], [6.925156602830275, 46.268298823912446], [6.92473795546785, 46.268225590142016], [6.924344328474507, 46.26818959465881], [6.923876694663216, 46.26811450616076], [6.923648338595833, 46.26814400487226], [6.92300265233344, 46.26836477369258], [6.922484556195082, 46.268464705909764], [6.922198232712829, 46.268606915402316], [6.921824569283843, 46.268903164444964], [6.92152782810515, 46.269271119781436], [6.921349978739407, 46.26941892471466], [6.920975043116793, 46.26968564088219], [6.92069242505615, 46.269971320025675], [6.9200733204339455, 46.270878017939836], [6.919933732383622, 46.271516889867904], [6.919727596872567, 46.27192195989938], [6.919536226710936, 46.27210534134467], [6.919786355643581, 46.27252215925874], [6.920177021294184, 46.272987604288375], [6.920277006673557, 46.273304669625716], [6.920157017558712, 46.27345315127244], [6.919709991503161, 46.27357938595048], [6.919252587810627, 46.27356041604527], [6.918947757203746, 46.27352224630295], [6.91864957928845, 46.27345996122136], [6.918337296756207, 46.27333872598929], [6.918056713267869, 46.27321548508725], [6.917968285783686, 46.27316481857762], [6.917813451844704, 46.273020828173536], [6.9177497568163115, 46.27293564968112], [6.91769450438413, 46.272811658481764], [6.9173387017298005, 46.27239117464014], [6.917087515312055, 46.272515505787055], [6.91614406201608, 46.272692532524836], [6.915843309677247, 46.27278252800242], [6.915490619800722, 46.27279257021189], [6.914326701787705, 46.273309277607986], [6.914874028625978, 46.273459997681805], [6.915760234216887, 46.27395936483116], [6.915389008772328, 46.27393352876914], [6.914976820336298, 46.273944824799045], [6.914527377881326, 46.2739879627732], [6.914120917364684, 46.27409120311748], [6.9141097960338795, 46.27449285027236], [6.913790812131682, 46.27487299659235], [6.912991230652223, 46.27557775980608], [6.913498800620949, 46.275708211177104], [6.914515988916768, 46.27601163965929], [6.914230571013214, 46.27635456624308], [6.9139304782482816, 46.27647328454102], [6.913787528172916, 46.277005296928124], [6.913722921712351, 46.277469126255475], [6.9136482005308855, 46.277451012540084], [6.913533998377738, 46.277697200536664], [6.913454732180668, 46.277838938194485], [6.9133552364265585, 46.2780359237082], [6.913420356937714, 46.278071525545045], [6.913199812678066, 46.27834245138978], [6.9130170057796, 46.27878092837533], [6.912670683349326, 46.279524553987756], [6.9123891242734254, 46.28003759433048], [6.912199732620526, 46.28013451327834], [6.911594001954705, 46.280274755086836], [6.911310005165606, 46.280840946956786], [6.911220533257946, 46.281270753893786], [6.910633359419478, 46.28178900851442], [6.910122595083671, 46.282370050277805], [6.909811858428225, 46.282192080661204], [6.909236837529833, 46.28189497361159], [6.908499731091906, 46.281499606250584], [6.907638347977905, 46.28103195525687], [6.907097170265584, 46.2807274491855], [6.906622750667115, 46.280474675661054], [6.906178821046074, 46.28038392815982], [6.904999256332317, 46.27981875341677], [6.895915634055705, 46.27430662137535], [6.89601405886851, 46.273974701044516], [6.896073319157741, 46.2735206080705], [6.895993386743187, 46.27308024679977], [6.896270198947408, 46.272431264248944], [6.896298965090156, 46.27193892064117], [6.896257302449191, 46.27186321894504], [6.8960860310580845, 46.2715969918089], [6.895703353699851, 46.27125785807289], [6.8956286464251555, 46.27097521783883], [6.895363160744535, 46.27066150672111], [6.896332974881057, 46.270747531895], [6.89667438458492, 46.2707422320306], [6.897324588396818, 46.27080221580122], [6.897378974855883, 46.27081441336353], [6.897889603425614, 46.271082537110736], [6.898313464127072, 46.27142641071001], [6.8987006093029155, 46.27161874445255], [6.899242908818288, 46.27192819659229], [6.899764307735631, 46.27226849150913], [6.900095789550919, 46.27245145251899], [6.900404982805801, 46.272659647150455], [6.900714178155032, 46.272803791397685], [6.901417086568655, 46.273095079493714], [6.901585532228996, 46.27318050268909], [6.90205139940403, 46.273373577462394], [6.9021073893163525, 46.27339323811379], [6.902454773982331, 46.273489935513496], [6.902799301232878, 46.2735490250589], [6.9030295168595535, 46.27360915529747], [6.903188303969995, 46.27365892554281], [6.9032617776314344, 46.27368689057143], [6.9058588873616475, 46.26985131013377], [6.905801953558532, 46.26983421972751], [6.9056001115743735, 46.26978813600126], [6.905542424009667, 46.269768559022495], [6.90545473740992, 46.26972609946159], [6.9053638831275075, 46.26966147722124], [6.9053229897489805, 46.26961858114541], [6.905121206741571, 46.26932672572271], [6.904926402854224, 46.269121971539775], [6.9048409285343055, 46.26900511793572], [6.904834824734921, 46.26897026669468], [6.904796337124556, 46.26885834885887], [6.904779800141696, 46.26879360039324], [6.904783085940042, 46.268762886522865], [6.904767795087591, 46.26872704725995], [6.904594856655268, 46.26850200224742], [6.90460453128233, 46.2684166159293], [6.904552807806466, 46.26825392653286], [6.904519289644003, 46.26811299379916], [6.904502490082543, 46.26795381620888], [6.9044824512241245, 46.26790753745862], [6.90445962371325, 46.267778277945524], [6.904416361655231, 46.267696913861094], [6.9043443712299455, 46.26761789672565], [6.90430486505099, 46.267583238313094], [6.904207453647705, 46.26747108664889], [6.904151581547821, 46.26736237001944], [6.904104800263888, 46.267223614780406], [6.904090795870866, 46.267137639596235], [6.904063051122609, 46.26709680279836], [6.904045224620147, 46.26704196151208], [6.904003574838575, 46.266956404224665], [6.903982408785159, 46.26693902334154], [6.903934628270203, 46.26686617495287], [6.904861804267373, 46.26691097341894], [6.905678420784668, 46.26694201791336], [6.906327714155605, 46.266728040228436], [6.907119536880739, 46.2665198771224], [6.907468260984131, 46.26639020709998], [6.907933507732101, 46.26618957584368], [6.9083999203268585, 46.265998042950876], [6.908669720861314, 46.265865919881], [6.909104640819094, 46.26646156903439], [6.9095376214011575, 46.26717324357015], [6.910217216140959, 46.26718314918883], [6.91062063457973, 46.2670736054949], [6.911648440626168, 46.26673593035215], [6.912128658276826, 46.26642410034834], [6.912459037266849, 46.266159834055664], [6.913019544898975, 46.2657973861097], [6.9132858820967815, 46.26516429675797], [6.913593645549393, 46.26458533322497], [6.914405448838326, 46.26421701090379], [6.914763078632348, 46.26399564525441], [6.915605569400647, 46.26355808702144], [6.916211182278682, 46.26307116719139], [6.916658028863399, 46.262286387624414], [6.917062092900543, 46.262301614759636], [6.91753512963429, 46.2621630517787], [6.91798228198939, 46.26205901937563], [6.9185392117122, 46.26170841147962], [6.919181209370146, 46.261311045192336], [6.9195539938228094, 46.26069039295371], [6.9199477953237585, 46.26037770088235], [6.920371763342609, 46.26009311406521], [6.920546716913714, 46.25980820984579], [6.921102251917274, 46.25963891725822], [6.921454565623406, 46.25952428577694], [6.922240785524029, 46.25932052305529], [6.92252309617763, 46.25922824866801], [6.923174904639825, 46.25902337803173], [6.92390203262885, 46.25868582530495], [6.924523230011728, 46.258386907502654], [6.924883244152849, 46.25818334172653], [6.92518907324899, 46.25800283594167], [6.925796796910244, 46.257634768375816], [6.926331505502296, 46.25750663861603], [6.92682417597327, 46.25744907717162], [6.927376672417575, 46.25734863173441], [6.928307305268913, 46.25738367616573], [6.928644284617552, 46.25736168222349], [6.929165141795786, 46.25740938817393], [6.929947690401362, 46.25752445541225], [6.930377939991283, 46.257555477622645], [6.931143272240484, 46.25759130512482], [6.93174071140115, 46.2575686102232], [6.931884870110216, 46.25754653175986], [6.932410527346091, 46.25751393938681], [6.932758148501142, 46.25747728373627], [6.932919580937274, 46.257456740481636], [6.933162016379265, 46.25739723946473], [6.9334894087518455, 46.257429857676364], [6.933513174492434, 46.2572145512738], [6.932907731375619, 46.25701231326406], [6.932829714651253, 46.256534646962955], [6.932518462217592, 46.25622793477209], [6.932637948240579, 46.25614786782585], [6.932501199676585, 46.25603608400249], [6.932797801723875, 46.25585781948355], [6.932982064612843, 46.25576928014009], [6.933014597044806, 46.25577681139262], [6.93297471718758, 46.25591629328974], [6.933462438596679, 46.25600640127395], [6.933733763208701, 46.25617947085993], [6.934262750703644, 46.256029732034975], [6.934350978077547, 46.256210942329716], [6.934443743287887, 46.25619400333708], [6.934789445964708, 46.25626928461981], [6.934822862304906, 46.256264072161486], [6.934785132959425, 46.25605494974746], [6.93493033677798, 46.25605261110055], [6.935129162121964, 46.255926198769465], [6.935269442987223, 46.25585752035383], [6.935298251315415, 46.25555483208099], [6.935111578377605, 46.254989233387015], [6.935747922243088, 46.25482459237122], [6.936217777724547, 46.2548995758732], [6.936760327880679, 46.25514914673624], [6.937070397678795, 46.255343965012976], [6.937546638395535, 46.255472496435786], [6.9379768373522746, 46.25554161613077], [6.937459350823879, 46.25525899272605], [6.937496230765431, 46.255245213830484], [6.937716162545088, 46.25479955003475], [6.937705994621421, 46.25477437093977], [6.9379450080743, 46.2546091396601], [6.938147198431451, 46.254569421843854], [6.938688663926427, 46.254592711613206], [6.939315758188691, 46.2544749352019], [6.939419879219674, 46.254426962195716], [6.939240618515706, 46.254022753307524], [6.939021733202851, 46.253681663164784], [6.938836454601912, 46.253538792093195], [6.939095818702576, 46.25329574086265], [6.939250516580682, 46.25321352084859], [6.939494443834644, 46.25314400861359], [6.939520616643217, 46.25303943402006], [6.939660714619232, 46.25307384982348], [6.93986743359527, 46.25331759923876], [6.940064916172905, 46.25318551587914], [6.940706688670137, 46.25344012885334], [6.940632695307594, 46.25367742576105], [6.941171100555853, 46.25376341665098], [6.941336057413199, 46.253901553490714], [6.941872792235341, 46.253806204785114], [6.942025234260458, 46.25352658530564], [6.942002963616395, 46.2533386194982], [6.941634312735122, 46.25326508390636], [6.941452758240971, 46.2528890703242], [6.941680539894346, 46.25284761352844], [6.941543944531729, 46.25272794363959], [6.941402138728309, 46.25264630308236], [6.9410957438159615, 46.25243211242383], [6.940746266594703, 46.25199242236902], [6.940676635422701, 46.251925537723835], [6.940565982053362, 46.25182965856383], [6.9404075873207525, 46.25160749169233], [6.940304698740253, 46.25152048013241], [6.940090342311072, 46.25127256310036], [6.939964193956495, 46.251142943461616], [6.939840035948155, 46.250882857446044], [6.939779295240373, 46.250701072068935], [6.9397524787048255, 46.25053605204996], [6.939796161716913, 46.250426379919595], [6.939714822935382, 46.25025243813392], [6.939674933796693, 46.250194859751524], [6.939693229789327, 46.25018927323275], [6.939661897132977, 46.25015446499484], [6.939604604924358, 46.25010549953619], [6.939499681292149, 46.250027302963964], [6.939416870070763, 46.24997693803924], [6.939331631506788, 46.24993813988178], [6.939129331450822, 46.24987064866572], [6.939042180813919, 46.24985084991416], [6.9389932196212465, 46.24984920285739], [6.938989694419291, 46.249857463451214], [6.93887224140222, 46.24983470590361], [6.9387648537591335, 46.24980036115703], [6.93859059513877, 46.24976043056035], [6.938478814694139, 46.24972298964181], [6.938353289414333, 46.24969540107611], [6.938250914302952, 46.24965890988731], [6.938201589598171, 46.24961370295291], [6.938155368153894, 46.249638407441246], [6.9381504442766655, 46.249633797704554], [6.937994699122643, 46.24957886227702], [6.937773455608105, 46.249512994142925], [6.937637621116889, 46.249430745451306], [6.9370985027725, 46.249691419234686], [6.936931043211465, 46.24976635819507], [6.936839728428339, 46.24965706702535], [6.936708737709884, 46.24952645911132], [6.936559011235723, 46.249449049852025], [6.9363541397672375, 46.24961815158659], [6.936473626323195, 46.24974476880155], [6.93571733337498, 46.24988289899711], [6.935370139218718, 46.249933572750265], [6.934820460554912, 46.249944101964225], [6.935054939714724, 46.250351181464296], [6.934919773690161, 46.250422076570636], [6.934531488668396, 46.25025974989306], [6.934489208489156, 46.25036523415616], [6.9343973135683825, 46.250525370638705], [6.934285618071766, 46.25052495223537], [6.933802076756251, 46.250567633451695], [6.933869275713552, 46.25067186192922], [6.933501828566028, 46.25078695521799], [6.933262118326176, 46.25095098942883], [6.932963165888894, 46.25116865256863], [6.93242712161958, 46.250925478031085], [6.932174937414382, 46.250859838166], [6.932131972357773, 46.25095897659621], [6.93180706750438, 46.25098502718009], [6.931561564633894, 46.251056529873885], [6.93069887103332, 46.25140376846667], [6.930533627026052, 46.251444073252564], [6.930250168315094, 46.25140448484835], [6.929625554176911, 46.251345367807836], [6.92945125310904, 46.25135162553158], [6.928908241809057, 46.25140179313096], [6.928553415925167, 46.25140323234516], [6.92772227795802, 46.251558513535706], [6.927680854390979, 46.25189118925612], [6.927741954247637, 46.25216569362794], [6.927912361890785, 46.25246467525375], [6.927958216385039, 46.2526616927924], [6.9278261742699465, 46.25280557700997], [6.9262613454212865, 46.253215699243476], [6.92630117162587, 46.25298460639144], [6.9260094080261085, 46.25258935603816], [6.925623232360403, 46.252623713480375], [6.924914145734278, 46.25272272891768], [6.924904913801715, 46.2525431218717], [6.924725753838629, 46.25241292044447], [6.92422787690455, 46.252326597328114], [6.923833690928138, 46.25236465320864], [6.923575232256302, 46.2524031288279], [6.923091603091362, 46.25257157577933], [6.922842285329769, 46.253003100235475], [6.922807385768387, 46.25332419948533], [6.922753706184625, 46.25356773201014], [6.922652000649234, 46.25357166641559], [6.922109934617791, 46.253556152899314], [6.921999973341015, 46.25364946665624], [6.921328227240279, 46.25377828804528], [6.921064270976053, 46.25385524407629], [6.921059682196789, 46.253816963885825], [6.920389609707997, 46.253710286622564], [6.920401821552995, 46.253884573424344], [6.920226328666922, 46.2546120580284], [6.920327804052681, 46.25494086295649], [6.913643752877714, 46.25672054679209], [6.913341934646792, 46.256603898861435], [6.913099285163216, 46.256643531433234], [6.912588700174544, 46.25656423057404], [6.912158121123221, 46.25713856580091], [6.911709712442046, 46.25707323412263], [6.911488890389884, 46.25716432878955], [6.911276260439627, 46.2571943524926], [6.910064689096398, 46.25715296888504], [6.909670368512493, 46.25744222560567], [6.909412034595364, 46.25755596186612], [6.9091752986570585, 46.25767586365289], [6.908804661270297, 46.25782568280547], [6.908705997562395, 46.25777612047559], [6.908363736504186, 46.257671043272914], [6.908124319209359, 46.257612489018875], [6.9076558953348695, 46.257295767165644], [6.907438265183523, 46.25718052345754], [6.907331341211954, 46.25713245040433], [6.9072481346004695, 46.25710983019735], [6.907231526262043, 46.25705769329489], [6.907032641883987, 46.25691163734819], [6.9067195107847885, 46.2568787406746], [6.906562082890111, 46.256766360887994], [6.906429716025889, 46.25676060017505], [6.9063181513485, 46.25667149236223], [6.906056270094083, 46.25651072515315], [6.905928888804679, 46.25638026074076], [6.905645120115467, 46.256171864625195], [6.90555277193046, 46.25616649886431], [6.905179083521161, 46.25590389126481], [6.904926268362418, 46.255842658068836], [6.90422930415688, 46.25542247752043], [6.904451153419163, 46.254986942366884], [6.904774560655292, 46.25429449481898], [6.905016025862925, 46.25375672100267], [6.905272393536538, 46.25330951824707], [6.904125167473355, 46.25264309110227], [6.903819403861234, 46.25242581680317], [6.902428813160534, 46.252073252035245], [6.899852520295255, 46.251847400601754], [6.899393003435788, 46.251676300053624], [6.898819096932659, 46.25178371978177], [6.898232599151124, 46.2516029030871], [6.897191426507842, 46.252058221388296], [6.895488738003098, 46.25278333361105], [6.894704210911673, 46.2540561455749], [6.891834098542852, 46.25472103548778], [6.890386939749602, 46.25595286861654], [6.8895747355846195, 46.25690619537048], [6.889154891111467, 46.25790037547985], [6.887547670759328, 46.25767411922964], [6.886063222641727, 46.257588333807185], [6.88575281923717, 46.257862543560734], [6.8851291032056325, 46.25809886355866], [6.884898441026957, 46.2586667373167], [6.884665617244825, 46.258773543933415], [6.884185100362963, 46.2582686732008], [6.883885196070067, 46.25775514402823], [6.8829255198161325, 46.257517785388224], [6.880503883837314, 46.25769151704711], [6.878708587801232, 46.25843334775454], [6.877827074139661, 46.258951632460175], [6.875269588588983, 46.259074284738986], [6.872918093971745, 46.258291433394575], [6.871279925242273, 46.25738241726168], [6.870002788653637, 46.2558668929723], [6.868651813611727, 46.25522740846206], [6.862948479396188, 46.25379986869099], [6.862799081275158, 46.2542137250731], [6.861624290009773, 46.254088170598216], [6.859727035287875, 46.25442593155827], [6.858560393133209, 46.25518864736331], [6.857538409479836, 46.256051979506374], [6.857037134445036, 46.25712329414319], [6.8559202783943745, 46.258120250885305], [6.854451387563152, 46.25929746180218], [6.8549524463346385, 46.25978628411796], [6.855997057640821, 46.26075934715778], [6.857268572624322, 46.261962171485465], [6.858565577076434, 46.26361257737516], [6.8594919911599375, 46.265028787944395], [6.860186340647581, 46.26623140705708], [6.859769023330573, 46.2685585686725], [6.859219507732932, 46.27190556042961], [6.858902278591128, 46.27387898480015], [6.85988341207876, 46.27512114522602], [6.860813313986389, 46.27632920289173], [6.861508449393099, 46.276571419295], [6.8619668045370235, 46.27719990745175], [6.862091489415202, 46.277481096026854], [6.862285855332242, 46.27776986433395], [6.862686861923121, 46.27815597763703], [6.862922407851549, 46.27845386237541], [6.863275615806124, 46.27876903344638], [6.864017570600747, 46.279363853638465], [6.864324253772382, 46.279632531494336], [6.864452032092748, 46.27978766105357], [6.864651377076438, 46.27988020056874], [6.864850366664994, 46.280012544470836], [6.864936332964424, 46.280196775791055], [6.8648543137037175, 46.28034722769921], [6.864836291909942, 46.28048953042005], [6.864882764002278, 46.28085543006627], [6.8649517471957315, 46.28099554916708], [6.864956871609316, 46.28113425485764], [6.864939846421328, 46.28123637041912], [6.864870834304759, 46.28132964846068], [6.864888614975341, 46.281516815517385], [6.86468322626242, 46.28228697410241], [6.864656325444759, 46.28250930376859], [6.864366822712549, 46.28310078261824], [6.863213379066349, 46.2843805122726], [6.86296829375223, 46.284710221208606], [6.861900168150244, 46.28590553731788], [6.8606399070747015, 46.28634960414985], [6.8591269936381565, 46.288494022205356], [6.859208141054926, 46.28914619245671], [6.85921729276951, 46.290306427625396], [6.859529192289855, 46.290539690666265], [6.860167671726233, 46.29028363360269], [6.861089469183786, 46.29077455485122], [6.861575720821302, 46.29008463278231], [6.861560210008299, 46.2897800176716], [6.861758797831351, 46.28960241006108], [6.861997832446759, 46.28975331370824], [6.8705817744151885, 46.28836737917843], [6.873377261108519, 46.288083127842505], [6.87406810116231, 46.28813752862657], [6.874471653543722, 46.28815430417341], [6.875674703193366, 46.28837180466202], [6.876537641617682, 46.288497613209415], [6.876729820895707, 46.288631580999414], [6.87705383318982, 46.28890038519555], [6.877217984150151, 46.28902573836053], [6.877813021863366, 46.28925110434812], [6.878100083684099, 46.28940086982332], [6.878322080099717, 46.289557157500546], [6.878597648012976, 46.28984012885662], [6.878841332758498, 46.29007424658164], [6.879166991314366, 46.29033626101578], [6.879419525916344, 46.290533115895094], [6.8796921913171545, 46.2906731173492], [6.8799966640407035, 46.2907564397478], [6.88047332686681, 46.29083960147309], [6.880975869281872, 46.29096164250115], [6.881249276985073, 46.29107042858097], [6.881647477577018, 46.29128729261222], [6.88176933892027, 46.291323183841556], [6.8819418673474, 46.29134973483367], [6.882277256006517, 46.29151426469188], [6.882437443582136, 46.29157885164119], [6.882886200719082, 46.29165999805302], [6.883354671370542, 46.291728292070765], [6.883707411208781, 46.29188319584096], [6.883912310618834, 46.292104778456604], [6.884013032410649, 46.29239222990677], [6.884184700931222, 46.29257060428915], [6.884447132287963, 46.292718722146034], [6.884684064359441, 46.29284645459591], [6.886218748099543, 46.29336987387602], [6.886237682737833, 46.29327811987752], [6.8862140109569765, 46.293131742069896], [6.886233808388583, 46.292975699923865], [6.886260643232596, 46.29279760728877], [6.88624038845496, 46.29255146468392], [6.88620737142475, 46.29244089762341], [6.886183380960972, 46.292339847862024], [6.88618444175917, 46.29223575434187], [6.886240636930581, 46.29207989775809], [6.886373381695974, 46.291777721555746], [6.8864200816863, 46.29165967375287], [6.886500748865839, 46.29155754346992], [6.886642993005926, 46.29143995317061], [6.886812664311646, 46.29131145934553], [6.886893650570602, 46.29117778122086], [6.8869941577744465, 46.29091489357522], [6.887024888674372, 46.290799915750746], [6.88710376370228, 46.29065045830698], [6.8872308524629995, 46.29045708514258], [6.887298535499072, 46.290290228759474], [6.887402724028024, 46.28988697995292], [6.887419927853413, 46.28976088891728], [6.887391048055885, 46.28969134540246], [6.887337279125469, 46.28960905938821], [6.887315109467542, 46.28955218788918], [6.887297670692345, 46.28947796820267], [6.887237784871287, 46.28932470208473], [6.887212311713097, 46.289144769752795], [6.887216269264978, 46.28897761146293], [6.887160181868037, 46.28867294713995], [6.886833889108856, 46.2883212191708], [6.886805283361047, 46.28822486908052], [6.886620595682797, 46.28804101947809], [6.88645406559192, 46.28786197172678], [6.886379904748236, 46.28777170510421], [6.886202013078953, 46.287591018341885], [6.886112092778287, 46.28748493212167], [6.8858909817786245, 46.28730403305113], [6.8858550680675386, 46.28725654843346], [6.885826834395836, 46.287123919906236], [6.885779689316837, 46.28706060158778], [6.8856937624693835, 46.28700971469783], [6.885503479729516, 46.28692990771093], [6.885299470012363, 46.28685635706309], [6.88513210762571, 46.28676091003145], [6.884819202617916, 46.28665842500797], [6.884717411042661, 46.28659956978895], [6.884606843198932, 46.28651070653025], [6.8844559356621255, 46.28636328082951], [6.884263644128897, 46.286258246758614], [6.884060493683914, 46.28610110068174], [6.883984894763866, 46.285928811494614], [6.883986329931619, 46.2857884479071], [6.884042851202057, 46.28559946353581], [6.884046528265393, 46.28546069510354], [6.883968091773963, 46.285345173054274], [6.883921305509352, 46.285247150207326], [6.883884398486203, 46.28507505917225], [6.8838694945971435, 46.28497561833572], [6.883630930917792, 46.284499709829404], [6.883416067256296, 46.28437720990465], [6.883210807329453, 46.28420270793132], [6.882994217791242, 46.284029731804395], [6.882917735805787, 46.2839441739284], [6.882873090170587, 46.283860364863344], [6.882846938895518, 46.28374825620895], [6.882827760932108, 46.28362041227392], [6.882818318242564, 46.283432658992574], [6.8828009356480955, 46.283353733866846], [6.88273850821882, 46.28322881673977], [6.882734813686191, 46.28314363492889], [6.882652943782169, 46.282919271576006], [6.8826224009511385, 46.282791362300735], [6.882614614933174, 46.282663583098994], [6.882546045948986, 46.28247082458149], [6.882515788308264, 46.282317683553075], [6.882475798734296, 46.28222285939929], [6.882392475699744, 46.281916473810846], [6.882364576579537, 46.28175230664138], [6.882220385756812, 46.28161594777366], [6.8821533491994815, 46.28150047966933], [6.882080064732644, 46.28132505097839], [6.882047806774751, 46.28114193443945], [6.882005739479344, 46.281029746972415], [6.881981667520806, 46.28093656632954], [6.8818643706414635, 46.280617391576115], [6.881948758041075, 46.28059574122273], [6.882115314321368, 46.28054609648851], [6.881808584428084, 46.27928200123102], [6.881608108861332, 46.27888387343084], [6.881505861296848, 46.27854769848625], [6.881551135802175, 46.27845336683851], [6.881456087469334, 46.278310727507346], [6.881212033095206, 46.27783234780266], [6.881117799108121, 46.277490688537895], [6.880652662575855, 46.276638185121854], [6.880443123091491, 46.2759059051318], [6.88017322982478, 46.27540892716023], [6.88019338134349, 46.275327875970255], [6.880130695205925, 46.27523457585981], [6.880037764927004, 46.2752096918441], [6.879825951014198, 46.274922603040665], [6.879509414602819, 46.274321391540106], [6.879168877331706, 46.27362156477304], [6.879143772496152, 46.27362684686297], [6.878386161270959, 46.2740717727838], [6.878208824602808, 46.27390197809317], [6.8779479000721055, 46.27370380876783], [6.877737141478023, 46.273566006893844], [6.877630206699272, 46.273503314434436], [6.877524905603161, 46.273428179693056], [6.877216280612338, 46.27322045211372], [6.877103602904359, 46.27313493516539], [6.8770554650005655, 46.27302176195659], [6.877046186819877, 46.27290671328345], [6.876965382465308, 46.2727736768079], [6.876918095605156, 46.272723721452074], [6.876830541642609, 46.272666297140695], [6.876750135534295, 46.272638963453495], [6.876669527919019, 46.27263234605621], [6.876633453969164, 46.2723627773769], [6.8764517210072515, 46.27144389419853], [6.876651310147703, 46.27141908920983], [6.878125842802899, 46.271040982586406], [6.878659333494479, 46.2709193189558], [6.879577082591627, 46.27088342035745], [6.8806397631420095, 46.27090587442637], [6.881088525559678, 46.27087508682239], [6.881528617578753, 46.270829500384195], [6.882557125092336, 46.27084853797158], [6.886238407373425, 46.27076209289156], [6.886643612454829, 46.271402598197504], [6.886790728498422, 46.27160174681508], [6.886987509528054, 46.272171530001515], [6.88743534168382, 46.272898230769066], [6.887813360768956, 46.27347596916445], [6.887809728494012, 46.27366371964171], [6.887948267676856, 46.27441371035352], [6.887774726534391, 46.27510258009786], [6.887880891140755, 46.275328163295065], [6.888204846364732, 46.2758648843653], [6.888675522311737, 46.27641978119332], [6.88922593735211, 46.277312300326734], [6.889461336560627, 46.277600124234695], [6.889922946773659, 46.27806257610563], [6.890230765390282, 46.27849234436398], [6.890658226132049, 46.278806115900124], [6.891033711551923, 46.27933254583372], [6.891168295356862, 46.279495464543075], [6.8915664036312485, 46.27973497172625], [6.891983553356581, 46.27994052039803], [6.892415600786375, 46.280316306357165], [6.892602488295315, 46.28077086024395], [6.892517038314557, 46.281204000543426], [6.89207411238013, 46.281801570706385], [6.892910891060987, 46.2824578955265], [6.892897584654787, 46.28287258221954], [6.892765592579688, 46.28349123219868], [6.892689523396362, 46.28395882570622], [6.892612286805784, 46.28430257840036], [6.89276176009654, 46.28479659458509], [6.89284690905154, 46.285217801970404], [6.893044711301604, 46.28522127628643], [6.893208389524838, 46.285578183406905], [6.893528351450972, 46.28587535584014], [6.893661214808069, 46.286334566901324], [6.893557651391981, 46.2865481968342], [6.893426933406644, 46.286858339808404], [6.893085303639912, 46.28705994525065], [6.893073914720661, 46.28741329384503], [6.893111485512241, 46.2876489229815], [6.893140698087294, 46.287725987000826], [6.892914808628849, 46.28820185914913], [6.892873533050202, 46.28860136855269], [6.89286900262484, 46.289172813436565], [6.893031617203495, 46.28985727294338], [6.893001051957455, 46.29050281746312], [6.89275857343031, 46.29084262152788], [6.893013802144105, 46.291388171472846], [6.892398943376804, 46.29180262047144], [6.89658742848643, 46.293512257846565], [6.896674764837026, 46.29367749948771], [6.896544502106686, 46.29389639016459], [6.896304261932298, 46.29414558194594], [6.895900672573536, 46.294442412392435], [6.895729935991129, 46.29465919236213], [6.895392935812317, 46.294994222773255], [6.895107598684171, 46.29534072809752], [6.894868273577707, 46.295537402659455], [6.894628069866371, 46.295613150338596], [6.894202670569585, 46.29580507543126], [6.893796964181412, 46.29610594244268], [6.893662770452661, 46.29626082169953], [6.893301652115768, 46.29656278276972], [6.893019739819783, 46.29677784651686], [6.8927186476201845, 46.2969191616359], [6.892349831407651, 46.297128857556785], [6.892766725881205, 46.29724582202028], [6.8933527127341705, 46.29772871611078], [6.893659890612103, 46.29777352107713], [6.894125572783522, 46.297796563100526], [6.89494153421828, 46.29785972254821], [6.895549170904455, 46.297913219031784], [6.896121510797489, 46.297943064664025], [6.896812437495556, 46.297942999911925], [6.897333185917175, 46.29804213086764], [6.897672875165287, 46.2980900952775], [6.8983862728975005, 46.29815732553325], [6.898843173673, 46.29817643767112], [6.899323268841305, 46.29817586838267], [6.900796377426666, 46.29827381049384], [6.902020833698522, 46.29805486985938], [6.904374747796164, 46.29794420731056], [6.907179983716302, 46.29785074826383], [6.907527142437033, 46.29741368228802], [6.90769292221731, 46.29732417083585], [6.907986499343405, 46.29736864067365], [6.911361509991068, 46.29921067681796], [6.911529367751735, 46.2993065550617], [6.915509166970434, 46.30147026198573], [6.917334109044732, 46.302344927825445], [6.915363302192136, 46.30533843751077], [6.915416842115596, 46.305357666785554], [6.915455845137049, 46.3054440724626], [6.919455973288672, 46.30687898097516], [6.919603802819797, 46.306847176624565], [6.919761044302069, 46.3068952617215], [6.916517544481482, 46.31190920959084], [6.915030361736188, 46.314231819645826], [6.914779730264229, 46.31458316767362], [6.914638895911407, 46.31475246344328], [6.912606383920633, 46.3168820965447], [6.911993196338776, 46.31753554748884], [6.911511405185566, 46.31810152142133], [6.911002329116034, 46.31875920429331], [6.910554957782376, 46.31941229768664], [6.9107068702044225, 46.319461306935715], [6.912551342344412, 46.31991107723905], [6.91264562524961, 46.31994507970596], [6.923882208113698, 46.3226744813744], [6.932272346628269, 46.324437875058045], [6.932320059221865, 46.32420223674437], [6.932360745695184, 46.32396670185361], [6.93239330895086, 46.32373057278929], [6.932417748016431, 46.32349396652043], [6.932434171169923, 46.32325225068921], [6.932442050389084, 46.323000799083005], [6.9324407242044535, 46.32274927923079], [6.932434745392661, 46.32258165146581], [6.932424688692782, 46.32241411337424], [6.932410527671119, 46.32224671881143], [6.93239230097978, 46.322079503930844], [6.932370008069069, 46.32191253169984], [6.932096484323915, 46.32008065761225], [6.931824865784197, 46.31834973340485], [6.931803089525824, 46.31819173220538], [6.931785431365072, 46.318033488598296], [6.931771890848855, 46.31787504756725], [6.931759314008948, 46.31763714185736], [6.931756034433415, 46.31739910696153], [6.931758998207455, 46.3172403981575], [6.931771193311665, 46.31700248668553], [6.931784489060658, 46.3168440401581], [6.931812001404759, 46.31660778068441], [6.931848565199601, 46.316372632329234], [6.931877991671251, 46.31621628223607], [6.931911477982864, 46.316060319178156], [6.931948984654179, 46.31590479695733], [6.931990511142259, 46.31574976953492], [6.932060275402296, 46.31551825144191], [6.932111771420592, 46.31536467203952], [6.932167220724902, 46.31521174905483], [6.932320747656776, 46.314831410906265], [6.9331652920689475, 46.312846463440756], [6.93328115830625, 46.31252315985077], [6.9334192888249335, 46.31199903434785], [6.933514282257486, 46.311606882177315], [6.933573789157563, 46.31134501945218], [6.9338224017437895, 46.30987249166519], [6.933855995532068, 46.30969280663], [6.933912047230559, 46.30942380363188], [6.933974880636344, 46.30915554158518], [6.934044508049843, 46.30888808350984], [6.9341208637977925, 46.308621501061204], [6.9342182013201885, 46.30831248910875], [6.934288143418162, 46.308107256310315], [6.934362102696461, 46.30790270708936], [6.934440065898172, 46.30769886839075], [6.934522006509339, 46.307495794048926], [6.935093504465831, 46.30619226978982], [6.9356317270051875, 46.304977527026], [6.935721846771793, 46.3047467542247], [6.935780111945367, 46.304572054288876], [6.935814479098154, 46.30445490202927], [6.935872400335664, 46.30421922694188], [6.935915906555137, 46.30398148157547], [6.935944795759121, 46.30374247468765], [6.935958932584643, 46.303502826385504], [6.93595987296071, 46.30332295043271], [6.935928375505731, 46.30217143701421], [6.935892948718624, 46.301025303587465], [6.935896578517471, 46.30082134884992], [6.935907295214831, 46.30062856248283], [6.935932582144583, 46.30037192579109], [6.935959761673676, 46.30017993238388], [6.935994009686327, 46.29998846521276], [6.936021734116527, 46.299856674150966], [6.936089650259302, 46.29958523119831], [6.936171734168802, 46.29931566841884], [6.936267904189212, 46.29904837223692], [6.936509917117651, 46.29844999543243], [6.936562438499609, 46.29833816827858], [6.936618378542367, 46.298227147937105], [6.936708613570578, 46.29806219727291], [6.936772968652134, 46.29795338225856], [6.936875706989896, 46.297791995417974], [6.937024125083659, 46.29758048893054], [6.937185348579152, 46.29737352804245], [6.937359088115385, 46.29717151622173], [6.937544871664759, 46.29697496407693], [6.937742306497631, 46.29678422963684], [6.9379512355002575, 46.296599456085275], [6.938171227285704, 46.29642097428179], [6.938401954150443, 46.29624913355158], [6.9386429593736425, 46.296084201676706], [6.938893824693873, 46.29592650059403], [6.9400210967559, 46.29526848563396], [6.941319712259878, 46.2945156071805], [6.941545944900945, 46.29438895321302], [6.94177719709719, 46.294266737830384], [6.942093020215361, 46.29411082692218], [6.942335294026158, 46.29399929192511], [6.942499337906153, 46.29392752488007], [6.942833049827555, 46.29379041080445], [6.943173895950028, 46.293662007999835], [6.943433921117445, 46.29357152678432], [6.946621270965601, 46.292534647512475], [6.9469295433766725, 46.2924259632115], [6.947133287956337, 46.2923511689128], [6.947536413713054, 46.29219600082936], [6.94793396010799, 46.29203332262536], [6.948228898325487, 46.291906117462446], [6.948520173164307, 46.291774874474186], [6.948807602653674, 46.291639628973826], [6.949125832285357, 46.291483448195855], [6.949379908116564, 46.2913525095146], [6.9494641182298595, 46.29130758066994], [6.949669705680423, 46.29119592507666], [6.949976834759202, 46.29102248485763], [6.950178366452649, 46.290904162901356], [6.9504718912571475, 46.290725103073164], [6.95066305140744, 46.29060400068493], [6.950944794763515, 46.29041865463583], [6.958550500476413, 46.28522227121592], [6.9587067313146544, 46.28510860824997], [6.958860032825995, 46.28499305250093], [6.959084435212391, 46.284816240522254], [6.959230236867513, 46.28469610954227], [6.959345674421092, 46.284596683672895], [6.959474116356651, 46.28447922235059], [6.959608185799466, 46.28435036914352], [6.959707328770637, 46.284250522911506], [6.959803744901353, 46.28414939660471], [6.959943108105376, 46.28399537727195], [6.960025156492963, 46.283899047571445], [6.9601433798266825, 46.283752629733975], [6.96025570563355, 46.28360397381474], [6.960331193613203, 46.283496650222716], [6.96043934705318, 46.28333399701317], [6.960515223669576, 46.28321046453376], [6.960671788472238, 46.28293260028684], [6.960820551915749, 46.282640219594505], [6.960855929220733, 46.28256565939114], [6.960954599649824, 46.28230519037951], [6.961039052385064, 46.28206495560239], [6.961114244941341, 46.2818345319563], [6.961183981744158, 46.281603293568544], [6.961519145579168, 46.280553886752045], [6.961709928793143, 46.27992419684027]], [[6.913898490562951, 46.29873492243738], [6.910614853752273, 46.29739711989437], [6.910556134643166, 46.297236305770824], [6.911029799347736, 46.295749225629066], [6.911269277946201, 46.295040852894616], [6.911483698721313, 46.294344983883974], [6.911746338485086, 46.29342999457699], [6.91202671468388, 46.292527807416135], [6.912170696502429, 46.29209060730785], [6.912265001744832, 46.29204374692172], [6.9160864774417625, 46.29414408618186], [6.919811936610404, 46.296183393211855], [6.919828567380807, 46.29631169608794], [6.9171725935147395, 46.2999471113813], [6.916996907641928, 46.29999995990794], [6.913898490562951, 46.29873492243738]]]]}}]}