{"type": "FeatureCollection", "features": [{"type": "Feature", "properties": {"bfs_nummer": 6156}, "geometry": {"type": "MultiPolygon", "coordinates": [[[[6.820809160538599, 46.22991748047567], [6.820805294008723, 46.229958831219534], [6.820801691663575, 46.229997512363525], [6.820585825947228, 46.23041006684565], [6.820652790914602, 46.23068104507878], [6.820739258364012, 46.23074772022921], [6.82078506296454, 46.231021642659876], [6.8207581667921815, 46.23119011285343], [6.820772585115054, 46.231425658416455], [6.820923083626486, 46.23176193999149], [6.821054532062299, 46.23187900466713], [6.821146453675598, 46.23222545242555], [6.821206563593364, 46.232315460869515], [6.821850820333522, 46.23259402928503], [6.822013025707256, 46.23268778050892], [6.822708180009751, 46.232941806483105], [6.823025185338379, 46.23291834602081], [6.82311536980525, 46.232965275290866], [6.823236150356444, 46.2329306336396], [6.82375836306142, 46.23301587271281], [6.823972801684283, 46.233097014765505], [6.824120398428304, 46.233322877118496], [6.82434990443169, 46.23327192306797], [6.8245765255818345, 46.23332248059708], [6.824799584156033, 46.23345548380458], [6.824895475893961, 46.23358832559739], [6.825087653728027, 46.23360799092357], [6.825646450856164, 46.23389140961717], [6.826058279308862, 46.233896171011835], [6.8265285502959046, 46.233939814921975], [6.82676069269334, 46.234126703688794], [6.8274223812620285, 46.234069060417504], [6.8278665852752605, 46.23400655767172], [6.828232786638822, 46.23390504067474], [6.828425352832406, 46.23382692718821], [6.828619602938813, 46.23380435509023], [6.828877000157059, 46.23383226592148], [6.829072681339399, 46.233811407970464], [6.829381986129855, 46.233921108440285], [6.829700447021478, 46.23397158353487], [6.829962575732846, 46.23408404211726], [6.8301910006747715, 46.23414788442807], [6.8306521480118665, 46.23439215115093], [6.831608289932005, 46.23524340684739], [6.832048951901209, 46.23554990265978], [6.832497055222578, 46.23596136426185], [6.832653018660878, 46.23604653758569], [6.8328293700468095, 46.23618569801618], [6.833274194532722, 46.23658520943497], [6.8334090516794195, 46.23677792454989], [6.8341029586775655, 46.237457441071776], [6.834403797236482, 46.237795040378344], [6.834486117325944, 46.23856733423426], [6.83492504549604, 46.23929492369802], [6.835077661677255, 46.23944687049393], [6.835336733410423, 46.23960562870695], [6.835610760177945, 46.23971372072903], [6.835885430626538, 46.23988076601071], [6.836168774069168, 46.239989600223105], [6.836386965063027, 46.24019478240066], [6.836668203085243, 46.240349941957966], [6.836948395191639, 46.24058209071523], [6.837151689900169, 46.2407994356541], [6.837280543633291, 46.24103878306507], [6.837338454898208, 46.241365821672886], [6.837351184400692, 46.24166107915305], [6.837393907783304, 46.24173223011688], [6.837309902490768, 46.24184378052859], [6.837359698560602, 46.2421555360087], [6.837447937282528, 46.2424930896655], [6.83766957510171, 46.243099323377386], [6.83771848807142, 46.243330660127384], [6.837792647294075, 46.24347629275519], [6.837922451813525, 46.24360933911152], [6.838021090905972, 46.24401409308564], [6.837967991311486, 46.244417851913354], [6.837839691920061, 46.24489047903087], [6.838669515546621, 46.24628960153964], [6.839317241493326, 46.24723864203761], [6.839351168602, 46.247562203854436], [6.839796094954543, 46.248221022851], [6.84079817949465, 46.248337251599686], [6.842935672241719, 46.24860184646096], [6.845806161648935, 46.24968025848819], [6.850518516203391, 46.251599117428114], [6.851981479708115, 46.25214280254673], [6.854047477087938, 46.25385583674641], [6.855414336030535, 46.25520654319737], [6.854980389110745, 46.257006725274145], [6.854451387563152, 46.25929746180218], [6.8559202783943745, 46.258120250885305], [6.857037134445036, 46.25712329414319], [6.857538409479836, 46.256051979506374], [6.858560393133209, 46.25518864736331], [6.859727035287875, 46.25442593155827], [6.861624290009773, 46.254088170598216], [6.862799081275158, 46.2542137250731], [6.862948479396188, 46.25379986869099], [6.868651813611727, 46.25522740846206], [6.870002788653637, 46.2558668929723], [6.871279925242273, 46.25738241726168], [6.872918093971745, 46.258291433394575], [6.875269588588983, 46.259074284738986], [6.877827074139661, 46.258951632460175], [6.878708587801232, 46.25843334775454], [6.880503883837314, 46.25769151704711], [6.8829255198161325, 46.257517785388224], [6.883885196070067, 46.25775514402823], [6.884185100362963, 46.2582686732008], [6.884665617244825, 46.258773543933415], [6.884898441026957, 46.2586667373167], [6.8851291032056325, 46.25809886355866], [6.88575281923717, 46.257862543560734], [6.886063222641727, 46.257588333807185], [6.887547670759328, 46.25767411922964], [6.889154891111467, 46.25790037547985], [6.8895747355846195, 46.25690619537048], [6.890386939749602, 46.25595286861654], [6.891834098542852, 46.25472103548778], [6.894704210911673, 46.2540561455749], [6.895488738003098, 46.25278333361105], [6.897191426507842, 46.252058221388296], [6.898232599151124, 46.2516029030871], [6.898819096932659, 46.25178371978177], [6.899393003435788, 46.251676300053624], [6.899852520295255, 46.251847400601754], [6.902428813160534, 46.252073252035245], [6.903819403861234, 46.25242581680317], [6.904125167473355, 46.25264309110227], [6.905272393536538, 46.25330951824707], [6.905016025862925, 46.25375672100267], [6.904774560655292, 46.25429449481898], [6.904451153419163, 46.254986942366884], [6.90422930415688, 46.25542247752043], [6.904926268362418, 46.255842658068836], [6.905179083521161, 46.25590389126481], [6.90555277193046, 46.25616649886431], [6.905645120115467, 46.256171864625195], [6.905928888804679, 46.25638026074076], [6.906056270094083, 46.25651072515315], [6.9063181513485, 46.25667149236223], [6.906429716025889, 46.25676060017505], [6.906562082890111, 46.256766360887994], [6.9067195107847885, 46.2568787406746], [6.907032641883987, 46.25691163734819], [6.907231526262043, 46.25705769329489], [6.9072481346004695, 46.25710983019735], [6.907331341211954, 46.25713245040433], [6.907438265183523, 46.25718052345754], [6.9076558953348695, 46.257295767165644], [6.908124319209359, 46.257612489018875], [6.908363736504186, 46.257671043272914], [6.908705997562395, 46.25777612047559], [6.908804661270297, 46.25782568280547], [6.9091752986570585, 46.25767586365289], [6.909412034595364, 46.25755596186612], [6.909670368512493, 46.25744222560567], [6.910064689096398, 46.25715296888504], [6.911276260439627, 46.2571943524926], [6.911488890389884, 46.25716432878955], [6.911709712442046, 46.25707323412263], [6.912158121123221, 46.25713856580091], [6.912588700174544, 46.25656423057404], [6.913099285163216, 46.256643531433234], [6.913341934646792, 46.256603898861435], [6.913643752877714, 46.25672054679209], [6.920327804052681, 46.25494086295649], [6.920226328666922, 46.2546120580284], [6.920401821552995, 46.253884573424344], [6.920389609707997, 46.253710286622564], [6.921059682196789, 46.253816963885825], [6.921064270976053, 46.25385524407629], [6.921328227240279, 46.25377828804528], [6.921999973341015, 46.25364946665624], [6.922109934617791, 46.253556152899314], [6.922652000649234, 46.25357166641559], [6.922753706184625, 46.25356773201014], [6.922807385768387, 46.25332419948533], [6.922842285329769, 46.253003100235475], [6.923091603091362, 46.25257157577933], [6.923575232256302, 46.2524031288279], [6.923833690928138, 46.25236465320864], [6.92422787690455, 46.252326597328114], [6.924725753838629, 46.25241292044447], [6.924904913801715, 46.2525431218717], [6.924914145734278, 46.25272272891768], [6.925623232360403, 46.252623713480375], [6.9260094080261085, 46.25258935603816], [6.92630117162587, 46.25298460639144], [6.9262613454212865, 46.253215699243476], [6.9278261742699465, 46.25280557700997], [6.927958216385039, 46.2526616927924], [6.927912361890785, 46.25246467525375], [6.927741954247637, 46.25216569362794], [6.927680854390979, 46.25189118925612], [6.92772227795802, 46.251558513535706], [6.928553415925167, 46.25140323234516], [6.928908241809057, 46.25140179313096], [6.92945125310904, 46.25135162553158], [6.929625554176911, 46.251345367807836], [6.930250168315094, 46.25140448484835], [6.930533627026052, 46.251444073252564], [6.93069887103332, 46.25140376846667], [6.931561564633894, 46.251056529873885], [6.93180706750438, 46.25098502718009], [6.932131972357773, 46.25095897659621], [6.932174937414382, 46.250859838166], [6.93242712161958, 46.250925478031085], [6.932963165888894, 46.25116865256863], [6.933262118326176, 46.25095098942883], [6.933501828566028, 46.25078695521799], [6.933869275713552, 46.25067186192922], [6.933802076756251, 46.250567633451695], [6.934285618071766, 46.25052495223537], [6.9343973135683825, 46.250525370638705], [6.934489208489156, 46.25036523415616], [6.934531488668396, 46.25025974989306], [6.934919773690161, 46.250422076570636], [6.935054939714724, 46.250351181464296], [6.934820460554912, 46.249944101964225], [6.935370139218718, 46.249933572750265], [6.93571733337498, 46.24988289899711], [6.936473626323195, 46.24974476880155], [6.9363541397672375, 46.24961815158659], [6.936559011235723, 46.249449049852025], [6.936708737709884, 46.24952645911132], [6.936839728428339, 46.24965706702535], [6.936931043211465, 46.24976635819507], [6.9370985027725, 46.249691419234686], [6.937637621116889, 46.249430745451306], [6.937773455608105, 46.249512994142925], [6.937994699122643, 46.24957886227702], [6.9381504442766655, 46.249633797704554], [6.938155368153894, 46.249638407441246], [6.938201589598171, 46.24961370295291], [6.938152535473495, 46.249572923280155], [6.938293426751853, 46.24952723675954], [6.93829921223713, 46.249515738798415], [6.938519027905394, 46.249325514361836], [6.938638891575548, 46.249408843146306], [6.938692890905389, 46.24943786003549], [6.938902538499162, 46.249522512295464], [6.939021710195052, 46.249581089996106], [6.9394345536006, 46.249181557362434], [6.939534018360607, 46.24923276061789], [6.939597544381478, 46.249277750678914], [6.939641009649484, 46.24930028845709], [6.939710195874891, 46.2492415911601], [6.939743309152849, 46.249226425557524], [6.939951232276439, 46.24910359761176], [6.9398188113460435, 46.248964288206786], [6.939750199394998, 46.248880135147154], [6.9397048588898285, 46.2488077165302], [6.939639639050665, 46.24842654682619], [6.939655438582506, 46.248372282248205], [6.939705336610965, 46.248412938918044], [6.939722080045708, 46.24837729980997], [6.9398464989072375, 46.24818641102957], [6.939980230067814, 46.24804315983985], [6.940020860211691, 46.24798324776602], [6.9399880714672895, 46.24793201564378], [6.939944078364328, 46.247920459506766], [6.940985524669762, 46.24699853881952], [6.940463306700415, 46.246560451852936], [6.940050339078771, 46.24627880510013], [6.940107614737168, 46.245689682787315], [6.939998779291456, 46.245467914544946], [6.93994039514145, 46.24530120775629], [6.939503103451412, 46.24495176666343], [6.938383673780447, 46.244702383277314], [6.938201289044364, 46.24464558470335], [6.937654302986211, 46.24409472029084], [6.937600182775062, 46.2440316713138], [6.9366608126515805, 46.24376211933523], [6.936142463279694, 46.24354626947246], [6.936024894219538, 46.243431184334035], [6.9356366256308775, 46.24322028336342], [6.935265526276034, 46.24283631116921], [6.935336372941658, 46.24270836210696], [6.935367497676699, 46.24250464680731], [6.936528729535658, 46.24178881292658], [6.93658910365902, 46.24167003953938], [6.936660345401107, 46.2415776279792], [6.936821620264635, 46.241493200722225], [6.9370391957116935, 46.24142348935384], [6.937069238402376, 46.24130251288734], [6.937037981873566, 46.24119846381426], [6.936892920353993, 46.24114479764103], [6.936706685383379, 46.24099543960175], [6.936572327385761, 46.24095786895154], [6.936510278391511, 46.24092131277829], [6.936024377139323, 46.24044409051515], [6.93544845191387, 46.2400095282231], [6.935389236635138, 46.23988704733156], [6.935374996473487, 46.23983863146103], [6.9349215509643765, 46.2394160003598], [6.934510912749878, 46.23917020917311], [6.934409266994249, 46.239057595432506], [6.934277824177121, 46.238473865642455], [6.934082939033055, 46.2382484774085], [6.933652931207301, 46.2379372328296], [6.9333267930624025, 46.237755946485265], [6.933275776931421, 46.23762529756666], [6.933230593621059, 46.237092247889095], [6.933041368087821, 46.23691717850412], [6.933945089468129, 46.23637725624743], [6.934194697902225, 46.23620266965466], [6.93481226663735, 46.23571685702438], [6.934858963466842, 46.23576277313005], [6.935298852060891, 46.235437977486], [6.93587715646176, 46.234881276268375], [6.93662231472493, 46.23386483468025], [6.936780985547153, 46.233916619029046], [6.9373326285320465, 46.23405504450872], [6.93796522700697, 46.23432448055855], [6.937889839399041, 46.2344108013508], [6.938287015777735, 46.2346127650812], [6.938695380418486, 46.23483047501231], [6.939291704974203, 46.23510041729181], [6.9395401003755515, 46.23515950413201], [6.939627180557174, 46.23477561090403], [6.93979042040034, 46.2343859101196], [6.9397729769562275, 46.23405402707281], [6.939734140948976, 46.23381414702454], [6.939459868249574, 46.23372654835443], [6.93936060308834, 46.23368916346015], [6.939236274144665, 46.23363131924642], [6.938951634595535, 46.233564460337405], [6.9385734500587875, 46.2334516049014], [6.938306357898151, 46.233007154404675], [6.9380038376673765, 46.23259275383848], [6.937832055509735, 46.23216105789974], [6.938210105383891, 46.231902312892224], [6.938457059225984, 46.23177861274879], [6.93852921702182, 46.231752494335275], [6.938493675835482, 46.23150747343408], [6.938229305078474, 46.23118800433892], [6.938257284626113, 46.23084985310474], [6.938045411600307, 46.230390455626896], [6.937885944897654, 46.230069058744014], [6.937980513723856, 46.22965638636401], [6.937897355450889, 46.22949823210398], [6.937750060342811, 46.22936686133397], [6.937585846758111, 46.22911230860532], [6.937625491905485, 46.22881246892912], [6.9379816373523235, 46.22828818811428], [6.937953376115793, 46.22764789105398], [6.938002553416904, 46.22737097806118], [6.938079046819574, 46.22704694031895], [6.938061706379726, 46.22648306497943], [6.937862241829328, 46.226074368028044], [6.937630069838933, 46.22581829024586], [6.9368245563208015, 46.22536648104519], [6.936546339211847, 46.225037726010726], [6.936284272854767, 46.22439119537897], [6.937372326500052, 46.222641584468455], [6.937176669166246, 46.221944604643156], [6.937411429726044, 46.22146622905534], [6.937710141843518, 46.221016331090745], [6.938156858126282, 46.22029879265238], [6.938564070524944, 46.22004317938472], [6.938518698866163, 46.21984603372454], [6.93821714768111, 46.21908243991472], [6.938166662212088, 46.218357662004934], [6.937948534724614, 46.21806301677457], [6.937528000206199, 46.217515157708945], [6.9373967948856015, 46.217126685072095], [6.937102463653387, 46.2171296128384], [6.936463944997202, 46.216840003784895], [6.936267749554891, 46.216741164570884], [6.936536998580428, 46.216351949995875], [6.936883926930422, 46.216110610668856], [6.93717178340917, 46.215810535035956], [6.9376273069162435, 46.21559666438104], [6.937616449883228, 46.215509358021805], [6.937628917266709, 46.21528182261059], [6.937651662556468, 46.215092025045614], [6.937673162061663, 46.2140794925923], [6.937629515644671, 46.213373505358966], [6.9375438259106454, 46.21305584631155], [6.9375177385337645, 46.21300276366546], [6.937421116573856, 46.21206993786917], [6.937347886614563, 46.21150901751967], [6.937327840001761, 46.210787933347305], [6.936321365014727, 46.209253519243184], [6.936869673546923, 46.20852820102587], [6.937807154772246, 46.208155913145575], [6.938780913614699, 46.20750092604178], [6.939885433212366, 46.20689833424747], [6.941005051242753, 46.20637046378442], [6.9417121068976275, 46.206026973294165], [6.943068022531904, 46.205452624111864], [6.943966206268937, 46.205116805757676], [6.943916020884408, 46.204287585410206], [6.943652453131486, 46.203778317251164], [6.943436639689437, 46.20346318192416], [6.943289946003076, 46.202752007493295], [6.943310612388083, 46.20233691757369], [6.943098534011611, 46.2015536154341], [6.943075271515026, 46.20118514584653], [6.943094271138124, 46.200205762244494], [6.943233592333553, 46.199132973858426], [6.943220591618245, 46.19876160915792], [6.941107885131968, 46.19957847443432], [6.940041261566639, 46.200268860638346], [6.936354536289594, 46.203203942418995], [6.935701120999748, 46.2037698142052], [6.935101164494877, 46.204072942762664], [6.934269646653118, 46.20479607616677], [6.933763294525377, 46.20518545310864], [6.933359380285605, 46.20543727625326], [6.9324646023874, 46.205976895905614], [6.931906994756194, 46.20636371526268], [6.931711445594408, 46.2066864567178], [6.931522393582748, 46.206912558548495], [6.931348499517992, 46.20708602325461], [6.931044060222337, 46.207144670320005], [6.930256654773749, 46.20703537144655], [6.929338406482316, 46.20737880798573], [6.928838475468153, 46.207422972972985], [6.9280791074714925, 46.207575277067996], [6.927716548102048, 46.207762237623314], [6.926978412912465, 46.20832593301151], [6.926740032763047, 46.20857000190538], [6.926135875008746, 46.20892158771374], [6.925275012925515, 46.20932642579506], [6.925156126331475, 46.20948016998702], [6.9247801815271925, 46.209734627649134], [6.9245943585233425, 46.20981395888355], [6.924213604325902, 46.21010637210822], [6.923683371424624, 46.21028895587383], [6.9235238195109705, 46.21042058087943], [6.9229686533587795, 46.21076944274827], [6.922886988135978, 46.21080003223748], [6.922590168789757, 46.21106414641694], [6.922540397088121, 46.21114055285124], [6.921872540703745, 46.21138664682691], [6.921778189753936, 46.21146742736404], [6.921553250459362, 46.211519415932024], [6.921198073353229, 46.21151937676378], [6.921140103860496, 46.21153116482492], [6.920657969440023, 46.211742588639055], [6.920582071788641, 46.211939822034246], [6.920204606103366, 46.21221519094379], [6.920018940212798, 46.21227376224388], [6.919461075449744, 46.212416572821276], [6.919349539483167, 46.212465858705194], [6.918936376472562, 46.21260049191221], [6.9185839161944855, 46.212555477877494], [6.917917454038224, 46.2128037945832], [6.9177197989272186, 46.2129040831499], [6.917496396287443, 46.21303798626576], [6.9172565971479765, 46.213191081590615], [6.917114217189682, 46.21332133803042], [6.91673751414901, 46.213513173571535], [6.916390306861115, 46.21375977627988], [6.916245539967369, 46.2138940426752], [6.915898557770458, 46.21412056298122], [6.91535257209517, 46.21434535014101], [6.914846037514078, 46.214436155544384], [6.914682129160287, 46.214395235536955], [6.914092768998277, 46.214556350031344], [6.913277863271919, 46.21470757514621], [6.9127122457245695, 46.21504551296686], [6.912143392427675, 46.215119157859775], [6.911461910768312, 46.21535052670733], [6.911102329842794, 46.2153223328626], [6.910563748057974, 46.215376833657416], [6.910226823210697, 46.21551743210928], [6.909738771722712, 46.215966559195785], [6.909177493941316, 46.216447499896326], [6.9090394146225105, 46.21652592419647], [6.908903492204908, 46.216610249043306], [6.908777274202026, 46.21667623330029], [6.907927852465246, 46.21706202135789], [6.907894093320854, 46.21707000352606], [6.907434414710958, 46.217279427661914], [6.907342119794247, 46.217356113153016], [6.90711247786106, 46.21760265678452], [6.9070377169103745, 46.217801093043974], [6.907083038429497, 46.21796100793928], [6.906747556185007, 46.21824286360762], [6.9066309710680605, 46.21829061182837], [6.906539615699945, 46.21808327753861], [6.906374348829006, 46.21799548189544], [6.905970618484368, 46.21787562225847], [6.905735373257222, 46.21802162072882], [6.905118057795847, 46.21814876376866], [6.903406172241882, 46.21845956676301], [6.903227334152301, 46.21865637342828], [6.902847747488607, 46.21892047856241], [6.9025673595808, 46.21896833597911], [6.901460762688589, 46.218853954163784], [6.900814816332322, 46.21879100120515], [6.900323945641243, 46.218603868752346], [6.899935253688681, 46.21854463047091], [6.89936443996198, 46.21847516529909], [6.899278756774749, 46.21844462010316], [6.89902355634898, 46.21828702830581], [6.8981162613752, 46.217957615603304], [6.897843690203272, 46.218048228068], [6.897396663242552, 46.218225433617675], [6.897161123416744, 46.218444009016785], [6.896828830672239, 46.21857099959038], [6.896143472907621, 46.21871666839225], [6.895773836072636, 46.21865466352294], [6.8951640556541225, 46.21847253182351], [6.893944528327156, 46.2184176336558], [6.893475417192216, 46.218175027694045], [6.893312043359111, 46.21820537287532], [6.892846151071972, 46.218174271213165], [6.8926768486310825, 46.21813419352005], [6.892169191270303, 46.21769190455267], [6.891417389054243, 46.21741673884701], [6.890329688118076, 46.21732031164423], [6.889332754661048, 46.217073235343435], [6.888073600551004, 46.21693722518144], [6.887951369373838, 46.216886135964664], [6.887270342077939, 46.21677328512941], [6.887028943945123, 46.21682635880344], [6.8863324387122145, 46.21722157348281], [6.885999587069845, 46.21735079694311], [6.884328830641901, 46.21742086309916], [6.883635766784338, 46.21722800495119], [6.88353841161102, 46.217223423908045], [6.882811399979134, 46.21752956197522], [6.881949449032556, 46.21721321137927], [6.881556104279159, 46.21713529099931], [6.880921627675467, 46.217023361506364], [6.880539493911649, 46.21713990226529], [6.880039877936183, 46.217188832382945], [6.877504820289259, 46.21673266484164], [6.877185133041426, 46.216727395114916], [6.876811283460021, 46.216770351658994], [6.8762544969646155, 46.21702156652856], [6.875878159179932, 46.21743974392084], [6.875363501605229, 46.217392538272485], [6.875129369788895, 46.21745709288241], [6.8746468120312665, 46.217511158370485], [6.874562010207755, 46.21755691882343], [6.874266890006793, 46.21758650549787], [6.873944864759762, 46.21768228315952], [6.873497843913515, 46.2176635288378], [6.872149028758894, 46.21756930980619], [6.871799931966268, 46.21766223845946], [6.871412301800472, 46.217544533080705], [6.871001697053162, 46.217516011542386], [6.870708955776761, 46.21753607479013], [6.870544832222793, 46.21763329365715], [6.870363614824881, 46.217630177276746], [6.870237047199927, 46.21768526890954], [6.870100806476516, 46.21766533177374], [6.869980962184201, 46.21774166889934], [6.869761483966244, 46.21777362249649], [6.869488069642712, 46.21770396489417], [6.869326954271833, 46.21769690878338], [6.869273471273172, 46.21763381227554], [6.8690586242952545, 46.217668989890534], [6.868730794913795, 46.21763150449933], [6.868644332569819, 46.21765348550254], [6.8682413549672425, 46.21758490796429], [6.868204070939184, 46.217619479736804], [6.867947273089545, 46.21754742941358], [6.867764462402561, 46.21756525214826], [6.867703213266267, 46.21763215940956], [6.867404350509765, 46.21772643475507], [6.86741137165971, 46.21775752396872], [6.86733336778798, 46.21780695749812], [6.866271906335459, 46.2178050965807], [6.862646878592951, 46.217279657231586], [6.860998474807579, 46.2170337573314], [6.860188531202905, 46.21681370821437], [6.859577851611393, 46.21680303775103], [6.859327759333156, 46.21676587872028], [6.858964902749667, 46.216293171138254], [6.857501631779855, 46.215604258683335], [6.855101709601288, 46.21446424701917], [6.8512033032344695, 46.21259745835144], [6.849309808247605, 46.211498193293465], [6.848230082493014, 46.21009135630958], [6.847987816526397, 46.208534631809776], [6.845967012340619, 46.20578220699805], [6.845430822186498, 46.20524288715033], [6.844638575372342, 46.20339593933831], [6.843208425220037, 46.20081012727933], [6.8418655539688, 46.20038005155808], [6.841160057841235, 46.199967781216074], [6.840946117423487, 46.20046815569071], [6.840023292905418, 46.20081255494473], [6.838543401916803, 46.20172810462739], [6.838872730347254, 46.20273640218093], [6.838772690659154, 46.203334452985885], [6.837428584667493, 46.204510512975105], [6.836991754260524, 46.20512663641923], [6.83610424675452, 46.20651309335301], [6.836078091984314, 46.206546507817734], [6.833986607220774, 46.20629094764661], [6.832552094735147, 46.207397099852386], [6.829806072083943, 46.21006905046492], [6.828860642499994, 46.210498065781216], [6.827686670614944, 46.21101480334153], [6.827240334057105, 46.21121631749041], [6.826445260342965, 46.211581636894174], [6.825653006590547, 46.2119236609857], [6.82575060819903, 46.2119442523585], [6.82580934957051, 46.21202103638592], [6.826116904287612, 46.212328575785705], [6.826167517276362, 46.21243680100998], [6.826169400394347, 46.21259510274215], [6.826189642462159, 46.21277666860479], [6.826241004358867, 46.21281502672321], [6.826394670287483, 46.21297778639739], [6.826418651135658, 46.213050683921516], [6.826467774753549, 46.21317736059991], [6.826623936106156, 46.21332352747626], [6.826762110633641, 46.213493957050275], [6.826827631308407, 46.21365483435069], [6.826916525508553, 46.21381724197875], [6.827079919976991, 46.21386445686597], [6.827304347912233, 46.21390030771822], [6.827459234498222, 46.213955122574454], [6.828038002084223, 46.21434508862482], [6.828681871055455, 46.214708407329596], [6.829029832102038, 46.214881228217315], [6.829144839918882, 46.2150257835669], [6.829342828209064, 46.21549354962794], [6.829499874930462, 46.215720383135476], [6.82971894220032, 46.21582951648521], [6.829913234422074, 46.21585750780335], [6.8301458465294065, 46.21589480074064], [6.830235950180091, 46.215949262134274], [6.83024769986223, 46.21605727592812], [6.8301293624033335, 46.21620956705174], [6.83017988633634, 46.216326785944396], [6.830385583205721, 46.216471838367575], [6.830694304124144, 46.21666465640838], [6.8309645485056105, 46.216843799436916], [6.831141307617113, 46.21700769333682], [6.831648248030734, 46.21750209201327], [6.831914927219367, 46.21772957508379], [6.832144905088908, 46.21790267803732], [6.8322602285973915, 46.21802026234412], [6.832540780431092, 46.21842658425582], [6.832643648686429, 46.21849911284129], [6.832786297072636, 46.21849088367061], [6.832902412714321, 46.218536486637284], [6.833456809300857, 46.21906754683241], [6.833530948509757, 46.21911560474468], [6.833851697168015, 46.219254791294894], [6.833930450611797, 46.219315665817234], [6.834006603376412, 46.21946000770327], [6.8343728516472, 46.21989102823257], [6.834569565230402, 46.22011074451895], [6.834736323231927, 46.22026456722055], [6.834933178637199, 46.22062105654444], [6.835105622387697, 46.220851283935275], [6.835836175626607, 46.221583882961085], [6.8359637503469255, 46.221764481912295], [6.835982532118534, 46.221888140390384], [6.835960058213423, 46.222097308962226], [6.835954582971439, 46.22226257871863], [6.835994833480091, 46.22246632503006], [6.836144282643271, 46.22268251147139], [6.836214791520314, 46.22291133788026], [6.836220856650339, 46.22321176899018], [6.83623057154738, 46.22341215872438], [6.836358750227283, 46.2235387853063], [6.836616457136727, 46.22367509912935], [6.8366800616297505, 46.223783397873206], [6.83665113796006, 46.224053119156295], [6.836715563121573, 46.22436697770691], [6.83645940757593, 46.22451259514394], [6.831773613950909, 46.22728141852928], [6.832027224605948, 46.228049779163435], [6.832418227294888, 46.22848261353169], [6.832822280972132, 46.22845562541401], [6.833132818765249, 46.22888650338829], [6.833250505694695, 46.229083874053146], [6.833546277837849, 46.229212849501735], [6.833795877622521, 46.22962269923709], [6.833915670968039, 46.22980586696085], [6.833681488638255, 46.23031386960201], [6.833121235529802, 46.230386242376504], [6.829950320165548, 46.22998448042824], [6.827444062131304, 46.22973901360673], [6.82567386539334, 46.22978507017617], [6.824625329009486, 46.22998492372458], [6.823711910194203, 46.230224465610505], [6.8222868720370355, 46.23044076223401], [6.820940562388128, 46.22995940881498], [6.820809160538599, 46.22991748047567]]]]}}]}