{"type": "FeatureCollection", "features": [{"type": "Feature", "properties": {"bfs_nummer": 6192}, "geometry": {"type": "MultiPolygon", "coordinates": [[[[7.843487761773913, 46.477868878373215], [7.844286017026835, 46.478114457622496], [7.844661572893303, 46.47850527916245], [7.845293792661164, 46.47844993952038], [7.8457748290354745, 46.47872044582857], [7.846118089979972, 46.478804311943925], [7.846628761870171, 46.47885718969026], [7.8471460152824175, 46.47885919339589], [7.847769246513475, 46.478777414155], [7.848188011837244, 46.47879097603039], [7.848623135154456, 46.478627519912344], [7.849022153866428, 46.47838235785647], [7.849477356096901, 46.47787902916343], [7.8499881270868, 46.47765583383173], [7.850324358997488, 46.47725837004146], [7.851384362167497, 46.47730765000871], [7.852488862831674, 46.477447820195735], [7.853143952609375, 46.47740460321643], [7.85672356155126, 46.477855099301024], [7.859797003687837, 46.47786284965437], [7.8614642699740225, 46.47818960692542], [7.862693970935147, 46.478180632843426], [7.8636759075595535, 46.47832843410124], [7.863999017900543, 46.478228932813536], [7.864332016359177, 46.478206568029975], [7.8644216979688855, 46.47830623948646], [7.8657924855735475, 46.47814776895556], [7.867543928823707, 46.478082175278516], [7.868294266381874, 46.47793792478399], [7.869925948846907, 46.47783391285419], [7.87043911772989, 46.47790608395636], [7.87116469641148, 46.47813945602349], [7.87191043168712, 46.47828858387768], [7.8725461277595254, 46.478278835018116], [7.872857486763139, 46.47842605664736], [7.873843471761575, 46.47841855086482], [7.874103804991292, 46.47848052629387], [7.87536011196375, 46.478308313094736], [7.876567028918243, 46.478429571065476], [7.877217160306849, 46.47864212574647], [7.87835707415052, 46.47868199247217], [7.878620059695323, 46.47881216660017], [7.879422428254817, 46.47902659858265], [7.880002077391158, 46.479085812681205], [7.880334307596442, 46.47926478843273], [7.880570465386259, 46.479486966708976], [7.880806816056063, 46.4795112805864], [7.881187613721689, 46.47943433282104], [7.882551191686702, 46.479842883899124], [7.883356720374, 46.48011855093619], [7.883810381200767, 46.48032485377383], [7.886293483869301, 46.48072863625082], [7.887061646972312, 46.48086941911267], [7.887349376094795, 46.480992817989524], [7.887702466151835, 46.48152148806647], [7.8887820361868295, 46.48233690327905], [7.889593242771886, 46.482515405957706], [7.890457278916506, 46.48303520986349], [7.890846497883523, 46.483331092369326], [7.891131451626956, 46.483349910883526], [7.8914817845689695, 46.48315262056393], [7.892623034823439, 46.48290781709153], [7.893493722246321, 46.48261377562433], [7.894367205767637, 46.48240574222059], [7.894830073193508, 46.48242292372468], [7.895305801340635, 46.482268163777945], [7.895886518772218, 46.48226045878679], [7.896375969157872, 46.482353811310844], [7.897657883752652, 46.4824314838223], [7.898090384271886, 46.48264103182127], [7.8987335115985315, 46.48312128525987], [7.898949664124279, 46.483237788553986], [7.900187405689326, 46.48395384499833], [7.900850269590747, 46.48447755331365], [7.901369195943182, 46.4846105290522], [7.902283526961855, 46.48554387590526], [7.903095706650531, 46.48575362001289], [7.904109407776534, 46.48586496511806], [7.904803384433606, 46.48607912210339], [7.905784855125762, 46.486549375406014], [7.905958968332226, 46.48678516880005], [7.905845806631568, 46.487107288962775], [7.9067716232207745, 46.486887717459936], [7.907848227956595, 46.48693491373185], [7.908208697640806, 46.48705023063051], [7.908611869768714, 46.487082445972966], [7.909066541383807, 46.487000847995176], [7.910147133170811, 46.48698506848722], [7.91040346821156, 46.486848924368935], [7.911136383581207, 46.48659216467308], [7.911592927566295, 46.48674170774587], [7.911967849661939, 46.486925088779074], [7.911856333864683, 46.48702910985987], [7.91199536768962, 46.48750370623922], [7.912481249110879, 46.48781691075817], [7.9127795667396565, 46.4880947941708], [7.91297128475673, 46.48853898378354], [7.913475123445507, 46.48854915331541], [7.914000140218936, 46.48880264579875], [7.91452220695759, 46.489327433254616], [7.915033805124232, 46.489695788340285], [7.91549566292747, 46.49020227744386], [7.915495410970186, 46.49040340494652], [7.916037059677562, 46.491104048401056], [7.916790393034069, 46.491555156611106], [7.917929617133013, 46.49167586682915], [7.918570796796022, 46.49169531885219], [7.9193715226204064, 46.49178705906063], [7.920109104256657, 46.491812750684886], [7.921807462561209, 46.491661358202684], [7.922280067219352, 46.49150657500442], [7.922793765933053, 46.491542543148796], [7.923146279854923, 46.491661576830914], [7.923634379211679, 46.4918995212825], [7.924850753681157, 46.493147870206194], [7.924895168643177, 46.49376100349277], [7.923461381396196, 46.4950733652597], [7.924145231282228, 46.49542089871853], [7.924581196852231, 46.49559293475165], [7.925315386100042, 46.49603686238562], [7.925585256563533, 46.49639053052755], [7.9258885827016, 46.49667042341159], [7.926484289814973, 46.49678876456025], [7.9275031276339325, 46.49726797150462], [7.928622698734832, 46.49743736161364], [7.929909117209142, 46.49758049276663], [7.9312124944208575, 46.49808034685361], [7.932643113069669, 46.49822379841526], [7.932961275497229, 46.49810559562131], [7.9331806395321385, 46.49787974618345], [7.9333472692110645, 46.49758215193168], [7.933409362201993, 46.49724903726522], [7.933273102815154, 46.49659291853594], [7.933270054664706, 46.49626008739156], [7.9328336307169325, 46.495542313039884], [7.932765389358868, 46.495200768437385], [7.9329289647498555, 46.494570340645495], [7.93350852316595, 46.49384813121504], [7.934605747197935, 46.492763822446456], [7.935403785288427, 46.49172578971191], [7.936086899663005, 46.4909401562367], [7.936889192360665, 46.49036989415488], [7.9373400602045265, 46.489828160189724], [7.937467818662176, 46.48955771738356], [7.938028784381548, 46.488924183159085], [7.938110541878415, 46.488637309751496], [7.937976581884623, 46.48823308162939], [7.938274466444099, 46.488051856174245], [7.938689975258145, 46.487915092034015], [7.939013652610315, 46.487706753554015], [7.939245405574569, 46.48741786806471], [7.939183485379551, 46.48702996144998], [7.939563689251582, 46.486624819839925], [7.939951713405249, 46.48633524594863], [7.940170778285314, 46.48608239787557], [7.940141809310848, 46.48576770000412], [7.9397725581088165, 46.485274623095016], [7.939641916482448, 46.485230231660104], [7.93963965995339, 46.48498738087837], [7.939998436597579, 46.484356124520595], [7.940255311778207, 46.483968179286535], [7.940382863662434, 46.483679779409115], [7.940340873565701, 46.48336513166729], [7.940274488057827, 46.48323051441076], [7.9413129667536815, 46.48286605611007], [7.941546114913301, 46.4827300852861], [7.941936112874961, 46.48265636399178], [7.943134430366637, 46.48267795449273], [7.9441081751307, 46.48235875530227], [7.944926663900718, 46.48214817121654], [7.9459003807105395, 46.481828954213555], [7.946225521125835, 46.48178249419071], [7.946512687054698, 46.4818531451438], [7.946903515437498, 46.48186937095566], [7.947422736177688, 46.48168712394928], [7.948328756087042, 46.481098328648386], [7.949017304919631, 46.48020558261277], [7.94933087075671, 46.479654576921384], [7.950673542709432, 46.4797707705914], [7.95167651188907, 46.479823745455725], [7.952192933115993, 46.479353631872605], [7.952347067215323, 46.479128065749684], [7.952710982898745, 46.4790544353228], [7.953191335944362, 46.47889931581651], [7.954335253044806, 46.47868718669541], [7.954880261222702, 46.47848680275935], [7.95546278645008, 46.47812431201166], [7.955979770882046, 46.477717138771226], [7.956432674063346, 46.47741820609408], [7.956729137701749, 46.47710201192683], [7.957337076757006, 46.47667643560379], [7.958023901925195, 46.47633144484804], [7.9586324194650295, 46.475968804133394], [7.959216612946667, 46.47578618663628], [7.959580591153614, 46.47572153214581], [7.959839445145466, 46.475558418917934], [7.9605549630013686, 46.475492142137455], [7.961684159256769, 46.47542486414571], [7.962377401833206, 46.475438761608565], [7.963092857045185, 46.47536348582773], [7.96331333474745, 46.475272509933895], [7.9636086872294145, 46.47484832389269], [7.963606511027393, 46.47462343796437], [7.963409032644634, 46.474399455283105], [7.963276209291694, 46.47413018643777], [7.963299210130284, 46.47381523258344], [7.963425057512051, 46.473364899225956], [7.9635209127445075, 46.472509933340156], [7.963517423869305, 46.47215015802694], [7.963706163872088, 46.47147465930698], [7.9639652493026425, 46.471338517598795], [7.964119482646319, 46.47113091346911], [7.964489042495893, 46.47094793215846], [7.964679083288682, 46.470407349204784], [7.965233905687774, 46.46888686489573], [7.965545817219024, 46.46801381180656], [7.964251039245701, 46.467603166930715], [7.963453418585549, 46.46779096971324], [7.9631867591931105, 46.467770950627155], [7.9628066055532605, 46.467673567514815], [7.9621261501075145, 46.467258860809146], [7.960915038392153, 46.46708030119517], [7.960309971864356, 46.467040581003076], [7.958635544827981, 46.465575232562855], [7.957799828188023, 46.46499128258505], [7.95719429604062, 46.464901991492916], [7.956110621208854, 46.46410671500178], [7.955849546010201, 46.463598028630635], [7.955534003809405, 46.46274965854985], [7.955686296226686, 46.46260024611154], [7.955231854402819, 46.46222699062678], [7.954950547577093, 46.461746709012274], [7.954578614533, 46.461429725710424], [7.954389710515555, 46.46096320000258], [7.953602507890438, 46.46008156777738], [7.953189402041731, 46.45974352603412], [7.95201532456766, 46.45912565309724], [7.951921094622243, 46.458913617511364], [7.951468875661209, 46.45877403575487], [7.951047081499808, 46.45859887939942], [7.949510224793768, 46.45753649689302], [7.9490345422825985, 46.457078328663115], [7.9489437134947, 46.45613689227708], [7.949051638785866, 46.45562652780682], [7.949018684755347, 46.4553929817796], [7.948697855918193, 46.45505450595992], [7.9485315831713566, 46.45480738143014], [7.948239559805607, 46.454263415275726], [7.946993771208293, 46.45253399592334], [7.946947740671306, 46.45199600792036], [7.946641080636662, 46.45157263451635], [7.94632609350903, 46.45126228765889], [7.945925403116076, 46.451143684292155], [7.944916430627935, 46.45062414543289], [7.944700625711323, 46.450554289789956], [7.944277652695132, 46.45024458313705], [7.943904389500677, 46.44977176226064], [7.943449182915419, 46.4492993050254], [7.94295121175613, 46.44863583630211], [7.942642954595602, 46.44853805630988], [7.942243071990216, 46.44850444301691], [7.94202513778297, 46.44820795040135], [7.941447557017149, 46.44779269229031], [7.940304661142352, 46.44718163169513], [7.9396648306891136, 46.44668164681043], [7.938768597607084, 46.44614740232743], [7.937873250207411, 46.44571227518644], [7.937633472049907, 46.44526009435381], [7.937240725457045, 46.44488649216884], [7.935828931694975, 46.44398622111878], [7.935642592470762, 46.443774572200006], [7.93369803861145, 46.442862454474195], [7.933143113413541, 46.44267365414277], [7.931706720325419, 46.44243204500111], [7.930915364008812, 46.44215219299726], [7.9303797829607685, 46.441835842570406], [7.9293561188690065, 46.440785116921006], [7.928787580483822, 46.44053995278836], [7.927763965582943, 46.44030335157393], [7.925678608081069, 46.43965370479096], [7.924954968926828, 46.43892029872331], [7.924460729993564, 46.43749192692423], [7.9241621601610905, 46.43732324561215], [7.923833062810712, 46.43717595151204], [7.923130663250211, 46.43652035563304], [7.922226773982099, 46.43624093177146], [7.921457923600616, 46.436173370322834], [7.920808163432686, 46.43567333897377], [7.920541113534532, 46.4355894972732], [7.919825336154516, 46.43565473996977], [7.919680237845075, 46.43553650051266], [7.9194721036789035, 46.43516912524563], [7.918504793941991, 46.43466334029562], [7.917916917210383, 46.43420551958571], [7.917617076937151, 46.43388811140458], [7.917018777598851, 46.433409083054585], [7.9159391769817065, 46.43293915656996], [7.915720735335099, 46.43255765906732], [7.914822958508433, 46.43179662009468], [7.914519354449239, 46.43104722868267], [7.913611524098754, 46.43030038083573], [7.911863020680852, 46.429457872579384], [7.911004595110072, 46.429673905304064], [7.910498458378072, 46.42918030409007], [7.909849680696333, 46.4287722681629], [7.908565302866538, 46.42828896281288], [7.908500528211899, 46.42790682193604], [7.9079419378305795, 46.42726470955837], [7.907494417994714, 46.426438014378704], [7.9070419934390035, 46.42622744248074], [7.906911852525808, 46.42538529273309], [7.906300869385854, 46.42460174438225], [7.904669417078931, 46.42423311952296], [7.90349652658174, 46.42360058407906], [7.902554114443722, 46.423569021938256], [7.9024002731121605, 46.42354134011585], [7.902348104592951, 46.42342824027185], [7.9023850292048055, 46.422957145487736], [7.9020749829131685, 46.42262558651333], [7.899672299708566, 46.42187053967896], [7.89872920069585, 46.421753992867366], [7.8979085569023155, 46.42158734993796], [7.8975284209105014, 46.42144017535654], [7.8968076896941435, 46.42097570730056], [7.895625108158358, 46.420385626295015], [7.895284981698212, 46.42012497285158], [7.894484802365708, 46.41995115502953], [7.894185075686224, 46.41961953001804], [7.893925640055881, 46.419209856900046], [7.893891481926175, 46.41894088888536], [7.8934672846555, 46.418877697057546], [7.892311729370129, 46.418736156822504], [7.891839944243061, 46.41870430298306], [7.891328473561125, 46.418622239776504], [7.890050809884104, 46.41826748963513], [7.889373702847362, 46.41818021328619], [7.8888781115267985, 46.41802025866924], [7.887963543382936, 46.417529108695646], [7.887479201299275, 46.41715319970008], [7.8861035141751605, 46.415944218972584], [7.885475672971017, 46.415514890421406], [7.884927418708741, 46.41527415956715], [7.883623285436644, 46.414847489045755], [7.883321057359265, 46.4144708527767], [7.8826432957238906, 46.414293601696194], [7.882250546071771, 46.413980280535185], [7.8817916750240204, 46.41353228336775], [7.88148866687339, 46.41305669081842], [7.881135320966717, 46.412788206652], [7.88074589609891, 46.41287967553846], [7.880121286156062, 46.41283712930701], [7.879534937781248, 46.41270446439331], [7.879077179314369, 46.41239138850369], [7.878528632711548, 46.412105647658706], [7.878331159006768, 46.41180956260413], [7.878222368663785, 46.411225234379025], [7.877829901172594, 46.410938888406655], [7.876462934060385, 46.41076428046899], [7.875719848832619, 46.41054224526296], [7.875003989696181, 46.4104730315709], [7.874482952272173, 46.410367093126176], [7.8735308636454935, 46.41002889686744], [7.872945637013144, 46.41003113527144], [7.871686201596565, 46.4102878401274], [7.8710371845027005, 46.410443248995506], [7.870479400266587, 46.41062529475836], [7.870084961806049, 46.41008703486305], [7.869666179148567, 46.40975579082596], [7.869274751587501, 46.40959535118451], [7.868689197490151, 46.40955259485292], [7.86851606420134, 46.409040488331875], [7.868317797223819, 46.408636432835756], [7.867963981712628, 46.40829594083447], [7.866271884172019, 46.408104443584705], [7.865647823728091, 46.408124778943666], [7.864906094061975, 46.408064607104464], [7.864254810874515, 46.40793212269105], [7.862885286603105, 46.407415493787056], [7.862103847969295, 46.407265484131685], [7.861060535284718, 46.4068825571133], [7.86075955500665, 46.40664079160684], [7.860626165574523, 46.406209495347525], [7.860687528198545, 46.40574148038076], [7.860658384757221, 46.405336788705874], [7.8602280369597235, 46.40517647060305], [7.858792410850177, 46.404507097862655], [7.857462446843074, 46.40404422655889], [7.856314499050713, 46.40357168742169], [7.854746745918463, 46.402614907340144], [7.852370066267133, 46.40129223383516], [7.850932141417564, 46.40028995126989], [7.851017500910299, 46.39954299194999], [7.851209324070283, 46.39911949773347], [7.85113852440504, 46.39835511518829], [7.850849416531675, 46.39795136529741], [7.850261403429003, 46.39756668709617], [7.848823283675965, 46.39651942647638], [7.848262524500325, 46.396296564265334], [7.84858519189231, 46.39598053296599], [7.849164823414335, 46.395258783230524], [7.8494828475537055, 46.39433105962665], [7.849543423870743, 46.39374610240385], [7.849837328791304, 46.39307036211386], [7.850058562548973, 46.392616722592976], [7.849534912349453, 46.39262167117041], [7.848687849030929, 46.39235485958953], [7.847517317627636, 46.392296112088665], [7.846671269207918, 46.392164218416426], [7.845603203354173, 46.39189817574065], [7.844391149553911, 46.391497702340885], [7.84358345456713, 46.39127568486105], [7.842019736469889, 46.39078649410126], [7.840389055544809, 46.39002763321726], [7.839828535452231, 46.389822709693796], [7.839413524363776, 46.38995911510067], [7.838855069719445, 46.39003305093417], [7.838179071231414, 46.39003542340129], [7.836617416887016, 46.38981602860829], [7.836057242199794, 46.38965607321087], [7.835014180123864, 46.38923691222617], [7.834493329943492, 46.38912179026883], [7.833973539922905, 46.3891505833973], [7.833129535504848, 46.38928847716654], [7.832260195866963, 46.38951639812337], [7.831897825088638, 46.38974256782531], [7.831098153088231, 46.39061794729984], [7.830903474998523, 46.39066360003519], [7.830188671880083, 46.39069306756863], [7.829695310123328, 46.39078473554958], [7.828372848101763, 46.39128405177184], [7.825973085284012, 46.39207485602262], [7.825388974081, 46.39221177647088], [7.824182403319464, 46.39257570324175], [7.8234697616644, 46.39291995678708], [7.823016926331499, 46.393236332499804], [7.8215662755383475, 46.394023874108335], [7.820815990266889, 46.39456614964123], [7.820402478311555, 46.39492738779562], [7.819910297223311, 46.39519891506796], [7.819495185518341, 46.39533524311843], [7.819238806486729, 46.39585785995925], [7.818876962604359, 46.396173927401115], [7.8184622911529535, 46.39637321708967], [7.817621840366721, 46.397050721391636], [7.816842828769762, 46.39721523611253], [7.816090363661169, 46.39746061690763], [7.815610835807052, 46.39768710682049], [7.815028395274617, 46.39807585835012], [7.814254168424471, 46.39893302411637], [7.813801369261748, 46.39926735772977], [7.813349246608422, 46.39970064055258], [7.812831915869332, 46.40010716392084], [7.812275061498139, 46.400441839558695], [7.811626329253299, 46.40065087236086], [7.810587418037979, 46.40085216871829], [7.810172738681556, 46.40106042852353], [7.808815642406172, 46.40227928169681], [7.808362671088986, 46.40259560965586], [7.807548149868582, 46.40329093338544], [7.806253409299657, 46.40413172343576], [7.805904556990307, 46.40446569502721], [7.805477531491748, 46.404781927126955], [7.805152922639082, 46.404854937488075], [7.80418043879613, 46.405280873107735], [7.80357182336401, 46.405669635806255], [7.802923720159312, 46.40598656748777], [7.802470490988484, 46.40627588665801], [7.801922889946997, 46.40731418646299], [7.801636480358443, 46.40758765103362], [7.801465485492678, 46.40777318539932], [7.8010987403255365, 46.408108547403145], [7.8010273452176015, 46.40797017780955], [7.801010101743069, 46.40795859227704], [7.800558911789187, 46.408348555959094], [7.800470832353461, 46.408434835664536], [7.80041551118516, 46.40850340657384], [7.7999968800794575, 46.408874408371744], [7.7997360785832885, 46.40877445808506], [7.799477710582755, 46.409019431844165], [7.799310756699059, 46.40897884231116], [7.799140776612373, 46.409144776730464], [7.798820152528124, 46.40949637412867], [7.7983643693153395, 46.40945592481954], [7.798247921357469, 46.40953836176283], [7.797375052531737, 46.410203288769225], [7.797011558326048, 46.410473742192764], [7.79677512748043, 46.41064225901113], [7.796732822021845, 46.41067988674592], [7.796524413248003, 46.41084402380978], [7.796223570195562, 46.41107470626288], [7.796054598842803, 46.411263807152146], [7.795782330272525, 46.411461806048486], [7.795421058997104, 46.41177995350543], [7.795428990523811, 46.41189260022991], [7.795320803138026, 46.41198474157835], [7.795109472150609, 46.41223999534239], [7.794813624553125, 46.41241548678843], [7.794609969258253, 46.412598370615356], [7.794487593860328, 46.41261161852847], [7.794345742477527, 46.41265962437521], [7.794241049179433, 46.41275556795768], [7.793980428648854, 46.413058308890406], [7.793760030191578, 46.41325121118833], [7.793694887650811, 46.413321465352034], [7.7935601935514525, 46.41345013964892], [7.793520896471332, 46.41350699852044], [7.7934140406699415, 46.41363268865773], [7.793199986715376, 46.413785935372246], [7.793047413136201, 46.41387565946366], [7.7930105191495365, 46.41394013030752], [7.792963871894891, 46.413982808435016], [7.792886136714885, 46.41403502858107], [7.792684980634587, 46.4142379718583], [7.792606971642609, 46.41428016271726], [7.792483629494945, 46.4143672758997], [7.7921655712655715, 46.41469408689916], [7.792046326050879, 46.414767450293674], [7.791883945687244, 46.41493781515422], [7.791701891444175, 46.41518306822954], [7.791516153295526, 46.41527598847503], [7.791442337408618, 46.41540135013709], [7.791415593554455, 46.41552909263593], [7.791433183340117, 46.4156579571604], [7.791383407869587, 46.41582812431812], [7.791290083841606, 46.4159399890324], [7.7912637496519395, 46.41606077674458], [7.791020649022249, 46.41622802597349], [7.790558109679552, 46.416427152648446], [7.790438737333713, 46.41681117496481], [7.790369629860392, 46.416881079600394], [7.790233522225015, 46.41693466607509], [7.790048967654613, 46.41715756923261], [7.790008309411627, 46.41733666652925], [7.789905753086372, 46.41739146231914], [7.789693575284669, 46.41760136975123], [7.789669671276682, 46.41774674329968], [7.7897354363237366, 46.41792199422651], [7.789791029414022, 46.41800059844195], [7.78981793256616, 46.41805968017017], [7.789804072096274, 46.41810070779016], [7.789815265121537, 46.41812793040613], [7.789909293212992, 46.41818815479809], [7.789919267407423, 46.4182119447267], [7.7899157832236305, 46.41823836704347], [7.789846844010545, 46.41834486462089], [7.789852463100939, 46.41837904038477], [7.789912110776536, 46.41841675516975], [7.789901331807365, 46.418481746936614], [7.789862161446384, 46.418533197747365], [7.78977149567805, 46.41862895900801], [7.78969656337098, 46.4186937174302], [7.78959966146269, 46.41885921457344], [7.789582109448667, 46.41894095943691], [7.78956416750108, 46.418994557811736], [7.789473365985769, 46.41912990082183], [7.7894632853477495, 46.419164151858304], [7.789473009270344, 46.41923782404252], [7.789503115811627, 46.41934568951961], [7.789560233205213, 46.419494960016806], [7.789586088670618, 46.419516586976734], [7.7896604095519395, 46.41954210392108], [7.7896745694135, 46.41965409284154], [7.789693345266883, 46.41971338901922], [7.789734889668044, 46.419745330721014], [7.789819475458235, 46.41977317218937], [7.789891045147082, 46.41978354832788], [7.789966625963617, 46.41982279763609], [7.7899520700511875, 46.41997962973618], [7.789956394528644, 46.420006693679724], [7.789931357785473, 46.42009362525064], [7.789948451616865, 46.420176342769906], [7.790020602927225, 46.42024439772085], [7.790036930788367, 46.42027907105596], [7.79009897006813, 46.42034633831547], [7.790211736711815, 46.42042721248129], [7.790259724468426, 46.42050999588704], [7.790356936288348, 46.42050470308066], [7.790446500674276, 46.420535838887105], [7.790487622133003, 46.420624850546496], [7.790543664708271, 46.4206999001537], [7.790571610013928, 46.42076886531866], [7.7906284392891765, 46.420822798999566], [7.790675439437965, 46.42085337401022], [7.790759908946355, 46.42089501488262], [7.7907942484078125, 46.42094700306779], [7.790799996188635, 46.42100494491469], [7.790780607838064, 46.421070125409116], [7.7907833812845775, 46.42113075725671], [7.790771334051008, 46.42121474303929], [7.790782146424185, 46.42128942837087], [7.790810385621969, 46.421343423731194], [7.790822565852924, 46.42140835360355], [7.790851388514371, 46.42146205021064], [7.790863665234115, 46.42149571938471], [7.790921003752451, 46.421549786299984], [7.79093537436869, 46.42160344654916], [7.7909849470452235, 46.421705610838956], [7.79106166078901, 46.42179265030965], [7.791214748667651, 46.4219323035517], [7.791280310765487, 46.42196859610772], [7.791336483818487, 46.42201729616871], [7.791404100502638, 46.42208141586556], [7.791479958035455, 46.42217461994383], [7.791509659052212, 46.422235213382244], [7.791567888699514, 46.42226400839219], [7.791605110501761, 46.422324902275705], [7.7916588407218965, 46.422429994971814], [7.791745529496274, 46.422556368642546], [7.7918467271174645, 46.42278149711472], [7.791876340432176, 46.42294647793581], [7.791901575165398, 46.423166301078226], [7.791958785710747, 46.42326625533083], [7.792017161223531, 46.42337727976984], [7.791973941075968, 46.423454301057305], [7.791986570695187, 46.42353604243193], [7.791867970027765, 46.42369168671737], [7.791706753079207, 46.42377727864547], [7.791602575198932, 46.423870456583266], [7.791569353686285, 46.42393288229351], [7.7914495990599635, 46.42403733497159], [7.79119319974477, 46.42410731740604], [7.785844909389654, 46.42560613670584], [7.7852615185922165, 46.42592277313338], [7.783249966760639, 46.42669353575248], [7.782835391515314, 46.426964665457994], [7.782446248952936, 46.42714576044838], [7.781731138348923, 46.42721089384988], [7.781434630120298, 46.427643586559704], [7.781045206198883, 46.42777969709924], [7.780629025812893, 46.427798942137144], [7.779940544325654, 46.42796294609543], [7.779681307130267, 46.42811665265835], [7.779422690196543, 46.428369302419874], [7.779033370722774, 46.42852340865867], [7.778488934272775, 46.4288398897726], [7.777583017111388, 46.42960722422304], [7.776768872389291, 46.43049123400665], [7.7759005486097275, 46.43103355613531], [7.775447516258509, 46.431412721344294], [7.774436045696922, 46.43195546431649], [7.773465523746477, 46.432812925437716], [7.773338067306789, 46.43324509709563], [7.7736072563044685, 46.43470161431286], [7.77273952849082, 46.43536085720636], [7.768689680961451, 46.439105933621065], [7.768410938322985, 46.439495537935954], [7.76882871213197, 46.43958229860511], [7.7699023210884155, 46.44014860756379], [7.770299014245726, 46.44073011324673], [7.7704975049533225, 46.441262154250815], [7.771541069565989, 46.44185703086585], [7.7722092661992095, 46.4423005926441], [7.7727465455555915, 46.44231149233647], [7.77347039180903, 46.44257993759431], [7.774704017864186, 46.44287189504089], [7.775463821586831, 46.4428297219554], [7.775733554003772, 46.44299327227149], [7.776277425934088, 46.442952620169024], [7.777971568629759, 46.4431335076054], [7.778479770587773, 46.44333754155338], [7.778981393360804, 46.44433898747432], [7.778274459158277, 46.44464376377989], [7.77829276809304, 46.44488883669616], [7.778889373696887, 46.445384978839], [7.779391188423558, 46.44602065620745], [7.7794141816557705, 46.44672962323427], [7.780852069367503, 46.44706390518516], [7.781313209193032, 46.447546781742936], [7.781812650140148, 46.44783896527602], [7.782345706018048, 46.448064278941715], [7.782889445550028, 46.44843229439493], [7.784519404691133, 46.4490734406623], [7.784807031044163, 46.44966805018903], [7.78537624956376, 46.450270355292574], [7.7854543169184, 46.45058722376389], [7.785992826675711, 46.45147231623812], [7.78737085581684, 46.45209243995877], [7.788596749843915, 46.45284102703849], [7.789125768766002, 46.45296857953937], [7.789672915448935, 46.453269717068046], [7.7902312938641955, 46.45338242280753], [7.791488905027951, 46.45348162607527], [7.7916588109683556, 46.453673993267024], [7.792430973427144, 46.453789015913664], [7.792630253941689, 46.45389844936683], [7.792552454084884, 46.454063502187196], [7.792966813925879, 46.454269696644886], [7.793253856855194, 46.45469137443419], [7.794092009344948, 46.455502014436185], [7.794813306749662, 46.45576565230116], [7.795024546599946, 46.4560335843868], [7.795834381628624, 46.45623830302151], [7.796572651299096, 46.45683495962162], [7.797030775759367, 46.457683580396214], [7.79774934117403, 46.45829835444655], [7.798330182083296, 46.45881399110718], [7.798703647421221, 46.45892941206661], [7.799629547906231, 46.459020285299005], [7.825465257553207, 46.46708379095224], [7.82653769692933, 46.46780458189707], [7.826558066865786, 46.46826865553789], [7.826107000115807, 46.468381513179864], [7.82589909937412, 46.46861864391383], [7.826222944096689, 46.469052731161874], [7.826555249864421, 46.469380527771975], [7.827511169847756, 46.47001951106612], [7.827861380785266, 46.4701241850151], [7.828503536693138, 46.47094529657628], [7.829410914198083, 46.47134838578414], [7.82991001713389, 46.47171991322169], [7.830323558933205, 46.471842202514964], [7.831312769015889, 46.47241317247182], [7.831897221809687, 46.47239326446025], [7.8324270211022045, 46.47246810012025], [7.832868246582553, 46.472595199003216], [7.834037682586192, 46.473098743070935], [7.835124148651036, 46.473784670192316], [7.835910671014544, 46.473914234099695], [7.836187687755042, 46.47415128442976], [7.837096690959056, 46.47430838087632], [7.837410998983484, 46.47455333052784], [7.838181173960061, 46.47477879498129], [7.838437366256924, 46.47505579084796], [7.839084008368322, 46.47533781345597], [7.839475869577939, 46.47564766854722], [7.839704351423953, 46.475723616541615], [7.8401080058901345, 46.47613267573988], [7.840477182654588, 46.47624530573266], [7.8418255519778395, 46.47691920724757], [7.841981103477247, 46.47707472599145], [7.8418712757491535, 46.47717374577296], [7.8420411549292, 46.477286077402724], [7.84220974943141, 46.47721833825403], [7.842375785058926, 46.47723605361493], [7.843167131898792, 46.477589653471206], [7.843487761773913, 46.477868878373215]]]]}}]}