{
  "type": "FeatureCollection",
  "features": [
    {
      "type": "Feature",
      "properties": {
        "source": "swisstopo SWISSBOUNDARIES3D",
        "source:date": "2026-01-01"
      },
      "geometry": {
        "type": "LineString",
        "coordinates": [
          [
            7.792310515012231,
            46.29677223201398
          ],
          [
            7.792404477902581,
            46.29666253310161
          ],
          [
            7.792818185131254,
            46.29647771127787
          ],
          [
            7.792943761725921,
            46.29644398090175
          ],
          [
            7.793047259266479,
            46.29642570205566
          ],
          [
            7.793080106034702,
            46.29635379563369
          ],
          [
            7.793045437022329,
            46.29632312966136
          ],
          [
            7.7930430282256085,
            46.29628002074801
          ],
          [
            7.792959303990829,
            46.296225624435344
          ],
          [
            7.792914336934082,
            46.296165988427994
          ],
          [
            7.79277096762283,
            46.29614971320888
          ],
          [
            7.792719679954772,
            46.2960999651574
          ],
          [
            7.792607570022617,
            46.29605700080442
          ],
          [
            7.792570827405449,
            46.2959727627097
          ],
          [
            7.79247486258032,
            46.295881872665156
          ],
          [
            7.79233636430144,
            46.29578416152607
          ],
          [
            7.792331633627861,
            46.295625186098945
          ],
          [
            7.792417939672316,
            46.29552779919324
          ],
          [
            7.7926846457227485,
            46.29540588456658
          ],
          [
            7.792729571353761,
            46.29534545504485
          ],
          [
            7.792795771959099,
            46.295305694175866
          ],
          [
            7.79324118769726,
            46.29523494529916
          ],
          [
            7.793426734524653,
            46.29521966594577
          ],
          [
            7.7935132309257735,
            46.29514592732483
          ],
          [
            7.7935588738160515,
            46.29486107923144
          ],
          [
            7.793680646041366,
            46.29462853673448
          ],
          [
            7.7941338029992755,
            46.29444843521032
          ],
          [
            7.794212924091095,
            46.29440025799309
          ],
          [
            7.794244622452851,
            46.29432978514662
          ],
          [
            7.794239189303526,
            46.29417735187226
          ],
          [
            7.794184996205724,
            46.29405019651305
          ],
          [
            7.794130283601245,
            46.29396669894206
          ],
          [
            7.794118782740022,
            46.29386481359344
          ],
          [
            7.794215432402172,
            46.29367299188612
          ],
          [
            7.794220931048856,
            46.29360082904353
          ],
          [
            7.794176579573334,
            46.29351807263744
          ],
          [
            7.794137286403123,
            46.29341497005047
          ],
          [
            7.7941476989201615,
            46.29329436789644
          ],
          [
            7.794115261503675,
            46.293191810538765
          ],
          [
            7.794087319989409,
            46.29306028188721
          ],
          [
            7.794090657731663,
            46.292909494320355
          ],
          [
            7.794146691654229,
            46.29278992758825
          ],
          [
            7.794145678695368,
            46.29273213332404
          ],
          [
            7.794084457598289,
            46.292669238328536
          ],
          [
            7.794037091538732,
            46.2925857356826
          ],
          [
            7.794036747724313,
            46.292531033845194
          ],
          [
            7.79414845101186,
            46.292431065189945
          ],
          [
            7.794182946048106,
            46.292367735182374
          ],
          [
            7.794186022892192,
            46.29229235947276
          ],
          [
            7.794177751353583,
            46.29222195799146
          ],
          [
            7.794188829310623,
            46.29212184597791
          ],
          [
            7.794223972040999,
            46.29203252531932
          ],
          [
            7.794282814072765,
            46.29190199293724
          ],
          [
            7.794310950059554,
            46.29185259919846
          ],
          [
            7.7943117795669705,
            46.29182659899351
          ],
          [
            7.794349124063958,
            46.29157963955623
          ],
          [
            7.794327033524274,
            46.29141005875189
          ],
          [
            7.794244342505204,
            46.29123464988145
          ],
          [
            7.794158575326679,
            46.29111474513384
          ],
          [
            7.793691562199483,
            46.290811073953805
          ],
          [
            7.79361734231203,
            46.29070851235603
          ],
          [
            7.79352866737192,
            46.29061202307907
          ],
          [
            7.793367785313093,
            46.29049672472962
          ],
          [
            7.793201456552582,
            46.290371880746385
          ],
          [
            7.793094065355621,
            46.29025461559412
          ],
          [
            7.7930036127541555,
            46.290102016234115
          ],
          [
            7.792929526588408,
            46.290013684988054
          ],
          [
            7.792758526929538,
            46.2896409512056
          ],
          [
            7.792697605508918,
            46.289589443112064
          ],
          [
            7.79263644171285,
            46.2895225800676
          ],
          [
            7.792456070323996,
            46.28952057926839
          ],
          [
            7.792000533734014,
            46.28956436060719
          ],
          [
            7.7916693616647805,
            46.28824206051512
          ],
          [
            7.7915491679431765,
            46.2878238283988
          ],
          [
            7.790844773208216,
            46.28705161414867
          ],
          [
            7.787057556540854,
            46.28523625127454
          ],
          [
            7.785731615751526,
            46.282256928754
          ],
          [
            7.784307691616516,
            46.281459285049216
          ],
          [
            7.7840641097179475,
            46.28121566815928
          ],
          [
            7.783787251224582,
            46.280900393342435
          ],
          [
            7.78373524743864,
            46.28083027721658
          ],
          [
            7.783384521380448,
            46.28047865871508
          ],
          [
            7.7825306239126855,
            46.27973615598334
          ],
          [
            7.782415564184359,
            46.27953358888956
          ],
          [
            7.782236409042315,
            46.27944752137
          ],
          [
            7.782028952109506,
            46.27912569899846
          ],
          [
            7.780887195545917,
            46.27795138932856
          ],
          [
            7.780832547703739,
            46.27784343496537
          ],
          [
            7.780616307141186,
            46.277601932189384
          ],
          [
            7.779987414324234,
            46.27688476518564
          ],
          [
            7.779771434909997,
            46.27666305057562
          ],
          [
            7.779370247977736,
            46.276262284216045
          ],
          [
            7.778928615241335,
            46.275813456901965
          ],
          [
            7.778636098301623,
            46.27531634166732
          ],
          [
            7.7786104550146495,
            46.275306622253304
          ],
          [
            7.776071832336865,
            46.27419627528857
          ],
          [
            7.775851912203711,
            46.27429159135705
          ],
          [
            7.775169865843323,
            46.27372741089265
          ],
          [
            7.7748546448663545,
            46.27371683167484
          ],
          [
            7.7738915751280375,
            46.27308837478967
          ],
          [
            7.773869226055534,
            46.273055012873584
          ],
          [
            7.773113413701002,
            46.271724955882455
          ],
          [
            7.77264984765865,
            46.271079946003006
          ],
          [
            7.772399101045971,
            46.27076650988501
          ],
          [
            7.771641914358361,
            46.27009443738311
          ],
          [
            7.771119668900766,
            46.26939386539117
          ],
          [
            7.770379848211159,
            46.268805141694855
          ],
          [
            7.769709679665114,
            46.26822601512643
          ],
          [
            7.767918823559495,
            46.26634577022587
          ],
          [
            7.767449357379396,
            46.26575414600854
          ],
          [
            7.762813215145411,
            46.261338534803016
          ],
          [
            7.761488739605755,
            46.26107244419655
          ],
          [
            7.759435881609178,
            46.26044858334645
          ],
          [
            7.758566418795333,
            46.2603610837066
          ],
          [
            7.7573976170682375,
            46.26009451482979
          ],
          [
            7.7568124202993936,
            46.25982628836035
          ],
          [
            7.756383027136271,
            46.2595846093189
          ],
          [
            7.755900924796696,
            46.25919913627401
          ],
          [
            7.754690348622912,
            46.258437884933834
          ],
          [
            7.754533577931975,
            46.25824041691822
          ],
          [
            7.7539736763121025,
            46.2578551615156
          ],
          [
            7.753622473061943,
            46.257676224315574
          ],
          [
            7.752843221590659,
            46.2574804819391
          ],
          [
            7.751545341766919,
            46.25730416732889
          ],
          [
            7.750052019924428,
            46.25696644368817
          ],
          [
            7.749273150090915,
            46.25683364546905
          ],
          [
            7.74810421456438,
            46.25652200283867
          ],
          [
            7.747778631694331,
            46.25627999888083
          ],
          [
            7.747543242409755,
            46.25593880479818
          ],
          [
            7.747256671534426,
            46.25571469339512
          ],
          [
            7.7468020271483775,
            46.255580995067305
          ],
          [
            7.746421337152303,
            46.25550838169767
          ],
          [
            7.74605378004362,
            46.25589971045747
          ],
          [
            7.7456433304623316,
            46.256187227124904
          ],
          [
            7.7452157864443105,
            46.256440541982045
          ],
          [
            7.74468084079773,
            46.25683848083734
          ],
          [
            7.74459522272242,
            46.25697722736775
          ],
          [
            7.744369113887379,
            46.257108751452556
          ],
          [
            7.743981435956909,
            46.25746875076535
          ],
          [
            7.743929854280624,
            46.257562813540936
          ],
          [
            7.743742957151879,
            46.25774968011416
          ],
          [
            7.743579837814019,
            46.25788217552217
          ],
          [
            7.743406507026144,
            46.25808123016768
          ],
          [
            7.743204234178646,
            46.258195371150016
          ],
          [
            7.742961623970792,
            46.25830891839111
          ],
          [
            7.74288966486376,
            46.25839122406222
          ],
          [
            7.74274663423401,
            46.25846625394065
          ],
          [
            7.74264092806337,
            46.258559948539784
          ],
          [
            7.742589944019233,
            46.25867342176513
          ],
          [
            7.7425011612408605,
            46.258697192446476
          ],
          [
            7.7423446915615735,
            46.25871365999753
          ],
          [
            7.742220829964903,
            46.25878913261699
          ],
          [
            7.742000856613778,
            46.25898620498983
          ],
          [
            7.741882175820768,
            46.259116635949646
          ],
          [
            7.741647171931227,
            46.259239578481996
          ],
          [
            7.74161005341131,
            46.2592744279766
          ],
          [
            7.7413157540320885,
            46.259448911557676
          ],
          [
            7.7411657021287095,
            46.25955901431813
          ],
          [
            7.74091755676315,
            46.259693630795674
          ],
          [
            7.740742927172786,
            46.25975464614451
          ],
          [
            7.740537683973821,
            46.25987318912953
          ],
          [
            7.740406873230803,
            46.2599687745936
          ],
          [
            7.740196071033811,
            46.26007204809792
          ],
          [
            7.74012430147706,
            46.26019686505468
          ],
          [
            7.7396245373509025,
            46.26070377682982
          ],
          [
            7.7395556186277705,
            46.260809730918346
          ],
          [
            7.739510497972015,
            46.26097669345689
          ],
          [
            7.739503488984472,
            46.26114735102693
          ],
          [
            7.739457279932749,
            46.26150506973653
          ],
          [
            7.7394877621338205,
            46.26160212416554
          ],
          [
            7.739509718411209,
            46.26164420164973
          ],
          [
            7.739502875931545,
            46.26183565678414
          ],
          [
            7.739350948413023,
            46.26208967491595
          ],
          [
            7.739329107060179,
            46.2621931471309
          ],
          [
            7.739338701206182,
            46.26222309527911
          ],
          [
            7.7399070397988945,
            46.263049953430055
          ],
          [
            7.7399429536548805,
            46.263277682501396
          ],
          [
            7.7398043069073585,
            46.2634356371106
          ],
          [
            7.739799026569884,
            46.26358335114813
          ],
          [
            7.739685283375055,
            46.26387561687775
          ],
          [
            7.739682711874549,
            46.26426038678532
          ],
          [
            7.739544484350052,
            46.26454194055674
          ],
          [
            7.739258935998434,
            46.264995045575475
          ],
          [
            7.739066188030357,
            46.265168057524114
          ],
          [
            7.738897248207364,
            46.26528605151162
          ],
          [
            7.738831666260598,
            46.26534914991196
          ],
          [
            7.738760275528704,
            46.265459787808354
          ],
          [
            7.738692060531286,
            46.26554181100409
          ],
          [
            7.738595047849244,
            46.26578607540337
          ],
          [
            7.738308433672613,
            46.26615877746244
          ],
          [
            7.738181969959593,
            46.266369160652964
          ],
          [
            7.738001032583897,
            46.266497718920185
          ],
          [
            7.737931518771886,
            46.26660114579665
          ],
          [
            7.737861921813769,
            46.26677694306758
          ],
          [
            7.737819578493685,
            46.266948404442296
          ],
          [
            7.737749816476955,
            46.26705167893441
          ],
          [
            7.737721683065144,
            46.26717242114684
          ],
          [
            7.73763387359844,
            46.267225223445806
          ],
          [
            7.737545424183761,
            46.267355363194966
          ],
          [
            7.737473157198616,
            46.26751772772204
          ],
          [
            7.737327981678715,
            46.26764738707837
          ],
          [
            7.737191051980707,
            46.267748040467666
          ],
          [
            7.737154476974156,
            46.26795250053724
          ],
          [
            7.737164048132092,
            46.26816312710168
          ],
          [
            7.737149069115598,
            46.268376921803714
          ],
          [
            7.737188064673174,
            46.26864540306787
          ],
          [
            7.737173110027219,
            46.26885417812446
          ],
          [
            7.736936188558892,
            46.26900612686638
          ],
          [
            7.736780623298672,
            46.26938122390122
          ],
          [
            7.736769486858276,
            46.269534206673534
          ],
          [
            7.736678490899137,
            46.26973824292338
          ],
          [
            7.736491242127592,
            46.26996794473534
          ],
          [
            7.736411808970868,
            46.2701827272195
          ],
          [
            7.7363344072641675,
            46.270339653116345
          ],
          [
            7.7361965695858474,
            46.27050370920124
          ],
          [
            7.736021321941721,
            46.27092736151589
          ],
          [
            7.736035160855934,
            46.27105305780283
          ],
          [
            7.7361394039354305,
            46.27127911562279
          ],
          [
            7.7358677817168955,
            46.271469114884034
          ],
          [
            7.735761688549059,
            46.271674782192726
          ],
          [
            7.735489689702583,
            46.27207741234392
          ],
          [
            7.735354537793165,
            46.27249796309882
          ],
          [
            7.735442785485843,
            46.27270248278906
          ],
          [
            7.735344859907823,
            46.27293181394637
          ],
          [
            7.735431925978276,
            46.27362227423827
          ],
          [
            7.735589587173204,
            46.27390452371829
          ],
          [
            7.735807667434494,
            46.27396844251624
          ],
          [
            7.736172398603468,
            46.274105138103614
          ],
          [
            7.736678186972613,
            46.27427095874686
          ],
          [
            7.73718733542094,
            46.27453102501029
          ],
          [
            7.737454270440268,
            46.2746176970344
          ],
          [
            7.737630482494565,
            46.27461115153744
          ],
          [
            7.7378682302789725,
            46.274697899530956
          ],
          [
            7.738054817607118,
            46.27481364024456
          ],
          [
            7.738110773907894,
            46.274916052237266
          ],
          [
            7.738229621897252,
            46.275030100415485
          ],
          [
            7.738404672397848,
            46.27510701869485
          ],
          [
            7.73868018685839,
            46.275099300485614
          ],
          [
            7.742406856436664,
            46.28137585006567
          ],
          [
            7.743004604866954,
            46.284114809439146
          ],
          [
            7.742999238356844,
            46.28413432648147
          ],
          [
            7.744099402159575,
            46.28405513057728
          ],
          [
            7.744188107402833,
            46.28452885625635
          ],
          [
            7.744164546621152,
            46.28476538927354
          ],
          [
            7.743828741452505,
            46.28534819712952
          ],
          [
            7.7438492853970065,
            46.28579855576327
          ],
          [
            7.74379134615083,
            46.28621280998855
          ],
          [
            7.743986274261099,
            46.286293300548685
          ],
          [
            7.744354743441582,
            46.286365460946215
          ],
          [
            7.744854915198036,
            46.286522984553585
          ],
          [
            7.745296806069217,
            46.28666947290497
          ],
          [
            7.745936973432927,
            46.286814675897986
          ],
          [
            7.745743910466123,
            46.287043095474715
          ],
          [
            7.745571907343054,
            46.287350187973075
          ],
          [
            7.745462319892623,
            46.28769250941476
          ],
          [
            7.745181170646934,
            46.28790238326513
          ],
          [
            7.745337120488135,
            46.288233101889624
          ],
          [
            7.745377114465986,
            46.28852171027621
          ],
          [
            7.745377182428832,
            46.288775937165795
          ],
          [
            7.745256017049302,
            46.28933298974896
          ],
          [
            7.744925108612696,
            46.29120831478999
          ],
          [
            7.744919172514789,
            46.29191404239586
          ],
          [
            7.744601058148319,
            46.292846017329225
          ],
          [
            7.744261699853242,
            46.29459236511569
          ],
          [
            7.744250108312589,
            46.294621992151306
          ],
          [
            7.744064558217614,
            46.29538217757702
          ],
          [
            7.743839884321115,
            46.29590073586386
          ],
          [
            7.743857672936203,
            46.296256944186005
          ],
          [
            7.743962378272136,
            46.296643755842446
          ],
          [
            7.744037435755678,
            46.29696440298357
          ],
          [
            7.744041608310318,
            46.2974913770858
          ],
          [
            7.7440616992579985,
            46.297952405938524
          ],
          [
            7.744175247357478,
            46.299031438748116
          ],
          [
            7.744171301280919,
            46.29926749621302
          ],
          [
            7.744183245328292,
            46.29953903485707
          ],
          [
            7.744253913437194,
            46.299842080154555
          ],
          [
            7.7442490640290425,
            46.30003503272531
          ],
          [
            7.744276465891816,
            46.30044533318904
          ],
          [
            7.74544768051244,
            46.30065438935282
          ],
          [
            7.746528238448294,
            46.30086216819236
          ],
          [
            7.748325324228421,
            46.30113095299954
          ],
          [
            7.748991542090951,
            46.30133848922884
          ],
          [
            7.7505781614003375,
            46.30155324599036
          ],
          [
            7.75219618608449,
            46.301674797327145
          ],
          [
            7.753687587024108,
            46.30184255527132
          ],
          [
            7.753761273459812,
            46.3018453371928
          ],
          [
            7.755210136110785,
            46.30203067186815
          ],
          [
            7.756251200859706,
            46.30213869697046
          ],
          [
            7.758526093326222,
            46.30205511322581
          ],
          [
            7.760333462518524,
            46.301975608098004
          ],
          [
            7.760800529157265,
            46.301735159085936
          ],
          [
            7.761264572643846,
            46.30152845958757
          ],
          [
            7.76168398364587,
            46.301294367450154
          ],
          [
            7.76234304116444,
            46.30120737146384
          ],
          [
            7.762216239952613,
            46.30145081492635
          ],
          [
            7.7625055281458,
            46.301637810542076
          ],
          [
            7.762996319475264,
            46.30185716270021
          ],
          [
            7.763363461422956,
            46.301828342635034
          ],
          [
            7.764138457994497,
            46.3018702994188
          ],
          [
            7.764790063471681,
            46.301860520637604
          ],
          [
            7.764848857172594,
            46.301489360019275
          ],
          [
            7.766579669620116,
            46.30142427829424
          ],
          [
            7.766871143327534,
            46.30138768637424
          ],
          [
            7.767973472195277,
            46.301324535038475
          ],
          [
            7.769322006903657,
            46.30135021666464
          ],
          [
            7.770095030695566,
            46.30136050050446
          ],
          [
            7.771362380928709,
            46.301120194231665
          ],
          [
            7.772009187894938,
            46.30098750663415
          ],
          [
            7.773549242209285,
            46.30059189082058
          ],
          [
            7.775494120200071,
            46.30014093429292
          ],
          [
            7.776205150466427,
            46.300018655813005
          ],
          [
            7.776664074734716,
            46.29988766098119
          ],
          [
            7.778014480801009,
            46.29952068778183
          ],
          [
            7.779022254058286,
            46.299221583270715
          ],
          [
            7.779590168127645,
            46.299179090963655
          ],
          [
            7.781046828745814,
            46.29872493544432
          ],
          [
            7.782173977248044,
            46.298393615495364
          ],
          [
            7.783287918843728,
            46.29821299348956
          ],
          [
            7.7846319639863575,
            46.297842946802675
          ],
          [
            7.785572924621948,
            46.297684761361765
          ],
          [
            7.786373178351382,
            46.29758490496444
          ],
          [
            7.78693388603033,
            46.297452017935875
          ],
          [
            7.7883490467021685,
            46.297302319274706
          ],
          [
            7.788726352994974,
            46.29728269596946
          ],
          [
            7.792310515012231,
            46.29677223201398
          ]
        ]
      }
    }
  ]
}