{"type": "FeatureCollection", "features": [{"type": "Feature", "properties": {"bfs_nummer": 6195}, "geometry": {"type": "MultiPolygon", "coordinates": [[[[7.706637941442685, 46.379209524292925], [7.70651475690419, 46.37942003379761], [7.706018438644855, 46.37974297219303], [7.705522835941672, 46.38026947339058], [7.705410317914767, 46.380309986959894], [7.705448828807232, 46.38046834861304], [7.705321225499715, 46.38046557044181], [7.705216167162238, 46.38060702365436], [7.705073928980378, 46.38063067533796], [7.704928308553915, 46.38075179605425], [7.704876327131743, 46.38072752122587], [7.704768625121065, 46.380823111003586], [7.704514275096413, 46.38087041236099], [7.704473051476169, 46.38091695377202], [7.704369148789399, 46.38088851002264], [7.704166105671279, 46.38096045654334], [7.703976640188981, 46.380935585132406], [7.7038003255237495, 46.38099004277769], [7.70374517742878, 46.38150686712188], [7.703667908016995, 46.38171028182908], [7.70315243766058, 46.382028032999884], [7.702785145372378, 46.38237341051685], [7.702758273118531, 46.3824584360601], [7.702548232398451, 46.382644322686616], [7.702583053284091, 46.38270020370021], [7.702436948199257, 46.38287496540988], [7.7022382345507525, 46.382995551383026], [7.702049644700491, 46.38320212848671], [7.702008181077756, 46.383457792360275], [7.702326970229141, 46.38374585482796], [7.702082381258575, 46.38390432845725], [7.702034975460173, 46.384014859390824], [7.701716645782025, 46.38433038690992], [7.7018155902659675, 46.384607650138804], [7.702025335364673, 46.38491998342982], [7.702035455151798, 46.3851440173951], [7.701919240053143, 46.38542815601642], [7.70201095821958, 46.38590523836874], [7.701964483198571, 46.38618371184725], [7.701880164668773, 46.38627139104693], [7.701929865024141, 46.38630166349077], [7.701763094731214, 46.3864171319848], [7.7018581234331505, 46.386495534873546], [7.701791200656545, 46.386860333917674], [7.701588913176777, 46.387037675556776], [7.70133245700109, 46.38703790760101], [7.7001520725455865, 46.38682407745148], [7.6999729973224555, 46.38667134546603], [7.699433668120223, 46.38642111618528], [7.698204444276074, 46.38563856042539], [7.697808027482925, 46.38559700413487], [7.696865123836261, 46.38578258371611], [7.695893073700491, 46.38610159773968], [7.695608697981778, 46.38605708396185], [7.695070993951653, 46.38621729003148], [7.6948588630743595, 46.38623505038395], [7.694707103315711, 46.3863534127922], [7.694480351462146, 46.386388960862114], [7.693973184224413, 46.38665431852926], [7.693405723023207, 46.38685305573775], [7.6930912209872, 46.38706848278829], [7.693022908718524, 46.387191245677], [7.692864174018716, 46.387228294168935], [7.692791565052292, 46.387305009764816], [7.692590100928241, 46.3873451216308], [7.692565992301918, 46.38735474675747], [7.6925410694823135, 46.3873681968075], [7.692477047282234, 46.38742990565998], [7.692463849714276, 46.387448825959424], [7.692441407250176, 46.387492406006444], [7.692434640656138, 46.38751885934841], [7.692432170711607, 46.3875383854657], [7.692435304629045, 46.387569278593915], [7.6924531212104705, 46.3875986546788], [7.692449494662069, 46.38760432101356], [7.692440400949287, 46.38761122292898], [7.692361869032123, 46.38763911339162], [7.692314189844104, 46.3876539812432], [7.6922894291938215, 46.38766882504891], [7.692280856665782, 46.3876815908518], [7.6922800206923725, 46.387697496962495], [7.692240075151128, 46.38772887254366], [7.69221380814807, 46.38774407055881], [7.692187705017507, 46.387763739146465], [7.692156239633479, 46.38780163568201], [7.6921257468658695, 46.38781945189721], [7.6920955430336, 46.3878295222044], [7.692051799893751, 46.38782981739057], [7.692024205098829, 46.38783345002535], [7.69198766096048, 46.38782754009846], [7.691907317784456, 46.387804320844225], [7.691869894905251, 46.38778555800204], [7.691841114381421, 46.38776903389254], [7.691808107593153, 46.38776338606284], [7.691768740131706, 46.3877597224263], [7.691744685459768, 46.38776144905455], [7.691729552931145, 46.38776689800322], [7.691715421147985, 46.38778069267602], [7.691694864346526, 46.387810621771514], [7.6916626636002485, 46.387846990665935], [7.69164152959148, 46.38787579665079], [7.691612221815349, 46.387896884539224], [7.691564128619173, 46.387912238964134], [7.6915461701710015, 46.38792222801379], [7.691523106910594, 46.38794153872351], [7.691480627281238, 46.38795919254881], [7.69137378409931, 46.38798790038537], [7.691348066718252, 46.38800395161268], [7.69133585958089, 46.388023544066655], [7.691309655987765, 46.38803846299464], [7.691268894366225, 46.38805660754823], [7.6911604346696, 46.38812923576766], [7.691145847090283, 46.38814852766807], [7.691127453660306, 46.38816568706627], [7.691109468435213, 46.388172743495765], [7.691040360711209, 46.388209167267945], [7.690999743881981, 46.38823610947916], [7.690926345347965, 46.38828920279622], [7.690890968973219, 46.38830808215392], [7.69087491852039, 46.3883202708965], [7.690838513481848, 46.388352808095085], [7.69078025623527, 46.38837707279079], [7.6907083653610036, 46.38841891821122], [7.690691438724765, 46.38844122904486], [7.690690738495911, 46.388455632793246], [7.690725050189671, 46.388453874479275], [7.690725198028592, 46.388463328696], [7.690721981003279, 46.388487273460505], [7.69071026688688, 46.388515087184814], [7.690705916705558, 46.38854137335238], [7.690705515045051, 46.38856409750133], [7.690679001018716, 46.38857379072793], [7.690593291641265, 46.388596137162985], [7.690542213051397, 46.38861823592788], [7.69048841377945, 46.388656371228336], [7.6904549228048475, 46.38868659026918], [7.69044160876917, 46.38870579872149], [7.690417832982115, 46.38872009171529], [7.690405151271995, 46.388749500096196], [7.690385962716079, 46.38878584967044], [7.690349007929245, 46.388831692980695], [7.690334381730866, 46.38885390889767], [7.690309763742119, 46.38888007802787], [7.690300880735043, 46.38890170539375], [7.690279716788975, 46.38891299678834], [7.690241159549012, 46.38892161914548], [7.690223768300407, 46.38892785567701], [7.6902176854385305, 46.38893936559536], [7.6902078099160125, 46.38898252189058], [7.690179259640568, 46.388998876670136], [7.69017300486696, 46.38900974834482], [7.690084891882898, 46.38904657432212], [7.689911170176701, 46.38911089160048], [7.689887999253477, 46.38912673939887], [7.689874132802351, 46.389144608748076], [7.689844727770385, 46.3891589141774], [7.6898344700789965, 46.38917003761741], [7.689827309846104, 46.38918752325879], [7.6898269457933885, 46.389232520909104], [7.689812953033926, 46.38927088294906], [7.689778113148481, 46.3893131771791], [7.689735469474114, 46.38934903877215], [7.689692829830849, 46.38938857973043], [7.68974304335548, 46.389426646874156], [7.689805931657265, 46.38946463188932], [7.689809759504381, 46.38947996116143], [7.689804626057777, 46.3894943926499], [7.689766500298267, 46.389526115331414], [7.6897398580283784, 46.389539119194595], [7.68971036851601, 46.38956053135964], [7.689696215345212, 46.38958110003352], [7.689692927956204, 46.38960397455719], [7.68967793421806, 46.389625525531514], [7.689648409574536, 46.389650608020666], [7.689643779538517, 46.38967832528185], [7.68962858477703, 46.38970423053484], [7.689520779091113, 46.38974486824172], [7.689482116435521, 46.38975616227327], [7.689406505498623, 46.38979251886478], [7.689370801782013, 46.38980272676751], [7.689314502856171, 46.38980952564633], [7.689242822114151, 46.38982143198709], [7.689237928748762, 46.3898400459223], [7.689232735315897, 46.38987815443708], [7.689238469512577, 46.39003345385202], [7.68924316203699, 46.390072782115624], [7.6892578195414485, 46.390099467350346], [7.689315948500905, 46.39016804011504], [7.689394002696909, 46.39023844907436], [7.68944854461749, 46.39027056976307], [7.689515348277131, 46.3902975716726], [7.689570322038957, 46.39031622451629], [7.689561552129691, 46.39039622531668], [7.6895610919676765, 46.390442968440624], [7.68956247765981, 46.390481206560004], [7.689577554767394, 46.39051986425973], [7.689608028151881, 46.390553720070585], [7.689659847139216, 46.39059011066378], [7.689718902252591, 46.39061694962893], [7.689767236478714, 46.390636309771516], [7.689780793073647, 46.390660991287014], [7.689787726731519, 46.390721049591534], [7.68974104634885, 46.390724805033045], [7.689701254718551, 46.390719819181314], [7.689671757829066, 46.39071445983969], [7.689640042036334, 46.39072127659744], [7.689602741457437, 46.39073772212217], [7.689569445515107, 46.39076272278135], [7.689540231487904, 46.390790485168694], [7.689520937110098, 46.39082111337632], [7.689495220032951, 46.39088543601231], [7.689500862918678, 46.39092220719355], [7.689503169329235, 46.390968395564116], [7.689477940346135, 46.39098360000495], [7.689466886266384, 46.39100253352844], [7.689458810403123, 46.391038606424424], [7.689452596386533, 46.39105276140397], [7.689372013273421, 46.39110232566303], [7.689322057532692, 46.39110071752734], [7.689308978346809, 46.391128830834695], [7.689267169721947, 46.39112063796872], [7.689228376039566, 46.391151731541264], [7.689132091999756, 46.39114859705751], [7.6890892607861225, 46.391149869711015], [7.689035875773, 46.391160206251925], [7.688999105022001, 46.39117606566813], [7.688983630847315, 46.391197923311815], [7.688976533732229, 46.39122361273671], [7.688933170053279, 46.391236320084886], [7.688881718620331, 46.391248721448115], [7.688872435267712, 46.3912598335771], [7.688865013950993, 46.3912913798411], [7.688848587723534, 46.3912955992121], [7.688842959529305, 46.39130434625036], [7.688858222314136, 46.391330056851785], [7.688875159591607, 46.39133801655663], [7.68890402694148, 46.391339382874605], [7.68896785975599, 46.39133657905724], [7.689023788676097, 46.3913395140046], [7.689085537506046, 46.39133020191745], [7.689161621636694, 46.39129738816878], [7.689206884067273, 46.39129052345007], [7.689248201059635, 46.391316186844165], [7.6892953929441035, 46.391361107193404], [7.6893426199472446, 46.3913996666307], [7.689453564462094, 46.39142725435516], [7.68958734524647, 46.39143106938301], [7.689702785993571, 46.39148626433233], [7.68986196608633, 46.39157585581557], [7.689938917688448, 46.391636085884315], [7.690031293797039, 46.391730881604914], [7.69012122511758, 46.3917862445243], [7.690168234140358, 46.39183663267901], [7.690229648603124, 46.391923762905115], [7.690250428033066, 46.3920007193429], [7.690255947962332, 46.392036140967825], [7.690269171687996, 46.39206470880167], [7.690306624158569, 46.392125985280316], [7.690320442263232, 46.39216496897537], [7.690331769973901, 46.39221364644619], [7.690344752557315, 46.39225753440164], [7.690361684394079, 46.3922894944847], [7.690388059446575, 46.39231962554518], [7.690420612603391, 46.392347520977104], [7.690444930862489, 46.39236581828632], [7.6904801588220435, 46.39237891887495], [7.690598288533655, 46.392399383085724], [7.690696267553491, 46.392411552871486], [7.690782861345193, 46.39242728316069], [7.690863757606093, 46.39245074431889], [7.690999956492094, 46.3925042994002], [7.691108663983298, 46.39255617036226], [7.691150030526568, 46.39257805503785], [7.691175123224282, 46.39260065053005], [7.691217168787594, 46.39265395577061], [7.6912414594443685, 46.392680196336855], [7.691276630157541, 46.392706061841224], [7.691363603851494, 46.39275025333163], [7.691458787540862, 46.39280976425088], [7.691515185957896, 46.392854527518914], [7.691570261484424, 46.39290274811836], [7.691626622983249, 46.392956291324175], [7.691766169470278, 46.39309451522819], [7.691788805355227, 46.393089139426344], [7.691813080276187, 46.39311468725794], [7.691835734427916, 46.39310765614852], [7.691861186547459, 46.393120760254185], [7.6919087435130695, 46.39314010308038], [7.691970722306647, 46.393135089342834], [7.692028021852569, 46.39315822467007], [7.692089028127423, 46.39319004147641], [7.692149665928297, 46.39322643808031], [7.692217009962013, 46.393262333818065], [7.692257848638054, 46.39329625564069], [7.692314852144744, 46.39331163697664], [7.692378700880994, 46.39332283812366], [7.692424220803001, 46.39332627182923], [7.692444349693695, 46.39333252388914], [7.69247967719917, 46.39336114128582], [7.692536125443248, 46.393352235306054], [7.692572412227474, 46.393352388065196], [7.692638970334694, 46.39337583500576], [7.692693020508911, 46.39336010656419], [7.692721317233041, 46.39336146456179], [7.6927583417247565, 46.393372023698106], [7.692811496295186, 46.3934150393356], [7.6928758516254705, 46.39342329756903], [7.692938859965325, 46.39344102209546], [7.692998230380038, 46.39347589182538], [7.693067016095699, 46.3935112890836], [7.693096022437624, 46.393497559619064], [7.693118310927673, 46.39349574654818], [7.693144621362491, 46.393500473345746], [7.693159382721462, 46.393509876873395], [7.693178319402759, 46.39353092878479], [7.6932043305563385, 46.39353268843655], [7.693220687053023, 46.3935467931152], [7.693248988839827, 46.39354641489495], [7.693298213622826, 46.3935580171227], [7.6933504685899265, 46.39358093801761], [7.693379365058442, 46.39359648093695], [7.693404303074469, 46.39361905831356], [7.6934440856336375, 46.3936299349152], [7.6934677859795295, 46.39364087447762], [7.6934944584059695, 46.39363682948921], [7.693512015292656, 46.39363797743336], [7.6935305447863485, 46.39364691352421], [7.693548887043008, 46.39366030279517], [7.6935226435025825, 46.39368164150591], [7.693473961156851, 46.39370587412269], [7.693452129581587, 46.39372479585901], [7.693459585314417, 46.3937344135496], [7.693473402829132, 46.39374487189065], [7.693527410797533, 46.39375893707952], [7.693537621067265, 46.39377093260853], [7.6935452492237, 46.393784031348325], [7.693542650662036, 46.39379833990711], [7.693546611343495, 46.39380849582945], [7.693543815017141, 46.39383345492671], [7.69357076379053, 46.39386615686748], [7.6936029707711295, 46.39389725500413], [7.693633942095191, 46.39391993575321], [7.693704208515983, 46.393957569364275], [7.693708484299999, 46.39397108036547], [7.693758626276601, 46.393997928245824], [7.693775851830434, 46.39401428895831], [7.693818328364692, 46.39403951659245], [7.693859691034208, 46.394068390111194], [7.693899484069653, 46.39407310441935], [7.693918191579973, 46.39408114048757], [7.693929981806027, 46.39409181884092], [7.693953066069093, 46.39412929723285], [7.694064094360946, 46.39422828904794], [7.694086254761351, 46.394254497847804], [7.694110885563675, 46.394255845746166], [7.694122865906082, 46.394259920832816], [7.69413355312645, 46.394268253817444], [7.694190497301056, 46.39432323364852], [7.694230204231148, 46.394309578757], [7.694251477573915, 46.39431579186533], [7.69428769996799, 46.39433806472288], [7.694313074027792, 46.39435920166675], [7.694347528991366, 46.39438990755343], [7.694389156362733, 46.39443073550168], [7.694422606063619, 46.394424597135355], [7.69449988507461, 46.39447412442404], [7.694574937202593, 46.394459372753076], [7.694599930419809, 46.39446594583756], [7.694628625219097, 46.394482703067595], [7.694671400049705, 46.394513120340854], [7.694699888376555, 46.39453839748526], [7.694712386391346, 46.394552969480095], [7.694739910294592, 46.39457495652087], [7.694766142780219, 46.39459888894833], [7.694776489052448, 46.39462311818455], [7.694818617803329, 46.39465168311918], [7.694828842704252, 46.394647387112755], [7.694840989591603, 46.394661968630516], [7.694812662501733, 46.394687588538055], [7.694809692329213, 46.39470297751801], [7.694812896398104, 46.394718064689286], [7.6948141500219025, 46.394738589883985], [7.6948181760863825, 46.39475151632642], [7.69488330136352, 46.39478562944902], [7.694901407956257, 46.39481246672618], [7.694905448593552, 46.39482291062302], [7.694926163478459, 46.394845650610904], [7.694969640372689, 46.39486247183189], [7.69500618492088, 46.39488952934063], [7.695031146403057, 46.39491687368439], [7.69506902295107, 46.39493973558637], [7.695143281637127, 46.39499926291819], [7.695187008061517, 46.39504116490355], [7.695286065489019, 46.39512917977637], [7.6953187079363525, 46.39515029093606], [7.695353340620759, 46.3951688607532], [7.695395646144892, 46.395187836002805], [7.6954374758899275, 46.39520240447299], [7.695474383310229, 46.39522084318216], [7.695549987153106, 46.395264832298366], [7.695629850081224, 46.39530492538412], [7.69574685201377, 46.395340859318765], [7.695816459554281, 46.3953649722968], [7.695961674396977, 46.39540064477637], [7.696057151021797, 46.39543755410978], [7.696159335773688, 46.395482526308555], [7.696265791066926, 46.3955342175527], [7.696359737387539, 46.39560199469952], [7.696756401403963, 46.39583955347461], [7.696924233254819, 46.39594202949227], [7.69704930315821, 46.39602268872961], [7.697156287717484, 46.39612247769937], [7.697242917957101, 46.396239962486305], [7.697304974695552, 46.39634642938958], [7.697326101936242, 46.39643103099397], [7.6973383122837635, 46.39654067927691], [7.697338474569901, 46.39661851008155], [7.697386619115156, 46.39673570481113], [7.697453464425414, 46.396812726842754], [7.697510511263273, 46.39686890111286], [7.697666197278433, 46.397005488479635], [7.697863943681936, 46.39714709841618], [7.697977855182371, 46.397239926524165], [7.698086137478379, 46.39734644090632], [7.698161654500704, 46.39743654967012], [7.698231243264983, 46.39754037243092], [7.6982962386603395, 46.397662440024405], [7.6983548218620586, 46.39775407157981], [7.698411104754671, 46.39785677312778], [7.698432679440206, 46.39793927759431], [7.698433851138599, 46.39799131515352], [7.698401015857494, 46.39812923140638], [7.69840380742918, 46.398182884367024], [7.698423221746739, 46.3982159711259], [7.698459175213936, 46.39825453451757], [7.6985101088762935, 46.398290679832265], [7.698574696121393, 46.398321603414225], [7.698668478544861, 46.39836987584984], [7.6987200538515275, 46.39840420243601], [7.69876118564711, 46.39845970192431], [7.6988424412280025, 46.39858281139995], [7.698982148789706, 46.398848342436295], [7.699071175497271, 46.39898113163225], [7.699219478152722, 46.39918922351951], [7.699366984029869, 46.399404513287855], [7.699546900879325, 46.39965109677862], [7.699681986761393, 46.39981394217507], [7.699745297309117, 46.39988719279989], [7.69980197204954, 46.39994594852342], [7.699862596563416, 46.39999319870374], [7.700056225458012, 46.40010521827633], [7.7001598980556185, 46.40016776997363], [7.7002495226812915, 46.400226548625945], [7.700319967731882, 46.4002581414564], [7.70038944205808, 46.40027981436766], [7.700437670864327, 46.400317935148564], [7.700520038781621, 46.40042768200451], [7.700560115609773, 46.40046321280974], [7.700611606277494, 46.40049815970189], [7.70065137702171, 46.40052140309132], [7.700726335406564, 46.40058552281902], [7.700745524044212, 46.4006198512559], [7.700748091868522, 46.40064543813329], [7.7007441565349755, 46.4006652737348], [7.700737598546019, 46.40068052756983], [7.700713398074958, 46.40072058721697], [7.700711004912123, 46.400785244835625], [7.700735061010872, 46.40084475902551], [7.700770528367261, 46.400897743112445], [7.700826576084583, 46.400958083426474], [7.700860737054642, 46.401017817562625], [7.7009323884444525, 46.4011051267842], [7.700971457199308, 46.40117141622346], [7.701013093814615, 46.40124978982671], [7.701041436030562, 46.40128392611345], [7.70111442182694, 46.40134586403079], [7.7012252033086, 46.40145265738303], [7.701324537194035, 46.40156102446342], [7.701343443108252, 46.40157710976533], [7.701405973580291, 46.401660265513975], [7.701423863747263, 46.40169478588308], [7.701448259258257, 46.40173547123224], [7.701481209445409, 46.40174897856382], [7.701513139343532, 46.40177736720928], [7.7016249318711525, 46.40185619058553], [7.7016894636118804, 46.40190662443375], [7.701766067772997, 46.40196082664277], [7.7018090886038015, 46.40201038413149], [7.701846887329954, 46.40206381205855], [7.701865463891162, 46.40208159844402], [7.701919735925153, 46.40214805008977], [7.701962258744056, 46.40221557295206], [7.7020175873177745, 46.40226919438489], [7.702122121631336, 46.402357964967294], [7.70224052082346, 46.40245539324754], [7.7023282176079215, 46.40253632251743], [7.7024048950529, 46.402616044986566], [7.702493224430745, 46.40270127271458], [7.7025847726814725, 46.40282006480943], [7.702630389208104, 46.40288447625008], [7.702671158395878, 46.402949447814635], [7.702734240323648, 46.40306506723008], [7.70278923128202, 46.40315595818513], [7.702830968604463, 46.40323545545152], [7.702875622604364, 46.40329965330068], [7.7029105546326475, 46.403340700783716], [7.7029561667865805, 46.403379977962025], [7.703027679452263, 46.40342674230586], [7.703044494486426, 46.40348050678549], [7.70306777323897, 46.40353448992091], [7.703159997483334, 46.40362602254708], [7.7032014129042645, 46.4036605776079], [7.703295271586774, 46.40370579616741], [7.70334023471795, 46.40373723903166], [7.703384901009043, 46.403720987644974], [7.703442836111865, 46.40373791707256], [7.703463876437377, 46.403735384981886], [7.703475513492085, 46.4037538350807], [7.703476159368515, 46.40377168979062], [7.703471938748493, 46.403799550279096], [7.703448306845829, 46.40383071254102], [7.70342241736252, 46.40385757114062], [7.7034405361261, 46.403885244726446], [7.703543109351172, 46.40391478999555], [7.70355184384648, 46.4039406862243], [7.703561553506723, 46.40395854701756], [7.70359844269435, 46.40399272614178], [7.703643091361471, 46.40401021748151], [7.703702000089442, 46.403997332980865], [7.703726271724422, 46.40399873361793], [7.703742448940291, 46.404009544673734], [7.703828200230024, 46.404087904329764], [7.7038977723586335, 46.40411504401796], [7.703999707549338, 46.40418145564467], [7.7040705735329205, 46.40424979295151], [7.704127831276645, 46.40433010838515], [7.704180572964742, 46.4044282459861], [7.704223589170074, 46.40453992692228], [7.704269869750131, 46.40464103903294], [7.704386492308788, 46.40480675633807], [7.704428576230018, 46.404849963717545], [7.704488280893157, 46.40489591851244], [7.704575419155396, 46.4049409094914], [7.704670803480329, 46.40500212748175], [7.704714739034377, 46.40504896461774], [7.704742209376185, 46.40510862318251], [7.704759057481537, 46.40519256823589], [7.704763615932229, 46.40526834696855], [7.704764931171915, 46.40536161227659], [7.704775131266369, 46.40552721861055], [7.704877557080335, 46.405621326379304], [7.704996491774198, 46.40574859851534], [7.705134905911995, 46.405918086619685], [7.705204597685583, 46.406008824929785], [7.7052409212862045, 46.406083692184865], [7.70529103984225, 46.40616069495546], [7.705317345607096, 46.4061709602717], [7.705346590470333, 46.40621042775141], [7.705388954916873, 46.40624699416936], [7.705426845834638, 46.406291496236264], [7.705498117225446, 46.406341029307676], [7.705570326905212, 46.40637760683963], [7.705677194317436, 46.406425014882245], [7.705865880490023, 46.406484636515934], [7.705902477675306, 46.40651966088108], [7.706018644104983, 46.40654850734303], [7.7060979019449185, 46.406571548368625], [7.706153746005185, 46.40660656378842], [7.706180421616324, 46.406644292329695], [7.706184952255065, 46.40670612727692], [7.706217981720175, 46.40677978765743], [7.7062358265770285, 46.40682791791295], [7.70626123866287, 46.40685729216826], [7.7063173285420925, 46.40689730820173], [7.706351650931562, 46.40693769027735], [7.70636421323284, 46.40696939762121], [7.706355997919789, 46.40700709993705], [7.706331591760575, 46.407034171414786], [7.706299620760193, 46.40707787568365], [7.706286760326048, 46.40711770301168], [7.706295051896254, 46.40715888405831], [7.706317838700326, 46.4072070117592], [7.706361392131208, 46.40724953127658], [7.706404955209567, 46.40727813447107], [7.706484785987116, 46.40730633754339], [7.70650624670726, 46.40733340018299], [7.706510886224537, 46.4073697409225], [7.706509925597953, 46.407414982574984], [7.7065010497746576, 46.40747705545834], [7.706481275616288, 46.40749947353886], [7.706499442394194, 46.40754432786581], [7.706520893317783, 46.40756152183462], [7.706554533028362, 46.40757678898858], [7.706614884843621, 46.40758431070694], [7.706624478653195, 46.40759416528192], [7.706629100983553, 46.40760324901566], [7.706629105490063, 46.40761736325701], [7.706601114103361, 46.407684843184946], [7.706587618303134, 46.407746135900844], [7.706624920898481, 46.407792132879784], [7.706666158007466, 46.40781842015888], [7.706699481693351, 46.40783541567234], [7.706728524919767, 46.40786518629872], [7.7067503351920035, 46.40789978640024], [7.706762871240374, 46.40794192862959], [7.706769500170663, 46.40797556569969], [7.706774143601535, 46.408020613968894], [7.706830911055025, 46.40807394069137], [7.706923629297088, 46.40815184185101], [7.706950729792802, 46.408214846883254], [7.706973485209173, 46.4082328289571], [7.707037188431137, 46.40829989502242], [7.707118060171147, 46.408377788221436], [7.707171823245443, 46.408414894974634], [7.7072560396291765, 46.40841428312927], [7.707244090314978, 46.408459532356034], [7.707260690571101, 46.408521410216636], [7.707292373312457, 46.40855369257422], [7.707384798725352, 46.40868821065311], [7.707425391558856, 46.408726103106694], [7.707490394786317, 46.408766672586914], [7.7075260300054484, 46.40878562239058], [7.707535277137806, 46.40879895887491], [7.707544197213021, 46.4088250520661], [7.707540258008834, 46.4088596668321], [7.707549845880634, 46.408899863497815], [7.707584830824526, 46.40892673068919], [7.707651472491615, 46.40895918284659], [7.707702944330434, 46.408979868459056], [7.707719472614561, 46.4090428795831], [7.70776139834573, 46.409095063215126], [7.707797373334663, 46.40912463706547], [7.707844221911848, 46.40915709995123], [7.707802709370859, 46.40923328303176], [7.707771722859494, 46.40926577631742], [7.707723258451832, 46.409298454741815], [7.707706786625461, 46.409333846128185], [7.7076497769469485, 46.40944270172779], [7.707649134267585, 46.40946261092637], [7.707641583799988, 46.409500509801454], [7.707556383836813, 46.40958407304826], [7.707528189416285, 46.409602679265674], [7.707473433319273, 46.409651789638026], [7.707430987977344, 46.40968150298382], [7.70741026203965, 46.40971139900199], [7.707328301494247, 46.40977694476795], [7.7072949406133615, 46.4098159653215], [7.707276186860662, 46.409852801696324], [7.707266481690189, 46.40988113379826], [7.707266194103404, 46.409901923414694], [7.707274013717654, 46.40993163556887], [7.707298384401283, 46.40995778250016], [7.707304270770674, 46.40999107030325], [7.707307620113022, 46.410066337664496], [7.707305094845616, 46.41011070999062], [7.70730678439009, 46.41016854748382], [7.707302598316255, 46.41019013676996], [7.707303276005594, 46.410216878604544], [7.707293593660801, 46.410249950699374], [7.70724724131571, 46.410268167535165], [7.707161667104259, 46.4103105310668], [7.707117599045492, 46.410351519725886], [7.70701754651079, 46.410480257732424], [7.706816852239948, 46.4106156824136], [7.706711314413015, 46.41069233988461], [7.706528201661709, 46.41080113256855], [7.706427224656229, 46.4108718418507], [7.706323057604673, 46.41098151873501], [7.70611214633497, 46.410914852252155], [7.7059195688474675, 46.41088440378088], [7.705785746242246, 46.41086118457502], [7.70567093205028, 46.41087656623701], [7.7055450768275815, 46.41091063963321], [7.705438826445242, 46.41096183964137], [7.705365254507496, 46.411033356904994], [7.705343975657744, 46.411109727181085], [7.705312861863407, 46.41120432636142], [7.705293435292237, 46.411274284839386], [7.705245388811052, 46.4113664850254], [7.705086627049582, 46.41141651955474], [7.705000793090884, 46.411488829100165], [7.7048751033334115, 46.41173544967762], [7.704818731466843, 46.41190770993191], [7.704757774564266, 46.41213939966733], [7.704722934029067, 46.41222478749727], [7.7046693239432456, 46.4123202590214], [7.704671005608915, 46.412384880232466], [7.704714292944373, 46.412452291406446], [7.704714322556407, 46.41254623251264], [7.704655683325642, 46.412677409280825], [7.7046359211075, 46.4127613395048], [7.704640968585556, 46.41281753226642], [7.704657425050916, 46.412874533549285], [7.70462020914862, 46.41294515531402], [7.70461252782733, 46.41299152744815], [7.704604815669456, 46.413015536969844], [7.704597800545132, 46.413080988299896], [7.704593467431287, 46.413176584990644], [7.704612612550254, 46.41327255057891], [7.704619351149951, 46.41334741455094], [7.704601613883795, 46.41345185036986], [7.7045728089136105, 46.413577623116495], [7.7045135754458505, 46.41374186929669], [7.704446965683872, 46.4138711934845], [7.704419475437095, 46.41394404163318], [7.704423429529322, 46.41404789676889], [7.704476153497284, 46.41418566000498], [7.7046319105373735, 46.414681922721655], [7.704778668242995, 46.415119311627784], [7.704880111624614, 46.41547120347575], [7.704937895606833, 46.41568021001714], [7.704974758307537, 46.415914255893036], [7.704936722161962, 46.41600351956899], [7.704896402694847, 46.41610730750335], [7.704864731770836, 46.41635974720935], [7.708524105543664, 46.41389698766652], [7.715595769847794, 46.41481724366713], [7.716648393957338, 46.41624001349717], [7.7171697791181835, 46.41697907673345], [7.718009384842452, 46.418009924038515], [7.721865845455213, 46.421011882477075], [7.727494324598295, 46.42152313109519], [7.730721105107225, 46.422020655577114], [7.731381845703188, 46.42212659906219], [7.733503331813431, 46.42284407774581], [7.7350942342585105, 46.42334409038709], [7.735526439709027, 46.423680518124094], [7.735557248684374, 46.424188660240006], [7.735759813130401, 46.42470189456348], [7.7359578224793095, 46.42483348826267], [7.736054425057805, 46.42489768986705], [7.737344555600272, 46.422820484801754], [7.737861649404618, 46.42223436517236], [7.738313508565494, 46.42162142295352], [7.739115392063505, 46.42079164407066], [7.739347262116015, 46.42038620511353], [7.739864416507737, 46.4198180748761], [7.740250360321727, 46.41905236155329], [7.741025668691392, 46.418132690842754], [7.744331025882121, 46.41609970453247], [7.746043653649317, 46.41534840053639], [7.746884469805095, 46.414536474728656], [7.747696448986869, 46.41322981979971], [7.7479530165572825, 46.41259937235224], [7.74800840775929, 46.410889916784406], [7.7479659957989035, 46.41028727475037], [7.74763326800494, 46.408938725754815], [7.747409002288087, 46.40837257840398], [7.746519185154463, 46.40738547023894], [7.745866616724683, 46.40696446083225], [7.743519836516662, 46.40589129423916], [7.742842195506472, 46.405641194471194], [7.7423856897649985, 46.405399522894086], [7.742084907003577, 46.40510343350733], [7.743773674742932, 46.404784051025615], [7.745048324537948, 46.404825611546755], [7.745593968518971, 46.404734176840485], [7.746027508562379, 46.40445973488812], [7.746116415920198, 46.40442534615915], [7.7461705861954275, 46.40437185474012], [7.746371703981346, 46.40426195679], [7.746456790883301, 46.404161495694524], [7.746824260225068, 46.40397308923437], [7.747037068024763, 46.403900266130705], [7.7472808132921855, 46.40347304189033], [7.74775815675582, 46.40295110437432], [7.748097513804554, 46.402685003237835], [7.748153273842576, 46.40260535580164], [7.74818467039181, 46.402515124023566], [7.748274467878102, 46.40242775540162], [7.748515627023997, 46.40234559603257], [7.749345994808705, 46.40213007392992], [7.749582899518629, 46.40221175394254], [7.749893479920632, 46.40216588840717], [7.750375085649619, 46.402030584711156], [7.750546329504693, 46.40185451809031], [7.750929353519594, 46.401646582093896], [7.751181466874707, 46.401580219738165], [7.7516699227654, 46.40156787256997], [7.752133357959549, 46.40133641078762], [7.7523923420110865, 46.401257998832335], [7.752641683783355, 46.40113124267679], [7.752767547050786, 46.40110323264004], [7.753111293865133, 46.40110332342398], [7.75356823884336, 46.40104621957863], [7.753987850183126, 46.40084775011965], [7.754599667298278, 46.40070963712095], [7.754898191983142, 46.400578484457654], [7.755120439789147, 46.40034889651078], [7.755532006843415, 46.40018422339197], [7.755707280354079, 46.40015238354235], [7.75632690944479, 46.39984009095041], [7.75648256635043, 46.39966913192439], [7.756839132592785, 46.39953049791742], [7.757666040962312, 46.399179536737144], [7.758094825016422, 46.3990178830639], [7.758404006946622, 46.39891105147521], [7.758711196622861, 46.39872662746271], [7.759293553367262, 46.39859284545909], [7.759565355419778, 46.398504684132504], [7.7601582933595585, 46.39801930603835], [7.760682010997695, 46.39741549450433], [7.761092476455713, 46.39720964964091], [7.7613269918379935, 46.39714125430647], [7.76164750788074, 46.396938082996456], [7.761828847373753, 46.3967806812568], [7.762018578231523, 46.39652812542174], [7.76209351943157, 46.39647100485447], [7.76232283173292, 46.39623479775263], [7.762432840403362, 46.39608859970892], [7.76265918217236, 46.39596539538226], [7.763202890638377, 46.395593064439375], [7.763398119009959, 46.39536151348513], [7.76359018308602, 46.395138085673246], [7.763905413844629, 46.39487203348667], [7.764167181891089, 46.39474321951107], [7.764388880084174, 46.39457779948093], [7.764661206177492, 46.394434416700484], [7.764758971193031, 46.39434456569306], [7.764819248351671, 46.39428213329656], [7.764907278996281, 46.39419738317311], [7.764735318670346, 46.394068752285996], [7.764474547066126, 46.39393143400654], [7.764176592723989, 46.393789687945045], [7.763921827294283, 46.393632254915005], [7.763688449731186, 46.39350519254803], [7.763605857442295, 46.3933731738628], [7.763437058354768, 46.39321776986372], [7.763143648870808, 46.393126303014526], [7.76282471671245, 46.393154416104906], [7.762497045891489, 46.39323248840659], [7.762170371753288, 46.393292475650426], [7.76180585092762, 46.393284696954964], [7.7615089770116334, 46.39319395558282], [7.761272747310319, 46.39301657430702], [7.7611085291425015, 46.392849648380945], [7.76082186258929, 46.39272563713929], [7.760570971364686, 46.39263158746665], [7.760327049655594, 46.39250897414832], [7.7601966486663985, 46.39231299403111], [7.760030613821671, 46.392136923090106], [7.7598410172632715, 46.3919423423863], [7.759672399463066, 46.391773204918074], [7.7594650337014635, 46.39159630536674], [7.759278704637183, 46.391406203362614], [7.75913974005509, 46.39119433281333], [7.759120452784101, 46.3910893623935], [7.759038965497051, 46.390873128613535], [7.759026154521969, 46.390644817843594], [7.7590054903914085, 46.39040088568787], [7.758925541690566, 46.39018075235323], [7.758746900634533, 46.38999252591543], [7.758356618278789, 46.38972732494238], [7.757966685210034, 46.38949662016803], [7.757612755479267, 46.389124418572955], [7.757523386533543, 46.38873524550693], [7.757567613932369, 46.38828079349955], [7.7573677384228725, 46.387898884102185], [7.756973560215911, 46.38751288608574], [7.756608977996031, 46.387031764319865], [7.756424787553897, 46.38646669291404], [7.75615327598472, 46.38586013420552], [7.75619770198113, 46.38543814768169], [7.756450504723886, 46.384860233634704], [7.756660133328238, 46.38432420320798], [7.756683089021533, 46.383665824414294], [7.757239443429541, 46.38367899748396], [7.758343362383167, 46.383513989306486], [7.759423743394104, 46.38376281289877], [7.760226158966542, 46.383175832182125], [7.761262270737204, 46.38254321589558], [7.76178068827265, 46.38228986894958], [7.762234804738729, 46.382153637408294], [7.76242734672997, 46.38174829452743], [7.7624624647422875, 46.38110050873136], [7.762291966782297, 46.38084912431309], [7.762197106923229, 46.38020170770031], [7.762065780052979, 46.37997720794756], [7.761739340786163, 46.37972625711813], [7.761568638288556, 46.379438882159725], [7.761563889762842, 46.37864728410022], [7.761819420793929, 46.377908912530714], [7.762051224096716, 46.377548438973996], [7.762438517575662, 46.37711554153899], [7.763240429855286, 46.37646557466833], [7.763693509040198, 46.376167411439944], [7.764443409222229, 46.375517572927855], [7.765179023236688, 46.374660925037254], [7.765632481096529, 46.37443475166555], [7.765865296467636, 46.37425420362339], [7.766083874410319, 46.37386679279168], [7.766211081353194, 46.37341666299165], [7.766403536078792, 46.373011330547435], [7.766764790482051, 46.37258750388728], [7.766789684528401, 46.372407517762], [7.7671537935242165, 46.37245144805588], [7.767479333990013, 46.37255845785084], [7.768090234164531, 46.37258367121718], [7.768675919365808, 46.37273490294657], [7.769392456926535, 46.373029692032766], [7.771475885167897, 46.37369844365873], [7.7728177696227725, 46.3742343383635], [7.773495812622066, 46.37459217587068], [7.77414733177228, 46.37486011518949], [7.7748003438413935, 46.37537094714538], [7.7763344524753455, 46.37543836206604], [7.777010840904781, 46.375526301247106], [7.77863545716379, 46.3755214309662], [7.779025934584314, 46.37561022055973], [7.7794809454147895, 46.375626848664396], [7.780039240355628, 46.37553520773972], [7.780688117338576, 46.37538032538646], [7.782114504926021, 46.37485426720141], [7.782956737012708, 46.37444689284166], [7.783736721317441, 46.37447150701942], [7.784022472496872, 46.37444365295985], [7.7844761042038, 46.37424436078441], [7.7846436294975865, 46.374018961067875], [7.785058653825824, 46.37388276222595], [7.7861596357185165, 46.37329465951173], [7.786717440922613, 46.373131028797495], [7.787392866148704, 46.37306597648299], [7.78868961216847, 46.37261220742149], [7.789504439451024, 46.371997973695755], [7.789827600506074, 46.37172711262395], [7.790476123162904, 46.37152719264229], [7.791125050598446, 46.37139023977176], [7.79131835763124, 46.37113776521785], [7.791706945642685, 46.370938647842294], [7.792226477881033, 46.370892046377556], [7.792784574267696, 46.37093231075738], [7.793067207410588, 46.3707406666341], [7.7933303200469055, 46.37068276808733], [7.793275211926737, 46.37054633053513], [7.79343828318086, 46.37042282320496], [7.793340922585396, 46.37002717598369], [7.793142686381106, 46.36984970479556], [7.793161921038769, 46.36973009268199], [7.793034355763328, 46.369562583611824], [7.793038581635634, 46.36930196113953], [7.793210737157733, 46.36903579561399], [7.79318128802107, 46.36872303828114], [7.793359449252767, 46.36854459460418], [7.793216037075308, 46.36842175389369], [7.793205595246372, 46.368301420881416], [7.7930960027921055, 46.36817939200563], [7.793163516137431, 46.368050540269465], [7.7930221869638645, 46.36777379879805], [7.793122296548671, 46.367633075537576], [7.793149641037793, 46.3674596009414], [7.792928155225927, 46.36726820598213], [7.792703066244965, 46.36722177911851], [7.79264809217588, 46.366730212130726], [7.792570425090037, 46.36662491531667], [7.7919101124003385, 46.36634649411963], [7.791768846960393, 46.3662044049598], [7.791482574866568, 46.36605013758681], [7.791363583287289, 46.36544204291001], [7.790887845827455, 46.36533244862292], [7.790798257462936, 46.36526344194443], [7.79093827452358, 46.364891982452576], [7.791306679707719, 46.36458969621114], [7.79134541093823, 46.364426394969875], [7.791524207631703, 46.36437583941162], [7.791685138693416, 46.36421527750201], [7.791718690328431, 46.36412338862862], [7.791655499538461, 46.364015365397364], [7.791756896524094, 46.36383803838886], [7.79162876351366, 46.363642559724006], [7.791623723407675, 46.36313341338244], [7.791497233802806, 46.36303027435944], [7.791344688087337, 46.36300080051159], [7.791339585723412, 46.362943449549206], [7.7904100742823745, 46.362738712019734], [7.790163188891564, 46.362766741167746], [7.790122571088503, 46.362710571684715], [7.789577862661518, 46.36253470500417], [7.789491413870732, 46.362433779366114], [7.7890793069524085, 46.36219066199293], [7.7889875084780416, 46.36206571714], [7.788960984013117, 46.3618327572212], [7.788838648148628, 46.36157615436012], [7.788870388333453, 46.361484857487184], [7.788806362943972, 46.361202933522804], [7.7885587843334765, 46.36086947826873], [7.788519267149377, 46.36070512229776], [7.788376264264032, 46.36060639404183], [7.7882125765593635, 46.360635171123775], [7.788077561670024, 46.36058654141368], [7.787824732638564, 46.36057579503038], [7.787780278126943, 46.36051645156093], [7.787272023544385, 46.36032658485084], [7.787121777375972, 46.360632341853616], [7.786591278815354, 46.36066078660466], [7.786137186295369, 46.36076766074238], [7.785993390023277, 46.361150047044], [7.785704933574005, 46.3616155128417], [7.785044970623141, 46.36229003377514], [7.784853871563149, 46.36241734282164], [7.782999224044608, 46.363247582581096], [7.782363888456293, 46.36335446010737], [7.781757517705256, 46.363389490046956], [7.781427558550216, 46.36363741315108], [7.781058899544456, 46.36380475135611], [7.780721852683931, 46.363810397253125], [7.780659061280296, 46.36382016646584], [7.780409886877927, 46.363957305987164], [7.780159688984754, 46.36404541258387], [7.779983253378237, 46.364076553931454], [7.7798149866795585, 46.36409258406434], [7.779403286776329, 46.36411088129759], [7.779276012200291, 46.36413233000008], [7.779145774647651, 46.36417452250266], [7.779007422081755, 46.364236564926976], [7.7789497420166445, 46.36424725299205], [7.7788098397487, 46.364233898387525], [7.778564052076617, 46.36428803876874], [7.778431519362907, 46.36430197310984], [7.778286591866999, 46.3642933377579], [7.7779888065773495, 46.364302537471296], [7.777765256023209, 46.36428021009466], [7.777643499390306, 46.36423846390653], [7.777414769905854, 46.36412944067958], [7.777219947896518, 46.3640126886859], [7.777082827329022, 46.363970087420206], [7.776942794333214, 46.36395011924916], [7.776757900149967, 46.363902118531804], [7.77665030280541, 46.363886694926826], [7.776386103509076, 46.36387401190252], [7.776218545978079, 46.36384099924374], [7.776064273242819, 46.36379189010247], [7.775788837943477, 46.3637293135231], [7.775556729724446, 46.36362125125042], [7.775234600999255, 46.36352405108522], [7.775142770333183, 46.3635302053262], [7.774998838233983, 46.363486695287136], [7.7748813754253305, 46.3634873390311], [7.7746162222584205, 46.363511437080206], [7.774355415638733, 46.363580735164746], [7.774243880720692, 46.36362186844005], [7.774058323230375, 46.36362384508055], [7.773856495676689, 46.3636636060491], [7.773747492937654, 46.36366231684026], [7.773646114143438, 46.363700594849035], [7.773612095148803, 46.36370265602649], [7.77352479415708, 46.363680513598574], [7.773381752838804, 46.36368036650019], [7.773284016224544, 46.36372991382005], [7.773254197333347, 46.36377059842093], [7.773175165862178, 46.36381911926785], [7.7730544782000575, 46.36383015109637], [7.772961271343593, 46.3638514026237], [7.772724523106025, 46.36386935097042], [7.772450002205372, 46.36393196602851], [7.772401858752887, 46.36392776210079], [7.77231350329443, 46.363856719692095], [7.7721667160756684, 46.363830709657734], [7.771785981435568, 46.363794058376506], [7.771576346471455, 46.36380712822058], [7.771509022548355, 46.36383880121387], [7.7714464450388645, 46.36389875131968], [7.771372633684585, 46.36393640642845], [7.7709890532211725, 46.36401452029274], [7.770826061259253, 46.364083965549], [7.770686686610024, 46.36412048948843], [7.770580122163083, 46.3641654639297], [7.770359432954082, 46.364198347572724], [7.770280624846567, 46.36419878340992], [7.770181765737664, 46.36417339759788], [7.770047216903893, 46.36409779275163], [7.769893972268736, 46.3640971775572], [7.769650567001619, 46.36390117571874], [7.769581655325541, 46.363823760430684], [7.769469364672464, 46.36377539324446], [7.769355165401641, 46.36374865695475], [7.769261081774758, 46.36375204212581], [7.769130110814523, 46.36378156827232], [7.768823479471859, 46.36377170797757], [7.768757626396318, 46.363759106823366], [7.768645210152404, 46.363700645630246], [7.76853350318307, 46.363696939557215], [7.768441802906299, 46.36371616800734], [7.768334296706543, 46.363698029627926], [7.76829282992727, 46.363708332990065], [7.768167010403487, 46.36379688150125], [7.76789136141366, 46.36381134329199], [7.76778155911191, 46.36378745334899], [7.767673618053627, 46.363736183442775], [7.767509835734888, 46.36360022635431], [7.767391332525088, 46.36357926658899], [7.767280814387122, 46.3634991994014], [7.767199451516985, 46.36347227591878], [7.767138125599318, 46.36347115744737], [7.76698323701887, 46.3635123361471], [7.766884623431863, 46.363505675617915], [7.7667810932620585, 46.36345725317467], [7.766712616275948, 46.36341009741056], [7.7665499779334946, 46.36336200635337], [7.766301959495325, 46.36331436876454], [7.766084857751961, 46.363286738143564], [7.765870201409133, 46.36327925703261], [7.765417556701089, 46.363152071196666], [7.765058813565171, 46.363175613192595], [7.764822931248135, 46.36321865906989], [7.764694365860694, 46.36326400431214], [7.764472462499148, 46.36337178789442], [7.764411149450892, 46.3633706764634], [7.7642333624502236, 46.36333562447702], [7.764050370497575, 46.36323866798429], [7.763480742165806, 46.3628715505408], [7.763323660612921, 46.36274564448648], [7.76273574150922, 46.362486659234754], [7.762539926568463, 46.362412804152804], [7.762269686386107, 46.3623393586972], [7.761825251461448, 46.36233597894843], [7.761654741477295, 46.362357062601674], [7.761514250907787, 46.3623261382418], [7.761432617016963, 46.36227904287912], [7.761300974181323, 46.36225670170873], [7.761221493373702, 46.36220672137503], [7.761135958831894, 46.362194207422256], [7.761006951066744, 46.36220642028057], [7.760914222115108, 46.36214642835518], [7.760732776307338, 46.36216612016046], [7.76060563747086, 46.36215384069256], [7.760392237485652, 46.36224141293304], [7.760109809508341, 46.36224004299123], [7.759892532693267, 46.36236652357475], [7.759687164031299, 46.36239930777112], [7.759434207948985, 46.36247556687985], [7.759224731043008, 46.36251255347086], [7.7591910301260265, 46.36251120913216], [7.759162976802002, 46.362498019591186], [7.759140191458882, 46.36249015875266], [7.759104789607642, 46.362486822103946], [7.759045790585773, 46.36249005569701], [7.758981882760142, 46.3624915758554], [7.758932243413743, 46.36249106801105], [7.75877117913747, 46.36250996259499], [7.758361546143825, 46.362460909285744], [7.758012359646123, 46.362360616633545], [7.7576288673154075, 46.36224211182619], [7.757226967385014, 46.36208624494055], [7.7569884275256955, 46.36202159526741], [7.756744656421883, 46.36194232261492], [7.756708496504034, 46.36261622104508], [7.7566397627171595, 46.362879250120024], [7.756665841995523, 46.36311060984798], [7.756779752997671, 46.363287290464484], [7.756948462545143, 46.363464347966485], [7.757025077986698, 46.36362031668446], [7.757033943405218, 46.363796391830434], [7.7570082216075065, 46.36395745111765], [7.756954072641709, 46.364143679056376], [7.756846932248951, 46.3646365122786], [7.756743191971484, 46.364882133799206], [7.756632043327656, 46.36509204515423], [7.756568090911614, 46.36531331167193], [7.756538092112324, 46.36564791034203], [7.756476036778548, 46.36583595037773], [7.756341621068027, 46.366042994006676], [7.756321779682617, 46.3661033387894], [7.7552264097092625, 46.365731464185856], [7.754648284680668, 46.36578510018716], [7.754358336836218, 46.365697426843795], [7.7540917039157735, 46.36546677173975], [7.7540204516150295, 46.365450400000334], [7.75395181638544, 46.3654191961553], [7.75377550093676, 46.365350581797486], [7.753699463075659, 46.36534028619199], [7.753649616353743, 46.36533126712219], [7.753263832264456, 46.365318800908724], [7.753023510425396, 46.365288900637694], [7.752853137699415, 46.36527927124411], [7.752738150829982, 46.36525907080777], [7.752590682275161, 46.365246336808916], [7.75246032308143, 46.36521926161285], [7.752386785632779, 46.365200799295245], [7.752249718840235, 46.36518457292255], [7.752147295430961, 46.36518871576301], [7.752074189240888, 46.365179661681196], [7.752003337911412, 46.36516050811728], [7.751929349249757, 46.365133617628615], [7.751864236432212, 46.36511362019975], [7.751718853157024, 46.365074728918536], [7.751414167390237, 46.365016721276426], [7.751341960230806, 46.36499898335722], [7.751162451086476, 46.36497302265416], [7.751036083353828, 46.364968783538224], [7.750911456768368, 46.36498033626471], [7.750734412867488, 46.364951381806804], [7.750226704849031, 46.364831734494224], [7.750161013277427, 46.36483301274799], [7.75006168606204, 46.36484902862635], [7.749933771110234, 46.3648786344669], [7.749784051216945, 46.3649286124712], [7.749644279520567, 46.36494358756844], [7.749426940333839, 46.364946316841525], [7.74938320162853, 46.36495769951489], [7.749336148506174, 46.364987136701885], [7.7492789154586115, 46.36499742294763], [7.749137364330238, 46.36499433912899], [7.749022776121183, 46.364986683178394], [7.748955240872497, 46.36495862187774], [7.7488288735714, 46.36495663866926], [7.748689005440595, 46.36495242526965], [7.748581148368009, 46.364944750513345], [7.748312923063104, 46.36487198131681], [7.748127256052315, 46.36480241319843], [7.748000895296247, 46.36480156213826], [7.747857636605235, 46.36479283230949], [7.747727795827218, 46.36476264652996], [7.747513210324002, 46.36472611652588], [7.747459006272237, 46.364713742440706], [7.747402155884552, 46.36469068873469], [7.74725771465751, 46.364683942086174], [7.747105593367839, 46.36465676675767], [7.746913381684123, 46.36462671361441], [7.746861081972743, 46.36461328149449], [7.746766738793652, 46.36461460892416], [7.746675799133526, 46.3646227093907], [7.746608399524004, 46.364620590173466], [7.746554315709739, 46.364583468189686], [7.746512169895775, 46.36458017337839], [7.7464397535463085, 46.36458709911321], [7.746348890713075, 46.36460872909057], [7.746244444595667, 46.36461346627042], [7.746146678554803, 46.3646069134528], [7.745981475677742, 46.364584693795045], [7.745804549315886, 46.36458054990316], [7.745634335726693, 46.364570757023245], [7.745506286105495, 46.36457215680111], [7.745464242597485, 46.364584666965555], [7.745314614339013, 46.36465833403403], [7.7452220613708604, 46.36468222551715], [7.745142868906396, 46.364685786532846], [7.745085572442008, 46.36468026544429], [7.744923696600178, 46.36465126082732], [7.744815866290169, 46.364650374712404], [7.744573008692066, 46.364597840037405], [7.744456612732391, 46.36456648981439], [7.744399290727649, 46.36455870151976], [7.744328576413131, 46.36456563032136], [7.74423097430498, 46.36459517508502], [7.744178738447148, 46.364595280296065], [7.743951159573175, 46.36456530044836], [7.743897240476187, 46.36456880135445], [7.743799658317478, 46.36459496352353], [7.743708618065399, 46.36458274148898], [7.743600806710445, 46.3645874947201], [7.743508083736819, 46.36457413440315], [7.743354535870936, 46.36452367822323], [7.7432820000159035, 46.36450464975353], [7.743042435950847, 46.364429541907825], [7.74298850425869, 46.36443078443368], [7.742889176426863, 46.36444228712925], [7.742810034066773, 46.36445711789176], [7.7426922891517505, 46.36449572925512], [7.742566016231939, 46.36451970946776], [7.7424649607653695, 46.36452667383172], [7.742360471254548, 46.36451900248921], [7.742281279033405, 46.36452028545596], [7.742197088859442, 46.364531755868775], [7.742121250386287, 46.364526273968295], [7.742060519838835, 46.364508346581246], [7.741952476358142, 46.36446455723406], [7.741854699518169, 46.364448968726954], [7.741687989306082, 46.36446848595001], [7.741480717903868, 46.36445877689827], [7.741350942402999, 46.36444887801813], [7.741185684598514, 46.364418761612214], [7.741081071053956, 46.36438400346052], [7.741015230432417, 46.36435365726406], [7.740915516612005, 46.36428164325638], [7.7407786818051605, 46.364200697136084], [7.740640244899823, 46.36413778210409], [7.740432646367264, 46.3640547033294], [7.7403487502447526, 46.36402768829021], [7.740266617138353, 46.364004706769066], [7.740196072142335, 46.363997617083065], [7.740116176194884, 46.36398668414289], [7.740038467009786, 46.363983463653646], [7.73996782859549, 46.363957096590525], [7.739903719935692, 46.36394372852652], [7.739834685862201, 46.363944343705555], [7.7397908140178435, 46.363950694217216], [7.73975051678727, 46.36394787757744], [7.73967131989715, 46.363936474451435], [7.73962136800995, 46.3639383431674], [7.73956420620168, 46.3639452415659], [7.739458470122152, 46.36399167001084], [7.739388039999272, 46.36403125795622], [7.739331194953284, 46.36409785999284], [7.739297608930692, 46.36411031800677], [7.739242123654344, 46.364114962825], [7.739104270311501, 46.36414576073212], [7.738979211991558, 46.364166395505784], [7.738583232784562, 46.36417868927758], [7.738307942848372, 46.36419810198115], [7.73783686958071, 46.3642148923542], [7.7373933062416596, 46.364257921442004], [7.737006447304552, 46.36427458637524], [7.736694642329682, 46.36427944783514], [7.736448616217533, 46.364249169253505], [7.736127606776484, 46.364243832966054], [7.7356448585198745, 46.36421684443229], [7.735357775284764, 46.364177862783684], [7.735159693958173, 46.36417086075675], [7.73486387605669, 46.36418153824474], [7.734710085552642, 46.36419250116465], [7.7329601380228, 46.36496174781688], [7.7319069613937215, 46.36572465942747], [7.731764733149301, 46.36568290970426], [7.731667690653892, 46.365697365252124], [7.731570011306627, 46.36573346653393], [7.73149453790849, 46.36572830054334], [7.73144108500177, 46.36571257023989], [7.73134904976536, 46.365713375042134], [7.731184464942175, 46.365793691230614], [7.7311673766284095, 46.365812932163486], [7.731187469151768, 46.36588360460212], [7.731183401447659, 46.36592465334551], [7.731227894958796, 46.36598749090651], [7.731198503041777, 46.3661180963463], [7.731290994496862, 46.366182465880236], [7.731298007135789, 46.36621062246925], [7.731222997135027, 46.36633034332721], [7.7311000992790895, 46.36638694663637], [7.731044479893295, 46.36643970615171], [7.73084105518427, 46.36654497690736], [7.730675453788853, 46.366569718945705], [7.730665045791255, 46.36658681955527], [7.730680480477621, 46.36662014503083], [7.730808338522574, 46.36673681472366], [7.730810027525202, 46.36678273359302], [7.730752192493183, 46.36680538080721], [7.730727291146193, 46.36686523078219], [7.730688249918669, 46.36688854014327], [7.730626675036843, 46.36695772281489], [7.730582331206255, 46.36697842849126], [7.730580315916834, 46.36699275488454], [7.73044182733502, 46.36708660443113], [7.730385784415582, 46.3671066295622], [7.730332278212973, 46.367156306729655], [7.730294872606588, 46.36716961783127], [7.730278163651676, 46.36722588372378], [7.730211675452889, 46.367251305891], [7.730148782768048, 46.36729305437207], [7.7301326760690845, 46.367325920917374], [7.730148696130709, 46.36739584800461], [7.730125912739197, 46.36743162846257], [7.730016146957967, 46.36749516812795], [7.7299389504314, 46.36751333980344], [7.729882433838342, 46.36762960149221], [7.729837713973105, 46.36763367435509], [7.7297632461809265, 46.36771992711653], [7.729692642384136, 46.36774137433809], [7.729672293511433, 46.36775863524705], [7.7295585480692, 46.36794578576889], [7.7293563536522925, 46.368083551720574], [7.729313246736152, 46.36813907581692], [7.729274180025371, 46.3682454515157], [7.729236519860491, 46.36830375947834], [7.729180563487877, 46.36833553160247], [7.729086207082401, 46.368367473633484], [7.728995023517597, 46.36830244227859], [7.728787768920731, 46.36823021476545], [7.728652617508348, 46.3682005949402], [7.7282807011080825, 46.368147766478174], [7.728166642882728, 46.368079347924464], [7.728022385973817, 46.36795506153693], [7.727937653693344, 46.367912691436295], [7.727829475073463, 46.36783303944909], [7.72770270705019, 46.36779125258722], [7.727310670116275, 46.36771230437048], [7.726883825900085, 46.36752371475543], [7.7267099161668815, 46.36749695350742], [7.726499192798857, 46.367497371459514], [7.726414497883714, 46.36748132189991], [7.72631216963198, 46.36748261574748], [7.726197509064871, 46.36735591428182], [7.726124011466858, 46.367309466658156], [7.726012667359476, 46.367279208046156], [7.725847859825192, 46.367273022547344], [7.725749334686716, 46.36717230462292], [7.725603972703747, 46.36707577119944], [7.725467423908051, 46.367016691114834], [7.72534382587228, 46.366988640506925], [7.725184825862761, 46.366930201398844], [7.7249523553492585, 46.36680526297796], [7.724947367401052, 46.36671169374811], [7.724926216526492, 46.3666730117121], [7.7248597611713965, 46.36658644283158], [7.724838086254395, 46.36652220536914], [7.724713097814374, 46.36632311431961], [7.724632869506834, 46.36622420252194], [7.724483267589046, 46.36616082698625], [7.724237786851468, 46.3659551119888], [7.7240096273136265, 46.365796156814646], [7.72378824379788, 46.36571247829613], [7.723401614338317, 46.365450658927124], [7.723407528059424, 46.365423584940125], [7.7233034383537955, 46.365286005455786], [7.723235629242082, 46.365247845132046], [7.7231527828981354, 46.36516182984134], [7.723131690450707, 46.36509156431013], [7.723048481774267, 46.365045634175715], [7.723000102006628, 46.36497807203231], [7.722849573873116, 46.364890489825704], [7.722787574326821, 46.36481508123156], [7.72270969710092, 46.36478219921723], [7.722629829446224, 46.36470150117288], [7.722438142651759, 46.364687300386585], [7.7223954937860295, 46.36461972293991], [7.7222805778895705, 46.36457577859189], [7.721957577641863, 46.364370529697865], [7.721854634027385, 46.36428485987952], [7.721727075988027, 46.36423092528862], [7.721590501735335, 46.36419722667791], [7.721430414673636, 46.36418986234182], [7.721260530271957, 46.36420753045621], [7.721217323260328, 46.36417715193378], [7.721131393772557, 46.36416224419333], [7.721036779711309, 46.36409873708699], [7.721013965608948, 46.36410947156375], [7.720973179465138, 46.364074769224246], [7.720888618932552, 46.364068197051566], [7.720859290965106, 46.36403554372439], [7.720796017225382, 46.36400941560094], [7.720718932147344, 46.36402109513783], [7.720662281288199, 46.36405177680995], [7.7205998097457735, 46.364050078777375], [7.720532194643375, 46.36394336880306], [7.72052218139481, 46.36370593432598], [7.720465385889386, 46.36367360958061], [7.72042173703367, 46.36362557267662], [7.720370275721639, 46.363514117709755], [7.720276632747015, 46.36344973376107], [7.720243726859106, 46.36336081192286], [7.720142296467192, 46.36330057629441], [7.720107228388277, 46.363203086620544], [7.719950225819205, 46.36311315851475], [7.719868588797027, 46.36299818846459], [7.719558962476235, 46.36277998136179], [7.71950382270057, 46.36272318410425], [7.7194294371261565, 46.3625802023838], [7.719293086336574, 46.362487840184215], [7.719256039821197, 46.36243964304886], [7.71914203004173, 46.36238590706695], [7.719038943813351, 46.36235917539756], [7.71894790452192, 46.36228991786346], [7.718944766939438, 46.362271034846444], [7.718846040783853, 46.36218502869086], [7.7186775731100745, 46.36209560472865], [7.71855348093189, 46.362052038945606], [7.718484850709213, 46.36204484084206], [7.718286449559395, 46.36210041801202], [7.718073051674572, 46.36211514642332], [7.718005575596544, 46.36214058055587], [7.717953123116004, 46.362179273257375], [7.717911140640071, 46.362179313349046], [7.717824645139863, 46.362157216307125], [7.717713875358411, 46.36218288285048], [7.717588516408748, 46.36219394870228], [7.717300628041833, 46.36227508588524], [7.7171931255449975, 46.36228157473715], [7.717137635595182, 46.36227514398925], [7.717015403921757, 46.36223699618626], [7.716927240840982, 46.362262354411506], [7.716712833774914, 46.36223988602062], [7.716537489282649, 46.36220285626469], [7.716430870954592, 46.362201884317976], [7.7163007563956825, 46.362162009111685], [7.716215591461912, 46.362173804219516], [7.715957289754445, 46.362158449370234], [7.715916676866083, 46.36214676395898], [7.715849898509903, 46.362161355717106], [7.715550705214963, 46.36215610281007], [7.715342254818833, 46.362121716218965], [7.7152286362213935, 46.36212646353974], [7.715186585886708, 46.36208496087671], [7.715114146177815, 46.36205683643719], [7.714940124451078, 46.3620725886909], [7.7148286198523905, 46.3620227177904], [7.714727636778453, 46.36199268351382], [7.7145441718651755, 46.361965530144396], [7.7143875793301175, 46.36190011586726], [7.7141670101496125, 46.36183280555291], [7.713820954992205, 46.36167640971396], [7.713786935759928, 46.36167082497814], [7.713766351235083, 46.36169602660654], [7.713704284225514, 46.361688917556855], [7.713665967689034, 46.3616608630895], [7.713621600846246, 46.36160017854133], [7.713585783763251, 46.36159362665418], [7.7135360864238915, 46.36160965128049], [7.71351112242485, 46.36160638338742], [7.713478971784122, 46.361553917725296], [7.713352508082599, 46.361500178125375], [7.713228500026646, 46.361464361121385], [7.7130850164534435, 46.36144686153546], [7.712874298651001, 46.36145131216715], [7.712838565722877, 46.361435656039504], [7.7127915446167945, 46.36138959510081], [7.7127477253139105, 46.3613859497305], [7.712725825128187, 46.36135885393151], [7.71263953352027, 46.361340333436786], [7.712618096189626, 46.36132776439929], [7.712560700661756, 46.361190107349145], [7.712522915066147, 46.36114859365379], [7.712464606559229, 46.36113944169848], [7.712403808455333, 46.361139075418116], [7.712326678279372, 46.36120124817019], [7.7118280628642575, 46.3616864579282], [7.709409428702293, 46.363941190929765], [7.708981974711227, 46.36421208740248], [7.707753767741, 46.36547442450848], [7.707274083849756, 46.36570047227197], [7.707081951603919, 46.3662676411271], [7.707174769992244, 46.366645232699405], [7.706655865924608, 46.36682637270459], [7.7063993903048145, 46.367528631779024], [7.7061410432818045, 46.367844092228495], [7.70588225064377, 46.36806959481025], [7.7058855645082955, 46.36874426704037], [7.7060179463592755, 46.36923872040377], [7.705889541879234, 46.369553874517806], [7.705501315102032, 46.369887645896156], [7.705178767546048, 46.37036517789226], [7.7050503548369, 46.37068033017352], [7.704988460993305, 46.371310178192246], [7.704795140872958, 46.37164348245353], [7.7044074639938875, 46.37209417580777], [7.704774354077473, 46.37270502684595], [7.705169299403595, 46.373738596716265], [7.705429886216349, 46.37387292048354], [7.706043028875154, 46.37433924543106], [7.706564346062387, 46.37463485642249], [7.70741224205303, 46.37526255505144], [7.707517549588938, 46.37553217862327], [7.707778827684858, 46.37580141770704], [7.708431428002045, 46.376357599964294], [7.707493295653543, 46.37851877285187], [7.707208459916277, 46.37874433632618], [7.706637941442685, 46.379209524292925]]]]}}]}