{"type": "FeatureCollection", "features": [{"type": "Feature", "properties": {"bfs_nummer": 6214}, "geometry": {"type": "MultiPolygon", "coordinates": [[[[6.948319493790424, 46.05118987185683], [6.948298474537072, 46.05128022332729], [6.948171796731766, 46.05130162008002], [6.947576949326241, 46.051260547662864], [6.947562991649482, 46.051391554816526], [6.947190816224944, 46.051455328017624], [6.946583539424954, 46.051285504613766], [6.946224038587777, 46.05105300903097], [6.945746622815271, 46.05098635505047], [6.945446476713506, 46.050817278172524], [6.9453434156037055, 46.050624605366856], [6.944842090579885, 46.05067616169256], [6.944453841881358, 46.050782853028515], [6.944183741139626, 46.05072315709813], [6.944156597977037, 46.050670359017495], [6.943929144899816, 46.05061079628962], [6.943150554453092, 46.0508606393517], [6.942843786876603, 46.051104976517124], [6.942652629227483, 46.051368533899506], [6.942444711840987, 46.05142512640757], [6.942265354008243, 46.05160426606064], [6.941868663126055, 46.05161672624821], [6.941700057880424, 46.05172584539923], [6.9415376747038735, 46.05178165631127], [6.941434457370578, 46.05188498293774], [6.941015827224991, 46.05201761602798], [6.940781058276525, 46.05219297408751], [6.94075086942992, 46.052251916849826], [6.940535185218662, 46.0522770133101], [6.940466408053848, 46.05231130574605], [6.940505604858687, 46.052428881869076], [6.94040640351544, 46.05252231348678], [6.9401238949933095, 46.052488101142366], [6.9400670987623245, 46.052499327775244], [6.939837568399896, 46.052691753027055], [6.939481778227462, 46.05278138991659], [6.939316372261865, 46.05286330734058], [6.939287249034867, 46.05300019153659], [6.939209385745273, 46.053086815954615], [6.939129034848161, 46.05327005258814], [6.938914028071392, 46.05337995133325], [6.938833026214936, 46.05339026904806], [6.938661858110741, 46.053550756078195], [6.93867433843919, 46.05361136124879], [6.938592362753781, 46.05369538537138], [6.938520827122041, 46.05374698160738], [6.938376020321847, 46.053792854223715], [6.9383699332772295, 46.05387463387931], [6.938420054567283, 46.05392637493783], [6.938402965357125, 46.053979346367626], [6.938305644830374, 46.05405854345988], [6.9382384578084, 46.05419642677776], [6.9381499195698675, 46.05428294880964], [6.93815033649104, 46.054364191212095], [6.938042321924195, 46.05438932064434], [6.9379585496720155, 46.05449565437676], [6.937862500008186, 46.0548496746276], [6.937766428038771, 46.05494175833504], [6.937664927020137, 46.054991925107444], [6.937337663504729, 46.05507296816037], [6.937316448397051, 46.05513905704886], [6.937339621740019, 46.05530387801499], [6.93729284504314, 46.05532244264737], [6.936716714559819, 46.0550916799656], [6.936562878594499, 46.054996766595565], [6.936338240798575, 46.054937613963986], [6.9362470036856685, 46.05496467925316], [6.936152920813761, 46.055044216455705], [6.935999373018509, 46.05506785532099], [6.935860231889238, 46.05521761662333], [6.935587897623696, 46.05535938614518], [6.935545582484007, 46.05542934584261], [6.93545672088593, 46.05548866164065], [6.93541034465618, 46.05555059657653], [6.935453603232794, 46.055669624044285], [6.935417822952348, 46.05571608003334], [6.935360902247721, 46.05573335839239], [6.935294970317177, 46.055794549061496], [6.935254778933005, 46.05589747829947], [6.935188927086902, 46.0559695632971], [6.9350496060238855, 46.055964810920884], [6.934881295065922, 46.05629637684138], [6.934860592380404, 46.05641839285162], [6.934730173808308, 46.05668179699798], [6.934710068455485, 46.05678240486703], [6.934847270028932, 46.056988761095106], [6.934860697331421, 46.05710033204824], [6.9349719877318154, 46.057184202709244], [6.935047616427529, 46.05733651484372], [6.935092214955831, 46.05763629790847], [6.93523856220604, 46.0576824809602], [6.935236238240646, 46.057759167512806], [6.935328298761286, 46.05786454148254], [6.9352824546915715, 46.05797910322704], [6.934957291270909, 46.058075070399404], [6.934899356348822, 46.05814027311518], [6.934930470251372, 46.05829979029044], [6.935056860958394, 46.05860542840376], [6.935129919359839, 46.058658587398924], [6.935289403572975, 46.05865936473309], [6.935608308018213, 46.05877003651886], [6.936191368996679, 46.0589272912451], [6.9364172275453155, 46.05915039024128], [6.936399933602962, 46.059314943781025], [6.936499360191204, 46.059484005063126], [6.93647739928648, 46.05955344380925], [6.936517019652901, 46.05969217451881], [6.93674045081445, 46.05985075939682], [6.936756052505293, 46.059899306773964], [6.936775487469917, 46.06002554972892], [6.93673190896523, 46.06012172827244], [6.936552019553024, 46.06021469739512], [6.936509484578876, 46.06028157977179], [6.936494852971811, 46.06067606704327], [6.9366980280375445, 46.06085406384341], [6.936697051796632, 46.06105281328601], [6.936582232460542, 46.061296121011054], [6.936633410090261, 46.06139229798555], [6.9368338932256774, 46.0615949763393], [6.936846753571724, 46.06167465464782], [6.936781529649922, 46.06172988464838], [6.93667558509309, 46.06176436018309], [6.936549397574117, 46.06176166478623], [6.936437512434097, 46.06179569042714], [6.936454053488985, 46.06186292614735], [6.936364603079654, 46.061930398995194], [6.936524898568085, 46.061990073873005], [6.936456042785986, 46.06209440448846], [6.9362675543514465, 46.062199784158715], [6.936240053785259, 46.062265788238086], [6.936250540110846, 46.06253281006396], [6.936307320052703, 46.0626325297951], [6.936707161301626, 46.062887256735756], [6.9368882181681135, 46.062876263252576], [6.937051457040007, 46.06283133927386], [6.9372162403448385, 46.06282515068923], [6.937469741881251, 46.062907085290995], [6.937838597569288, 46.062923210711816], [6.938048449982934, 46.06296933922023], [6.938101555054759, 46.063086989634456], [6.9381067491709105, 46.06323478546405], [6.938072323448316, 46.06335013772828], [6.937920321146966, 46.0634927900627], [6.937771013262961, 46.06359106018664], [6.937776775204366, 46.06374026200328], [6.937648419740763, 46.06389837491388], [6.9375470166757, 46.063934707300035], [6.937410874009348, 46.06420030223025], [6.9373211216620545, 46.064282059909324], [6.9371191689196845, 46.064338912054524], [6.936847115767208, 46.064347196735476], [6.936746010227373, 46.06444920647383], [6.936649419543628, 46.06447494391174], [6.936410078659556, 46.06445467761725], [6.9361214227114365, 46.06452565030183], [6.935817015668047, 46.06466486439028], [6.9358195043298165, 46.0647831612159], [6.935571175974697, 46.06498744105266], [6.935451513795312, 46.06512816549833], [6.9351081593654875, 46.06528608549133], [6.934680185432861, 46.065409059517], [6.93459778961378, 46.06550494128265], [6.934393581099377, 46.06563564064445], [6.933992435038986, 46.06599232016771], [6.931974023161185, 46.06592992715957], [6.931686908121025, 46.065370181752066], [6.928622472329809, 46.064662401465476], [6.924588615261214, 46.06524449731157], [6.920312351089084, 46.06154163249562], [6.919916693027949, 46.06146636313465], [6.919564616938527, 46.06117422997533], [6.919492970364324, 46.060942077285134], [6.919280239058534, 46.06065457040805], [6.918808693973356, 46.06025641114266], [6.918719669407686, 46.06014189883257], [6.918771953221599, 46.05980006438311], [6.918876900882753, 46.05969357410801], [6.918849774837323, 46.05949106781565], [6.918764601387166, 46.05942005071178], [6.9188035144578395, 46.05935990578195], [6.918790374134178, 46.059278514621916], [6.918328091769587, 46.05918542430097], [6.918236339312434, 46.05920790249843], [6.918103856317748, 46.059114247263885], [6.917964954191478, 46.05912842869434], [6.9178912402798804, 46.058979217024884], [6.91761784723593, 46.05873855144321], [6.917406719357226, 46.058698244656185], [6.917277137820964, 46.05864197954918], [6.917070231720637, 46.058774895141504], [6.91703830895808, 46.05863111232289], [6.916893909531732, 46.058466422041306], [6.916675303446118, 46.05835039834003], [6.916524450648391, 46.058163830765544], [6.916095116471162, 46.058241070065584], [6.915861162612432, 46.058165372679156], [6.915884299554844, 46.058095953005655], [6.915811997231835, 46.058024066815896], [6.915816758700588, 46.05796817134664], [6.915564600979627, 46.057624696536216], [6.915423435958949, 46.05760455693731], [6.915204569284976, 46.05743165901921], [6.915142362073873, 46.057332588029276], [6.9148380646278795, 46.05716080344772], [6.914478127276622, 46.056775767207604], [6.914440120420753, 46.056421624645445], [6.914392898018847, 46.0563661257762], [6.914482342581386, 46.05620805080048], [6.914486984391949, 46.056081184208544], [6.9146357631536315, 46.05598012315174], [6.914455553933406, 46.055846004906925], [6.914395221785631, 46.0557337921152], [6.914215422627042, 46.055566515928035], [6.913772910856184, 46.05530623216826], [6.913591111814193, 46.05508398123365], [6.913369919151145, 46.05490847454394], [6.913307813613513, 46.05480351980168], [6.913047019301601, 46.054689798521714], [6.912909414370901, 46.05465463433885], [6.912765926144361, 46.0544986463387], [6.9124764159195795, 46.05438803929209], [6.912201595796013, 46.05444648052526], [6.912153445278501, 46.05433269816777], [6.9118345620650645, 46.05432787905943], [6.911405174629963, 46.05425283931805], [6.911125012685397, 46.0540426833911], [6.911042043986877, 46.05395640993421], [6.911007014563812, 46.05384036063278], [6.910834292111538, 46.05380454828062], [6.910808845848812, 46.05365305751531], [6.910948575598643, 46.05357211268008], [6.911022739408018, 46.053331934513515], [6.910910242229754, 46.05320364709023], [6.910907459643684, 46.05304689531181], [6.9110088329710235, 46.05281862797798], [6.910915568826687, 46.05271890086496], [6.910983864373337, 46.052600399527414], [6.910996046103763, 46.052460428489795], [6.911065902503491, 46.052351114159805], [6.911147124396682, 46.052060907481085], [6.910529800027267, 46.051790008892205], [6.910240555720274, 46.05176358464657], [6.910111447994512, 46.051534161198965], [6.909864418099327, 46.05134092885936], [6.909909854569453, 46.05126810817565], [6.909856044520395, 46.05125205024491], [6.909853882502647, 46.05115427883963], [6.909825462993868, 46.05113390515516], [6.909855098315172, 46.051002739103154], [6.909686489520809, 46.05085579614265], [6.909637445486369, 46.050754687243334], [6.909225234156938, 46.050658446896314], [6.909101579970355, 46.050477472210495], [6.909111691748497, 46.0504234745671], [6.908984022502677, 46.05040461257416], [6.9088071303279985, 46.050299212657215], [6.908681372199741, 46.05026320426545], [6.908608294281462, 46.0501680635172], [6.908361542129254, 46.05017199915161], [6.908313739109748, 46.05018931545276], [6.9082721952420885, 46.0501383210836], [6.90789976546736, 46.0501525125997], [6.907780192665477, 46.05018868899999], [6.907684228643437, 46.05008896855648], [6.906647853290139, 46.04975956279682], [6.9064958257919145, 46.04971753427032], [6.906329916189226, 46.04970664625512], [6.906155434906007, 46.04970699852363], [6.906079007000195, 46.04977397775767], [6.905924559705186, 46.049764114824484], [6.9056207109788135, 46.04985344224679], [6.905410479940875, 46.04995956705234], [6.905359541906004, 46.04982320248581], [6.905124382736932, 46.049789816806914], [6.9048639614911735, 46.04953679050557], [6.904511772115742, 46.04941716389047], [6.904374491843702, 46.049302365321786], [6.904154526964323, 46.04921525692635], [6.903923314910099, 46.049192234956315], [6.9036387762922145, 46.0491148319492], [6.903472934277513, 46.04904474011677], [6.903168086275113, 46.04910680679319], [6.902973364718162, 46.049079315145214], [6.902911259590277, 46.04916094270526], [6.902458672390327, 46.049244669206075], [6.902177880424415, 46.04913721613243], [6.901951727827394, 46.04900588736868], [6.901632955715985, 46.04896658327746], [6.901143258406483, 46.04883318352156], [6.901090641107445, 46.04885777832901], [6.900854081640875, 46.04877596396203], [6.900836670027806, 46.04881744925449], [6.900604294171146, 46.04880663124932], [6.9003234835289184, 46.04875651096025], [6.900058416973205, 46.048848185289636], [6.900102651090229, 46.04868489973606], [6.8992095687041575, 46.04858710132058], [6.89897763897026, 46.04859272693605], [6.898762272550801, 46.04867905937117], [6.898631158382081, 46.04861223047575], [6.898318704133794, 46.048607275554495], [6.898239504174299, 46.04870548791623], [6.898063839489689, 46.048587142049335], [6.897975370845509, 46.048482744441124], [6.8977340987221964, 46.04842862591474], [6.897412817535425, 46.04845389488388], [6.897163240613886, 46.04836190815057], [6.8966821133409475, 46.048298571544755], [6.896382834062595, 46.04840177538571], [6.896056551628321, 46.04839742217455], [6.895949743427433, 46.04846280020169], [6.895549320990843, 46.04826365487303], [6.8954304377629105, 46.048163993316884], [6.895265321790051, 46.048197279735234], [6.89496042845226, 46.048102825511144], [6.894799489528301, 46.04810065125328], [6.89465281111648, 46.047956414657], [6.894422646922544, 46.04793149694045], [6.894200035089303, 46.047788187157494], [6.893954179984372, 46.04748235621362], [6.893974611495511, 46.0474145748845], [6.893891525298948, 46.047340038643064], [6.893649082741535, 46.04729789647935], [6.893475080006016, 46.04718262636478], [6.89325479717355, 46.0470950184439], [6.8931174335595005, 46.046936019176776], [6.892907246630736, 46.04687762382752], [6.892725545098577, 46.046756190193065], [6.892656616345722, 46.04660349614908], [6.892443643690789, 46.046499721470504], [6.8923416288199375, 46.04610877604223], [6.892132132700893, 46.04607599422021], [6.89190928254571, 46.04590119464603], [6.891765708749868, 46.04572830943301], [6.891688481781563, 46.04553653269293], [6.891776398233571, 46.04536366119662], [6.891801906276877, 46.04516221065297], [6.891683996492289, 46.04445603422824], [6.8917232017129315, 46.04431856499599], [6.891729182816292, 46.04405988745212], [6.89167072763316, 46.04387976139035], [6.8914915258853515, 46.04372168122963], [6.891551561748608, 46.043565548767866], [6.891486651673309, 46.04344177682392], [6.891460718302057, 46.043304853817844], [6.891475009226892, 46.043190040080184], [6.891294922307859, 46.04288884247667], [6.891272086389449, 46.04269437062637], [6.890389691166953, 46.04256059872134], [6.88954282112643, 46.04252455156119], [6.888187134734328, 46.04267007165205], [6.8874632753672955, 46.043600100458086], [6.886984353011362, 46.043870164987155], [6.886748499700261, 46.04418453023793], [6.886331968215008, 46.04432554161783], [6.885362681181611, 46.04446613967157], [6.885022443770529, 46.044553541579525], [6.8848485285532, 46.04466902014888], [6.88435606685646, 46.044520483430766], [6.883783236459676, 46.044428308887014], [6.883377524950392, 46.04440907596392], [6.882545156685719, 46.0446877369721], [6.882216915419978, 46.04502031105984], [6.882075125831231, 46.045078170824205], [6.881739046285597, 46.045153374740174], [6.881470752664358, 46.04515499674077], [6.880881203612739, 46.04526007710528], [6.880648357897878, 46.04547011837879], [6.8805986423235375, 46.04540001161977], [6.880455508334108, 46.04537702807569], [6.879968154345051, 46.045540122606674], [6.879616271076583, 46.045742341567745], [6.879350005201644, 46.045795188194035], [6.879170528487046, 46.04586925608113], [6.879114690491471, 46.04598665138373], [6.878856975383426, 46.04600428566862], [6.878689437008944, 46.04609441552625], [6.878429013989285, 46.04611272761917], [6.877853350913328, 46.046369246016845], [6.877891225624667, 46.04649401919062], [6.878014194641132, 46.04663908830562], [6.877909561351594, 46.04679774690998], [6.877572882008797, 46.04702216096842], [6.87737610748999, 46.047104335033104], [6.876949623135503, 46.047199868721165], [6.876786312194588, 46.04714737974248], [6.876609541882637, 46.047272450611786], [6.876224053678093, 46.0474361488912], [6.875958258868205, 46.04750473131952], [6.875748673770516, 46.04753090206838], [6.875670271421575, 46.04787677843028], [6.875495724266798, 46.04806389489556], [6.875884357862402, 46.04854197735232], [6.875908940786653, 46.04906521092883], [6.875391299104096, 46.049729277879884], [6.87348530484999, 46.050590095916036], [6.871727331396859, 46.05115078924284], [6.872752579983126, 46.051931918714274], [6.872657503609773, 46.05214677824164], [6.872739073623262, 46.0524335115438], [6.872773110658593, 46.05271900685913], [6.873016487965526, 46.05333133463989], [6.87287571861526, 46.05443204307737], [6.872914311322727, 46.05485761562426], [6.8730729987875945, 46.055135688525944], [6.873325968657843, 46.05545525737735], [6.873486690799665, 46.055835325361215], [6.873581451017901, 46.05614706300824], [6.8735280544789, 46.056229905784825], [6.8736768412153895, 46.05636198236236], [6.873697037181596, 46.056442946190614], [6.873792482007392, 46.056500656862355], [6.874018951825061, 46.05685836564788], [6.874281663739983, 46.05702824585167], [6.874347287261138, 46.057193241291394], [6.874577830033565, 46.057467650394976], [6.874685704568431, 46.05754191173341], [6.874868539102252, 46.05784069514397], [6.874994328779574, 46.05795072320939], [6.875096521362073, 46.05814471564266], [6.8753779512367075, 46.05897611756491], [6.875380341685006, 46.05928197871621], [6.875406823011432, 46.05941294753847], [6.875473755725639, 46.05948200204743], [6.875490877831662, 46.059556904594366], [6.87536008206396, 46.05969427747685], [6.875688463903122, 46.059933701458924], [6.875819364658473, 46.06051024517663], [6.875872021272063, 46.061080911425655], [6.875933283599226, 46.0613026582951], [6.876022932405973, 46.061443523071496], [6.876093986450962, 46.061638060203485], [6.8762185583032895, 46.06176693486517], [6.876401138546744, 46.062031033790475], [6.876441881987599, 46.06219390683436], [6.876556341045733, 46.062373927100865], [6.8764959798965375, 46.06270722534686], [6.8764080320466325, 46.06287727400415], [6.876546225411196, 46.06307554120937], [6.876579921038562, 46.06323532147091], [6.876762622001271, 46.063542422669094], [6.877097557532876, 46.064031205561676], [6.87714969830483, 46.06402024839698], [6.877301219130265, 46.06420591190792], [6.877368241304951, 46.06419176333661], [6.877458603469656, 46.06430418373768], [6.877599679347449, 46.0643057768096], [6.877772808064953, 46.06444010937926], [6.878102847236997, 46.06457849032562], [6.878364368221296, 46.064794908347366], [6.878469430203074, 46.06481531244979], [6.879009180118413, 46.0652617794054], [6.879098421523816, 46.06540957294821], [6.879123514510749, 46.065557073290535], [6.878984232878195, 46.06606774927314], [6.8790694912710695, 46.06623488319805], [6.879110826462961, 46.06648471165526], [6.87923599495408, 46.066699586845075], [6.879310676625893, 46.067032324861145], [6.879473074532932, 46.06729301013129], [6.879545947009421, 46.06755783750073], [6.879820470228919, 46.06784060976885], [6.879945828134842, 46.06806792755482], [6.88001405991576, 46.068441790136546], [6.88019988160521, 46.06907764852135], [6.88032613615706, 46.06922045573935], [6.880286426893447, 46.06928159154358], [6.880458175901272, 46.06935349201774], [6.8806745758939964, 46.06948376325894], [6.880818654804047, 46.069509008961695], [6.881035559992491, 46.06958877956478], [6.881274590227081, 46.06973448204667], [6.881370830018558, 46.06975792487654], [6.881549310840558, 46.069882195653776], [6.881782192608167, 46.06995570217229], [6.881895497405134, 46.06994326330206], [6.882134364127069, 46.06998638418051], [6.882983757406926, 46.07033447611344], [6.8831348044271525, 46.07030661521656], [6.8834517375147435, 46.07044974455926], [6.8837252650056975, 46.0705223734049], [6.883915925536966, 46.0706456385707], [6.88405184301787, 46.070814133274695], [6.884201129330398, 46.07089199756755], [6.8844250947544605, 46.07090491005464], [6.88463094908687, 46.07094629625288], [6.88480098664243, 46.07108084631593], [6.885171194350432, 46.07149731017775], [6.885280403351666, 46.07151683733472], [6.885655684266534, 46.07184158549244], [6.886007087257404, 46.07207555525989], [6.886228607589063, 46.072149247214846], [6.886529780574122, 46.07235338097368], [6.887440225433661, 46.073086339718735], [6.887736480909049, 46.07324999441759], [6.888767989313314, 46.073628722953124], [6.891799909972518, 46.07374025752009], [6.892418700710561, 46.073713167802445], [6.8928524132160165, 46.07365946231682], [6.893186652139117, 46.07352708202429], [6.89443732767884, 46.073200941622666], [6.894848935944081, 46.07294889332971], [6.894962574012039, 46.072815452233144], [6.895450277854477, 46.072577739559875], [6.896451606874762, 46.07231457930534], [6.896697542450452, 46.07218456201262], [6.897075281820441, 46.072040133365995], [6.897499084103863, 46.07167176878863], [6.898081951980663, 46.07126519381082], [6.899395422463049, 46.07055664036695], [6.900358595414501, 46.07068818210623], [6.900556058757269, 46.0707991274011], [6.900908497966927, 46.070812102222895], [6.901631307659987, 46.071072220247046], [6.90221324026345, 46.07123576728872], [6.902578888668012, 46.07155340857539], [6.90270006402656, 46.07159346820845], [6.90289329526937, 46.07172413383242], [6.902948340189722, 46.07189645734916], [6.903238990345764, 46.07201065112508], [6.9035248638285065, 46.07220099204824], [6.903557773965719, 46.07256217908819], [6.903903229507768, 46.07287407123771], [6.904058871228826, 46.073120202017925], [6.903906537212214, 46.07336204278715], [6.903998114335024, 46.073528888483736], [6.908661507287573, 46.07550668979981], [6.911808598508415, 46.076872629036025], [6.912877551975464, 46.07928938780245], [6.9155184100230205, 46.07780480966236], [6.916462763675902, 46.07670132355712], [6.918326156854468, 46.075903550539834], [6.919120301284808, 46.075559187779085], [6.9208007916449, 46.07661499343081], [6.925401902007119, 46.08039097629702], [6.927162720504922, 46.08009233550543], [6.928295821834039, 46.08028916725592], [6.930366511548996, 46.08056114869432], [6.937972560104996, 46.08220813846082], [6.942650064219236, 46.08425615565767], [6.9486459690679565, 46.08378335812863], [6.95409347301123, 46.08181811066697], [6.956419290093037, 46.081278448525985], [6.957569275990239, 46.081182603266775], [6.9609604742574795, 46.08181437252596], [6.961529705991883, 46.081626535922034], [6.962665315773655, 46.08252702638518], [6.963635284369988, 46.083270769794865], [6.9638833815727, 46.08373980802824], [6.962166102322577, 46.08633130311852], [6.962409809769877, 46.08765129314735], [6.967880776413585, 46.09134423623513], [6.9711530403998045, 46.09316773747895], [6.969590446959568, 46.094154416243796], [6.968058818507486, 46.094991872975534], [6.9657278687663595, 46.09704760897078], [6.964304586393556, 46.098066091464844], [6.964330137979446, 46.098215850275615], [6.964592666017913, 46.09821381646835], [6.965144328719161, 46.098275971073384], [6.965505668635911, 46.09836250918959], [6.9660376030060895, 46.09861034321111], [6.966430162426747, 46.09875053427724], [6.967031666815908, 46.098806587259446], [6.967466962417716, 46.098717084100706], [6.968321196466439, 46.09885920384617], [6.968886920402247, 46.098864712849846], [6.970476812217605, 46.09925233467611], [6.970927042561158, 46.09953129823728], [6.971200867320541, 46.099796934086214], [6.972084615573942, 46.10019419303966], [6.972255503679357, 46.10032400768303], [6.972607213110643, 46.10047973495894], [6.972957157528646, 46.100846446877945], [6.973619608682273, 46.10118925114667], [6.973622140572268, 46.10141833955802], [6.9746272707978605, 46.101080080397196], [6.98218157250323, 46.09738139069043], [6.986364312593929, 46.09593226682459], [6.988160490295309, 46.09619552802233], [6.988893391426467, 46.09535309156901], [6.989690296194669, 46.095015205492246], [6.990796742787849, 46.09401043958324], [6.991621798139391, 46.09290818386917], [6.992046441412318, 46.09249576188387], [6.992382128563642, 46.09220277387793], [6.9926142653633265, 46.08974063789052], [6.991883124362421, 46.085863260691106], [6.9912822601799345, 46.08444276372894], [6.990890273791809, 46.08361674948532], [6.990561176012878, 46.083584323939206], [6.990323271090431, 46.083509189321624], [6.989987642371335, 46.0830770479851], [6.989017105252158, 46.082590859596976], [6.988128325593266, 46.08234344782707], [6.986898764043432, 46.08202685376292], [6.9864741281383855, 46.08175847074461], [6.986012723128224, 46.08157665593294], [6.985399902937559, 46.08111906060829], [6.984313901557099, 46.08043616130491], [6.983822252350877, 46.08020342574768], [6.983260898379815, 46.07982336255052], [6.982830313503118, 46.07966599275526], [6.982236005404447, 46.07955630888226], [6.981860191005028, 46.07952264989181], [6.981666469309499, 46.079458568934264], [6.9812118877569915, 46.079244261067714], [6.980320488808212, 46.078910175634356], [6.979512667070142, 46.07872345829908], [6.9784153429061, 46.07882095566132], [6.977764327141332, 46.07884621159461], [6.977416089539914, 46.07880830618287], [6.976572841210784, 46.07858590820791], [6.976068365130528, 46.078607456283386], [6.9756830889851305, 46.07858869819316], [6.975356829250553, 46.07840947377854], [6.975145991081087, 46.07823314443606], [6.974591589415579, 46.07762010601833], [6.974299593055024, 46.07739390993423], [6.973352572270396, 46.076812787869166], [6.972942907279475, 46.076273933574186], [6.972525905822228, 46.07580041080625], [6.972283558157263, 46.07520034803531], [6.972016637516197, 46.074735424304606], [6.971695460124963, 46.07433238931369], [6.971527321983184, 46.07375756972245], [6.971164074288276, 46.07342179907907], [6.970917607770045, 46.07327867841742], [6.970344737132135, 46.07311277076895], [6.968467062874343, 46.072687365338545], [6.967792850656251, 46.07220605761646], [6.966936353565689, 46.071665905061764], [6.966925044507912, 46.07123625217451], [6.966548325328971, 46.070381387146256], [6.966220956226191, 46.069978625423396], [6.966324848426149, 46.069275978993524], [6.966435512511727, 46.06913346698116], [6.966454968452021, 46.06896443929862], [6.966258654242973, 46.06847709337482], [6.966149396090964, 46.06834149236392], [6.966168210444637, 46.068127330994585], [6.965913988052372, 46.067693995198205], [6.965791897626086, 46.06728025730952], [6.965759801497361, 46.06709799636359], [6.965655079883179, 46.06650307816916], [6.9654632015319535, 46.06627902602375], [6.9654239823779935, 46.066244470884854], [6.9653444986192445, 46.06585104448202], [6.96487328865808, 46.06503872244743], [6.964694271681249, 46.064537684898575], [6.964738949793307, 46.06446749123563], [6.9645988645845005, 46.06408455876465], [6.964492734097087, 46.06363725233432], [6.964343010036908, 46.0635038267414], [6.9642589308476515, 46.063185313544665], [6.963929205755065, 46.06270244704581], [6.963736233639268, 46.06240308397343], [6.963556831915676, 46.06235115870417], [6.963433406461278, 46.06215898443074], [6.963398129442033, 46.06163906636899], [6.9633094139696965, 46.0614633298676], [6.962722339829346, 46.061002409133444], [6.962503298134938, 46.060680039816106], [6.962283898073188, 46.060518609789895], [6.961977867231326, 46.060344272298906], [6.961753301775478, 46.06001161425387], [6.961566065726902, 46.05993171202961], [6.96125881337253, 46.059670325291115], [6.961161116421314, 46.05953859181564], [6.960882924781731, 46.05936019543047], [6.9607963634312915, 46.059137652961304], [6.960583795005429, 46.05906479270172], [6.9603974385652085, 46.05905302515633], [6.960135792873014, 46.059095090734225], [6.9596892860899295, 46.058911216027276], [6.9593540245745285, 46.05883154257589], [6.959030637613165, 46.058694787295906], [6.958558379474083, 46.058398639912205], [6.958377669702296, 46.05823037770813], [6.958197031392015, 46.05798089371816], [6.958182493254578, 46.05790050034445], [6.95781774237494, 46.05762009309459], [6.95714604112338, 46.05718726092213], [6.95700622714773, 46.05704184080274], [6.956979187763057, 46.05670962334052], [6.956891127533871, 46.056614980440756], [6.956664610964801, 46.05644085188068], [6.956433321759056, 46.056105419302106], [6.956310440737292, 46.05577009164794], [6.956165105904965, 46.05557760854136], [6.95580852978224, 46.05539824205251], [6.955465679039859, 46.05530322269399], [6.954916248662616, 46.0550456797185], [6.95443152821372, 46.055023801913045], [6.954066571192042, 46.05502797729521], [6.953886463613191, 46.05501554224389], [6.953494228911562, 46.054773305805256], [6.953463912213979, 46.05472452643197], [6.953189792909757, 46.054536907706165], [6.952475482668065, 46.05420474976742], [6.952228202025348, 46.05401169440462], [6.9514035786720205, 46.05303364952033], [6.9513487113547345, 46.05298109288194], [6.950505603643969, 46.05275152601071], [6.950346251484129, 46.052704793987644], [6.949407875777303, 46.05203250635438], [6.949184593009814, 46.05191593109772], [6.94914138463723, 46.05186029370486], [6.948999404753257, 46.051586027737855], [6.948824738291517, 46.051366411171], [6.948643296656827, 46.051258121936236], [6.948375774466466, 46.05118104074471], [6.948319493790424, 46.05118987185683]]]]}}]}