{"type": "FeatureCollection", "features": [{"type": "Feature", "properties": {"bfs_nummer": 623}, "geometry": {"type": "MultiPolygon", "coordinates": [[[[7.540307104657848, 46.878260793447154], [7.538788440377623, 46.88492545686932], [7.538511902867085, 46.88619715177615], [7.537102738776283, 46.88980194010382], [7.536422288711823, 46.891287556193994], [7.5363259960885225, 46.89145866470783], [7.536085457114393, 46.89182709818502], [7.535992950551472, 46.89195204849019], [7.535737744140223, 46.89225848919787], [7.535498989920857, 46.892521000625344], [7.535215056577351, 46.892799300033786], [7.5287964071485085, 46.898688304647216], [7.52330469087974, 46.903683714411144], [7.523125401288203, 46.903838734660056], [7.522883804542269, 46.904025319362624], [7.522667753477351, 46.90417382610901], [7.522491250884361, 46.904283012544134], [7.522306543967897, 46.90438324536964], [7.521473915032048, 46.904807061798174], [7.515056169645947, 46.90817128005692], [7.515496372361317, 46.90841852912514], [7.516493490222748, 46.90933404657751], [7.5171180088057525, 46.90984054005456], [7.517632357014466, 46.909590473361405], [7.517824119677669, 46.90955780693455], [7.518643353534282, 46.909247752427234], [7.518844163243374, 46.9094316573591], [7.518756909015318, 46.90953422792464], [7.518144218417723, 46.9098951983384], [7.518840793444151, 46.91018817285578], [7.518888476989693, 46.91021230113663], [7.519084113974298, 46.91004730935358], [7.519289635527153, 46.90994521463569], [7.519417254145686, 46.90988786238], [7.519642760553819, 46.909843746267796], [7.519862912387837, 46.909748296484715], [7.519921291784179, 46.909762207537625], [7.52028853518649, 46.909493540280984], [7.520401740378356, 46.90946309272735], [7.520713720661767, 46.90930812732309], [7.520574975782491, 46.90920247454146], [7.520808437070859, 46.90902315038925], [7.521168018003306, 46.90880567812339], [7.521314158834755, 46.908588779586815], [7.521404177494969, 46.90822728856929], [7.521494329652522, 46.908118741489005], [7.521654833730979, 46.90800096880719], [7.521859771700818, 46.907903223526624], [7.52211596126029, 46.907829278155596], [7.522243557940901, 46.90784832807418], [7.522512024184085, 46.907956274726985], [7.522787541745538, 46.908048464860904], [7.523018847011195, 46.90784967176683], [7.523161769601166, 46.90778123933955], [7.523248355369638, 46.90774537486321], [7.5235309787167, 46.90779018898494], [7.523811335104274, 46.90792079179131], [7.523984150279257, 46.90794002202957], [7.524116644470232, 46.90795963274844], [7.524294998578848, 46.908003622382466], [7.524476000626041, 46.90805350178559], [7.5247487373332165, 46.90809482984384], [7.524920846155109, 46.908164522693895], [7.525176291583475, 46.908300951747236], [7.525333143601254, 46.90839972816891], [7.5252592473622775, 46.9085569395673], [7.5252294515365294, 46.908680133855626], [7.525221286469114, 46.908852417108356], [7.5254977770524185, 46.90898087790932], [7.5257938295481415, 46.90915208679535], [7.525922441028865, 46.90926890120786], [7.525960378132974, 46.90927910011353], [7.526602945408633, 46.909134356100516], [7.526706760400473, 46.90912779149361], [7.526815491182926, 46.909133474537505], [7.526976895792019, 46.909122907621814], [7.527123433336907, 46.90912315529515], [7.527499925500302, 46.90914906945018], [7.52760928094101, 46.90914344408882], [7.527721686053781, 46.90911657845024], [7.527871763698638, 46.90905071607009], [7.527942132281393, 46.909011451249974], [7.5284063411307995, 46.908512079210816], [7.528739204927414, 46.90828021024549], [7.529528705715106, 46.90780538018145], [7.530335270473315, 46.907424496171394], [7.531133310649628, 46.90791674656603], [7.531143532017484, 46.90790700555662], [7.531406551430052, 46.908012120268204], [7.531486182548145, 46.90804935964975], [7.531558736622506, 46.908092847342054], [7.531650980007581, 46.90816741569085], [7.531793316281993, 46.90832143461205], [7.5318242437643415, 46.9084075211194], [7.5317993977962905, 46.90843101876584], [7.53193911821778, 46.90850580049945], [7.531120754184279, 46.909274967490795], [7.531087752978414, 46.90933505511967], [7.530988946217549, 46.90943838154192], [7.530928818532282, 46.90949375034213], [7.530720811393405, 46.90964844560589], [7.5298424953944645, 46.910474429450645], [7.530484617748374, 46.91059174090105], [7.531075602890021, 46.91066276409782], [7.53178225489969, 46.910754964407445], [7.532208259069796, 46.91082596147443], [7.532349497886002, 46.91079559589671], [7.532696895530169, 46.9105671309961], [7.532831350725516, 46.910500987350446], [7.533038665246758, 46.910462840168556], [7.533111409883381, 46.91031167848263], [7.5331207788053645, 46.91022693564148], [7.533059702752151, 46.91005330554255], [7.533158151980817, 46.910002626653224], [7.533502355154984, 46.909851403957056], [7.534051112243699, 46.90966289712263], [7.53436646254141, 46.909609762148975], [7.534661652705411, 46.910239868314875], [7.535031882748904, 46.910192253840364], [7.537093916744512, 46.91031374952081], [7.537312327178471, 46.910301922581425], [7.537980263588731, 46.91029387532563], [7.538191594842397, 46.910286776038326], [7.538387801403029, 46.91027073916241], [7.538570095126493, 46.910226720859356], [7.538676625949862, 46.91019062069141], [7.53891641744076, 46.91022080763663], [7.538961503667701, 46.910255139383736], [7.538981877691908, 46.910220894741144], [7.539370413732726, 46.9103140798177], [7.539918867026638, 46.91047016242732], [7.54003772359265, 46.91051166108254], [7.54037511767693, 46.91065758175183], [7.540517615710047, 46.910734203423765], [7.540640508479344, 46.91082745640522], [7.540790291714374, 46.91097338858735], [7.5412931621604455, 46.9110365921573], [7.541629871189548, 46.91101852699485], [7.542130507308594, 46.910962290839315], [7.5425226138328965, 46.91079636316232], [7.5427450049983085, 46.91051228182389], [7.5429823278778425, 46.91022634264149], [7.543085711264409, 46.91007060448331], [7.543286255606362, 46.909705314925134], [7.543408256874588, 46.909430993298386], [7.543436440736065, 46.9094322630255], [7.543453622400703, 46.909405000832294], [7.543565216090097, 46.90942377144803], [7.543841623929914, 46.90945161220333], [7.543994189002238, 46.90933119745407], [7.544053525906131, 46.909375499296104], [7.544271956549721, 46.9092484039979], [7.544971938475472, 46.90940430524993], [7.545572160879255, 46.90944381571753], [7.545779748052642, 46.90942401357633], [7.546028669810396, 46.90941139583527], [7.5465674429434655, 46.90953279700964], [7.546591680603227, 46.909589039730974], [7.546988469922565, 46.90965657310861], [7.547417326135274, 46.90972346364252], [7.547377899289702, 46.91004492151431], [7.547387009920964, 46.910078195308934], [7.548632948460746, 46.909881781878866], [7.548887499454808, 46.90986111971105], [7.549775464839668, 46.91058473582661], [7.550744513555255, 46.910174335627644], [7.550841142438318, 46.91028566581768], [7.551377777349553, 46.91005750054664], [7.55266613797501, 46.911015073472576], [7.552805894484993, 46.91093427493568], [7.553544099964712, 46.91083252577445], [7.553883864593187, 46.911315232141725], [7.554416091238469, 46.911869283282684], [7.555066176964152, 46.911542686056585], [7.555420547996713, 46.911418985001575], [7.556065822605391, 46.91141528957129], [7.556637340206083, 46.91150220310732], [7.557004830350585, 46.911593128242984], [7.557314410232124, 46.91156547346479], [7.55867831566504, 46.91103208335911], [7.558697575817256, 46.91102788051673], [7.558924279150241, 46.91154703888082], [7.559026685451005, 46.91176255715256], [7.559110995988555, 46.91191541534828], [7.559193181095089, 46.91205086088976], [7.559357949392044, 46.91230546096021], [7.560463593245409, 46.91224669231027], [7.560911735410602, 46.91221110087936], [7.561966489069907, 46.911981669308815], [7.56321109291623, 46.911870921766216], [7.563482775675057, 46.911746763506805], [7.563321159316615, 46.91151781998405], [7.5636158725806775, 46.91131793229475], [7.563737234962256, 46.91119103071005], [7.563969670456771, 46.91100114042342], [7.56446286270525, 46.910649482636146], [7.56459417947607, 46.9105317444465], [7.5648599965187975, 46.91030569989857], [7.564982566610697, 46.91018669350591], [7.565338668158513, 46.90992421707527], [7.565633641571186, 46.909651938988254], [7.565526315940738, 46.90939692460882], [7.565781343080569, 46.90897906641083], [7.5638957972969765, 46.90844408581165], [7.56444465389982, 46.907627241141874], [7.564502863453729, 46.90747954758044], [7.564696578936193, 46.90644651030199], [7.56515380980199, 46.90527292950454], [7.563670071771841, 46.904629597105476], [7.563719496257809, 46.90459967034683], [7.563721249310109, 46.90456881471459], [7.563666995546145, 46.904383004621366], [7.563636078665476, 46.904248712028355], [7.563608829611545, 46.90417952309362], [7.563605022111182, 46.9041505085292], [7.5636203944171685, 46.90411214510395], [7.563645008145571, 46.904074518251505], [7.563652289866471, 46.90399956188323], [7.563680738898531, 46.90395754119457], [7.5637297138673985, 46.90392081440658], [7.563756008318873, 46.90388359946839], [7.56387080167207, 46.90367039523122], [7.564047422790777, 46.90323584037555], [7.564168555191217, 46.902718031573066], [7.564330612520982, 46.90192579568884], [7.564491482756578, 46.90119511548283], [7.564536374945906, 46.900899590069116], [7.564571598559318, 46.900729937015186], [7.564622628551247, 46.90051750336015], [7.564733941496298, 46.900217479984406], [7.564685683719791, 46.90016589107793], [7.564714274309578, 46.900135167960954], [7.56475323011965, 46.900182287424244], [7.5648461933760585, 46.8995046263366], [7.564991284721056, 46.89893560703803], [7.565374697540397, 46.89753390400621], [7.5656711773084995, 46.89711602646293], [7.5656972756765395, 46.897086700156606], [7.566282346031245, 46.896545510338505], [7.566219975610089, 46.8965130346372], [7.566189539438329, 46.8964833209694], [7.566078775885689, 46.89652486673046], [7.565877743551138, 46.896562194374056], [7.565031302673406, 46.89664932770216], [7.564907218370059, 46.89665153271981], [7.5646394481736845, 46.89602053774443], [7.564414913889188, 46.89575281383488], [7.564302799686286, 46.89556855113555], [7.564270899775222, 46.895388023882404], [7.564280326006822, 46.89498825510381], [7.564223584114337, 46.89483522659624], [7.562703107901655, 46.89423446976734], [7.5620354715590175, 46.89403164150992], [7.561839798248338, 46.89399340499187], [7.5617185517421515, 46.894208188464304], [7.56085080324629, 46.89399840616368], [7.559561914092781, 46.89483783729651], [7.558960130650794, 46.89553309982107], [7.558722445763526, 46.89583675809486], [7.55868077593144, 46.89584020172612], [7.5584501990931425, 46.89588811643153], [7.557914592827659, 46.89586175802008], [7.557358239878208, 46.89590709277055], [7.557105186740876, 46.895794921236124], [7.5569236428242945, 46.895708258255546], [7.556115982021455, 46.89538595506541], [7.55541576029716, 46.895153201901074], [7.553336086854042, 46.89447242939754], [7.55355156451742, 46.89405612984947], [7.553638797213346, 46.89384420425079], [7.554044447229823, 46.89328598432565], [7.554135520282478, 46.893122701045506], [7.554167666509332, 46.892986075698886], [7.554219977347648, 46.89285392774194], [7.554290215767135, 46.89269260813059], [7.554407410204789, 46.89246062854384], [7.554516515714794, 46.89222636312208], [7.554655844969589, 46.89184761195336], [7.5547550230256055, 46.8916415653559], [7.554805135972984, 46.891489269895764], [7.554828590183614, 46.891277857432925], [7.554828072459258, 46.89122611713425], [7.554243047542445, 46.891003595104976], [7.553285949872845, 46.89056073207723], [7.552893631840857, 46.89038527220266], [7.552736317970703, 46.890334253626314], [7.552548002097703, 46.89025402055291], [7.552070041719776, 46.89001972376363], [7.552539480375346, 46.88955825326689], [7.553191180670166, 46.88889482684231], [7.552594642437324, 46.88863576757916], [7.553001960174312, 46.888222310086235], [7.5532448084598425, 46.88798461166164], [7.553624043933807, 46.88758618411066], [7.553989568919217, 46.88718436002883], [7.554335157199014, 46.88676970925124], [7.5466403793344305, 46.88426378898408], [7.546733149586182, 46.88286840839846], [7.545589840120723, 46.88198991528137], [7.544505587152521, 46.88121713222193], [7.542331437318756, 46.87970348237694], [7.542031008015347, 46.87949100454729], [7.541349049803487, 46.87951236567078], [7.540973623222198, 46.87934689807523], [7.540982964287007, 46.879180315066904], [7.541070737868285, 46.87881054899648], [7.540712637431143, 46.87855665029809], [7.540307104657848, 46.878260793447154]]]]}}]}