{"type": "FeatureCollection", "features": [{"type": "Feature", "properties": {"bfs_nummer": 6285}, "geometry": {"type": "MultiPolygon", "coordinates": [[[[7.826063586571469, 46.2059352374915], [7.826581471385563, 46.20614881116407], [7.826915645764035, 46.206394641980076], [7.827068092505539, 46.20658753535567], [7.827255590781949, 46.20699004254977], [7.82770652732271, 46.207483058695324], [7.82819285321509, 46.20758713908838], [7.82860042197989, 46.20777541872686], [7.829235747956345, 46.20825113293628], [7.82954436474384, 46.208409417197096], [7.8298577266471625, 46.208764824820825], [7.8301817544358965, 46.20896105192315], [7.830537312620937, 46.209105398706384], [7.8306784562361385, 46.209240744887396], [7.830864095162597, 46.20945528788656], [7.831547983466234, 46.210074527669995], [7.831740533435081, 46.210191747700385], [7.832056459589507, 46.2102919596171], [7.8324283302942455, 46.21031938950419], [7.8326542588675565, 46.21043085147192], [7.83303452998801, 46.21051060533636], [7.8336843288666405, 46.21080462126751], [7.834324453523121, 46.21090538603282], [7.8345288507935305, 46.21102014896171], [7.834707436432, 46.21124545124129], [7.835078203795914, 46.21135533094238], [7.835584310825357, 46.211740479845474], [7.83600784777871, 46.21225422214735], [7.836533290139417, 46.21248299874805], [7.836802772083294, 46.21270056556617], [7.836829792161942, 46.21294596271848], [7.837332997669972, 46.213139622269466], [7.8374412055960505, 46.21317073498245], [7.837777710497026, 46.21323544206096], [7.838147537020037, 46.2132371417556], [7.838486792254797, 46.21338522700547], [7.838821951882618, 46.21355585155955], [7.838996961933028, 46.21367530733582], [7.839198864489013, 46.21385695404364], [7.839549112149858, 46.21432205054313], [7.839745668367853, 46.214443965600736], [7.840370826203583, 46.21498963194832], [7.840577778627762, 46.21511493610561], [7.840871019808743, 46.21552614973012], [7.841156048105889, 46.21612132931787], [7.841550218547269, 46.21633209728414], [7.841787383833392, 46.21649566733898], [7.841997821555895, 46.21679315246796], [7.842508588263764, 46.21728323278522], [7.842935148846465, 46.21758526998065], [7.843874984838211, 46.21790701409577], [7.844247208260833, 46.21806987063768], [7.844493030597719, 46.21824876872814], [7.844765062557376, 46.21864576333449], [7.8449612111218165, 46.21891109841919], [7.845823622210992, 46.21944113926294], [7.846561633534953, 46.21973342477967], [7.84690173008255, 46.219839949027026], [7.8475357070036225, 46.22014557487225], [7.847591032132588, 46.22010228562975], [7.849283373145782, 46.21942215250681], [7.849422602504271, 46.21938639386522], [7.8558285231329945, 46.2169356388395], [7.857315510161153, 46.216498274550986], [7.857962653974026, 46.216387889780904], [7.859280808544521, 46.21588805187923], [7.860571986922322, 46.215253331073754], [7.8613211594592896, 46.214935662780206], [7.8623786278247865, 46.21427501053548], [7.8628927585961215, 46.21373333843348], [7.863639420218597, 46.21310083488955], [7.865723297555739, 46.21114090233011], [7.867203509973849, 46.20987591161794], [7.8686213471167505, 46.2089259652236], [7.86920348022829, 46.20880680662833], [7.871892425812398, 46.20803191568763], [7.872759802911792, 46.20793863502691], [7.872992519188061, 46.20787477099905], [7.873081926024675, 46.20771250532036], [7.873321463766278, 46.207333919214484], [7.8725996778016185, 46.207354533935195], [7.872556019448625, 46.20675198538992], [7.872973198512874, 46.20544597765454], [7.8731272374639465, 46.205265498625934], [7.873318533368079, 46.20487800138174], [7.873545008166379, 46.20402264131783], [7.873691473136825, 46.20287976055616], [7.873463810083496, 46.20193623130758], [7.8732659395249325, 46.201487260326594], [7.873198814309233, 46.201190705912815], [7.8729640504434775, 46.2009937029418], [7.872675801269972, 46.20059000860836], [7.872504502955677, 46.2002308213585], [7.872501018690907, 46.19979904180981], [7.872600975239205, 46.19934887333683], [7.8725972416583625, 46.19889909211485], [7.872461463413024, 46.19813491612143], [7.872456841702351, 46.19753207196221], [7.872675058107898, 46.19727934647173], [7.872863858280916, 46.19658590985042], [7.873543610614594, 46.19572868075149], [7.873501668082483, 46.19534198332619], [7.87295060543288, 46.19447153121103], [7.87323017117629, 46.19379580168281], [7.873453228480121, 46.19253558718691], [7.8733795805051665, 46.19142942908985], [7.873208876100658, 46.19114222025152], [7.872074050953472, 46.190157072475664], [7.8715528662778285, 46.18977226635326], [7.870769612145574, 46.18901065384661], [7.870502173007627, 46.18795920643188], [7.870584235845579, 46.18687944583575], [7.870837164071587, 46.18611387637081], [7.8706790271845115, 46.185772642207745], [7.870181117633914, 46.185054898522196], [7.869823779665116, 46.18409372862636], [7.869431450005721, 46.18361846865915], [7.868611974900499, 46.1831717947142], [7.865623278034449, 46.18190570416809], [7.864909362599822, 46.18170149328203], [7.864325881467193, 46.18161373239452], [7.863975381437743, 46.181507102477724], [7.863218322462858, 46.18074530229082], [7.8626689752090755, 46.180045709246215], [7.86292172919912, 46.17923514216895], [7.86343242023691, 46.17828868362054], [7.863713673688222, 46.17781985858605], [7.863904168165473, 46.177342378413115], [7.863616319504782, 46.176965645435324], [7.862639822355563, 46.17629464169135], [7.8621177559141495, 46.17577484169165], [7.860776298506656, 46.174790339266444], [7.860554273766613, 46.17454829185673], [7.860486861477854, 46.174206713915716], [7.860316443964473, 46.17393747671969], [7.859665031325486, 46.17342717427303], [7.858734936939703, 46.17371846119136], [7.856888502549465, 46.17439994908052], [7.855699491872886, 46.174701181553694], [7.854819664717508, 46.174794376824195], [7.853914414669886, 46.174950626646165], [7.852982442499209, 46.174999018760005], [7.850458649010524, 46.17517015115741], [7.848479292792068, 46.17542020909116], [7.846734019951544, 46.17581332378615], [7.84490288334296, 46.17685441544382], [7.844323143465825, 46.17726130143957], [7.843704014608596, 46.17759636232074], [7.8432520890661666, 46.17777788786498], [7.842708541603454, 46.177824812870064], [7.842022190114443, 46.17782725620533], [7.839797315995486, 46.17817699260955], [7.839281417503076, 46.17846667790604], [7.838249880619835, 46.179082041297974], [7.8377595499467, 46.179326651944926], [7.836532405743721, 46.17976276655268], [7.835604349201141, 46.180368747050196], [7.835025680150273, 46.180937497037284], [7.834833697194865, 46.18125301573708], [7.834773617010775, 46.18190092955209], [7.834840535836103, 46.182197551842656], [7.834455943768512, 46.182738634276795], [7.834136581944813, 46.18334244184881], [7.833775261668786, 46.18352361652261], [7.833258501945397, 46.18370533112617], [7.831455305079015, 46.1850879361989], [7.830420278741093, 46.185244447130835], [7.829774198463642, 46.185453580859296], [7.8293206970016875, 46.18542815942843], [7.82796227319493, 46.18563973776484], [7.827192172902085, 46.18557498724618], [7.827295172825691, 46.18563274427948], [7.827325845444648, 46.18578389465444], [7.827355546834993, 46.18598632951986], [7.827197566064096, 46.18614888417229], [7.827204206334236, 46.18661965861275], [7.827094894568858, 46.18679284094814], [7.827113811483653, 46.187063177328135], [7.8270671702163215, 46.187283272605825], [7.826973316809744, 46.18757055645702], [7.827109831183041, 46.1877015235583], [7.827178515762031, 46.18788159714405], [7.827349188142286, 46.18811649071007], [7.827298469612922, 46.188207826723065], [7.827205987274586, 46.18838203087999], [7.827348721758931, 46.18847854048786], [7.82753090004151, 46.188815521746676], [7.827605679349778, 46.18892352740941], [7.8276454198469585, 46.18903658325132], [7.82779033394789, 46.189229500862695], [7.827875239421106, 46.189349643109885], [7.827930787058503, 46.18946692633171], [7.827937930291553, 46.18959866079072], [7.827709682714313, 46.189637271986925], [7.827600030901098, 46.18968705291166], [7.827389862883515, 46.18982183695382], [7.827156570661847, 46.18992530511223], [7.82704190262649, 46.189992959002964], [7.826964802991094, 46.190050498829564], [7.826915395233001, 46.190107907744384], [7.826871926166579, 46.19017896971858], [7.826742311755205, 46.19031245126295], [7.826612730051653, 46.19049076656096], [7.826560442840769, 46.19061518485554], [7.826306358803494, 46.19068438565884], [7.826194995541445, 46.190730806264725], [7.825914121550057, 46.19084335029217], [7.825531322107551, 46.19095262500366], [7.825359247112507, 46.19108859739401], [7.825301081321065, 46.191122349865495], [7.825254239367506, 46.19114553885017], [7.825217956520096, 46.191170922554036], [7.825028871954817, 46.1912646462477], [7.824861193171972, 46.191313758858165], [7.824798943524155, 46.191434980779064], [7.824799073922568, 46.19146622239105], [7.824828550920594, 46.19150041350081], [7.824457504047808, 46.19166089125168], [7.824300414600286, 46.19181581796434], [7.823867699606049, 46.19188519866327], [7.820348511040649, 46.193266833705216], [7.820637627840338, 46.19385056446856], [7.821003623980256, 46.19431708822036], [7.821357707428902, 46.19492759019516], [7.822181127455904, 46.19595927118179], [7.822339456402351, 46.19636353901395], [7.822250985791066, 46.19667867095305], [7.821864280677463, 46.19694983327465], [7.820210241285404, 46.19754011523779], [7.8197071723153275, 46.19790872967408], [7.819093581613004, 46.19808058133599], [7.818935511776936, 46.19814434987004], [7.818175858361443, 46.19844032109804], [7.818066679832168, 46.19850059706201], [7.8178363691671215, 46.19856378883771], [7.817942120129616, 46.199151239164046], [7.818078812910462, 46.19932915644237], [7.818280668942825, 46.19960016632014], [7.818775638255014, 46.200018728350784], [7.819044894645287, 46.200544592481585], [7.819289284303514, 46.2006937104869], [7.820048158819939, 46.201082710141286], [7.820627372237583, 46.20135780563558], [7.821100586683409, 46.20158801725256], [7.821383868173234, 46.201735560347224], [7.821590679782421, 46.20200932816855], [7.821716775891243, 46.20225119055848], [7.822042529558035, 46.20254424607879], [7.822600073258744, 46.20288454286221], [7.822966242968354, 46.20300080097183], [7.823409645270506, 46.203166856721005], [7.823796562263915, 46.20340262132537], [7.824822955975274, 46.204262088154984], [7.825163517151807, 46.20490209286602], [7.825872216566418, 46.205759505029654], [7.826063586571469, 46.2059352374915]]]]}}]}