{"type": "FeatureCollection", "features": [{"type": "Feature", "properties": {"bfs_nummer": 6452}, "geometry": {"type": "MultiPolygon", "coordinates": [[[[6.991771796581647, 47.05153498017173], [6.993356340014752, 47.05290378232852], [6.9963021473510345, 47.05552298145401], [6.996724069799228, 47.0559780017585], [6.996985754879651, 47.05638624843662], [6.99720490168192, 47.056663990868906], [6.997347372076624, 47.056926802230095], [6.997487587174373, 47.05712490239502], [6.9976649742145245, 47.057254350974766], [6.997815575141933, 47.05745742027411], [6.997954625734569, 47.05788024097853], [6.998316018888518, 47.05843762960867], [6.998653944654766, 47.05881813618607], [6.998887691365436, 47.05909622787554], [6.9993803938235075, 47.05958254214746], [6.999641398999085, 47.05975433325793], [7.0000661288438, 47.05999171362659], [7.000239317993165, 47.06014380066348], [7.000579645057115, 47.060349858741375], [7.000627401953631, 47.06038988077621], [7.001451735567899, 47.05997525061157], [7.002016404729144, 47.05969755515514], [7.003162663692455, 47.059470552162104], [7.003677833904917, 47.05931168412515], [7.004477216197048, 47.05899987579974], [7.004617157994166, 47.05894528350622], [7.005159266382541, 47.059062005157294], [7.005894489902739, 47.05895416215663], [7.00598721420293, 47.05883466093757], [7.005987204777175, 47.058808161095506], [7.0059870361059975, 47.05849870878407], [7.0055667534144686, 47.056827608245], [7.005426067713354, 47.05647269348265], [7.005074976254611, 47.05555251605522], [7.004982263589751, 47.055244080206826], [7.004900608479117, 47.054950195575486], [7.004952412252152, 47.05425559589773], [7.005305036556549, 47.05384639131903], [7.005316595695221, 47.05383298733735], [7.005170980977889, 47.05362945079903], [7.005161949196538, 47.05361683236021], [7.006861192521302, 47.052441880194124], [7.0077088507577034, 47.0517345368797], [7.008316191403114, 47.05132058769801], [7.009249668042974, 47.0511514198761], [7.009244705740924, 47.05120559712372], [7.00925784254298, 47.05121350813592], [7.009261145308451, 47.051226707542845], [7.0092673435013575, 47.05131365091589], [7.009285067853905, 47.05133866099663], [7.0092865122089245, 47.05134071731749], [7.0092871359179565, 47.05134335524335], [7.00929535367063, 47.05137875504475], [7.0093224704269055, 47.05139612743753], [7.009340302804854, 47.05142899967139], [7.009355734424689, 47.05147402424584], [7.009304977874394, 47.05154717158807], [7.00930823639871, 47.05158390195264], [7.009295672597608, 47.05162427912693], [7.009293082598614, 47.05166657375322], [7.009317110217271, 47.05163431721794], [7.009403584973822, 47.051610471656524], [7.009617870618719, 47.05142529195865], [7.0097846298793804, 47.051310833929804], [7.009984475146736, 47.05114711663548], [7.010347309394401, 47.05111236070483], [7.010646491052902, 47.05113750613926], [7.0112700457737835, 47.05108401335692], [7.011696185629822, 47.05108670186749], [7.011847145247743, 47.05116855422237], [7.01240176574871, 47.0509692644811], [7.012955962004286, 47.05084589858556], [7.013137386746345, 47.05106549785813], [7.013461794398721, 47.05142392843824], [7.013652982382829, 47.05169890058677], [7.013925987567228, 47.051923380396495], [7.014281509581623, 47.052042345848825], [7.014624563901397, 47.052165365966324], [7.015507757801146, 47.05252877149842], [7.015830398692298, 47.052695915245245], [7.016242171609496, 47.05292613730757], [7.0167040817509525, 47.05308257423865], [7.017245623380493, 47.05321031143165], [7.0179566288560356, 47.0536097023015], [7.0184836142055, 47.05392951765857], [7.018702091439228, 47.05416131478602], [7.019116973374035, 47.05433375271752], [7.01973522287948, 47.05462823211371], [7.020631492978653, 47.05516871450534], [7.02151627137833, 47.055785930598724], [7.022108429968408, 47.0563060710243], [7.022265728236391, 47.05706181136034], [7.022265147354828, 47.05706372521189], [7.0221781425156165, 47.05734290645732], [7.021859945361581, 47.05775140734768], [7.021886521969171, 47.05805688929905], [7.021534117181647, 47.058460674287524], [7.02147152044459, 47.05860514178655], [7.021089346255481, 47.05877163499302], [7.020805445586271, 47.05888722223967], [7.020633523566151, 47.05896516762777], [7.020989432939845, 47.05949745849684], [7.021256847316999, 47.059833285654136], [7.0213919742506485, 47.060449340641945], [7.021391079145303, 47.060451028457116], [7.021214368987344, 47.06078254721747], [7.021189401255469, 47.0608529960714], [7.0207743693404145, 47.06103770815347], [7.020496160526388, 47.06118805498498], [7.020642110340169, 47.0616583213571], [7.020615971187581, 47.06256012951189], [7.021806351211063, 47.06251390895952], [7.021836430657616, 47.06252233056498], [7.021902595510349, 47.06263494802724], [7.021902139775791, 47.062639371949416], [7.021887690185367, 47.06275876587846], [7.02193730272938, 47.06330967468681], [7.021936652232832, 47.063312065018906], [7.021878171538018, 47.06352738385057], [7.021940760275494, 47.063887812213615], [7.022100555053424, 47.06415338985814], [7.022127674227622, 47.064195459666884], [7.022269527717977, 47.06441550193626], [7.022394265092456, 47.06455826765069], [7.0224181556275225, 47.06458562775965], [7.022823733665408, 47.065262113713466], [7.023159137048516, 47.06521599055304], [7.023552506137121, 47.06583224283626], [7.024076381933078, 47.06539637577966], [7.0248160358560705, 47.06573103443791], [7.025345096793317, 47.06585915527622], [7.025742276653211, 47.06610521992643], [7.02643850244791, 47.06650189334179], [7.027434179071499, 47.06732681530935], [7.028318396499889, 47.06761952993023], [7.029453303168287, 47.068351780735156], [7.029471145888855, 47.06836328626079], [7.0298716157215715, 47.06823555515661], [7.030876514750826, 47.067926456952726], [7.031770506497007, 47.06785540781341], [7.032608376299041, 47.067711201977495], [7.033074264829022, 47.067709902051085], [7.033610859278703, 47.06706937696177], [7.033973681305572, 47.066681179154116], [7.035299836113964, 47.06522706208037], [7.035590123580116, 47.064895003691646], [7.0356633607446275, 47.06479483100957], [7.0366333922046564, 47.063688045876276], [7.037268019855961, 47.06392349779917], [7.037876088725301, 47.063690073358096], [7.038254478064179, 47.06365055026182], [7.039317630947968, 47.06372113089954], [7.039843169382929, 47.06343555697593], [7.040902820121632, 47.06310419007628], [7.0443295467400615, 47.06192345840196], [7.044529991966827, 47.06184236469888], [7.045724474232755, 47.06053947022109], [7.046119403401533, 47.059690019648556], [7.046078312186608, 47.05967342668171], [7.046411346170137, 47.0593773045714], [7.046712299456402, 47.05909739026994], [7.046812999336205, 47.05901590619598], [7.046945447685735, 47.05884101801612], [7.047253802410196, 47.05857427998148], [7.047828288686811, 47.05871786160183], [7.04794302572152, 47.058714520244735], [7.048408428175233, 47.05868063952121], [7.049019433718627, 47.05867586606324], [7.04921861890928, 47.05795684731788], [7.049996369216568, 47.058106344992346], [7.0502960170619575, 47.05813289706862], [7.050322959626323, 47.05804781295513], [7.050342194902918, 47.05795461568187], [7.0503534600858275, 47.057942150238375], [7.050383994012584, 47.05792623328171], [7.050470698564196, 47.05789488173787], [7.050501036935398, 47.05786781913146], [7.050502591857049, 47.05785307238932], [7.050532969118482, 47.057784371349754], [7.050555120134773, 47.05776096899122], [7.050561225851944, 47.05773580327329], [7.050590602071832, 47.05771252429625], [7.050582769001351, 47.05768731115157], [7.050619263095003, 47.05762628503336], [7.050638946213899, 47.05756202714849], [7.050622579224168, 47.05747941404464], [7.050610199083659, 47.057442320673594], [7.050613046874452, 47.057432615739344], [7.050655186383496, 47.057411709841986], [7.050681799994661, 47.057368272709745], [7.050737029072549, 47.05721224127757], [7.050746167058034, 47.05711199454166], [7.050739814099851, 47.0570442576656], [7.050746719881254, 47.056870693035904], [7.0507428632532445, 47.056858005814895], [7.0506401314066975, 47.05675836948535], [7.050925516897483, 47.05605922846684], [7.05100335855289, 47.055850283809], [7.048915713474442, 47.05535013599307], [7.048503181674262, 47.055243757578644], [7.048002556274888, 47.0551054141891], [7.04868314092657, 47.054074889170316], [7.052324483086905, 47.0510417572047], [7.050730979754755, 47.05086160054385], [7.0504091662495965, 47.05082814478865], [7.050126458667024, 47.0508066764802], [7.04983925997992, 47.05079111998772], [7.049521343535655, 47.05043932838436], [7.049624318773245, 47.050431214099014], [7.0498371509223, 47.05037715720078], [7.04994631098053, 47.05033291228443], [7.050032824436973, 47.05023937809883], [7.050114375774035, 47.0501386399045], [7.05018372475159, 47.05001285381499], [7.050229196002948, 47.04978803139632], [7.050254551289596, 47.04945179016405], [7.050296536353052, 47.04911073898611], [7.0503740827377115, 47.04872036229269], [7.050370904657536, 47.04859622791444], [7.050472317417933, 47.048123132055004], [7.050495528996799, 47.04785707228581], [7.0505105867817, 47.04779506605282], [7.050747820507337, 47.04732368982491], [7.051174599806515, 47.046732942215606], [7.051492202658579, 47.04635595243586], [7.051783082362575, 47.04592688861979], [7.051859531623474, 47.04579879571032], [7.052031381855817, 47.04546755552161], [7.052167135806122, 47.04516335840722], [7.05233656379535, 47.04482077569732], [7.0524073069775834, 47.04466243950869], [7.052892648208539, 47.043992698929905], [7.05312987147376, 47.043703666623024], [7.053352112031482, 47.0432966842848], [7.0527962252447844, 47.04315488284285], [7.052220396482517, 47.04298341738325], [7.05165676252885, 47.042783835519664], [7.05111890441373, 47.042568776602295], [7.0505815884721885, 47.042314057464104], [7.048965654542376, 47.041485358120454], [7.042961734411609, 47.03834155145596], [7.040358157597965, 47.03696924105461], [7.039646985441184, 47.03655373312546], [7.039236531018427, 47.0362843805943], [7.038881527549285, 47.03602521393829], [7.038524609909457, 47.035742742036454], [7.038295545165799, 47.03554951654359], [7.037859456095168, 47.03514055454343], [7.037271333576421, 47.0345650880727], [7.036775148124233, 47.03480213182571], [7.036834703788863, 47.03503568376953], [7.036837992700521, 47.03510576752165], [7.036936225325648, 47.03554670378394], [7.0369353813334, 47.03569584035361], [7.036924278636742, 47.035860232647416], [7.036946888396484, 47.036122178733606], [7.036959488092525, 47.03637156860373], [7.036987569795062, 47.03660923797024], [7.037020818089292, 47.036822998603114], [7.037040409981313, 47.03712251596026], [7.037058691338619, 47.037298705044236], [7.037062545694147, 47.03741620424415], [7.036707183069941, 47.03743102162001], [7.032486283579563, 47.03965196675315], [7.0319186076794535, 47.040029113521804], [7.031580938811895, 47.04027879643825], [7.03057346743167, 47.04106554794242], [7.028395206771799, 47.04273444436129], [7.025831373828851, 47.0420567772708], [7.025228312043829, 47.04249637029245], [7.024963002529943, 47.042325043469056], [7.024522876194798, 47.042061063194886], [7.0240498759295145, 47.0424075628685], [7.024147574026988, 47.042467644542945], [7.0235405440725645, 47.04291269366019], [7.0237730989828755, 47.04306204679127], [7.023802020439134, 47.04310128054394], [7.023783771205924, 47.04314681993272], [7.0228149985501, 47.04379737103156], [7.022755776719288, 47.04374741272434], [7.022101072005152, 47.04416385843606], [7.022036044695076, 47.04417334550546], [7.021101136680111, 47.0441374086413], [7.019888853839709, 47.0441124834062], [7.01929896501616, 47.04410653732829], [7.018368392758312, 47.04410346033284], [7.018214318893367, 47.04410607019943], [7.016522299713502, 47.043283541257516], [7.013050375725978, 47.04301260809447], [7.012828638760939, 47.04305191955907], [7.0126530682924235, 47.043029435083], [7.012457315238196, 47.042995019517804], [7.012313586985438, 47.04304382269638], [7.012026486181564, 47.04314621512034], [7.011528793729008, 47.04340785382917], [7.011282695424195, 47.043544498026165], [7.011066365398534, 47.04369877560811], [7.010824966590915, 47.043844773519254], [7.01065941139151, 47.04389262061094], [7.010479376834477, 47.043908102677484], [7.01029956242879, 47.043897724168076], [7.010145674007333, 47.04386895737388], [7.0092316466482405, 47.04365580959338], [7.008990898614317, 47.0436333806745], [7.008360349605412, 47.0435952650418], [7.008102939875301, 47.043596096034314], [7.0077673388767865, 47.04361659237235], [7.007716100483998, 47.0436227860445], [7.007510609508398, 47.04361463619617], [7.006814152698587, 47.04350918717456], [7.006089282898573, 47.04335074414377], [7.0059891726482695, 47.043345508417374], [7.0057496609607455, 47.04335113338603], [7.005642890105441, 47.04336079508616], [7.005543574016178, 47.043348491787306], [7.005445431253128, 47.043324553111404], [7.004118020733986, 47.042856990789346], [7.003995297731644, 47.04282995318798], [7.003863155065896, 47.042820483176314], [7.003508634864254, 47.04283775604484], [7.00344652668039, 47.04282141863033], [7.003396735027878, 47.042779221880465], [7.00329256898755, 47.04281167601726], [7.003263943684151, 47.042886631712754], [7.002734687111959, 47.04297007158471], [7.002543879814272, 47.04301737897981], [7.002464282811638, 47.04304792913811], [7.002275856968347, 47.043158112394], [7.002005413788398, 47.04333563518449], [7.001889558974648, 47.043389254158555], [7.001507585408439, 47.043543313701605], [7.000745000991283, 47.0438288474894], [7.000469895747119, 47.043917467825665], [7.000180389499793, 47.043996956303126], [6.999663650991703, 47.04410209991238], [6.999532466732506, 47.04414711246709], [6.999411096599899, 47.04420042913031], [6.999146290286472, 47.0443003298097], [6.998823530658665, 47.044435358431855], [6.9986337733976836, 47.044403596353504], [6.998733613866181, 47.044504186201934], [6.99861554286728, 47.04455616532694], [6.9987613195208205, 47.04473554978412], [6.998212853622599, 47.045002568499555], [6.997010786116508, 47.045353573596635], [6.996071084259469, 47.04576575854452], [6.99563674343997, 47.04582751392614], [6.995142198710741, 47.045744617250755], [6.995126213006219, 47.04594263828398], [6.993763756509433, 47.047029683352676], [6.993243865560178, 47.047382247214166], [6.9929406563607355, 47.047932900786655], [6.992739811521739, 47.04807460377154], [6.992522271810601, 47.04819977132093], [6.992205368462725, 47.04867237841131], [6.991996051040216, 47.04914902006035], [6.991730094492134, 47.05017779997452], [6.991628865250992, 47.050472115059165], [6.991502001103173, 47.05114408514505], [6.99125853031858, 47.051344959749], [6.991771796581647, 47.05153498017173]]]]}}]}