{"type": "FeatureCollection", "features": [{"type": "Feature", "properties": {"bfs_nummer": 6604}, "geometry": {"type": "MultiPolygon", "coordinates": [[[[6.023762196734103, 46.14055069194308], [6.023671182202395, 46.1406513146484], [6.023654722763172, 46.140682543636856], [6.023630242755975, 46.14071809843404], [6.023579120770343, 46.14076182991124], [6.023522309907828, 46.140834712315936], [6.0234270443888, 46.14090264922997], [6.0233712734185465, 46.14096688046952], [6.023288858629001, 46.14102988635593], [6.023231103505271, 46.141055414343796], [6.023208154559311, 46.141086822652525], [6.023156457512513, 46.141171573259285], [6.023093788741235, 46.141229275842555], [6.023014796622767, 46.14131294574358], [6.022924445320598, 46.14138895135122], [6.022861201690998, 46.14141746920031], [6.022724485837997, 46.14156522834544], [6.022655639760038, 46.1416056057552], [6.02252593261378, 46.14165751733314], [6.022433897613559, 46.141678772459876], [6.022336055207128, 46.14167548254133], [6.022207446590933, 46.14165976793396], [6.021917935352933, 46.14160847137354], [6.021811269594846, 46.14159409367326], [6.021731259244387, 46.14157154881834], [6.0216508420955135, 46.14153579117322], [6.021607526707398, 46.1415196726791], [6.021572222971754, 46.14148515696325], [6.021541133216221, 46.1414319533864], [6.021487487851078, 46.14129702490941], [6.021458366616445, 46.14123831288784], [6.021373045601559, 46.14113886630432], [6.021330053550984, 46.14111879303431], [6.021285357831773, 46.14110947680268], [6.021227444389801, 46.141109720114265], [6.021169589631414, 46.141129586656916], [6.021081799028533, 46.1411876829618], [6.021029336158746, 46.14122714085103], [6.02094774996688, 46.14127559823992], [6.020886575486793, 46.141345905233784], [6.020831795976781, 46.1413947897609], [6.020755745949103, 46.14145231377684], [6.0207073809137945, 46.14147803055836], [6.0206690183524305, 46.1414939045244], [6.020622688895972, 46.14153986327757], [6.020570138025976, 46.141605537224166], [6.0205521034757465, 46.14163554035483], [6.020526604732488, 46.14169172991184], [6.020508563823167, 46.141786088815685], [6.020484347559814, 46.141817381682245], [6.020432733841549, 46.141860970621465], [6.0202919756651, 46.141991194847606], [6.020254842968943, 46.14201548737694], [6.020153483898681, 46.14206171604767], [6.02005341608929, 46.14208917502776], [6.019998548089392, 46.14209569099207], [6.01996024865663, 46.14209818690492], [6.019786818688257, 46.14208886896725], [6.019719628371765, 46.142079997668596], [6.019642302602911, 46.14206420589551], [6.019568191592934, 46.14204028530261], [6.019521979945371, 46.14202157435868], [6.019463130524255, 46.14199114302987], [6.019286424776343, 46.141956555187434], [6.019244519408029, 46.1419509081131], [6.019215234258571, 46.14196112879606], [6.019188367125831, 46.1419769042118], [6.019265282894566, 46.14208935533636], [6.019230598592162, 46.14209467658666], [6.019033656045219, 46.14210749999242], [6.018857635307251, 46.14214145055681], [6.0186331459838645, 46.142192613463656], [6.018495311990812, 46.14218718793654], [6.01837194686525, 46.14222252120252], [6.01832042250852, 46.14226210660946], [6.0183009426137675, 46.14234399526392], [6.018261742558877, 46.142387955640636], [6.018163199273087, 46.14239957923629], [6.018087592845923, 46.14246474570894], [6.018043397974445, 46.142491278679145], [6.017911942790061, 46.14254891198807], [6.01778106169921, 46.1426142989894], [6.017675320885636, 46.1426730661087], [6.017470640660643, 46.142743721201526], [6.01717874971588, 46.14283856671141], [6.017068224345815, 46.14284257984168], [6.016937887900753, 46.14281763336307], [6.016626731236741, 46.14277287915469], [6.016481240097953, 46.1427825595436], [6.016251628817677, 46.14278235189259], [6.015890122398022, 46.14275693343964], [6.015532141961885, 46.142784811995334], [6.015404544635473, 46.14281307087462], [6.0153277998831705, 46.1428671636831], [6.015297025667086, 46.1429258856502], [6.015219660623254, 46.14298834676884], [6.015106148213079, 46.1430570900526], [6.015012597893319, 46.14307570208175], [6.0149322263564695, 46.14307540651688], [6.0147617569346, 46.14302107877996], [6.014689150684205, 46.1429168752828], [6.014676283760361, 46.14283474938896], [6.014541955139356, 46.14265563903931], [6.014457605449284, 46.142456098037115], [6.014327732150124, 46.14236403626075], [6.014248079493369, 46.142346196099865], [6.014173799662593, 46.142360471442174], [6.013941666136099, 46.1424413893908], [6.013769032779745, 46.142538633355464], [6.013625229895125, 46.142533756154734], [6.013517250776244, 46.14244592910864], [6.013329499348824, 46.14220490762655], [6.0132451337986845, 46.142154014845985], [6.013080996213751, 46.14209976476926], [6.012983740625775, 46.142116564708836], [6.012896319237364, 46.14211517079959], [6.012811100504085, 46.14212506006793], [6.012739953037816, 46.14214327864731], [6.012732408637647, 46.14216002568844], [6.012689141034371, 46.142191093903065], [6.012658452648895, 46.142200971248684], [6.012574139756965, 46.142202459585626], [6.012460878931424, 46.14218394097391], [6.012379877249376, 46.14214499322709], [6.0123646890962785, 46.1421471852008], [6.012325615282489, 46.142136236076794], [6.012290668004346, 46.14212093058902], [6.012262556736328, 46.142126800796284], [6.012194030152323, 46.14211907774554], [6.012107847150177, 46.142118337717136], [6.012025481823816, 46.14212503259456], [6.011957253572385, 46.14213309396379], [6.011906327670284, 46.14214521611839], [6.011737573220771, 46.14216891007946], [6.011659571811998, 46.142174535322745], [6.011622330823523, 46.14217218339288], [6.011518045024965, 46.14217372393089], [6.011427215674679, 46.14216852501018], [6.011408686764088, 46.14216385480104], [6.011297631425474, 46.14214960050507], [6.0111548287214704, 46.14211105676802], [6.011039361755105, 46.142031562659106], [6.011006297939601, 46.141983927165626], [6.010949547009906, 46.141935343843436], [6.010914491046483, 46.1419286467725], [6.010856430150812, 46.14194681402291], [6.01078653765432, 46.14198626240505], [6.010732519465025, 46.14206546284342], [6.0107235837441655, 46.1421164889494], [6.01069868875193, 46.14215715515221], [6.010675926839719, 46.142161392256426], [6.010639072009039, 46.14218972487668], [6.010577370957388, 46.14222428354353], [6.010514954260601, 46.14224713687924], [6.0104949666463074, 46.14224824213686], [6.010475180080351, 46.14224069477033], [6.010416259624043, 46.14222894476231], [6.0103632832280764, 46.14222793142447], [6.0102654438007885, 46.142219574796705], [6.010250985245938, 46.1422131925537], [6.010170747604061, 46.14219599886697], [6.010124298461252, 46.14221309833563], [6.010021890481433, 46.142184493936234], [6.009918692303329, 46.14216134984467], [6.00987224003756, 46.1421583407259], [6.009840260563786, 46.14215080961535], [6.0097304616806575, 46.142102992655325], [6.0097079851810475, 46.14210868169138], [6.009603366493631, 46.142092330129906], [6.009563548087545, 46.14211026921639], [6.009515987305063, 46.14215295090769], [6.009458114443882, 46.142263546768405], [6.009506889399241, 46.14228556927159], [6.009516126547781, 46.142311382010455], [6.0095134868326845, 46.1423532748714], [6.009523719806399, 46.14243041050724], [6.009486823324328, 46.14246868399367], [6.0093943340325575, 46.142526226082985], [6.009266263243592, 46.14259115301834], [6.009213397880259, 46.14262731648198], [6.009148332203166, 46.14264157926764], [6.009043224204557, 46.14264974691104], [6.0090166496325566, 46.14265868577521], [6.009002851735206, 46.14266904630892], [6.0089291394628, 46.14269367186884], [6.008881297992903, 46.142719894194556], [6.008784205246748, 46.14276095763733], [6.008673999310712, 46.142790734237515], [6.008646224183608, 46.142801025336695], [6.00857105186574, 46.14281174069919], [6.008547677528181, 46.14281907361548], [6.008442376120479, 46.14281241105999], [6.008265960488333, 46.1427851602837], [6.008049973336941, 46.142693995576224], [6.007945160973601, 46.142672178685174], [6.007692017559965, 46.14259517079708], [6.00754203611626, 46.14252496957391], [6.007444685158866, 46.14247191920134], [6.007356156981221, 46.142390981894245], [6.007310327760089, 46.14236131234258], [6.007219217674555, 46.1423229702561], [6.007144880261163, 46.14227731956181], [6.007061975528849, 46.142236553409255], [6.006787449127903, 46.14214541633719], [6.006741275823899, 46.14213229677572], [6.0065727409075365, 46.14210227337948], [6.006521925314881, 46.14209637335663], [6.006500836047152, 46.1421068838506], [6.00644540235056, 46.14211121776933], [6.006161600412582, 46.14212377853266], [6.0060263416269315, 46.14216071963115], [6.005984629982485, 46.1421807117081], [6.0059901903411825, 46.14221387360567], [6.0060049757562535, 46.14225946975304], [6.0059827091656395, 46.142277333796656], [6.005961572721847, 46.14230291369474], [6.005929918189907, 46.142319452776405], [6.005900077519355, 46.142315753495005], [6.0058067061995875, 46.14233239864049], [6.005709012062676, 46.14234116128968], [6.005639754565592, 46.142320900966986], [6.0055639509876455, 46.14232511039983], [6.005472620913898, 46.14230648567475], [6.0052883031756314, 46.14229042109559], [6.005286784159259, 46.1422817465993], [6.005248107837387, 46.142277871756335], [6.005239318512762, 46.14226905079872], [6.005187318168735, 46.1422673457408], [6.0051922473172965, 46.14227529886119], [6.005163783824061, 46.142274846836386], [6.005155038451042, 46.142267798866826], [6.005052566526375, 46.142243192983], [6.004938520227059, 46.14219756655983], [6.004553701380188, 46.14199214347911], [6.004351034888855, 46.14192582007195], [6.004110697156546, 46.14193050758071], [6.003982591520874, 46.14195136953826], [6.003958295013936, 46.14197453359729], [6.0038684925720345, 46.14200555493132], [6.003754388820834, 46.14201521358119], [6.0036768376470215, 46.14198653317444], [6.003582540986612, 46.14193121504966], [6.003267257382066, 46.1417808893114], [6.003229288794925, 46.14177669888986], [6.0031535664436175, 46.14179257693995], [6.003107774088753, 46.14181463932603], [6.003100733869168, 46.14184897243029], [6.003052856558446, 46.14187402239144], [6.0029852188948345, 46.14192542480081], [6.002933094476981, 46.14195052828461], [6.002875490999863, 46.14196105875572], [6.00282019707231, 46.141986104059754], [6.002810508274984, 46.14200748355707], [6.0027486441896905, 46.14205491067338], [6.002744995262247, 46.142075485487304], [6.0026790344560705, 46.14212463285926], [6.002567741794204, 46.14218129993078], [6.002413932546286, 46.14221235018724], [6.002369767321072, 46.14221588102523], [6.002096646125759, 46.142284214677524], [6.001977831104364, 46.142294324351305], [6.001952247213496, 46.14230197862873], [6.001796705064654, 46.142284871548156], [6.00172046635809, 46.14226828061408], [6.001698554957877, 46.14227017857763], [6.001693657742536, 46.142247299502166], [6.001554994070565, 46.14220762664675], [6.001455872362871, 46.14218659604095], [6.00137420898614, 46.14216467236577], [6.001305067697269, 46.14216312482899], [6.001281219646871, 46.1421702343311], [6.001253107862889, 46.14218588159738], [6.001225464635709, 46.14219407631712], [6.001213769782392, 46.14219237961792], [6.0011095723238945, 46.14228223595743], [6.001105217195094, 46.14229227513259], [6.001021270396877, 46.14235341013271], [6.000946113688799, 46.14245124833076], [6.000891034375186, 46.142551447988595], [6.00078810913523, 46.14263866621161], [6.000753326178033, 46.14265744020028], [6.000690763341687, 46.14267437527377], [6.00061457056179, 46.14267073995701], [6.000594488858377, 46.142656277280246], [6.000577040925873, 46.142633247023234], [6.000530607048615, 46.14260062483637], [6.000539318822007, 46.142594222123115], [6.000551718193411, 46.142591789210144], [6.000526160243378, 46.142538164302344], [6.000502892922862, 46.14254189814679], [6.000496507461723, 46.1425582363665], [6.000407535767204, 46.14255425783684], [6.000399800785069, 46.142547690210826], [6.0003662112325635, 46.14255999243807], [6.000280414703577, 46.142578403112786], [6.000275776114511, 46.14259132670836], [6.000268067875134, 46.14259795816983], [6.000214970985616, 46.14262207645412], [6.000204786501325, 46.14262837039644], [6.000202155736568, 46.14263976312349], [6.000120017152379, 46.142687757880864], [5.999987929911801, 46.142866544324654], [6.000012229370926, 46.142977590771295], [5.999992607789715, 46.14301185308083], [5.999992962441459, 46.14304644244784], [5.999931123807159, 46.14311726075349], [5.9998985826397835, 46.143126607160525], [5.999870908988915, 46.143144742854695], [5.999856370262904, 46.14314632969096], [5.999834007841873, 46.1431324585879], [5.999800134050314, 46.143128067428165], [5.999668606748188, 46.14309308993351], [5.999631732366934, 46.14309350981431], [5.999610533767485, 46.143090459045716], [5.999599458555027, 46.1430770649056], [5.999601899631627, 46.14306648850942], [5.999618743436318, 46.1430604505944], [5.999546938455711, 46.143010760489325], [5.9994942510554985, 46.14294589343682], [5.999210418053153, 46.14289524079604], [5.999194246555967, 46.14290914168806], [5.9991885909971865, 46.14292772045986], [5.999108121530675, 46.14292868093607], [5.999041086367181, 46.14291842270281], [5.998954301892401, 46.14291052143406], [5.9989425173709146, 46.1429029123173], [5.998685068835894, 46.142856967905374], [5.998681652071228, 46.142879470928996], [5.99867189434833, 46.142885770179475], [5.998671312331386, 46.14291120653462], [5.998611915494162, 46.14294640897778], [5.998561061718818, 46.14296055039214], [5.998553993178813, 46.14295472892439], [5.9984610446030695, 46.1430076226778], [5.998449194418319, 46.14300347653607], [5.998263637985095, 46.14302688202667], [5.9981213938377, 46.14303743487838], [5.998063468340246, 46.14302336071301], [5.998035467087479, 46.14300542247714], [5.99803873121552, 46.142982827511894], [5.997922441591259, 46.14296050364468], [5.997903656154811, 46.142950393631985], [5.997825406984457, 46.14293983836375], [5.9976775098291135, 46.14289157645754], [5.997586357267156, 46.14285749958384], [5.997514878674257, 46.14281903172317], [5.997450571685632, 46.142799117556265], [5.997365776864999, 46.14278451955815], [5.997294678667027, 46.14281042171458], [5.997144250159155, 46.14284754506038], [5.997070132677127, 46.14287112309739], [5.996939247679422, 46.14296010355329], [5.9969339849865655, 46.1429858128977], [5.99688483365052, 46.143081318055884], [5.996911565292408, 46.143134976891], [5.996895376840232, 46.14319446536069], [5.996921218656423, 46.14326755542615], [5.996841524894105, 46.143345278444244], [5.996738416267808, 46.14355203518457], [5.996720056577453, 46.14360650262753], [5.9966591756594205, 46.14366687694379], [5.9965930881085745, 46.14370097609458], [5.996403426138892, 46.1437781014878], [5.996265223812889, 46.143800166111035], [5.9961331097338455, 46.14380250592148], [5.9960910612760845, 46.14378225507131], [5.996067211618304, 46.1437913247799], [5.995858554471439, 46.143831048251506], [5.9957768345354845, 46.14386351627838], [5.995775685772553, 46.14389319197835], [5.99570688625095, 46.14392653613518], [5.995700023320101, 46.14392126593838], [5.995608620775425, 46.143956192039134], [5.995598624635557, 46.14397488597847], [5.99554732825686, 46.14396707646608], [5.99529773629141, 46.144027021835946], [5.995022980994086, 46.14403521708055], [5.994946240351176, 46.14402045050854], [5.994844136581699, 46.143965888646704], [5.994806367697299, 46.14389164657906], [5.9948222039990675, 46.143836742201245], [5.994806296626717, 46.143763985765865], [5.9948246177120526, 46.14373545672758], [5.9948108745936945, 46.14369482069565], [5.994817071904848, 46.14364659464041], [5.994782610169172, 46.14360238224712], [5.99475425177793, 46.14359061963324], [5.994709655326017, 46.14359863141624], [5.994621377543502, 46.14364116337723], [5.994561864911781, 46.14370598065962], [5.994518583574754, 46.143744932355354], [5.994477847918911, 46.14382601408932], [5.9942627457353925, 46.14403741554151], [5.994255553769, 46.14405968113133], [5.994199732935659, 46.144136070882965], [5.994193254351744, 46.14413388253217], [5.9941505238781305, 46.14421986897817], [5.99413135035404, 46.14423318186097], [5.9941191989057625, 46.144299433711424], [5.994121825125168, 46.1443634099774], [5.994149353484048, 46.14440695775723], [5.994197238330576, 46.144433105262365], [5.994223663493573, 46.14447921223163], [5.994201261963505, 46.14448831809882], [5.994195533624629, 46.144540310931674], [5.994169072520396, 46.144548258122725], [5.99414749261069, 46.14456347457519], [5.99410129249086, 46.14456945028005], [5.994072006282752, 46.14456337068094], [5.994008856632916, 46.144533464572966], [5.993946298310625, 46.14448078535264], [5.9937856190202305, 46.14444493252796], [5.993786443737994, 46.144437754418014], [5.993772308769086, 46.14443093334017], [5.9937673738768575, 46.14443398306253], [5.993679192436157, 46.14438841581313], [5.993661143478157, 46.14437641619692], [5.9936383405679, 46.14436991582998], [5.993629712796053, 46.14435603964126], [5.9933477690818036, 46.14421022518127], [5.993314970673567, 46.144199934747704], [5.993215652691774, 46.144138974234345], [5.9930022005017305, 46.144049090550126], [5.992829284646013, 46.14400909355612], [5.992604899310796, 46.14396295674252], [5.992195175494787, 46.14391669925609], [5.992127922452873, 46.14391366780282], [5.991762325382309, 46.14380892703704], [5.991133115434293, 46.14357815108784], [5.990883879367946, 46.14349265317523], [5.990552511522533, 46.143352827537036], [5.9903499123999, 46.14330337625844], [5.990173550590452, 46.14336973080184], [5.99002081832207, 46.143445034889375], [5.989927202811178, 46.143445289004106], [5.9896231008994105, 46.143510585366904], [5.989265673559519, 46.143644319896744], [5.989165726574218, 46.143695208761464], [5.989129166596252, 46.14374749772646], [5.988979424226011, 46.1438392405827], [5.9889321966316995, 46.14384199801464], [5.988863878757166, 46.14382500539033], [5.988801529140707, 46.1437812331688], [5.988740712380249, 46.143626906021304], [5.988666924289177, 46.14348529580509], [5.988635062568953, 46.143380573310054], [5.9885840354982465, 46.14330486284672], [5.988540861679866, 46.1432788726784], [5.988502239301982, 46.14327055733588], [5.9883941860901855, 46.14327200095421], [5.98825324304347, 46.14329434448218], [5.988117581843591, 46.14332782199435], [5.9880005869129205, 46.143323347249144], [5.98789922601293, 46.14328784436689], [5.98783972690495, 46.14318183030651], [5.987712250715838, 46.14303588439255], [5.987634790279577, 46.142981219355796], [5.987586698879929, 46.14296007800482], [5.987443181009798, 46.142857579331675], [5.987085031251492, 46.14259057486302], [5.986989835272801, 46.14256762974398], [5.98689951345017, 46.14258616095089], [5.986870599372262, 46.14260551921039], [5.986710421422858, 46.14274395467793], [5.98667318806016, 46.14281560485675], [5.986548895722686, 46.142934357947745], [5.986387869561132, 46.14290943062186], [5.986264378602185, 46.14283019420155], [5.986160273708758, 46.142805927830736], [5.985953390969037, 46.142871657397656], [5.985752318030403, 46.14306842364529], [5.9856098951897945, 46.14329899178385], [5.985537833235504, 46.143368042302434], [5.985480846538319, 46.1434095940104], [5.985204527836085, 46.14339105071845], [5.985070331732635, 46.14333416764959], [5.984923684350262, 46.143359699367586], [5.984679654715942, 46.14328319779686], [5.984030451855054, 46.14320230381738], [5.983845014016445, 46.143158001682956], [5.9837046100297275, 46.14307581819211], [5.9835442675465425, 46.14301128101659], [5.983503367229174, 46.14298894384394], [5.983492305254, 46.142926765901954], [5.983392086986124, 46.142806988703136], [5.983329356309498, 46.14272052591731], [5.983215496702526, 46.14260703243199], [5.983121635441762, 46.1425438930898], [5.983012571244303, 46.142517346353124], [5.9829227174102995, 46.14247232481788], [5.982761524774953, 46.14240725387536], [5.982445804160382, 46.14229074682749], [5.982603697885519, 46.143370373302844], [5.982850301245047, 46.144661661504735], [5.982771979619551, 46.144710943421835], [5.983226137533323, 46.1452313725759], [5.983201493233139, 46.145252629344135], [5.983449616156882, 46.145437773203504], [5.983788124429154, 46.14572778432331], [5.984470872587126, 46.14874974203224], [5.984829838241964, 46.14894359102182], [5.984976885123944, 46.149055423453596], [5.985174106998934, 46.1492705688172], [5.985246351231258, 46.149328362172255], [5.98548597311849, 46.149604532743524], [5.985680309840375, 46.149841125781556], [5.985533274411563, 46.14988442236292], [5.985758367557064, 46.15005755880862], [5.985864404589916, 46.15021418000812], [5.98589157128422, 46.150384683842965], [5.985867283277654, 46.150586608154875], [5.98587277251998, 46.15080783755597], [5.985857191029137, 46.150993958129305], [5.985784366000738, 46.15118582742171], [5.9858827642241375, 46.1512338897808], [5.986081182331934, 46.151322630737795], [5.9865088956303625, 46.15154137433758], [5.987204140980418, 46.151873525081506], [5.98730372096425, 46.151916203312624], [5.9874452722716445, 46.151938440629536], [5.987918468859215, 46.15198636939148], [5.988109065458751, 46.15201419451228], [5.988272296275317, 46.15205363333086], [5.988885884309026, 46.15218640765118], [5.989063606171805, 46.15224564547911], [5.989198742114516, 46.15231927062569], [5.989146704285807, 46.15235800870732], [5.989966353702749, 46.1526382882993], [5.990246795804031, 46.15277324103662], [5.990358332875595, 46.15283376722088], [5.990575052311059, 46.15293579869325], [5.990852506633639, 46.153037170294866], [5.991083476412146, 46.153109684339036], [5.991503415132717, 46.1532179133672], [5.991514965167783, 46.153231467315464], [5.9916013151911605, 46.153246071473596], [5.991679301779034, 46.15323438668012], [5.991759334687482, 46.153238742908314], [5.991928073615142, 46.15327086903706], [5.992111000973392, 46.15328986124712], [5.992293802777733, 46.15331406980158], [5.993358468403705, 46.15347554757932], [5.993753050964164, 46.15355897093757], [5.994295991450377, 46.15369627925983], [5.994713756620629, 46.153818521811345], [5.995296412248793, 46.15398154375133], [5.996598044264232, 46.15430320441511], [5.9967291531214215, 46.15433880060594], [5.996811333152096, 46.1543643238806], [5.997652745653771, 46.15459776124325], [5.99816445763248, 46.15473197027484], [5.998761936755267, 46.154903080963415], [5.9992160799185426, 46.15504077842239], [5.999238534859405, 46.15504349437077], [5.999318978963696, 46.1550662045415], [5.9996761111132635, 46.15517620993561], [6.000118455830779, 46.15529953768645], [6.0005636160264775, 46.15545897795169], [6.000832400179318, 46.15555057810324], [6.002237061326099, 46.15608582734682], [6.002329404762406, 46.156123802082256], [6.00264724184436, 46.15627117497384], [6.002716443329212, 46.156327568519785], [6.003050831201876, 46.15650969991552], [6.003285490684522, 46.15662461171762], [6.003488340867905, 46.15670366942776], [6.004156641718288, 46.15693458382105], [6.004621482874631, 46.15710964318435], [6.00494597865259, 46.157221915541754], [6.005263173585456, 46.157350909662725], [6.00565763295871, 46.1575454931042], [6.00580374508743, 46.15763678132422], [6.005889289283998, 46.15768240412938], [6.006323722434384, 46.157883323356465], [6.007715190436222, 46.15847652833201], [6.008517732672463, 46.15879451125002], [6.008596551884154, 46.15880549787637], [6.009135056660222, 46.15904653053637], [6.010528065242133, 46.15961535556429], [6.011910623444615, 46.160213001345234], [6.0130699997596295, 46.160707040720375], [6.013932564853472, 46.16106416080797], [6.014188321173391, 46.16116663925303], [6.014860330488011, 46.16145357833674], [6.016395339934053, 46.16208792984215], [6.016985792868821, 46.16232552187478], [6.017314424801781, 46.16247937656224], [6.017850694412282, 46.162699735333014], [6.019501336696519, 46.16341601516419], [6.019973562936739, 46.16363508940963], [6.020029189137096, 46.16358739413114], [6.020223634966109, 46.163603785965904], [6.0201908134177, 46.16353660587964], [6.0203391782946865, 46.16325921284036], [6.020334852429172, 46.16314694715585], [6.020111885983662, 46.16246116651547], [6.020077191776072, 46.162217449573895], [6.020045692663178, 46.16090713579703], [6.01996976271082, 46.16076024811317], [6.019972921518363, 46.160450249305754], [6.019990667306563, 46.16030588094126], [6.020047848973802, 46.16006421986235], [6.020083404574342, 46.15994689573449], [6.020072462647602, 46.15962150549902], [6.02004257638119, 46.15908903491353], [6.0200031467969275, 46.15897247687671], [6.019888036758538, 46.158684184442606], [6.019659309910066, 46.15814084369564], [6.019267821564905, 46.157379883621935], [6.019104369113854, 46.15716828402571], [6.018911389683994, 46.15696251130111], [6.018821135444927, 46.156848911374375], [6.018407400941051, 46.156250685506365], [6.018153002880455, 46.15585906807675], [6.017841748464325, 46.15534240283882], [6.017801018580207, 46.15525560761407], [6.017723306967998, 46.15516709560019], [6.017280407636164, 46.154480434176136], [6.016830889644647, 46.1535950507242], [6.016811641751064, 46.15354388461235], [6.016963354008433, 46.153494874758984], [6.01731148938705, 46.153405425638134], [6.017713094516239, 46.15343487116793], [6.018008033422062, 46.15342878242822], [6.018422577645378, 46.15339944858877], [6.019226936173741, 46.15336964220243], [6.019714629282792, 46.15334456246848], [6.019929877611377, 46.15334222440318], [6.020551931570177, 46.15330289830718], [6.020887508377656, 46.15326789245166], [6.0211143843792305, 46.15322567029854], [6.021601905550659, 46.15304745081794], [6.02196465320687, 46.15292389247401], [6.022473501757973, 46.15282088239618], [6.023175758530936, 46.15265462027663], [6.024307443073623, 46.15230759414865], [6.0250567838516496, 46.15208199112207], [6.025874360249906, 46.15180577545481], [6.026296640283099, 46.15163625487172], [6.026742878634187, 46.15143133258625], [6.026893919875422, 46.151368175845384], [6.027187603279882, 46.15126020049915], [6.027262671672692, 46.15125079390069], [6.027285354789699, 46.15123620582126], [6.027392920745965, 46.15133050096799], [6.027409616936024, 46.15126071310207], [6.028939247276726, 46.15061676361253], [6.0295319801458245, 46.15101960378884], [6.033456281343489, 46.14937912499767], [6.0338829398104314, 46.1488736646132], [6.033961029010705, 46.14881723684935], [6.035593183867071, 46.14777207608246], [6.035587352534068, 46.14772710835806], [6.035616579271367, 46.14769805191502], [6.033720211445728, 46.14677560934508], [6.029583475504003, 46.14466107592936], [6.029064827855833, 46.144370086382885], [6.028309043322755, 46.14384823231122], [6.027452465816954, 46.14321112777859], [6.027497362826422, 46.14319728515521], [6.027434357774815, 46.14315618061636], [6.0274223880837425, 46.14313308827339], [6.027283417427486, 46.14314593217315], [6.027153481237192, 46.14313530782737], [6.027072707754363, 46.14308561332347], [6.027116420347213, 46.14300212845324], [6.02705206207114, 46.142922868213404], [6.02696281786743, 46.14276555240832], [6.026663436911072, 46.14265023856291], [6.0265814838168055, 46.14255123383766], [6.026477627681739, 46.14254319365428], [6.026473730291621, 46.142578682991775], [6.02637284217776, 46.14256599230082], [6.026264588797319, 46.14251290256859], [6.026195657677968, 46.14245581616917], [6.02603251335141, 46.14237323875566], [6.025971855416395, 46.14227665995814], [6.025794305928533, 46.14209082252969], [6.0257429134781635, 46.142051212008376], [6.025759596279069, 46.14201184322986], [6.025670014413785, 46.14185777028669], [6.025663099155318, 46.141795055115125], [6.025481729788915, 46.141666741419726], [6.025453277241858, 46.14162597892872], [6.025280536975265, 46.1414794009123], [6.025097709591006, 46.14138688542386], [6.024986165317693, 46.141365971567055], [6.024925274988185, 46.141322831722356], [6.024783440112301, 46.14125321439788], [6.024518430819331, 46.141140575009665], [6.024435642724658, 46.14107844610748], [6.024342164820063, 46.141054159612175], [6.024277867103027, 46.14096832149187], [6.024162794600482, 46.14094376372059], [6.023999901101116, 46.140801994799034], [6.02396251571772, 46.14075141194998], [6.023939134715452, 46.14070082488109], [6.023901408414404, 46.14063746188246], [6.023762196734103, 46.14055069194308]]]]}}]}