{"type": "FeatureCollection", "features": [{"type": "Feature", "properties": {"bfs_nummer": 6608}, "geometry": {"type": "MultiPolygon", "coordinates": [[[[6.140367653871349, 46.16825771518224], [6.140352755723715, 46.16825799346426], [6.1402732556981, 46.16827884127037], [6.140173505820045, 46.16831314907775], [6.140032127912402, 46.16833373391852], [6.139974125245693, 46.16831705142337], [6.13994858967119, 46.16827960042589], [6.139934705662225, 46.1682482304944], [6.139884138594961, 46.16819670801892], [6.139838934406131, 46.16815813073057], [6.139785448630013, 46.168130164259395], [6.139727844396189, 46.168122303211845], [6.1396856582838195, 46.168131443937376], [6.13970212728158, 46.168186334160914], [6.139703285667968, 46.16821972569898], [6.139681499255495, 46.16828074302303], [6.139667002826081, 46.16830216837419], [6.139609612490115, 46.16835206927297], [6.13950631703219, 46.16840252081497], [6.139444819010803, 46.168439508847136], [6.139419472993211, 46.16852594611052], [6.13935473940614, 46.168573702008715], [6.139263022210891, 46.16859476822411], [6.13900479621263, 46.16860096870276], [6.138934297608882, 46.168652067689656], [6.138914778901687, 46.1686831516044], [6.138913147965621, 46.168785606550465], [6.1389438698016505, 46.16888349519764], [6.138946360487515, 46.16897061312261], [6.138905567706947, 46.16902548232544], [6.138823841927054, 46.169052160450555], [6.138718232301472, 46.169069296405695], [6.138532640059716, 46.169067228452825], [6.138434036663869, 46.1690897530679], [6.138330290285253, 46.16916601925783], [6.138158028033849, 46.16924284457597], [6.1381461482451005, 46.16931351253336], [6.138170721823514, 46.16936463701112], [6.138211886360351, 46.16941998340728], [6.138327347352004, 46.169483770935976], [6.138432648185933, 46.16960589349661], [6.138517778813233, 46.16966006436673], [6.138605978930179, 46.169700127543756], [6.138724839048467, 46.169697548298714], [6.138861621983607, 46.169744280207745], [6.138849850126257, 46.1698077520381], [6.13870330771883, 46.169858954843114], [6.138647524888342, 46.16988970160979], [6.138395792818896, 46.17008021258416], [6.138117665247615, 46.170219883372326], [6.13803938737717, 46.170293474153205], [6.138030082022368, 46.17032467575349], [6.138062242209365, 46.17043983721245], [6.138090406954329, 46.170490265369445], [6.138098570282183, 46.17054803815253], [6.138057415309686, 46.17062285796771], [6.138044517955234, 46.170679731005606], [6.1380372905530685, 46.170807672313074], [6.138003685303412, 46.1709236585756], [6.137988511408873, 46.17102268249637], [6.137991902486093, 46.17118477239153], [6.137948439819113, 46.17129109930678], [6.137830058226185, 46.17145663367836], [6.137734299288512, 46.1715522897286], [6.1376070161907474, 46.17176835532014], [6.137603017062671, 46.17178396365456], [6.137540658158547, 46.17187570445584], [6.137413777335507, 46.172028301877965], [6.137302715146616, 46.172142143529726], [6.13717907578205, 46.1722187099772], [6.137096044022103, 46.17225319006417], [6.137021822047389, 46.172258271176965], [6.136925935986128, 46.17229036250886], [6.1369139559298995, 46.17234184802335], [6.136836974530247, 46.17242221857781], [6.136811673369499, 46.17246376170623], [6.136796458504039, 46.17250971277986], [6.136826998425375, 46.172553960886034], [6.13694404713634, 46.17263171328741], [6.136980369051854, 46.17268924438752], [6.136979818743956, 46.17278697054333], [6.136971096970869, 46.17287927623867], [6.137055656602485, 46.173041403501635], [6.1370646849282435, 46.17307001865215], [6.1370659847970614, 46.17312883690895], [6.137027405367464, 46.17318246254618], [6.136764550466925, 46.17330544651078], [6.1366106043869415, 46.17333760500954], [6.136204778436549, 46.17354867109781], [6.136056212015547, 46.17360762058208], [6.13596736039312, 46.17366167273749], [6.1358529902384396, 46.173709483094676], [6.135779996814668, 46.17372861265624], [6.135604567813335, 46.173740062747974], [6.135362556837498, 46.17376951047899], [6.135265153977809, 46.173771776470446], [6.135073874606481, 46.17375885026382], [6.135030871597276, 46.17379538402199], [6.135067009374233, 46.17390379958231], [6.135051945185149, 46.17395581602738], [6.1350184204777864, 46.17401024614478], [6.134929849007252, 46.174090373541475], [6.134875167773169, 46.17417378967554], [6.134861159843654, 46.17430495443721], [6.134746975865086, 46.174467592398926], [6.134750535238597, 46.17450929789915], [6.13473271866291, 46.174539420197604], [6.134722049309085, 46.17459122655789], [6.134713493319266, 46.17467860380622], [6.134715976133595, 46.17472794414205], [6.134700514661087, 46.174790032438], [6.134676960618433, 46.17483259399901], [6.134502304810054, 46.17506669602905], [6.134253153418563, 46.175294339555336], [6.1336951543706375, 46.175826308039134], [6.133550950876403, 46.17600266845757], [6.1332853572590365, 46.17627133533574], [6.133093994168985, 46.17642240781996], [6.132907791739044, 46.176299532328834], [6.132899142862005, 46.17628755635795], [6.1327919210627435, 46.17623142507442], [6.1324340388652905, 46.17601476589966], [6.1315185094450495, 46.17541669957845], [6.131454873047725, 46.175371778454995], [6.131458563090282, 46.175369122177784], [6.130874037891375, 46.17498764471689], [6.13011266046489, 46.174504625154626], [6.129888647067866, 46.17467504359948], [6.129632271643528, 46.17482487015575], [6.129464513644645, 46.1752886428052], [6.1296259156438895, 46.17530657546161], [6.129993720541327, 46.17539270708351], [6.130002989457054, 46.17538424954988], [6.130204731947684, 46.17546529506342], [6.1304157220901345, 46.17557057697726], [6.1305143284490295, 46.17562776228743], [6.130611613744153, 46.17569087882468], [6.130702514174491, 46.17575617076288], [6.130785862036819, 46.17582263439919], [6.130940411227854, 46.175966846775935], [6.131071860293772, 46.17612114644307], [6.131129249114841, 46.17620134396858], [6.131225976234497, 46.176369167889604], [6.1312646993703845, 46.17645544673702], [6.131297175334411, 46.176543002550346], [6.131323158279232, 46.17663129295356], [6.131355383434635, 46.17681016374472], [6.131361248537137, 46.17690027217885], [6.1313623201757474, 46.17699044191632], [6.131350946214399, 46.17720835743677], [6.1312488707774095, 46.1771450150247], [6.131278150801395, 46.17735105814194], [6.131272757445827, 46.17748983485705], [6.131181792312511, 46.17748746682558], [6.131223034043545, 46.17763120161717], [6.131248710707107, 46.17781742802648], [6.1312501098655625, 46.17794894198304], [6.131232842950516, 46.178274103464425], [6.131227525372411, 46.17848949814511], [6.13112388795569, 46.17850777476137], [6.1311796052348875, 46.17866142101519], [6.131221537233344, 46.17891823613572], [6.131200262675223, 46.18001606276205], [6.131246424831636, 46.1803674746484], [6.131254679042, 46.18046542898101], [6.131245771730529, 46.18066203259247], [6.1312501720645125, 46.18066217358118], [6.131250574882484, 46.180678291599854], [6.131233646332599, 46.18102976379989], [6.131226261311887, 46.18102985811739], [6.131189203860779, 46.18177594127453], [6.1311174437187805, 46.18177556814862], [6.131129253967085, 46.18202253335828], [6.130914266857468, 46.182017791399296], [6.130858581624549, 46.18200928244216], [6.130823044277083, 46.18199725541961], [6.130791501619624, 46.18198069530313], [6.129523127624255, 46.18115840431484], [6.129264377099127, 46.18099170276816], [6.129223066387983, 46.18096989160796], [6.129176312304955, 46.18095468388676], [6.129150871160073, 46.18095158145782], [6.1291252201915585, 46.180952354233206], [6.129100602369321, 46.18095809625296], [6.129079510741126, 46.1809685485719], [6.129051719162471, 46.18099852722422], [6.1290345323335975, 46.18105661822333], [6.1284386026080515, 46.18104258018167], [6.128273849670855, 46.18419224393952], [6.128238359580053, 46.18473003203001], [6.128188512771558, 46.18529917847973], [6.128161791404714, 46.185522853440396], [6.128119707448496, 46.18580836530657], [6.128016251249905, 46.186346560509655], [6.1278452881909224, 46.18632733575984], [6.1276920132796056, 46.187151878928795], [6.127677939088458, 46.18715053676631], [6.127635223758939, 46.18738091745147], [6.127646544637349, 46.18776962308588], [6.1279366020645885, 46.18779991278226], [6.1281887160549235, 46.18781361147407], [6.128520411070689, 46.18782546293744], [6.128575100774896, 46.18783466317055], [6.128632633437498, 46.18784737818621], [6.128688758408289, 46.18786314474628], [6.128743632914222, 46.187880813079445], [6.128797115383201, 46.187900345572025], [6.128849327553473, 46.18792152769112], [6.128900247437939, 46.187944197261125], [6.128949759568947, 46.18796830795753], [6.12906352213716, 46.1880263540118], [6.12907302140207, 46.18809722456365], [6.129147767226251, 46.1881353573323], [6.129920734483814, 46.18852973570094], [6.1302941566836555, 46.18872105830807], [6.130321047795055, 46.188734046776815], [6.130392927286591, 46.18877185754392], [6.131008222653821, 46.189085353100076], [6.131583339981727, 46.18937840663346], [6.131844310990422, 46.18922162853886], [6.131876829467718, 46.189237119983645], [6.132001777284972, 46.18930109560066], [6.132594336738319, 46.18960339678783], [6.132760780635331, 46.18968779799107], [6.1329847534232185, 46.18980033225937], [6.133154701276804, 46.18988614097257], [6.133279756105513, 46.189949558553366], [6.133293965229817, 46.189956650560475], [6.133412669765481, 46.19001857299886], [6.133546371605223, 46.19008822618244], [6.13374009277973, 46.190188605043176], [6.133869606039477, 46.19025469161639], [6.1340642649541115, 46.19035490980792], [6.1343026367703155, 46.190478197213956], [6.134409884078924, 46.190533418405984], [6.134646904025349, 46.19065426029932], [6.134868454457017, 46.19076711361433], [6.135018696631556, 46.190844054670684], [6.135100523490724, 46.1907605380335], [6.135215018420467, 46.19064307587446], [6.135343741794713, 46.190511347094976], [6.135541039427618, 46.19031063097343], [6.13558443762107, 46.190265698302994], [6.135627993307577, 46.190220677469625], [6.135846525747118, 46.189997039235344], [6.135868064025899, 46.18997451703485], [6.13613784751594, 46.18969922561169], [6.136285709803033, 46.189548139798426], [6.136668697401078, 46.18915583683786], [6.1370058114592165, 46.188810551656395], [6.1371729698908695, 46.188828980833385], [6.137392224248522, 46.188853588769106], [6.137426387634465, 46.18885181468566], [6.1376574912909945, 46.18884137221631], [6.137793863538388, 46.18883519883346], [6.137844836756617, 46.18883306966825], [6.137982739284241, 46.18882682376725], [6.138020189248628, 46.188825204350245], [6.1382128600505474, 46.188816845664064], [6.138249455905618, 46.188815189316145], [6.138484884080403, 46.18880536176508], [6.13851521711629, 46.18880395703419], [6.13876179773718, 46.18879253907457], [6.138903323994535, 46.18878642371399], [6.139252443918928, 46.18877031124315], [6.1395042360103975, 46.188758168916166], [6.139556220940811, 46.1887559786553], [6.139702007343131, 46.18864249827066], [6.140338070700207, 46.18880384714926], [6.140708132479694, 46.18889760672193], [6.1407832389929595, 46.188916653496335], [6.140959998676747, 46.1889611070173], [6.141436626347668, 46.18908186545349], [6.141690005527373, 46.188523899142794], [6.141886045596309, 46.18809529518875], [6.141946211935706, 46.1880003596529], [6.142759376598522, 46.1873449570639], [6.143568589062957, 46.18703706869947], [6.143913208105131, 46.18693520463285], [6.144835699169528, 46.18680107670113], [6.145259780815072, 46.18677236453363], [6.145400924629244, 46.1867640954807], [6.1459649709247905, 46.186752720884954], [6.146709537464477, 46.186795880847285], [6.14747235709923, 46.186837382525155], [6.148191742252477, 46.1868653277157], [6.148863777928207, 46.18680386531994], [6.149914897573441, 46.18673962400613], [6.1510908745744945, 46.18665396406607], [6.1517739010626205, 46.1866516649032], [6.152247936577368, 46.18661756759803], [6.152583045893053, 46.18655934730754], [6.153084857730952, 46.18644113718081], [6.15343770165883, 46.18628845217537], [6.153749335525579, 46.18610903487574], [6.154181332157645, 46.18566448436655], [6.154406661493687, 46.18523610366045], [6.154527495966411, 46.1847061555592], [6.15438728903199, 46.18383705178034], [6.154170723408456, 46.18250243839267], [6.154024269432011, 46.18139479399843], [6.153869417617046, 46.1801883228083], [6.153826518763455, 46.17984063860621], [6.153310770008173, 46.1795968951345], [6.1527932341273015, 46.17936542883611], [6.152671472787218, 46.17928387980737], [6.152628821748453, 46.17904992684097], [6.152570577208942, 46.178900365743516], [6.152431515102018, 46.178652177807656], [6.152447821152977, 46.178597933262246], [6.1523565092429635, 46.17855424699501], [6.152346256403802, 46.17851130516898], [6.1523443683862205, 46.17837201309043], [6.152186997863092, 46.17810400328513], [6.151842331488888, 46.177814953999516], [6.151327202664074, 46.177532513680426], [6.151150619666271, 46.1775732327958], [6.150972677303782, 46.177556446419246], [6.150833936950065, 46.177607043597874], [6.150631415677731, 46.17764376798789], [6.1504341523819885, 46.177611555481676], [6.150208690775795, 46.17755050059101], [6.150030786748577, 46.177510231465504], [6.149752666463574, 46.17740323011341], [6.149601978162744, 46.17730209315185], [6.149942601213976, 46.177159698423544], [6.149156143038711, 46.17657742285315], [6.148871650574287, 46.176761392664474], [6.148264670263145, 46.17631187777656], [6.148244008190006, 46.176303904085536], [6.148084076547243, 46.17635794402385], [6.148033841564133, 46.17641737779875], [6.147987177294807, 46.176435467140465], [6.147889511518938, 46.176425172575996], [6.147803257695698, 46.17645792330523], [6.147729347439567, 46.17639616878297], [6.147524272313569, 46.17648603830778], [6.147325537348358, 46.176587046311646], [6.146343988737202, 46.17718631675927], [6.146083405352745, 46.17732826885258], [6.146012223930739, 46.17735885178388], [6.145971098353567, 46.1773617991522], [6.1459282451402855, 46.1773502418404], [6.145851118033902, 46.17731489983112], [6.145404736779477, 46.177018554769774], [6.144037237950436, 46.17600519779101], [6.143844730887605, 46.17585839974719], [6.143647960111056, 46.175695439116126], [6.1435852367772, 46.175729815392316], [6.143567692215987, 46.175716046715344], [6.143262005440179, 46.17540947781302], [6.142953660144682, 46.17508471301655], [6.142839597041122, 46.17497944408431], [6.142834253866623, 46.17495365179477], [6.1426651031395085, 46.174790565877956], [6.141625146033014, 46.17398275032778], [6.141393648323492, 46.173751630941446], [6.141049595449956, 46.17344360646454], [6.1410182896030685, 46.173431316415446], [6.140957015923466, 46.173441866273826], [6.140768981981562, 46.17351874810801], [6.140706376141763, 46.173461347608814], [6.140724771209398, 46.17344482526415], [6.140720586591035, 46.17342480418295], [6.140702398745141, 46.173410919703464], [6.140695718726938, 46.17341408179613], [6.139313324141922, 46.17240281468889], [6.139255846441738, 46.17236939477112], [6.139182314617178, 46.172352083151964], [6.139109163098603, 46.17235680905871], [6.139047778426153, 46.17238938962033], [6.138933119564341, 46.17231015546785], [6.139090767144565, 46.17207725459506], [6.139277790421018, 46.17178875882357], [6.1393798025447905, 46.17159814918645], [6.1395488868593775, 46.17126463309062], [6.1397944223324945, 46.17072068029226], [6.139954252043411, 46.170393813659], [6.140287452519842, 46.16974922294804], [6.140383740005378, 46.16953173569631], [6.140554691818408, 46.168964636581286], [6.140556629578833, 46.16882312074074], [6.140536540744096, 46.16857843628866], [6.140480539995649, 46.16840612235934], [6.14040967990345, 46.16832532459525], [6.140367653871349, 46.16825771518224]]]]}}]}