{
  "type": "FeatureCollection",
  "features": [
    {
      "type": "Feature",
      "properties": {
        "source": "swisstopo SWISSBOUNDARIES3D",
        "source:date": "2026-01-01",
        "swissboundaries:outer_boundary_of_switzerland": "yes",
        "note": "Includes segments on Switzerland's outer national boundary."
      },
      "geometry": {
        "type": "LineString",
        "coordinates": [
          [
            6.296058120430883,
            46.255892464409165
          ],
          [
            6.296092777815004,
            46.2558534820599
          ],
          [
            6.29612793743237,
            46.25583440520265
          ],
          [
            6.296162717191757,
            46.25581982277831
          ],
          [
            6.296162828620968,
            46.25574112188116
          ],
          [
            6.296221030990372,
            46.25569879707154
          ],
          [
            6.2962735072865925,
            46.25572586785055
          ],
          [
            6.296384600049097,
            46.25558603335766
          ],
          [
            6.29641276647419,
            46.25558495978983
          ],
          [
            6.29645145319921,
            46.25563870078748
          ],
          [
            6.296551662529279,
            46.255603827024196
          ],
          [
            6.296553743489047,
            46.25555418698965
          ],
          [
            6.296595191589533,
            46.25554443106596
          ],
          [
            6.296650597601166,
            46.25561723388818
          ],
          [
            6.296854713829107,
            46.25559986536914
          ],
          [
            6.2968419229786186,
            46.25551112879558
          ],
          [
            6.296876351005936,
            46.255508328108824
          ],
          [
            6.296980245805658,
            46.25556344795868
          ],
          [
            6.297030831709851,
            46.25557556496175
          ],
          [
            6.29713169474754,
            46.25554041840441
          ],
          [
            6.297123002098221,
            46.255454755140406
          ],
          [
            6.2974018812023065,
            46.255538911990435
          ],
          [
            6.297493340345045,
            46.25546983396843
          ],
          [
            6.2975216279362725,
            46.255475337843016
          ],
          [
            6.297541638729807,
            46.25553529528481
          ],
          [
            6.297570704554096,
            46.25554079801445
          ],
          [
            6.297659543036682,
            46.255479160531934
          ],
          [
            6.297673106894273,
            46.2554323264878
          ],
          [
            6.297775780859413,
            46.2554294953492
          ],
          [
            6.297842109699619,
            46.2553836442002
          ],
          [
            6.29787424392651,
            46.255390635295676
          ],
          [
            6.297858982416865,
            46.25544976851649
          ],
          [
            6.297880213655921,
            46.255488677252636
          ],
          [
            6.29790542830312,
            46.25549846834064
          ],
          [
            6.2981463921092535,
            46.25540067153407
          ],
          [
            6.298156605303478,
            46.25534723609877
          ],
          [
            6.298279005316757,
            46.255311667292375
          ],
          [
            6.298251522731866,
            46.2552239340929
          ],
          [
            6.298278429982137,
            46.25521548815193
          ],
          [
            6.298390945374009,
            46.25527393251829
          ],
          [
            6.298438337293906,
            46.25523986423721
          ],
          [
            6.2985161055038965,
            46.255242169888696
          ],
          [
            6.2985170386402425,
            46.25529103068171
          ],
          [
            6.298582220669606,
            46.25532390550136
          ],
          [
            6.298643094897771,
            46.25527898844266
          ],
          [
            6.298777722068812,
            46.255377078612916
          ],
          [
            6.298835899004705,
            46.25531791964514
          ],
          [
            6.298830878023225,
            46.25526730824723
          ],
          [
            6.298892720840328,
            46.255236795343684
          ],
          [
            6.299100119231886,
            46.25538501077054
          ],
          [
            6.2991571466950065,
            46.25536147544775
          ],
          [
            6.2992765748430966,
            46.255399566467105
          ],
          [
            6.2992950656736,
            46.255433139301495
          ],
          [
            6.299382057134349,
            46.2554403145919
          ],
          [
            6.299483944379785,
            46.255406336844246
          ],
          [
            6.299512227557566,
            46.25535019569277
          ],
          [
            6.299698370939504,
            46.25532455283449
          ],
          [
            6.299764968070403,
            46.255289948990104
          ],
          [
            6.299821638673121,
            46.25533416288392
          ],
          [
            6.29992046021869,
            46.25530906043089
          ],
          [
            6.300002803178431,
            46.255353623082314
          ],
          [
            6.300085961559847,
            46.255289956200414
          ],
          [
            6.300114518820946,
            46.25534449343153
          ],
          [
            6.3002170685628345,
            46.25534633704037
          ],
          [
            6.300425965446701,
            46.255428161446346
          ],
          [
            6.30048413132215,
            46.25533291630997
          ],
          [
            6.300582088330833,
            46.25536827048676
          ],
          [
            6.300612371923418,
            46.255297682755035
          ],
          [
            6.300658585514524,
            46.2552708888998
          ],
          [
            6.300735635177017,
            46.25525177395536
          ],
          [
            6.3007234012458495,
            46.25521665403221
          ],
          [
            6.300781020645551,
            46.25517162207283
          ],
          [
            6.300977673180208,
            46.25512033484791
          ],
          [
            6.300956979251762,
            46.2550804425065
          ],
          [
            6.301071656325939,
            46.25505991611651
          ],
          [
            6.301453543275142,
            46.25491412280301
          ],
          [
            6.301501664218333,
            46.25496347674552
          ],
          [
            6.301731545681324,
            46.25478808237667
          ],
          [
            6.30189476948283,
            46.25475436916014
          ],
          [
            6.302067019567398,
            46.25477832456781
          ],
          [
            6.302069754623248,
            46.25472383292444
          ],
          [
            6.302305095182335,
            46.25477470194085
          ],
          [
            6.302293591005075,
            46.25486464176418
          ],
          [
            6.302375287933981,
            46.25489488264111
          ],
          [
            6.302515971824293,
            46.254879114770894
          ],
          [
            6.302566095882656,
            46.25490094093079
          ],
          [
            6.302690953312426,
            46.254872328460074
          ],
          [
            6.302877681165362,
            46.254904813063945
          ],
          [
            6.3030274884158075,
            46.255008520695064
          ],
          [
            6.3031543999600315,
            46.254993324250144
          ],
          [
            6.3032908801648375,
            46.25500990976066
          ],
          [
            6.30334817248286,
            46.255097113679675
          ],
          [
            6.303645201024235,
            46.255307416356466
          ],
          [
            6.303818778422877,
            46.25534804404047
          ],
          [
            6.303843176762616,
            46.25537833774751
          ],
          [
            6.303815522427283,
            46.255422592804244
          ],
          [
            6.303862561848252,
            46.255474174990624
          ],
          [
            6.303908000013628,
            46.255478230230665
          ],
          [
            6.3039646454050455,
            46.255405819348056
          ],
          [
            6.304003031427159,
            46.255492320136334
          ],
          [
            6.304102167606039,
            46.25555828038534
          ],
          [
            6.304124794868604,
            46.255636139040504
          ],
          [
            6.304348041584656,
            46.25565403579838
          ],
          [
            6.304448251769071,
            46.255692809926096
          ],
          [
            6.3045639344894315,
            46.25587451475324
          ],
          [
            6.304566522934799,
            46.25589963215313
          ],
          [
            6.304598929305005,
            46.25593216528992
          ],
          [
            6.304773880459874,
            46.25593257266505
          ],
          [
            6.304825711470653,
            46.2558969269332
          ],
          [
            6.304918122499673,
            46.25591854685848
          ],
          [
            6.305062678249573,
            46.25585280280305
          ],
          [
            6.305234177092925,
            46.25585704333161
          ],
          [
            6.305416797338116,
            46.255906369002425
          ],
          [
            6.305574883749802,
            46.25590075812802
          ],
          [
            6.305766315640302,
            46.2560313385867
          ],
          [
            6.305854186776698,
            46.25613263968452
          ],
          [
            6.3061060273555105,
            46.2562261479535
          ],
          [
            6.30627657713174,
            46.25638862679929
          ],
          [
            6.306344773724811,
            46.256383552847126
          ],
          [
            6.3064718907582415,
            46.25647686217916
          ],
          [
            6.3066005749171685,
            46.2564949758655
          ],
          [
            6.306982446211661,
            46.25656763610805
          ],
          [
            6.307166164670866,
            46.25649029842256
          ],
          [
            6.307276190107368,
            46.25651318147788
          ],
          [
            6.307364560393461,
            46.25650534016456
          ],
          [
            6.307405546992202,
            46.25654883526941
          ],
          [
            6.307477393704641,
            46.256474343797386
          ],
          [
            6.307541449746188,
            46.256462570196085
          ],
          [
            6.3076274292933014,
            46.25650103698628
          ],
          [
            6.307703148369709,
            46.25647103613407
          ],
          [
            6.307756756968649,
            46.25650009209893
          ],
          [
            6.308005591753129,
            46.256435370583155
          ],
          [
            6.3081593834678245,
            46.25647353529205
          ],
          [
            6.308187864979506,
            46.2564454812783
          ],
          [
            6.308212910671767,
            46.2564504102136
          ],
          [
            6.308300258409872,
            46.25650355456567
          ],
          [
            6.3084177832303645,
            46.256553132373035
          ],
          [
            6.308471621107383,
            46.25651444624518
          ],
          [
            6.308592613607223,
            46.25652888205347
          ],
          [
            6.30861252008548,
            46.25648220922255
          ],
          [
            6.308644630299852,
            46.25647236444529
          ],
          [
            6.308776032757338,
            46.25649014298717
          ],
          [
            6.308881629711761,
            46.2564391094721
          ],
          [
            6.308994088296281,
            46.25641423450396
          ],
          [
            6.30897301062415,
            46.256361303850206
          ],
          [
            6.309025552420925,
            46.25635436232716
          ],
          [
            6.309129820156008,
            46.256392201220486
          ],
          [
            6.309288117537129,
            46.25638334849382
          ],
          [
            6.309306714252271,
            46.25634349982734
          ],
          [
            6.309403534041722,
            46.25635904249717
          ],
          [
            6.309419689372463,
            46.25631808981261
          ],
          [
            6.309512583808634,
            46.256304084447585
          ],
          [
            6.309591785959742,
            46.256256196042095
          ],
          [
            6.309681952148049,
            46.25626862211697
          ],
          [
            6.309755065818408,
            46.25622536892739
          ],
          [
            6.309416321437988,
            46.255936593362975
          ],
          [
            6.3088898517226415,
            46.25570560387423
          ],
          [
            6.308719049261648,
            46.255611761201465
          ],
          [
            6.30861972533978,
            46.25551090555387
          ],
          [
            6.308515044971029,
            46.2552367226057
          ],
          [
            6.30854324739354,
            46.25516530233599
          ],
          [
            6.3084397745530705,
            46.25507691020579
          ],
          [
            6.308172797194186,
            46.254886299737485
          ],
          [
            6.3078479541605965,
            46.25454979682348
          ],
          [
            6.307804707342001,
            46.254404330291386
          ],
          [
            6.307863321963392,
            46.25386556491951
          ],
          [
            6.3078320329904685,
            46.25370078559014
          ],
          [
            6.307726866933635,
            46.253464004658106
          ],
          [
            6.307399898525512,
            46.25321206467011
          ],
          [
            6.307205554533341,
            46.25303602515243
          ],
          [
            6.306951791260125,
            46.25275026156907
          ],
          [
            6.306702957248556,
            46.25232823101079
          ],
          [
            6.306037173383776,
            46.251678462893764
          ],
          [
            6.3056956150595145,
            46.25136833466947
          ],
          [
            6.305942736625018,
            46.25124108366485
          ],
          [
            6.306083968545092,
            46.25119166984277
          ],
          [
            6.306104167280571,
            46.25119942955102
          ],
          [
            6.306204034546193,
            46.25117964916639
          ],
          [
            6.307066533148483,
            46.25095141700532
          ],
          [
            6.307125280483514,
            46.25096882930269
          ],
          [
            6.30727211392827,
            46.25089382997239
          ],
          [
            6.307453226137069,
            46.250852910954706
          ],
          [
            6.307597303240653,
            46.25083304145989
          ],
          [
            6.30768298445195,
            46.250798183398565
          ],
          [
            6.307753528311901,
            46.250792142560194
          ],
          [
            6.307877196730098,
            46.25077520809661
          ],
          [
            6.307986383554764,
            46.25074436375976
          ],
          [
            6.308014786773322,
            46.25071370004055
          ],
          [
            6.30813171854892,
            46.25067834487796
          ],
          [
            6.308201016743277,
            46.250614353497966
          ],
          [
            6.308298144075861,
            46.25057034312678
          ],
          [
            6.308352727784511,
            46.25053417462701
          ],
          [
            6.308477622330178,
            46.250414601141
          ],
          [
            6.308691804205477,
            46.2503610561369
          ],
          [
            6.308761927197231,
            46.25032595160592
          ],
          [
            6.3088611891172,
            46.25031021128998
          ],
          [
            6.309307265134897,
            46.25015633461648
          ],
          [
            6.3093721888631356,
            46.25012801508729
          ],
          [
            6.309422008262461,
            46.25007705308807
          ],
          [
            6.3094508100426605,
            46.249989084987554
          ],
          [
            6.309434461982847,
            46.24990273454823
          ],
          [
            6.309298757555596,
            46.24952800247822
          ],
          [
            6.3092520826933995,
            46.24936091951381
          ],
          [
            6.309182649354787,
            46.24894114769699
          ],
          [
            6.3090834684026404,
            46.24846899720356
          ],
          [
            6.308938963716381,
            46.24813673929321
          ],
          [
            6.30877939425409,
            46.24779316570958
          ],
          [
            6.3086903795876434,
            46.247486563120844
          ],
          [
            6.308757388606479,
            46.247481925771844
          ],
          [
            6.308756241451831,
            46.24733751967057
          ],
          [
            6.308853185442936,
            46.246974561389116
          ],
          [
            6.308966770210403,
            46.24688833246243
          ],
          [
            6.309136509957284,
            46.246621483736455
          ],
          [
            6.3091778020928535,
            46.24650710986593
          ],
          [
            6.309251753624427,
            46.24623199748505
          ],
          [
            6.309310646783162,
            46.24577231419864
          ],
          [
            6.309871116927992,
            46.24539753616039
          ],
          [
            6.309999586525771,
            46.24526243288555
          ],
          [
            6.310050436170562,
            46.2451066711998
          ],
          [
            6.3100695348990214,
            46.24470712756212
          ],
          [
            6.310104819786619,
            46.24449535071224
          ],
          [
            6.310158873789592,
            46.244291381542936
          ],
          [
            6.310282313659858,
            46.24397493831277
          ],
          [
            6.309999721013594,
            46.24359263021231
          ],
          [
            6.309517522021116,
            46.242835400302596
          ],
          [
            6.309418280711319,
            46.24270790723317
          ],
          [
            6.309118534376262,
            46.2424147609505
          ],
          [
            6.308898687763479,
            46.24214914219377
          ],
          [
            6.30839583625972,
            46.24148167505292
          ],
          [
            6.307532989939223,
            46.2404052236131
          ],
          [
            6.307490229311851,
            46.24034163938035
          ],
          [
            6.307025710067731,
            46.23975336870891
          ],
          [
            6.30697183446286,
            46.23963146517159
          ],
          [
            6.306657699535201,
            46.239299761572774
          ],
          [
            6.306572394012499,
            46.23909332595241
          ],
          [
            6.306263944727286,
            46.23870679926807
          ],
          [
            6.305384360908851,
            46.23765993235152
          ],
          [
            6.304923436938056,
            46.237173727628715
          ],
          [
            6.303524728315536,
            46.23593800204296
          ],
          [
            6.302731954827701,
            46.23518427564156
          ],
          [
            6.302173367131862,
            46.234491325196466
          ],
          [
            6.300481113470748,
            46.23202834414218
          ],
          [
            6.298565991157903,
            46.22944362010529
          ],
          [
            6.29629641812574,
            46.22680210525026
          ],
          [
            6.295727975728534,
            46.22603711218096
          ],
          [
            6.294679841291068,
            46.22515380813594
          ],
          [
            6.293542463080622,
            46.2246265813414
          ],
          [
            6.292456444278508,
            46.22424714733605
          ],
          [
            6.291407668287141,
            46.22381606317047
          ],
          [
            6.291327023212325,
            46.223786994108394
          ],
          [
            6.291324063113519,
            46.223822230571436
          ],
          [
            6.290798833302018,
            46.22435749368848
          ],
          [
            6.2906284555286485,
            46.22450132520736
          ],
          [
            6.290450469621231,
            46.224638331646304
          ],
          [
            6.290283131600876,
            46.22474862737811
          ],
          [
            6.290072257430504,
            46.224877111705354
          ],
          [
            6.289727176428362,
            46.22507404288738
          ],
          [
            6.289374145682522,
            46.22528636619631
          ],
          [
            6.28877821032523,
            46.22540553737103
          ],
          [
            6.288717279145324,
            46.225406535938546
          ],
          [
            6.2884032484552765,
            46.22539757801028
          ],
          [
            6.288136643354863,
            46.22534591911768
          ],
          [
            6.287785477955929,
            46.22526828788493
          ],
          [
            6.2873773076463415,
            46.22516300335643
          ],
          [
            6.287277848022112,
            46.225151372764344
          ],
          [
            6.2870312687176355,
            46.22509802625764
          ],
          [
            6.2868294781128755,
            46.22501085935944
          ],
          [
            6.286747736359261,
            46.22500237799242
          ],
          [
            6.286570719614979,
            46.22506129802453
          ],
          [
            6.286022324704594,
            46.22520009370542
          ],
          [
            6.285875411410979,
            46.225214697066356
          ],
          [
            6.285618380453977,
            46.224785714434724
          ],
          [
            6.2854241844139525,
            46.22484175818499
          ],
          [
            6.2851929108488385,
            46.22483083896697
          ],
          [
            6.283804765945655,
            46.22490444071004
          ],
          [
            6.2835776653064785,
            46.22490454571377
          ],
          [
            6.2826419854463245,
            46.22510269661843
          ],
          [
            6.282279968347545,
            46.22516881043073
          ],
          [
            6.280976587107993,
            46.22547417945378
          ],
          [
            6.2803692676355185,
            46.22558519173814
          ],
          [
            6.279998939496191,
            46.22569490944803
          ],
          [
            6.279406289899539,
            46.22588368979807
          ],
          [
            6.27906345491786,
            46.22535268867993
          ],
          [
            6.2789459771718725,
            46.2252323667054
          ],
          [
            6.278819506334466,
            46.22513381390381
          ],
          [
            6.27870192824951,
            46.2250054836676
          ],
          [
            6.278568501576108,
            46.224837495354954
          ],
          [
            6.278332012822621,
            46.22464523611564
          ],
          [
            6.278103715701579,
            46.22447068492853
          ],
          [
            6.277881475283527,
            46.22436403887365
          ],
          [
            6.277754615324809,
            46.22444172411449
          ],
          [
            6.277496567113009,
            46.22465282853446
          ],
          [
            6.277316347174572,
            46.22474597822579
          ],
          [
            6.277108438189443,
            46.22488589485773
          ],
          [
            6.276631457734805,
            46.2252726066131
          ],
          [
            6.27644830200295,
            46.225442285768175
          ],
          [
            6.276356593581345,
            46.22554291292204
          ],
          [
            6.276222400516538,
            46.22542862356384
          ],
          [
            6.276146676567876,
            46.225350922699285
          ],
          [
            6.275845266379771,
            46.2251889377421
          ],
          [
            6.275703476487527,
            46.225121441751696
          ],
          [
            6.275034994194022,
            46.225000456625324
          ],
          [
            6.274860761951763,
            46.224983185953654
          ],
          [
            6.274253275446077,
            46.22508892768421
          ],
          [
            6.2738686435309345,
            46.225145865690735
          ],
          [
            6.27372959238392,
            46.22518599481115
          ],
          [
            6.273683372740464,
            46.22520818916578
          ],
          [
            6.273508466245916,
            46.22517337507457
          ],
          [
            6.2732349767743205,
            46.225045660468744
          ],
          [
            6.272722703859887,
            46.22489408469749
          ],
          [
            6.272329809262594,
            46.22468904098056
          ],
          [
            6.2721200047447505,
            46.22457054651426
          ],
          [
            6.271937913736791,
            46.2244967723772
          ],
          [
            6.271907439715865,
            46.224449054231634
          ],
          [
            6.2718135498802905,
            46.224378620769635
          ],
          [
            6.2716239373478855,
            46.224299019520814
          ],
          [
            6.271175454087353,
            46.22432227050359
          ],
          [
            6.270716093747919,
            46.22408009723697
          ],
          [
            6.2704080736230505,
            46.223942670839094
          ],
          [
            6.269599532485605,
            46.22353673825869
          ],
          [
            6.268900634855632,
            46.22316754485458
          ],
          [
            6.267030799346463,
            46.22373035533942
          ],
          [
            6.266510666682145,
            46.22384849591878
          ],
          [
            6.265357277735633,
            46.223853973361386
          ],
          [
            6.2647721916641155,
            46.22406255742616
          ],
          [
            6.264739240581917,
            46.22403981311107
          ],
          [
            6.264667304523054,
            46.223973020673796
          ],
          [
            6.264629488732016,
            46.223953464503374
          ],
          [
            6.2645778549957045,
            46.22395553638342
          ],
          [
            6.264436461252406,
            46.223978509170465
          ],
          [
            6.26437030920128,
            46.22400462180439
          ],
          [
            6.264279522875275,
            46.224018422598746
          ],
          [
            6.264147736086024,
            46.22408208773169
          ],
          [
            6.264108810465205,
            46.224096509056274
          ],
          [
            6.264035818809938,
            46.224108605559024
          ],
          [
            6.263935938066805,
            46.22411196531589
          ],
          [
            6.263855598843008,
            46.224092775956365
          ],
          [
            6.2638284900667776,
            46.224051019357006
          ],
          [
            6.263690207886684,
            46.224014555960785
          ],
          [
            6.263546128191185,
            46.22399325430677
          ],
          [
            6.263458719739479,
            46.22394132433354
          ],
          [
            6.263389759765912,
            46.22391082742446
          ],
          [
            6.263327500527463,
            46.22388875811413
          ],
          [
            6.263297545053756,
            46.223859387070135
          ],
          [
            6.263189625829978,
            46.22385086787871
          ],
          [
            6.263071642034711,
            46.22381625251467
          ],
          [
            6.262935507207329,
            46.223811208752586
          ],
          [
            6.262702033969707,
            46.22378249713964
          ],
          [
            6.262508907127391,
            46.22380492846061
          ],
          [
            6.262312126496972,
            46.22386622275578
          ],
          [
            6.26220871047448,
            46.223876030696424
          ],
          [
            6.262174711673271,
            46.22387180773803
          ],
          [
            6.2621245551686275,
            46.22384754279391
          ],
          [
            6.261959472618892,
            46.22373066496577
          ],
          [
            6.261919064726154,
            46.223717135576045
          ],
          [
            6.261868002134356,
            46.22367485882909
          ],
          [
            6.261825757256898,
            46.22366236285547
          ],
          [
            6.261663404603452,
            46.223640976199235
          ],
          [
            6.261491867494171,
            46.223583417057164
          ],
          [
            6.2614386962188835,
            46.223553542451675
          ],
          [
            6.261060603578112,
            46.223474773038184
          ],
          [
            6.2610111935570885,
            46.22345797358016
          ],
          [
            6.260829789409224,
            46.22346642664026
          ],
          [
            6.26076506641519,
            46.223486353414934
          ],
          [
            6.260731536642404,
            46.22353827384153
          ],
          [
            6.260662149209835,
            46.2235880206637
          ],
          [
            6.260468452827795,
            46.2235834886687
          ],
          [
            6.260346846536835,
            46.223601291930486
          ],
          [
            6.260255086721056,
            46.223631282249734
          ],
          [
            6.260220237284988,
            46.22362983877148
          ],
          [
            6.260130630913556,
            46.22361369879474
          ],
          [
            6.259946451861867,
            46.22362455955144
          ],
          [
            6.259856713160179,
            46.22360257016835
          ],
          [
            6.2597219510437405,
            46.22354621111799
          ],
          [
            6.259644221931448,
            46.22355619506984
          ],
          [
            6.259294747594377,
            46.223567846881586
          ],
          [
            6.259169606305003,
            46.223529302058324
          ],
          [
            6.259055066155223,
            46.22353863998302
          ],
          [
            6.258940939840782,
            46.223522332736614
          ],
          [
            6.258839407841763,
            46.22349429948224
          ],
          [
            6.258704228691447,
            46.223463188375156
          ],
          [
            6.258645552593525,
            46.223437384335185
          ],
          [
            6.258578597491284,
            46.22334512558094
          ],
          [
            6.258388346928388,
            46.22323564439783
          ],
          [
            6.258273094570972,
            46.22318765656404
          ],
          [
            6.258062210153523,
            46.22306861151089
          ],
          [
            6.257937954031859,
            46.22300551376865
          ],
          [
            6.25764902018454,
            46.22295186652593
          ],
          [
            6.257532927521681,
            46.22293724662224
          ],
          [
            6.257310576313617,
            46.22302929398539
          ],
          [
            6.2572057600008355,
            46.22305644617455
          ],
          [
            6.256917514767446,
            46.2230421015425
          ],
          [
            6.256816957329207,
            46.223040877614956
          ],
          [
            6.256745999404796,
            46.22306136656848
          ],
          [
            6.256721557594881,
            46.223118410131974
          ],
          [
            6.256689162247455,
            46.2231531577136
          ],
          [
            6.256702975889401,
            46.22320997215651
          ],
          [
            6.256670261373046,
            46.2232421073682
          ],
          [
            6.256580575810347,
            46.223235050324895
          ],
          [
            6.2563139177162865,
            46.22324783018906
          ],
          [
            6.256218323664257,
            46.22326213193588
          ],
          [
            6.256132099483179,
            46.22329378731856
          ],
          [
            6.256010445646366,
            46.22332624993075
          ],
          [
            6.25572425884054,
            46.22333162645937
          ],
          [
            6.255627694919346,
            46.22331245007314
          ],
          [
            6.255546410483923,
            46.22327076226977
          ],
          [
            6.255423242724099,
            46.22317682369247
          ],
          [
            6.255333303408691,
            46.22314034400785
          ],
          [
            6.255259994485105,
            46.22309551882302
          ],
          [
            6.255200531897404,
            46.2230761643077
          ],
          [
            6.255162804296803,
            46.223058693069966
          ],
          [
            6.255086001909739,
            46.22299572990993
          ],
          [
            6.255078139185902,
            46.22293357068498
          ],
          [
            6.255004051972785,
            46.22285426207008
          ],
          [
            6.254943289935234,
            46.22281125963243
          ],
          [
            6.254843910716413,
            46.22277261131125
          ],
          [
            6.254818395076045,
            46.22270029862403
          ],
          [
            6.254695453286176,
            46.22263181307436
          ],
          [
            6.254579122315498,
            46.222616296952744
          ],
          [
            6.254481052178698,
            46.222625883997075
          ],
          [
            6.2543098299973225,
            46.22258945923125
          ],
          [
            6.254218719326847,
            46.22257707732865
          ],
          [
            6.254113364832898,
            46.222490872411825
          ],
          [
            6.253923210636052,
            46.22240070936814
          ],
          [
            6.253664015545463,
            46.22224785226493
          ],
          [
            6.253484095102558,
            46.22219252293271
          ],
          [
            6.253100257035768,
            46.222024491666545
          ],
          [
            6.253032676479437,
            46.22197331057847
          ],
          [
            6.253004061495119,
            46.22195825547129
          ],
          [
            6.2529331217700435,
            46.22194878342201
          ],
          [
            6.252857619208811,
            46.22192684802711
          ],
          [
            6.252781661684528,
            46.221866941995124
          ],
          [
            6.252752449899245,
            46.221826959869084
          ],
          [
            6.252699794870574,
            46.22183432358652
          ],
          [
            6.252640705051982,
            46.22182650530585
          ],
          [
            6.252573500776857,
            46.22177533688738
          ],
          [
            6.252547829055066,
            46.221721627057704
          ],
          [
            6.252510716168445,
            46.22169982499799
          ],
          [
            6.2524599600113495,
            46.2216552079997
          ],
          [
            6.252380991158872,
            46.22160741549849
          ],
          [
            6.252167670506825,
            46.22143099806971
          ],
          [
            6.252144878790408,
            46.22142411892909
          ],
          [
            6.252142554343037,
            46.22142966340903
          ],
          [
            6.252089525001173,
            46.22136451000625
          ],
          [
            6.25197416648235,
            46.22124580096177
          ],
          [
            6.251673568336241,
            46.22171704143022
          ],
          [
            6.251386259942433,
            46.22214630770952
          ],
          [
            6.251374270834436,
            46.22214213309299
          ],
          [
            6.251154873903434,
            46.22245109047391
          ],
          [
            6.250762702613569,
            46.22302897392118
          ],
          [
            6.250613525231994,
            46.22326680424859
          ],
          [
            6.250246778102977,
            46.22380891313436
          ],
          [
            6.2500210099156295,
            46.2241750920028
          ],
          [
            6.249928992843225,
            46.224292419695935
          ],
          [
            6.249871809320254,
            46.224394720978445
          ],
          [
            6.248987759604122,
            46.22570157869246
          ],
          [
            6.248866581928387,
            46.22585399100068
          ],
          [
            6.248721681128155,
            46.22599400760376
          ],
          [
            6.248555279964875,
            46.22612371208087
          ],
          [
            6.248373200366791,
            46.2262406556723
          ],
          [
            6.248177985253919,
            46.22634710528898
          ],
          [
            6.247970835466815,
            46.22644209289627
          ],
          [
            6.246988350738797,
            46.22683728366195
          ],
          [
            6.246902004450646,
            46.22685507599365
          ],
          [
            6.2468213214807795,
            46.226856374229534
          ],
          [
            6.246736295540086,
            46.22684350180526
          ],
          [
            6.246648638317159,
            46.22680874866625
          ],
          [
            6.246590498786493,
            46.22677097846201
          ],
          [
            6.246455898198696,
            46.22662534046699
          ],
          [
            6.246653415536658,
            46.22692963311333
          ],
          [
            6.246937731868608,
            46.227407316660646
          ],
          [
            6.24742522836213,
            46.22818528395869
          ],
          [
            6.247646813421451,
            46.22858024509201
          ],
          [
            6.247848392746212,
            46.22897787362667
          ],
          [
            6.248071580917563,
            46.22937095249327
          ],
          [
            6.248140122425066,
            46.229473175637175
          ],
          [
            6.245061380040517,
            46.23010058293433
          ],
          [
            6.244951019479457,
            46.23010715297289
          ],
          [
            6.242937050461933,
            46.23048728476447
          ],
          [
            6.24285247698645,
            46.23057797477986
          ],
          [
            6.243497450119073,
            46.23306263803149
          ],
          [
            6.243455586773096,
            46.2331033994656
          ],
          [
            6.241313058377278,
            46.233328110529904
          ],
          [
            6.241330403545977,
            46.23337642664895
          ],
          [
            6.241296986982981,
            46.23341619729974
          ],
          [
            6.242896307324515,
            46.23712815931396
          ],
          [
            6.242955565575269,
            46.23714552077696
          ],
          [
            6.243589712485501,
            46.23693307725777
          ],
          [
            6.244618720488456,
            46.23662799447645
          ],
          [
            6.244874399512281,
            46.236574559457274
          ],
          [
            6.245766099525246,
            46.23629401457645
          ],
          [
            6.245918108607367,
            46.23634392382566
          ],
          [
            6.245947135035836,
            46.236398390367974
          ],
          [
            6.246165203239802,
            46.23636371793742
          ],
          [
            6.246384441756556,
            46.2363341945385
          ],
          [
            6.246667096192977,
            46.23630389189898
          ],
          [
            6.246754339819728,
            46.23627483624809
          ],
          [
            6.248617521755581,
            46.23932571644918
          ],
          [
            6.248673401821885,
            46.2393139800793
          ],
          [
            6.249489178074668,
            46.2390788569515
          ],
          [
            6.250262732602151,
            46.23886441667783
          ],
          [
            6.251489552320301,
            46.238543980978974
          ],
          [
            6.252042109672976,
            46.238367419429096
          ],
          [
            6.252908079555624,
            46.23806478490814
          ],
          [
            6.252945429516789,
            46.23811843733509
          ],
          [
            6.253022625658174,
            46.238109531752094
          ],
          [
            6.253091892242627,
            46.238132480919056
          ],
          [
            6.253130414375389,
            46.238178768346465
          ],
          [
            6.253263206576852,
            46.238178183548925
          ],
          [
            6.253445432056701,
            46.238759309630225
          ],
          [
            6.253532696105401,
            46.23900286518033
          ],
          [
            6.253638724404963,
            46.2392427580674
          ],
          [
            6.253764685753689,
            46.23947772298049
          ],
          [
            6.253909446896773,
            46.23970741508189
          ],
          [
            6.254189672104404,
            46.240135455818695
          ],
          [
            6.254454486697698,
            46.240568183361404
          ],
          [
            6.2547047045692965,
            46.2410104825362
          ],
          [
            6.2547638718551815,
            46.2410859550641
          ],
          [
            6.254850459868022,
            46.24114786926455
          ],
          [
            6.254958045257766,
            46.24119110161435
          ],
          [
            6.255897369823149,
            46.241457350635415
          ],
          [
            6.256015050074353,
            46.24147171854884
          ],
          [
            6.256020782026611,
            46.24153007680747
          ],
          [
            6.257106755729936,
            46.24347343931684
          ],
          [
            6.257020731765989,
            46.24361908522182
          ],
          [
            6.257005337078381,
            46.2436890078987
          ],
          [
            6.257308007488322,
            46.24359834041867
          ],
          [
            6.257300432836313,
            46.24355309804526
          ],
          [
            6.257245129694523,
            46.2434666014766
          ],
          [
            6.257230953961575,
            46.24342677797075
          ],
          [
            6.257235198917042,
            46.24339255420325
          ],
          [
            6.257264056433253,
            46.24336540743669
          ],
          [
            6.257471097738393,
            46.24329730102098
          ],
          [
            6.25766872262015,
            46.24319527737789
          ],
          [
            6.258016993910551,
            46.24295772016219
          ],
          [
            6.258373398461363,
            46.242805256132854
          ],
          [
            6.25896558086281,
            46.242704925340114
          ],
          [
            6.259315528181877,
            46.242634719097616
          ],
          [
            6.259451677246394,
            46.24263469278023
          ],
          [
            6.259687677827273,
            46.242592993061564
          ],
          [
            6.259870695527109,
            46.24259021688231
          ],
          [
            6.260032604657418,
            46.24254494487068
          ],
          [
            6.260172101339525,
            46.242551979004716
          ],
          [
            6.260297887650107,
            46.24262382554088
          ],
          [
            6.260475331574228,
            46.2425982377273
          ],
          [
            6.260535353836378,
            46.24253840673606
          ],
          [
            6.260668881834053,
            46.24248042230162
          ],
          [
            6.260789914624568,
            46.24248384429849
          ],
          [
            6.260841833264269,
            46.24252927913909
          ],
          [
            6.260979115626117,
            46.242566697783126
          ],
          [
            6.261128088680907,
            46.24254989855206
          ],
          [
            6.261190890609417,
            46.242523923538776
          ],
          [
            6.26130989313437,
            46.24251931680288
          ],
          [
            6.261453869902061,
            46.24259549018278
          ],
          [
            6.26157689742209,
            46.24273433139342
          ],
          [
            6.2617017567346664,
            46.2428664530857
          ],
          [
            6.261879343282237,
            46.24292291380138
          ],
          [
            6.262095290032207,
            46.242946216585935
          ],
          [
            6.262151556250417,
            46.242969384480396
          ],
          [
            6.262245975560706,
            46.242956963400204
          ],
          [
            6.262352050011375,
            46.24296319673091
          ],
          [
            6.262397030971048,
            46.24295241960019
          ],
          [
            6.262537874691864,
            46.242956585913426
          ],
          [
            6.262597564370293,
            46.24293660543827
          ],
          [
            6.2626439607509115,
            46.24296767726923
          ],
          [
            6.262753475881641,
            46.2429707072768
          ],
          [
            6.2628354872931356,
            46.24294384283658
          ],
          [
            6.262881874152405,
            46.24295738004427
          ],
          [
            6.262969851011467,
            46.242942462177425
          ],
          [
            6.263027811863192,
            46.24297302451249
          ],
          [
            6.26311323275324,
            46.24297436381153
          ],
          [
            6.263230037791191,
            46.24308938728746
          ],
          [
            6.263233328284691,
            46.24321303518546
          ],
          [
            6.26321441185424,
            46.24333825120552
          ],
          [
            6.263201321303004,
            46.2435118487588
          ],
          [
            6.263185357308187,
            46.24362584973377
          ],
          [
            6.263162668860998,
            46.24367365549168
          ],
          [
            6.2630998847261035,
            46.24375873962614
          ],
          [
            6.262927534039239,
            46.243873649159
          ],
          [
            6.262841831361449,
            46.24393861193927
          ],
          [
            6.2628095462304305,
            46.243980460881325
          ],
          [
            6.262779972508102,
            46.24404681787643
          ],
          [
            6.262771792214596,
            46.24408928672302
          ],
          [
            6.26277701443313,
            46.244135592772764
          ],
          [
            6.262795385402088,
            46.244191473228504
          ],
          [
            6.263280774027514,
            46.24553336319511
          ],
          [
            6.263312842326065,
            46.24559750111026
          ],
          [
            6.263347119019763,
            46.245643470825826
          ],
          [
            6.263388906421386,
            46.24568392281115
          ],
          [
            6.263621709643967,
            46.245868536593804
          ],
          [
            6.263938216396977,
            46.24588767319773
          ],
          [
            6.264055124943414,
            46.24591488076565
          ],
          [
            6.265042911973137,
            46.245907510493694
          ],
          [
            6.268220827811912,
            46.244317473553046
          ],
          [
            6.268504108567525,
            46.24414676624041
          ],
          [
            6.2688186714480585,
            46.24393050863014
          ],
          [
            6.269695719453928,
            46.243040723160625
          ],
          [
            6.270234884715416,
            46.24245681933835
          ],
          [
            6.271230751699949,
            46.24283570381523
          ],
          [
            6.271398724003816,
            46.242893489508994
          ],
          [
            6.271779109229246,
            46.24300408551626
          ],
          [
            6.273097069580572,
            46.243224846757414
          ],
          [
            6.273453340255013,
            46.24333070779924
          ],
          [
            6.275297390576749,
            46.24392505771317
          ],
          [
            6.275788931220684,
            46.2440591959392
          ],
          [
            6.2760948344475755,
            46.244136649275184
          ],
          [
            6.276695319309501,
            46.24423837495184
          ],
          [
            6.279192041715896,
            46.244768113874926
          ],
          [
            6.279445243829844,
            46.24480903941708
          ],
          [
            6.279964864491889,
            46.24486160555291
          ],
          [
            6.28021856774814,
            46.24489731646875
          ],
          [
            6.280468365340301,
            46.24494594184506
          ],
          [
            6.280661545781035,
            46.245003252469274
          ],
          [
            6.280855162287324,
            46.24508332861907
          ],
          [
            6.281902695934828,
            46.24570518682839
          ],
          [
            6.282588901638642,
            46.246077288067085
          ],
          [
            6.283063924327726,
            46.246311834032916
          ],
          [
            6.283632476141238,
            46.24661939751206
          ],
          [
            6.284200346403249,
            46.24696178589927
          ],
          [
            6.284749472627536,
            46.24730783933694
          ],
          [
            6.284995548537627,
            46.24750315989422
          ],
          [
            6.2852210292994934,
            46.24770356849575
          ],
          [
            6.285344418394216,
            46.247844635945455
          ],
          [
            6.2854970283435305,
            46.248081464507216
          ],
          [
            6.286633372179691,
            46.249975096732975
          ],
          [
            6.286812794678461,
            46.2502255928963
          ],
          [
            6.28731289068421,
            46.250688898553236
          ],
          [
            6.287409547922813,
            46.25072299153877
          ],
          [
            6.287521531603408,
            46.25072107441466
          ],
          [
            6.28783091352092,
            46.25068088255033
          ],
          [
            6.287895862041373,
            46.25070646503942
          ],
          [
            6.288361884800743,
            46.25134341261932
          ],
          [
            6.288577494750031,
            46.251606509866036
          ],
          [
            6.289085375582142,
            46.25211937691763
          ],
          [
            6.289685509895004,
            46.25271459043201
          ],
          [
            6.290150376953345,
            46.253320885165294
          ],
          [
            6.290613546149237,
            46.25372320811112
          ],
          [
            6.291244641652952,
            46.2542989892997
          ],
          [
            6.291483349354403,
            46.25462659603623
          ],
          [
            6.291679181684324,
            46.254884843948204
          ],
          [
            6.2918763724657145,
            46.25505914921059
          ],
          [
            6.291980514623436,
            46.25515819753321
          ],
          [
            6.292133029300983,
            46.25527464147717
          ],
          [
            6.2924193582196155,
            46.25546020582828
          ],
          [
            6.292618505254748,
            46.25556164832104
          ],
          [
            6.292809067070833,
            46.255633575530254
          ],
          [
            6.293031613736041,
            46.255658684837066
          ],
          [
            6.293260771145919,
            46.25564706475231
          ],
          [
            6.293482764112104,
            46.255587689685065
          ],
          [
            6.293941821693427,
            46.25538755506437
          ],
          [
            6.294131197829941,
            46.25531263488358
          ],
          [
            6.2943279696552255,
            46.2552504745103
          ],
          [
            6.294512807732505,
            46.25521240267139
          ],
          [
            6.294730673848759,
            46.25519488942181
          ],
          [
            6.294951519052849,
            46.25522746287185
          ],
          [
            6.295175202069575,
            46.25529036508875
          ],
          [
            6.295277216992282,
            46.25533549028785
          ],
          [
            6.295363757991651,
            46.25540780831408
          ],
          [
            6.295557946975526,
            46.255652699733425
          ],
          [
            6.295720490130647,
            46.25577559184317
          ],
          [
            6.295989923485626,
            46.25590308304075
          ],
          [
            6.296040616889002,
            46.255885422915
          ],
          [
            6.296058120430883,
            46.255892464409165
          ]
        ]
      }
    }
  ],
  "properties": {
    "swissboundaries:outer_boundary_of_switzerland": "yes",
    "note": "Includes segments on Switzerland's outer national boundary."
  }
}