{"type": "FeatureCollection", "features": [{"type": "Feature", "properties": {"bfs_nummer": 6641}, "geometry": {"type": "MultiPolygon", "coordinates": [[[[6.1753928375532015, 46.15838361477615], [6.174222390149019, 46.15780568513763], [6.1723047132558815, 46.15737019970372], [6.170726229436582, 46.15719121682344], [6.168566047511502, 46.157163182350864], [6.167127065261911, 46.15662611946059], [6.166198357832646, 46.15626521619315], [6.163839634396015, 46.15535748515984], [6.161356214002503, 46.15448687021764], [6.159666471290396, 46.15386714856016], [6.158061874527189, 46.15336612768419], [6.15764681154991, 46.152777593285755], [6.157346436053206, 46.152659470198564], [6.1566871272278965, 46.15256602696507], [6.156418905118818, 46.15255533770616], [6.153887773321371, 46.15221374364242], [6.151306349949154, 46.15115843268855], [6.1508436888608, 46.15092334277278], [6.149719598865736, 46.15046072626173], [6.14941207684887, 46.150267358904216], [6.148641780288036, 46.15008873898405], [6.146302631267942, 46.14716732367135], [6.146288936150951, 46.14714988379485], [6.145928679655589, 46.14730291710107], [6.145938054124572, 46.147316969674634], [6.14574521452488, 46.14741390230064], [6.145504162630554, 46.147551477756], [6.1454554446485465, 46.1475916382598], [6.145412824531472, 46.14763501759209], [6.145376765461816, 46.14768118922163], [6.145347628604649, 46.14772966248174], [6.145325723584828, 46.14777993712459], [6.145305707007699, 46.14785806052123], [6.145354942844638, 46.14810127807707], [6.145328441299455, 46.148154324955925], [6.145124470888849, 46.148387241446116], [6.145091683730448, 46.148399730582355], [6.144761095810513, 46.14838288160511], [6.144638171313578, 46.148456593518524], [6.1443702438621, 46.14869526113373], [6.144149212929294, 46.14890503823895], [6.144031434187221, 46.14899689229689], [6.143249649130207, 46.149380422536424], [6.1430658825585525, 46.149454594330585], [6.142863151022814, 46.14955815622606], [6.142463273597373, 46.149874195380946], [6.142404571012358, 46.149904019457004], [6.142035615520034, 46.149861782218714], [6.141808051974033, 46.14985558345416], [6.141431806284855, 46.149978090786924], [6.140948185575955, 46.15017863132272], [6.140755504472776, 46.150263222871956], [6.140322581624743, 46.15047037246778], [6.140223425251748, 46.15050232951464], [6.139941228218537, 46.15056790389021], [6.139592208647696, 46.15063944600551], [6.139032398231772, 46.15072808869398], [6.138561609734176, 46.150813976871746], [6.138425260678195, 46.150831297329134], [6.138628115149181, 46.15125984291051], [6.138955445237707, 46.15204880510021], [6.1390393908832435, 46.15259941491734], [6.139190288115554, 46.153274412758016], [6.139202265829441, 46.153466821647484], [6.13919420946152, 46.153641635756784], [6.139145266050637, 46.154065568001265], [6.139136140228907, 46.15447932498203], [6.1391947958448645, 46.154973494068685], [6.139261602521143, 46.15491957264803], [6.139409457994828, 46.15556943394824], [6.139613416271408, 46.15639277942829], [6.139678173167515, 46.156483952585326], [6.139734765500266, 46.15653750599008], [6.1398193387500255, 46.15659633002348], [6.139803819778215, 46.15673074357581], [6.139697728394941, 46.15682550797184], [6.139692241244975, 46.15691928145303], [6.139657569917989, 46.15704789614622], [6.13961405601663, 46.157243255843], [6.139311499853681, 46.1577844088227], [6.13907004768311, 46.15816335084617], [6.138831347359138, 46.15850714635603], [6.138725348053724, 46.158668316341085], [6.138610566099955, 46.15891476464672], [6.138574332558631, 46.15909724285373], [6.138542686389417, 46.15929525744326], [6.138538594381543, 46.159470917805635], [6.138552628679582, 46.15965306701872], [6.138691408840643, 46.16034860892995], [6.138746331947951, 46.16073351419609], [6.1387960527944445, 46.16075019165518], [6.138805463439591, 46.161149335970755], [6.138891164774886, 46.161617726408494], [6.138898793126697, 46.16173855165282], [6.139095378376603, 46.16315824814553], [6.139135263724391, 46.16331040321055], [6.139294674251293, 46.16369679148308], [6.139465518326206, 46.16420152049634], [6.139562504799123, 46.164430266593286], [6.13964814055143, 46.16470658286638], [6.139707503176447, 46.16497592075374], [6.139991311116185, 46.1658662313594], [6.14004325202339, 46.1660125870358], [6.140040966220973, 46.1660215575257], [6.140165491401212, 46.16641078143326], [6.140370230612295, 46.16703690592762], [6.140554014177168, 46.167559163533106], [6.140645398225881, 46.167795761214414], [6.1407328992669585, 46.167971495308315], [6.140759666317416, 46.16809849629104], [6.140783984401298, 46.16826845539491], [6.141114120722213, 46.16830438278318], [6.141231660968431, 46.16832390925678], [6.141252347165833, 46.1683350422165], [6.141277301994008, 46.16836429906142], [6.141341434763924, 46.16849378153138], [6.141353100914417, 46.168607914537866], [6.141371658167242, 46.16864970230911], [6.141403697335821, 46.16866914421638], [6.141457854170294, 46.168674445688275], [6.141512362294491, 46.168663376928585], [6.141541913750501, 46.16864104494055], [6.1415921821704655, 46.16854597817907], [6.141610115675029, 46.168489513469005], [6.141610951373459, 46.16842184924102], [6.1416238545908435, 46.16838574048238], [6.141651547546031, 46.16835878954999], [6.141712535272612, 46.168326301847486], [6.141741358086645, 46.16829595428295], [6.1418028423008515, 46.16828066511515], [6.141873308433909, 46.16828568615661], [6.141943742588816, 46.16829694158212], [6.142043027844617, 46.1683304628512], [6.142087934002915, 46.168369665700254], [6.142109337260293, 46.16839528275077], [6.142150134898455, 46.16840582832884], [6.142236498318358, 46.168411580740496], [6.142282760290379, 46.16840419543746], [6.14233618255278, 46.16841749518072], [6.142419436085879, 46.168455960135], [6.1425694406773985, 46.16850266866904], [6.142721106526219, 46.16852203673273], [6.1428018176808274, 46.16854220859129], [6.142880415272935, 46.16859078606255], [6.142928496051058, 46.16859457746125], [6.143015380904916, 46.16858388006028], [6.143114787844182, 46.168580245049306], [6.143233139178493, 46.16855812321759], [6.143324709150726, 46.16853011560659], [6.143400502176433, 46.16855562855121], [6.1434282368147155, 46.168570971868974], [6.143578375379747, 46.16856801816926], [6.143673075920882, 46.16859346926326], [6.143735010608019, 46.16859733856516], [6.143888150434687, 46.16856076181319], [6.14398355801114, 46.16855105224603], [6.144072689265675, 46.168564581289644], [6.144142577762859, 46.16858247769628], [6.14420178592136, 46.168619315665026], [6.144230285913812, 46.16865149161404], [6.144273203991074, 46.168676366139415], [6.144551545857366, 46.16876574124849], [6.144661390931201, 46.16875825704798], [6.14470979095735, 46.168770418407206], [6.14475231489694, 46.1687682973288], [6.144798659007742, 46.16874165880741], [6.1448479636784095, 46.168726660122616], [6.144916394264498, 46.16873454382721], [6.144995736851888, 46.16870828386278], [6.14504956711041, 46.16869846523443], [6.1451002815013025, 46.1687069643288], [6.145428616374744, 46.1687355439486], [6.145610488461145, 46.16873771981787], [6.145691992322746, 46.168708227303874], [6.145775594636526, 46.168704867505255], [6.145841937780649, 46.16871886255871], [6.14586824507954, 46.1687343598028], [6.145900700978616, 46.168747228512544], [6.146190036318691, 46.16871733841415], [6.146343953372525, 46.16872432081714], [6.146369389018809, 46.16872254308403], [6.146421985737725, 46.16869867461678], [6.1464534109846065, 46.16863496853452], [6.146490331880538, 46.168617946879415], [6.146522256036625, 46.168626490882765], [6.1465596283842014, 46.16867172325647], [6.146551264678534, 46.16868584236946], [6.146648157708797, 46.16867354746171], [6.146718463922199, 46.16864115488027], [6.146794010332611, 46.16862202959017], [6.146865082158638, 46.16862284394297], [6.146922001606055, 46.16863070246487], [6.146940666886134, 46.16862992667763], [6.146983936230562, 46.168607300583524], [6.146999641650007, 46.16855663957949], [6.14701242574506, 46.16854177036247], [6.14706950557569, 46.16852649994294], [6.147210803449161, 46.168535927697704], [6.147328701656359, 46.16856066078741], [6.147368428348267, 46.16857218183724], [6.1474317440836606, 46.16859971744086], [6.147476264721938, 46.16866625484611], [6.147528608088771, 46.16869780328197], [6.147721282828999, 46.168746253093325], [6.147775268244448, 46.16876863446102], [6.147819876204317, 46.168804214735495], [6.1478685867418665, 46.168813688268465], [6.147967308737589, 46.16880617249499], [6.148064242629941, 46.1687866884159], [6.148181683249189, 46.16879198224063], [6.148412989727941, 46.16883428736789], [6.148504316722952, 46.168832273511796], [6.148589399194006, 46.16883639597619], [6.1487344957687196, 46.16886151975228], [6.148795324107283, 46.16885690749369], [6.148895290735761, 46.168835118236636], [6.1489936796885045, 46.16882525861948], [6.149084143007364, 46.168805042913355], [6.149125159494816, 46.16878455851345], [6.149180544814819, 46.16877520546989], [6.149199738048733, 46.16875761131631], [6.149249979699373, 46.16874127194231], [6.14929693051146, 46.168716257949946], [6.149342450039005, 46.16870246457131], [6.1493825116462215, 46.168678550353356], [6.149434706214649, 46.16865574650427], [6.149493319266035, 46.16864679011102], [6.149540517152646, 46.16863320477783], [6.1496457580374, 46.168552717104504], [6.149741581324072, 46.16850899947455], [6.149875087261041, 46.16843189359885], [6.150014588604662, 46.16837500892007], [6.150152680092419, 46.168301634807754], [6.150250659476902, 46.168270186055615], [6.150405810817201, 46.16817082593077], [6.150489918879857, 46.16814604705485], [6.150576453833613, 46.16810079216148], [6.150658459480004, 46.1680876939992], [6.150808156940673, 46.16799439783741], [6.150994582022717, 46.16791896580154], [6.151055910048168, 46.167882779323996], [6.151123712186192, 46.167857552844886], [6.1512619800194255, 46.16776565503356], [6.15137801219021, 46.16772146508628], [6.151444668971076, 46.167717277895896], [6.151470167946416, 46.16770677290494], [6.151551685433363, 46.167643646330255], [6.151645102609496, 46.16760845562402], [6.151899236955496, 46.167468316316196], [6.151916162504954, 46.167442517738124], [6.15207232582144, 46.16737132683101], [6.152199661543448, 46.167319986680745], [6.1524338461966686, 46.16719652347318], [6.152554527655694, 46.16715714467578], [6.152629773505584, 46.16711274912784], [6.15273373429056, 46.167075707529364], [6.15280507536861, 46.1670211909194], [6.152946784309498, 46.16694237571866], [6.153060073731463, 46.16689356441521], [6.153248058693826, 46.16679619418527], [6.1534041370928545, 46.16672844631999], [6.153546743965137, 46.166649370664665], [6.153636692387751, 46.16661837632577], [6.153720981462447, 46.16657479384739], [6.153960800131783, 46.16643233655741], [6.154064884277737, 46.16638997823824], [6.154180047560345, 46.16633246061785], [6.154717183911328, 46.16708773288458], [6.154806555608412, 46.16709765741068], [6.155413800811403, 46.16666608498614], [6.1556055997538595, 46.16654403114977], [6.156193682314677, 46.16612231305701], [6.156437809085748, 46.16598294953466], [6.157416702162158, 46.16578015256844], [6.158355718251867, 46.1654166706823], [6.156818648262018, 46.16401036202776], [6.157074026115205, 46.16384691490657], [6.157090501065585, 46.16383130387885], [6.157096791488631, 46.16383580179673], [6.159639811638672, 46.162135329187905], [6.160066325022396, 46.16189310672094], [6.160137428219646, 46.16189882536586], [6.160192175045692, 46.161889261874926], [6.160201748967007, 46.16180633017382], [6.163519145121983, 46.15959708494544], [6.163604310494267, 46.15955342436608], [6.163709702142388, 46.159548318622], [6.164243224947697, 46.15964773779407], [6.164534455016601, 46.159694762996864], [6.165136211882827, 46.159778125210316], [6.168257464592982, 46.16014184148032], [6.168271385612517, 46.16008901642892], [6.172883749309224, 46.16062542883057], [6.172941272988442, 46.16060709155763], [6.173665197765564, 46.15974550169934], [6.174473232857675, 46.159013603642286], [6.174460757479833, 46.15898215511904], [6.174520817511537, 46.1589604267279], [6.174704542878835, 46.159021334507294], [6.174776512894635, 46.159010805588814], [6.1753928375532015, 46.15838361477615]]]]}}]}