{"type": "FeatureCollection", "features": [{"type": "Feature", "properties": {"bfs_nummer": 6642}, "geometry": {"type": "MultiPolygon", "coordinates": [[[[6.201744584231725, 46.232845856633894], [6.202283568244266, 46.232435834395865], [6.202505203974478, 46.23224603813172], [6.202828134546188, 46.23194643020324], [6.203532113062443, 46.231355287224524], [6.20358785311128, 46.23133268558299], [6.203903881911123, 46.231168615135566], [6.203983006304309, 46.23122373986871], [6.20407034535057, 46.23127678617761], [6.204424420985964, 46.23146447033803], [6.204680683814565, 46.23154599347527], [6.204705811522898, 46.23153556207693], [6.205057401677536, 46.2311005356332], [6.2051940591731265, 46.23092262530059], [6.205349933186746, 46.230703350939635], [6.205685295555366, 46.23006939894407], [6.205675150491151, 46.23005372378036], [6.20578243060574, 46.22988997653375], [6.20586270637201, 46.22981429106541], [6.206361736985086, 46.2292739714588], [6.2063937150890105, 46.2291900212486], [6.208023591910669, 46.22815936815816], [6.208659571457789, 46.22777466316312], [6.20891857372711, 46.227666375712225], [6.209072108116701, 46.22765779199089], [6.209235963623919, 46.227606676074764], [6.209783665228312, 46.22724483638352], [6.209895732272807, 46.227092752341186], [6.210359578315313, 46.22683255938926], [6.210587187506892, 46.22673067406158], [6.21080781438627, 46.226638878713054], [6.211142056166685, 46.2265156513705], [6.211554817859332, 46.22629567127476], [6.212178628047476, 46.226058181609076], [6.212617402750061, 46.225927098327816], [6.213012794827492, 46.22592572465046], [6.213344599039878, 46.225928067696714], [6.21336915922558, 46.22593112329907], [6.213538694786974, 46.22616193898599], [6.213592502446983, 46.226201658717955], [6.213671897593653, 46.226221863378505], [6.213847072549167, 46.22621395809617], [6.214132819183719, 46.22617153532271], [6.21453938296929, 46.226100103633094], [6.2148120381593035, 46.22605816698028], [6.215191494994705, 46.226044917387675], [6.215660180028041, 46.22604694718456], [6.215966726793193, 46.22601905000496], [6.21613814585942, 46.22597636427876], [6.2169922212062465, 46.22570101071737], [6.217224479622312, 46.225587008218355], [6.217394399459592, 46.22549554215544], [6.218242807655446, 46.22489451693653], [6.218286029149471, 46.224840014360474], [6.21830073622835, 46.224785383415124], [6.21767810006359, 46.22361427744962], [6.2173814571367165, 46.2230859212907], [6.2171188711437955, 46.22263485466141], [6.216829424137953, 46.22217898028574], [6.21669866083344, 46.22183720137026], [6.216674443274016, 46.22180167204124], [6.21757121012682, 46.220412427519996], [6.217609222739724, 46.22034734293242], [6.217672047330523, 46.22034325439347], [6.217790212430695, 46.220287403684644], [6.218275498781058, 46.219824743230454], [6.218661151546892, 46.21942937867528], [6.219079872884664, 46.21895725955871], [6.219337243819802, 46.21873972959558], [6.21958821844424, 46.21858714908295], [6.219899412737232, 46.21835570560936], [6.219965514034202, 46.2183209635054], [6.2199865444037385, 46.218232132349996], [6.219958203073263, 46.218143478749845], [6.219957775336012, 46.21794339669927], [6.219872234825572, 46.217729431169175], [6.219856784967359, 46.21764388571422], [6.219585088924303, 46.21684097414224], [6.219543219599372, 46.216673642179266], [6.219520192331407, 46.21650353582003], [6.219519298718217, 46.21633528799257], [6.219544663318324, 46.21616354524818], [6.219585620549478, 46.21581078655596], [6.21958627383349, 46.215625560772686], [6.219559440142001, 46.21544084780086], [6.219448395102316, 46.215086617655444], [6.219217849896412, 46.21463520066527], [6.219097744195151, 46.21444245313881], [6.218905795900046, 46.21419396808211], [6.21868692238364, 46.213956878179786], [6.2185103893464, 46.21380184567847], [6.217953817715644, 46.213353917405506], [6.217934112367389, 46.213365759752826], [6.217282677129995, 46.21282648410915], [6.2170577329842445, 46.21265770019781], [6.217015415264273, 46.21263196130575], [6.216908626901747, 46.21258591155032], [6.216849029168475, 46.21256790264014], [6.216789912201939, 46.21257463979088], [6.216843724283645, 46.21246312368455], [6.216646788338927, 46.21239756429554], [6.2167174537296015, 46.21199798555799], [6.216875022667181, 46.21098235394626], [6.2169523996286005, 46.21045113571629], [6.216784537374444, 46.21040173413971], [6.215605089467608, 46.20999382948979], [6.21548413746117, 46.20996129989663], [6.215280487966014, 46.20994694642833], [6.21511948954809, 46.20996067533982], [6.214972538093462, 46.210000898193634], [6.214845373683589, 46.21005440769041], [6.214732987278244, 46.21013073137414], [6.214652841748024, 46.21021974817905], [6.214608067697647, 46.2102860091707], [6.214493015609005, 46.21057858425734], [6.214420887319408, 46.2107258873993], [6.214313887082547, 46.21086219602124], [6.214179061471404, 46.210985337213735], [6.214015603019719, 46.211090884883866], [6.213912426265946, 46.211143655265694], [6.212823296913536, 46.21166874240111], [6.21274140522521, 46.21169124373759], [6.212736919435425, 46.21168327786238], [6.212475232105107, 46.21179597032941], [6.212362056926835, 46.21183052947233], [6.212291173279441, 46.21184415378274], [6.212211704564608, 46.21185287151901], [6.212131204317059, 46.21185503741667], [6.212050576217755, 46.211850805192185], [6.211972011119745, 46.21184014471689], [6.21188783159917, 46.21182100219103], [6.211814913294174, 46.21179728578519], [6.211747029410288, 46.21176812708984], [6.211685610978127, 46.21173443238997], [6.211245096731381, 46.21145662729566], [6.210785508349635, 46.21122886815643], [6.210536093424571, 46.211175052529036], [6.210126560947028, 46.21102692583081], [6.209838750840698, 46.210934634498145], [6.209647541660582, 46.21086858533521], [6.208015218127764, 46.21061705042097], [6.207908272920825, 46.21060706722571], [6.207830205518825, 46.2106094544336], [6.207387483846462, 46.21057178632103], [6.206883890677649, 46.21051481962093], [6.206125318692863, 46.210354302675455], [6.206116916632328, 46.2103476431827], [6.2059425784591085, 46.210309392015894], [6.205527201622422, 46.210197513228884], [6.2052692016675906, 46.210082684163154], [6.2049995117595955, 46.21000965139202], [6.204297194409037, 46.20975716974145], [6.204221117030162, 46.20971189363124], [6.204158545965152, 46.2095460294626], [6.203826196354835, 46.209276449528936], [6.203728904874369, 46.20922383357], [6.203379180392618, 46.20903476283232], [6.203111825678016, 46.20901842146038], [6.202740472258224, 46.20889226877329], [6.202538212053903, 46.20880512417317], [6.202361741758471, 46.208650066531355], [6.2020121215891395, 46.2084174483328], [6.20183407417796, 46.208218468582324], [6.201807625135475, 46.20816779720768], [6.201801443340466, 46.20813192232407], [6.201810417183488, 46.20795442543038], [6.201675266468652, 46.20773198426989], [6.201528427292876, 46.207648594074875], [6.201299379122025, 46.2075550355993], [6.201222844197873, 46.20745550210449], [6.201159512451356, 46.20717608943264], [6.201126325840848, 46.2071823831343], [6.200768593792164, 46.207163344460966], [6.200746071791167, 46.20716849541283], [6.200625105505651, 46.20717139661893], [6.200069627369516, 46.20759578486727], [6.19916736963513, 46.20830460763175], [6.199140303154229, 46.2083175175097], [6.19910799695004, 46.20832152600955], [6.199081225777045, 46.20831749826804], [6.199056116239822, 46.20830594948381], [6.198549141706961, 46.20792400942284], [6.198324275445654, 46.20777282178561], [6.1980782566414785, 46.20763381658791], [6.197434238570938, 46.207452179074856], [6.1974117688250505, 46.20748908842747], [6.196931539725344, 46.20734750382596], [6.196649820096831, 46.20726892043281], [6.196339153477174, 46.2071919968309], [6.195702703469851, 46.20705389558576], [6.195368760838347, 46.20699308685339], [6.195026752228305, 46.20766758154293], [6.193947895116348, 46.20908460987996], [6.190810680315079, 46.21301972236828], [6.1898948221887125, 46.21387138115789], [6.189825152873047, 46.213953650101324], [6.190060894497889, 46.21404389626949], [6.190800726189852, 46.21434365588674], [6.19092356293676, 46.214406821904134], [6.190944559386074, 46.21443557378381], [6.190819685174764, 46.21462951263782], [6.190684493564968, 46.21479409782673], [6.19077129890057, 46.21480657357403], [6.1906252413188545, 46.2155287382563], [6.19054573410289, 46.215626823211934], [6.190025991632953, 46.21609122610142], [6.189633894035377, 46.21634716347177], [6.189419055521824, 46.21656520600083], [6.188263209033586, 46.217275545789576], [6.188095041074115, 46.2174137617572], [6.18818640480173, 46.217464886096096], [6.1886764429003485, 46.21779725712271], [6.1891680479952464, 46.218106251753866], [6.189466260784182, 46.21836029265987], [6.189517356916547, 46.218414838773235], [6.189614841573633, 46.218555097500584], [6.189820689904346, 46.21888062910812], [6.190084336002202, 46.21925745141558], [6.190179644048262, 46.21936223837144], [6.190001047673283, 46.21940758513452], [6.1892695218147535, 46.21980739185937], [6.189248586503523, 46.21981597687009], [6.189245279428731, 46.219813241225744], [6.187712134133055, 46.220685135350216], [6.18811968447716, 46.221037269112976], [6.188291206647471, 46.2211989610541], [6.1885866646648005, 46.22153844326081], [6.188784036448512, 46.22174294848295], [6.189294158893792, 46.22219647374044], [6.190346298952233, 46.223087297023646], [6.192271863077527, 46.22473100665493], [6.19342123470889, 46.22572797310952], [6.19578858848413, 46.227742849649985], [6.196451356022793, 46.22829481699498], [6.197185461592079, 46.22892000647895], [6.198633913645858, 46.230168147256286], [6.200401931307563, 46.23167574067739], [6.201744584231725, 46.232845856633894]]]]}}]}