{"type": "FeatureCollection", "features": [{"type": "Feature", "properties": {"bfs_nummer": 6719}, "geometry": {"type": "MultiPolygon", "coordinates": [[[[7.245412634449781, 47.421045177725375], [7.246403828389034, 47.420432230882575], [7.2465514302298075, 47.4203409636186], [7.2472082482054345, 47.42065394257238], [7.248070821484895, 47.420909516718446], [7.249415258992701, 47.42141533037926], [7.250213745418667, 47.422335701098525], [7.250564143658365, 47.42269252102412], [7.250392622092457, 47.422976883093426], [7.251183570092966, 47.42315549487117], [7.252027848532271, 47.42329768092653], [7.2523569671662065, 47.4233766617076], [7.2525002209791, 47.423405423162336], [7.252599161604007, 47.42343685598949], [7.252787652088005, 47.42352469195303], [7.253169455622974, 47.42371642518786], [7.253484397876249, 47.42384469479299], [7.253798085555836, 47.42394174273623], [7.254081584092405, 47.42402364024014], [7.254632600368321, 47.42427141290507], [7.254962739355406, 47.42438764158164], [7.255446938705732, 47.424525188216165], [7.255929368878204, 47.42459240481412], [7.256682307574583, 47.424721594841095], [7.257364110318227, 47.42487309017169], [7.2581569376065875, 47.42505985998901], [7.258736177368842, 47.42521670848653], [7.259299084521967, 47.425352464341174], [7.259598698097057, 47.425408011594456], [7.2601569249535665, 47.42546697295323], [7.260400279062313, 47.425499153898876], [7.261086167582377, 47.425647728403646], [7.26149935569144, 47.42572998772072], [7.261904737899637, 47.42579270736561], [7.262796764538379, 47.42589332593754], [7.2631160046357435, 47.425983368586245], [7.263488447281175, 47.42603668741647], [7.263816341028171, 47.426111559249804], [7.264213826328652, 47.426231614343834], [7.2648198765502885, 47.42637800380785], [7.265072575230285, 47.42644841413114], [7.265157488274527, 47.426445025584954], [7.2655996712272275, 47.42662954132755], [7.266090425484257, 47.42672249612587], [7.266785577281175, 47.42677502936273], [7.2669619197366675, 47.42674128612483], [7.267144059853673, 47.42664432244707], [7.267673099363629, 47.4267271822498], [7.268023225403975, 47.42689782662256], [7.268110764158497, 47.42692704359074], [7.268185559884704, 47.42694178802485], [7.268291883956107, 47.426948952144606], [7.268602837095845, 47.42693357407703], [7.269346986982769, 47.42695475672618], [7.269561869124757, 47.42696690047306], [7.269701996921488, 47.427001014484674], [7.269857184594436, 47.42707554302135], [7.27005286508773, 47.427178453375554], [7.270391599984655, 47.427333550024116], [7.271005348408291, 47.42756940983765], [7.271274691239993, 47.427653384958376], [7.2714502455971415, 47.42774740435775], [7.27169924775791, 47.4279566191251], [7.271957840640149, 47.428096583509394], [7.272160953324752, 47.428291447979014], [7.272293615039615, 47.42850129320931], [7.272503696486577, 47.42868952049633], [7.272769815132896, 47.428764466290794], [7.272912216824319, 47.42893797063225], [7.273142314104161, 47.42918608139163], [7.273441797765902, 47.42946873910942], [7.273632600632738, 47.42967867536281], [7.273962169768888, 47.43002329041725], [7.274217468168894, 47.43007695523565], [7.274618291809516, 47.43038564883834], [7.2748608436841575, 47.4305114718806], [7.275253322416479, 47.430700502479915], [7.275681368740639, 47.4309446173501], [7.2758378466061355, 47.431045681274426], [7.276234792078248, 47.43113357603885], [7.276352217789538, 47.43131415499669], [7.276423769649215, 47.43138666766966], [7.276661155568849, 47.43145365799145], [7.276951352395843, 47.43151090062176], [7.277123716626325, 47.4315762425062], [7.2774862127045985, 47.431774918985134], [7.277632428131798, 47.43193119892427], [7.277680034328479, 47.43198955651832], [7.2778129557812345, 47.43235953569338], [7.277855598727274, 47.43242438001165], [7.277921427590556, 47.43247957908473], [7.277986300405577, 47.432504835372065], [7.27805827296413, 47.432518643034136], [7.278350968527754, 47.43253668922813], [7.278683354243236, 47.432597116335245], [7.2792798962635965, 47.43265018326987], [7.279668101950878, 47.432705819138995], [7.280054927767907, 47.432846140334796], [7.280297021681936, 47.43310636821732], [7.280608564725875, 47.43325484940924], [7.280861750545213, 47.43352196279203], [7.280871976146425, 47.43367994035173], [7.2808346283751, 47.43379351162553], [7.280947549178478, 47.43397175907039], [7.281217077875672, 47.43416972939059], [7.281293193885583, 47.43438240039607], [7.281429477175706, 47.43460406692493], [7.2816209264163465, 47.43472473289897], [7.2819070664219465, 47.43481235756602], [7.282178987986641, 47.434826992941], [7.2823970118279995, 47.43480593763247], [7.282542679247747, 47.434868186030506], [7.282810528779613, 47.434906315912045], [7.283257581135466, 47.43504829994497], [7.283763910829026, 47.435142027864515], [7.283940393575621, 47.435147671216114], [7.284101350588982, 47.43510457227109], [7.284465800426364, 47.43518679139353], [7.284910909970993, 47.43520144573028], [7.28508759418917, 47.43515150393911], [7.285313885436351, 47.435154810346425], [7.285526692649146, 47.43523694955915], [7.285829132228147, 47.4352102351974], [7.2861624079695915, 47.43520519179701], [7.286533335670726, 47.435188918833], [7.28693464385812, 47.43515915733724], [7.2869755035578585, 47.43515254668711], [7.2870538501949, 47.435132098618475], [7.287125608278396, 47.43510254875363], [7.287188534843748, 47.43506485653736], [7.287287055984175, 47.434896337751375], [7.287305161609709, 47.43487371442206], [7.287350772349027, 47.4348326534704], [7.287407325746063, 47.43479845140606], [7.287439046969919, 47.43478433646838], [7.287542865770242, 47.43476538758009], [7.287649793253331, 47.434757937199535], [7.287703569199751, 47.434758601489044], [7.288076801500077, 47.43476956943648], [7.288296233263544, 47.43479789157348], [7.28846178856031, 47.43481432459092], [7.288878695860945, 47.43472335404647], [7.289170679965175, 47.434567290929635], [7.28946387708222, 47.43442703137714], [7.2897455089150105, 47.43438733709191], [7.290257666468788, 47.4341917396714], [7.290907183262999, 47.43391166421187], [7.291077467103923, 47.43382898449164], [7.291147375286332, 47.43376739267506], [7.291373594751914, 47.4336707625091], [7.291585617873602, 47.433592875437725], [7.291829617350289, 47.43355605107551], [7.292144003596454, 47.43349468103508], [7.292657035606938, 47.4333648929571], [7.2930296601454305, 47.43347783753033], [7.293158379129048, 47.433565495324714], [7.293314343142454, 47.43359351160836], [7.293566211255863, 47.43362566032286], [7.2936118302585955, 47.43363739229499], [7.293654162313592, 47.43365383302211], [7.293692201171826, 47.43367456751924], [7.293724954076773, 47.433699081840686], [7.2937853929065275, 47.433792921684706], [7.293920341992904, 47.43395390652157], [7.294143605893903, 47.43409795844604], [7.294219379019426, 47.43415910581158], [7.294805072198521, 47.434382220351445], [7.294969802006365, 47.434507507642756], [7.295110390266271, 47.43464889991849], [7.295286941115311, 47.434898005415164], [7.295395777136837, 47.435007689399534], [7.295491348219131, 47.43513565076808], [7.2955981470017255, 47.43549879488547], [7.29561650505512, 47.43554330258735], [7.29566506858496, 47.43560416322767], [7.2957099779360695, 47.43563892740781], [7.295763254645137, 47.435667720911084], [7.295867406081641, 47.4356920086401], [7.2959764463614745, 47.435702541354274], [7.296132936268447, 47.43570063108498], [7.296271549026967, 47.43571164995502], [7.29636280858257, 47.43572397710151], [7.296709887675716, 47.43573302313129], [7.296860673174071, 47.43573276869157], [7.297210829803157, 47.43585494479023], [7.297408503819253, 47.435918335777146], [7.297517423539693, 47.435880001963746], [7.297596301375724, 47.43580343316681], [7.297799173014629, 47.43580674927589], [7.298186704663453, 47.4359074364063], [7.298638392476877, 47.43607955962818], [7.29870105343656, 47.43609444932598], [7.298767352488556, 47.43609707544738], [7.2989510775617, 47.43608269279011], [7.299247933652024, 47.43607130735916], [7.299514406079892, 47.43608046290123], [7.299761986395015, 47.43622170032031], [7.299998366958881, 47.436322441233926], [7.300382464259958, 47.4364670529359], [7.300532835783159, 47.436494108317504], [7.300605644492745, 47.43656255106253], [7.300740573672611, 47.43670113245173], [7.300745957337055, 47.436817252608456], [7.300914320403749, 47.436960541840136], [7.300987721441023, 47.43705138035371], [7.301154790820604, 47.43727463424627], [7.301349510851857, 47.43751952465799], [7.301443022199477, 47.43766177917469], [7.301670123566805, 47.43787859226649], [7.301913308855621, 47.43815095361954], [7.302007499657409, 47.43826729649993], [7.302083234076787, 47.43845688317912], [7.302297976149849, 47.438595458593326], [7.302400483679367, 47.438648861338294], [7.302678632812188, 47.438679582255794], [7.302752284339543, 47.4386648292094], [7.302894747574932, 47.43865122786336], [7.303165726969345, 47.43873291752169], [7.303356469781596, 47.438776583989274], [7.303822000530763, 47.43877662809556], [7.3044944482994225, 47.43885682486878], [7.304603995120869, 47.43885903950194], [7.304903061160378, 47.43888101024495], [7.3050431028729585, 47.43889711091847], [7.305141784938485, 47.43887090003168], [7.305330489323035, 47.43883014230494], [7.3058704214086045, 47.438849305048144], [7.306074447569415, 47.43888335870996], [7.306180491442072, 47.43892390063281], [7.30650250062396, 47.43896381003498], [7.306917535096239, 47.438991818122055], [7.307236864534832, 47.43896361914347], [7.30758856749104, 47.43890817703815], [7.3078298137096525, 47.43888033671055], [7.308055736566927, 47.43884119094642], [7.308108573863241, 47.43884793363247], [7.308191079030487, 47.438811907173225], [7.30834954529376, 47.43875933691286], [7.30886642205784, 47.4385529596021], [7.309026064983586, 47.43850110030556], [7.309418883806464, 47.438462248228944], [7.3096036809239004, 47.43842357470946], [7.310001034472077, 47.43822065550847], [7.310261799701979, 47.438161487671856], [7.310546355149599, 47.43813145063076], [7.3109242647522015, 47.438111185583864], [7.311359389386612, 47.438068623477214], [7.311682636665751, 47.43804512034402], [7.311940019219805, 47.43804652014659], [7.312170923371731, 47.438028058257665], [7.3124352295626664, 47.43799459460458], [7.312600642494164, 47.437994632619805], [7.313002141897733, 47.438087739130154], [7.313157389385625, 47.438170609744446], [7.313406662118449, 47.43820450206801], [7.313528910234585, 47.43822798415907], [7.313994730585674, 47.438457004153236], [7.314166299741693, 47.43854537754159], [7.314290221127733, 47.43859621164282], [7.314360357517357, 47.438614743540576], [7.314422892428475, 47.438624363020296], [7.314502157573277, 47.438628145423145], [7.314807585570396, 47.43861787157343], [7.3149834994524845, 47.43861796244584], [7.315059936892964, 47.438640476093376], [7.315248837767403, 47.4386651704064], [7.315390457643375, 47.43869343823269], [7.315589328412379, 47.4387178548637], [7.315812148329571, 47.43872190721236], [7.3162484089613296, 47.43877302838806], [7.3164237685613545, 47.43878372955863], [7.316999581694222, 47.43871428674797], [7.31731064481835, 47.43868047474486], [7.3177071603869335, 47.43865768885487], [7.317814092506893, 47.43866712846468], [7.318009209578341, 47.438698714302525], [7.318290570044057, 47.438766906324], [7.318431026171399, 47.43875983140052], [7.318615709247192, 47.43876305590104], [7.318879366435533, 47.43879339887395], [7.319094091639605, 47.43882474255173], [7.319269717630881, 47.438841060951326], [7.319466651682823, 47.43881422956374], [7.31976535791202, 47.4387630844075], [7.319910012068317, 47.43871069983908], [7.320075488011165, 47.43860103515982], [7.320214681165099, 47.43848295143373], [7.3203810946964545, 47.438374330676474], [7.320453126641613, 47.43835820656593], [7.320528789546104, 47.438354507037175], [7.320600329316143, 47.43836281930708], [7.320645587031083, 47.438374603178815], [7.320687533484511, 47.43839105156697], [7.320777768652322, 47.43843923572651], [7.320967278296076, 47.43850090497375], [7.3210343237983935, 47.43862247490717], [7.321430411391533, 47.43868995842625], [7.32161124330727, 47.43869618718096], [7.321791320476045, 47.43874993969434], [7.322149887931972, 47.43883214185945], [7.322531258568462, 47.43888990203308], [7.3227054468502795, 47.438921611710654], [7.322772688594191, 47.43892569102474], [7.322839948236374, 47.438921630700165], [7.322907637897937, 47.438908891529174], [7.3229411325034315, 47.43889898684334], [7.3229730542687, 47.438886939982375], [7.323031064680388, 47.43885688629081], [7.323125439493407, 47.43878973261041], [7.323203812298369, 47.438747341514365], [7.3233142879191595, 47.43870695232215], [7.32345164257104, 47.43866887452521], [7.324095462845345, 47.43889934570779], [7.324548086520255, 47.43909983460747], [7.324678616255843, 47.439177376592674], [7.324826850259917, 47.439282772757466], [7.324929094812037, 47.43937083634592], [7.324989100760157, 47.43943570728095], [7.325109872273709, 47.43954529396112], [7.325225642688018, 47.43959501100089], [7.325309864066501, 47.4396191624927], [7.325427567502222, 47.439639299661906], [7.325540767581225, 47.43964527559004], [7.325578643961451, 47.43964446756269], [7.3256096642352055, 47.43963853501603], [7.325665508217239, 47.439616968316315], [7.325699137993887, 47.43959344596167], [7.325852535037965, 47.43943081294211], [7.326052582439336, 47.43952238059644], [7.326191772255967, 47.43961226924346], [7.326416239807528, 47.43977240405656], [7.326566478617266, 47.43993492135061], [7.326607655854769, 47.439965433552445], [7.326656003224935, 47.439990601309944], [7.326730971969248, 47.44001503049711], [7.326818282703441, 47.44002707787563], [7.326840592706171, 47.440027693235756], [7.32703818213297, 47.44000465410559], [7.327253113996983, 47.44004941090681], [7.327247341586784, 47.440001889571754], [7.327259271126053, 47.439895968884734], [7.327332106803952, 47.4396560775469], [7.327373946893005, 47.439617578531966], [7.327471714609849, 47.4395614514313], [7.327635985102749, 47.439388564537516], [7.327727522040766, 47.43919982245787], [7.327780847369137, 47.439045166882934], [7.327778924411458, 47.438913095869225], [7.327750448093125, 47.43877495515845], [7.327779193435875, 47.438677927778215], [7.3277411580402845, 47.438578209533496], [7.3278113868312555, 47.43840360334397], [7.327905090740115, 47.43826131761089], [7.328038644086878, 47.438206924452096], [7.328111502995443, 47.43818719884263], [7.3281634879010396, 47.43810184113908], [7.328152473774648, 47.438006007496526], [7.328097093985099, 47.43791494293461], [7.328046675873879, 47.43787903486669], [7.3280128300431295, 47.437772755031766], [7.327935523365805, 47.43763818278218], [7.327905376861166, 47.43756957375794], [7.327863168550932, 47.43751296014966], [7.327702946003215, 47.43737789373905], [7.327575579712886, 47.43728374610363], [7.327552495161366, 47.437204575787575], [7.327570745072927, 47.437112044475214], [7.327548811167007, 47.43704668098283], [7.327503106377532, 47.437001540312906], [7.327395882112263, 47.43692399713046], [7.32732432977637, 47.43688438966194], [7.327214814277927, 47.43673710395037], [7.327172247666202, 47.436618628400446], [7.327144139172769, 47.43657743507007], [7.327142844505691, 47.436544011824616], [7.327053456956254, 47.436494969942714], [7.326953439445894, 47.4364516559278], [7.326924682909999, 47.43640990436435], [7.326602086539056, 47.43623471724868], [7.326549999383857, 47.43623689687662], [7.326499054971389, 47.43626273207935], [7.326401140562481, 47.43624689655753], [7.32641076582283, 47.43616523063242], [7.326401769628888, 47.436069659620905], [7.326339930677209, 47.43593903178291], [7.326295742606312, 47.43588598628656], [7.3261985052026235, 47.435820314989215], [7.326107130188877, 47.43580289365974], [7.326062944930783, 47.43572387320261], [7.326029405343988, 47.43561323985041], [7.325990780009829, 47.43553784040311], [7.3259073395977765, 47.43546747848121], [7.32575066070227, 47.435447078579585], [7.325638562273354, 47.435413671972974], [7.32556168625838, 47.43535466681582], [7.325418700230567, 47.43522343668567], [7.325388495562947, 47.435097642458544], [7.325275545598963, 47.43504764951386], [7.32524061905977, 47.434985034030156], [7.325218607592158, 47.43484657512912], [7.325229841620123, 47.43477573081118], [7.325237223903295, 47.43467757653774], [7.325192391575754, 47.43462924285983], [7.32523620209615, 47.434560985130055], [7.325301933260229, 47.434494493864726], [7.325308703672017, 47.43442809714486], [7.325289684554253, 47.434303573050265], [7.325328047772874, 47.43422862721923], [7.325337719508516, 47.43415676490515], [7.3253897383744935, 47.434105235225715], [7.325619604798198, 47.4340660321673], [7.3256529976078, 47.43405250201552], [7.32570778224667, 47.43401531150931], [7.325729654950773, 47.43398992474956], [7.325744321663035, 47.43396225546917], [7.325751303015687, 47.43393324733766], [7.325719852436599, 47.433850704467574], [7.3256927432758, 47.43380211861268], [7.325698366510616, 47.433639798719035], [7.32574323287882, 47.43356676584144], [7.3257635326589385, 47.43348967049654], [7.325699237743585, 47.433406249787], [7.325635831495496, 47.43334742885253], [7.325648216926397, 47.43327700829155], [7.325772908728032, 47.43320258810498], [7.325861945732598, 47.433121054286445], [7.326020381903471, 47.4329919739771], [7.326060803174924, 47.432870980077745], [7.326115269113771, 47.432765047243315], [7.326099611151227, 47.43274192595254], [7.326126668193236, 47.4326843722682], [7.326180541122091, 47.432620126312116], [7.326153414406316, 47.43255500035088], [7.326058882449123, 47.432510242859834], [7.325942473233563, 47.432474835688645], [7.325972089182082, 47.43242317568365], [7.326085556305605, 47.43236517633789], [7.326187173964404, 47.43224471933428], [7.326225392331415, 47.432130693549205], [7.326209578735958, 47.432056305792784], [7.326024057370859, 47.43209639035823], [7.325765159004899, 47.43204242298723], [7.325963254078623, 47.43054726872402], [7.325890631732864, 47.42949321253864], [7.32565949671669, 47.42943489221564], [7.325323214688342, 47.4294145038417], [7.325280924883011, 47.42940624130747], [7.325243585809748, 47.429388665944565], [7.325218922139857, 47.429362909494515], [7.325183215334096, 47.429350552191], [7.325145285957944, 47.42934248300124], [7.325026551506891, 47.42933174352339], [7.324959812456553, 47.42932137917273], [7.324921351772669, 47.42930155403698], [7.324840170931707, 47.42930105080808], [7.324757678256644, 47.429306563371625], [7.3246592349678545, 47.42932699915343], [7.324600379198852, 47.429330304482924], [7.324549809193705, 47.42933883452224], [7.324430892592862, 47.42928986935054], [7.324396376889339, 47.42926013655314], [7.324330033144564, 47.42917758563872], [7.324291729075149, 47.429110145694466], [7.32424300947888, 47.42904785802749], [7.3241531138655285, 47.428953069703645], [7.3241345531022315, 47.428918855925225], [7.324146806173311, 47.428855037409086], [7.3241232917844075, 47.42880696744137], [7.324074688373607, 47.428746325733755], [7.323999785598111, 47.42868745712102], [7.323954510917658, 47.42864429418362], [7.323923578417475, 47.42860054293605], [7.323896255799506, 47.42853635173878], [7.323877248708526, 47.42851239947598], [7.32300881761371, 47.42819363201776], [7.3228129030853415, 47.428022546768595], [7.322536629524391, 47.4277502955775], [7.322331864677293, 47.42766938455747], [7.32198455378245, 47.4273559118048], [7.321548863037571, 47.42713594954576], [7.321123829905175, 47.42677411468398], [7.320955048226231, 47.426547642123154], [7.320718280219273, 47.42635566384702], [7.320451736517892, 47.42615601706584], [7.3203406099957276, 47.42603630775892], [7.320190202359818, 47.425420885572024], [7.320154246071379, 47.42513812867068], [7.319737428572698, 47.42462447954464], [7.319778398196828, 47.4243756736546], [7.319745225860872, 47.423445348100664], [7.3191711478639325, 47.423291483197154], [7.318356181931508, 47.422968067030105], [7.31765422643146, 47.42285957783462], [7.317323197870313, 47.42265450449225], [7.316829220491527, 47.42239128050033], [7.316402583956873, 47.42223077585255], [7.315995080026186, 47.4220616467733], [7.31546341657379, 47.4218758879577], [7.314734487594521, 47.421749776919754], [7.313822931282869, 47.42154008735827], [7.313351352097503, 47.42139926457038], [7.3131766245946785, 47.42135327533398], [7.312949104272679, 47.42108363579725], [7.31251296072615, 47.4209290243116], [7.3115262317673, 47.42066018762112], [7.310471190568869, 47.42044434222343], [7.310179292417119, 47.42054632381815], [7.308799106056769, 47.421521709891834], [7.306897192958566, 47.42108139335804], [7.306784504629284, 47.420912069512944], [7.306222190776129, 47.42015833107533], [7.306224905036735, 47.420127456931645], [7.305402435753958, 47.41897516428123], [7.304818017371026, 47.41819775441479], [7.30456501316383, 47.417844993629586], [7.304294673084309, 47.41742201318189], [7.304869720629105, 47.41736060748999], [7.305591636073878, 47.41723375734377], [7.305688191976154, 47.41711994868415], [7.305376302604924, 47.41677663802633], [7.305144003966486, 47.41649598320324], [7.305308667112175, 47.4161051542852], [7.305300786103752, 47.415720555010424], [7.305300021521069, 47.41537241718261], [7.305126532415006, 47.41530304996437], [7.305215515626269, 47.414907743592735], [7.305326271781718, 47.41449530181074], [7.305297237994717, 47.414254765075064], [7.305569898058697, 47.41412637532895], [7.305862808059487, 47.41413324465914], [7.306159839669292, 47.41398670496658], [7.304967901596047, 47.41382060996129], [7.304218501960074, 47.4137382785023], [7.303153940332733, 47.41361079422595], [7.302809502978451, 47.41355771744493], [7.301466821353784, 47.41341699219407], [7.300873277346418, 47.413340316086284], [7.300583381841635, 47.41330770649085], [7.300165751144805, 47.41326675913121], [7.298318759554576, 47.41304846636592], [7.298653098142246, 47.41275391855053], [7.298783880625611, 47.41242626531897], [7.298889918620694, 47.412341515651995], [7.299024204036121, 47.41220213412217], [7.299133889714854, 47.41208059415417], [7.299539113859139, 47.411742852576], [7.300072346814215, 47.41136530699975], [7.300386721739373, 47.41113695147214], [7.300473894128474, 47.4110290257872], [7.300974038729604, 47.41059123582194], [7.301491808225986, 47.41017585602929], [7.301594596553357, 47.410058767189284], [7.301704766015429, 47.40981875642879], [7.301764930097071, 47.40928836531547], [7.301864180935216, 47.40849106651308], [7.301816931166822, 47.4083341618447], [7.301849942195047, 47.408004171284176], [7.3018429327364585, 47.40753433697577], [7.301806537788243, 47.40716650512433], [7.301665520039144, 47.406215581576596], [7.301626384706402, 47.40560198728249], [7.301677583165553, 47.40505578058594], [7.301618360195765, 47.405031632400274], [7.301348952030848, 47.404942429723555], [7.300676190025199, 47.40476277295824], [7.30014648178249, 47.404589428161884], [7.299836026413691, 47.40448358680265], [7.3002904058890055, 47.40376231333962], [7.300486055676921, 47.40250179215297], [7.300499748153599, 47.40243301242099], [7.300641433873223, 47.40198576024793], [7.301061547120843, 47.40141816239153], [7.301081576331956, 47.40139331882857], [7.301140097459582, 47.401318916921454], [7.301256256210205, 47.40077075140536], [7.3013153056916185, 47.40042092853442], [7.301599586278637, 47.39922807956503], [7.3016312011845566, 47.39856971083561], [7.301816692254102, 47.398062711104366], [7.301757778201826, 47.39780456996204], [7.30158748815344, 47.39734281118298], [7.301169481257106, 47.39722341529843], [7.301179395292551, 47.39667485669076], [7.300904833804872, 47.3964096043666], [7.300635058125255, 47.39598166150462], [7.300178887288021, 47.395207020095526], [7.2998520221302465, 47.39468325469494], [7.298895901524742, 47.39344153321732], [7.298743355821724, 47.3932612921651], [7.298302379194688, 47.39269832616101], [7.2967125084123134, 47.39281606857415], [7.294300369051059, 47.39322041743184], [7.284356217670393, 47.392572674519606], [7.283137574392296, 47.39257385286949], [7.282391149977391, 47.392568619754854], [7.281194423355746, 47.3924154310494], [7.280334394877856, 47.392345009244494], [7.280072642794212, 47.392421602862235], [7.280060255169276, 47.392577672430484], [7.279194953010383, 47.39315566381688], [7.278874108727873, 47.39340345968401], [7.27770826287995, 47.394252165209615], [7.276355337494405, 47.396080899351695], [7.27569061463973, 47.3969943678983], [7.275560177356502, 47.39711105306372], [7.275995646709081, 47.39724428951938], [7.276493932978374, 47.39736424765591], [7.275432575070053, 47.398075814893225], [7.27475601456612, 47.39847266289027], [7.273748214770513, 47.398452386188694], [7.273548959786199, 47.398634996307166], [7.2732942228821225, 47.398810349018035], [7.273083348354637, 47.39911969659652], [7.272941161268468, 47.39928784449496], [7.272621634803403, 47.39962594156631], [7.272402138330054, 47.39974693692808], [7.2718906620166015, 47.40011325759799], [7.271404328774729, 47.40042693330878], [7.270820792931277, 47.40108367283545], [7.270716731518897, 47.40119365443963], [7.270216768006824, 47.40150573065754], [7.270095184478156, 47.40154723118565], [7.2692773572921565, 47.40238039105115], [7.268965924618119, 47.40341133558692], [7.26877777032086, 47.40385964092227], [7.268714286407065, 47.404304910756636], [7.268656640940519, 47.40458215149967], [7.268645918163818, 47.40473214039749], [7.268588643336088, 47.405124651086], [7.268491601460266, 47.40523150262378], [7.2675158674318325, 47.40541272613662], [7.267110673798242, 47.40547270715895], [7.2662616363193235, 47.405727664216066], [7.266168415860533, 47.40581476873656], [7.265686611388714, 47.40577836329374], [7.265460948019134, 47.40588504600978], [7.2640763123094585, 47.40699465454339], [7.263335530457166, 47.407638739555836], [7.263126329625479, 47.40789552137329], [7.262221215320329, 47.40794015805141], [7.261444138344683, 47.40798441873708], [7.260694052427922, 47.40792484174077], [7.259814150272192, 47.4078394969249], [7.258622482521266, 47.40767531884047], [7.258099807945726, 47.40760774394274], [7.257278327979272, 47.40763875749901], [7.256701266972854, 47.40771444882266], [7.256282743374109, 47.407800867702406], [7.256010754056246, 47.407759638406695], [7.255704504177838, 47.407771841900434], [7.25440040051427, 47.4087435017183], [7.254023127737354, 47.408885273570974], [7.253629001179813, 47.40945496839976], [7.252608003158486, 47.41017344643885], [7.25184308629549, 47.41069465697779], [7.251139404078268, 47.410958900264646], [7.249949070409971, 47.41120696117928], [7.249689240434473, 47.41128182335268], [7.249230001355326, 47.41095668290104], [7.248833298660131, 47.41089218676046], [7.248265383156038, 47.41069912990127], [7.247828527366547, 47.410453438332304], [7.247471553439218, 47.41032604335232], [7.247187452621719, 47.410173252546166], [7.246892185648535, 47.410126150977376], [7.245856530366216, 47.40966253457561], [7.245699757453634, 47.4094640377973], [7.245528481016231, 47.40930844669976], [7.2451732116453735, 47.409298467221625], [7.244410195238746, 47.409393533039534], [7.243565154998712, 47.409264012930656], [7.243193620028534, 47.40926728375869], [7.2427768411318745, 47.409334289328775], [7.24259776307093, 47.409370510130344], [7.242062322007703, 47.4093956368186], [7.241336634461309, 47.409231851809615], [7.240276074632724, 47.40906890548076], [7.239668415864363, 47.408962497141204], [7.238943844863349, 47.40902966071012], [7.23873136846922, 47.40916336158928], [7.238077859285222, 47.409557640964294], [7.237743589228719, 47.40978946965871], [7.236798559505078, 47.410358718032896], [7.236391037592019, 47.41062112012476], [7.235904314901636, 47.410949927319294], [7.235151990474859, 47.41202657758969], [7.235062882439304, 47.41214444186278], [7.234985055151106, 47.41226783974411], [7.2347183160055675, 47.41260597040304], [7.234837817983895, 47.41411857560543], [7.234193956258785, 47.41589662030769], [7.234408178249535, 47.41597363170041], [7.234672881596435, 47.41585918252236], [7.235248061257812, 47.415859092473546], [7.235914009494197, 47.41613613624782], [7.236606561257197, 47.41634662962834], [7.23715869084276, 47.4166112168472], [7.237869516339527, 47.41683140276498], [7.238276704373439, 47.41664273493534], [7.238427024159923, 47.41670593796997], [7.238827609041384, 47.41704916080004], [7.239050600305859, 47.416844748871206], [7.239770832830675, 47.41750968523039], [7.240271925389827, 47.41792132302871], [7.241189082134526, 47.41857831466515], [7.242141291965224, 47.41909439338779], [7.24299271956081, 47.41945101478036], [7.243775009246531, 47.41994487206145], [7.243927398589965, 47.41983113583456], [7.2440322176904175, 47.41980664168093], [7.244301680503994, 47.41976647661062], [7.2443696071697365, 47.4198971687778], [7.244599446176564, 47.42016882970113], [7.2447181400963325, 47.420300056454046], [7.244807978253853, 47.42042597338438], [7.245172142706383, 47.420778033465986], [7.245412634449781, 47.421045177725375]]]]}}]}