{"type": "FeatureCollection", "features": [{"type": "Feature", "properties": {"bfs_nummer": 696}, "geometry": {"type": "MultiPolygon", "coordinates": [[[[7.249929592297975, 47.21600498326953], [7.247001365381978, 47.21557851290014], [7.245633976369182, 47.217501991380495], [7.2450155043794044, 47.218870612746734], [7.244716728412582, 47.21932619654105], [7.244272092879804, 47.220033925153444], [7.244104642734955, 47.22024440290708], [7.243784029263815, 47.22077545887352], [7.243579806111437, 47.22128432476938], [7.243244341185314, 47.22172940174471], [7.24295644294204, 47.222266996937265], [7.242703475434959, 47.22266815730956], [7.24222805898539, 47.22376225237746], [7.241844742339425, 47.22407959965859], [7.241293768726988, 47.22493951865679], [7.240870499200182, 47.22556138840706], [7.240466996100517, 47.226314935663915], [7.23993574447593, 47.22718190775259], [7.239477948963426, 47.22800527262442], [7.239156141662467, 47.228555372738946], [7.238783527212621, 47.229516933088505], [7.238373827839566, 47.23054993423302], [7.238150037208354, 47.23093323573481], [7.237732361375728, 47.23189052212511], [7.237801680704753, 47.23221058273129], [7.237023176362606, 47.234057998369394], [7.236897200432337, 47.2343448404478], [7.236731550678623, 47.234712023938656], [7.236636733857393, 47.23489908876064], [7.236517026334696, 47.235126863828555], [7.236231645973267, 47.2356009056184], [7.23608189686469, 47.235619412731175], [7.236046718242479, 47.23577793410611], [7.235980801775748, 47.23579292854533], [7.235959908939523, 47.23594544054902], [7.235925088109888, 47.23631481550623], [7.235779485929958, 47.236574970770796], [7.235708136989178, 47.2366427899686], [7.235698043019742, 47.23680310207631], [7.2356494783832295, 47.236800821322], [7.235602838563267, 47.23691360399912], [7.235553646591462, 47.23691648499066], [7.235470200842619, 47.23693910249093], [7.235486306574494, 47.237082497276205], [7.235763556441466, 47.237067383608164], [7.235769324351387, 47.23714445131837], [7.235514001018121, 47.23731771308902], [7.235247207325497, 47.23749575668297], [7.234451065129422, 47.237697188460665], [7.233059688882159, 47.23765652840791], [7.231371438856467, 47.23780297877288], [7.230715644847033, 47.23788803192299], [7.230137117011104, 47.23792704335748], [7.229827550538003, 47.237970994549705], [7.228325619944494, 47.238453527198715], [7.228292790811176, 47.238442736408295], [7.228246015203802, 47.23846531705266], [7.228058124063548, 47.23856460564095], [7.227866752525151, 47.23868212862792], [7.227702985578553, 47.23879559157302], [7.227644184412147, 47.23883981792522], [7.227693961720313, 47.238862971397594], [7.228095953913577, 47.23914957532576], [7.228490108485476, 47.23938554310939], [7.22856866914544, 47.23957794638726], [7.227991467059206, 47.24001712004415], [7.228076292129648, 47.24031166049928], [7.22839008807767, 47.240214042314314], [7.228634596142279, 47.24007330189458], [7.229182997424748, 47.23982626044846], [7.229394602379523, 47.24014205412216], [7.229918798942394, 47.2407883776988], [7.2298716259733675, 47.241167651208784], [7.2292944191648365, 47.24151911508741], [7.22960451478398, 47.241658731294876], [7.229813426670442, 47.24184245237879], [7.229938626314728, 47.24197986031148], [7.2297892086609234, 47.24210042150807], [7.229810615517231, 47.24216506007508], [7.23034173290105, 47.24223763290384], [7.230241697594527, 47.24255405249072], [7.230324599340899, 47.24289876005849], [7.230475126884034, 47.2430750314239], [7.230161252694253, 47.2432094247554], [7.230191864646015, 47.243237462749896], [7.230076243123158, 47.24328413227358], [7.230173133107978, 47.24343679461675], [7.230221081236107, 47.24353717208762], [7.230278341350578, 47.24368137956231], [7.230296752666793, 47.24383336908656], [7.230377674028012, 47.24408428716447], [7.2302158422923775, 47.244122399960716], [7.229838513755588, 47.244262299106765], [7.229844738000074, 47.2441639630215], [7.228732732920772, 47.24463901575712], [7.229425391414204, 47.24487816424551], [7.2287054569073, 47.24555896379939], [7.228735919144759, 47.24576574426458], [7.228761065160805, 47.2458235634735], [7.22996156908134, 47.24554951284851], [7.230290686525246, 47.24614030688919], [7.230371489136566, 47.24613579473901], [7.2305048611076, 47.246404967975494], [7.23056415879464, 47.2465729429076], [7.230576862635844, 47.24677629001377], [7.2305449632595735, 47.24703960482355], [7.2305275293390325, 47.2473701279331], [7.230533154967566, 47.24819432817582], [7.230547569098871, 47.24837590237295], [7.230603548172951, 47.2487008020739], [7.230297313192079, 47.249266362974794], [7.230319065158741, 47.250010600192404], [7.230257458272974, 47.25062091541201], [7.230213696108129, 47.251143618358284], [7.230179086474846, 47.25138632210334], [7.230290327249379, 47.25173753282692], [7.2306011452363235, 47.25212025412466], [7.23108552462059, 47.2529736100527], [7.2309900146392865, 47.253318192161444], [7.23097540392403, 47.253504156532436], [7.230997388327065, 47.25384873602829], [7.230736233990264, 47.254282531640605], [7.230686861432456, 47.254418593579594], [7.23059397228832, 47.25470645939764], [7.231052656154112, 47.255105358158275], [7.231627533759869, 47.25551554598403], [7.232252539537158, 47.255879247877935], [7.232667431107805, 47.25605121644702], [7.233669617881156, 47.25645641372142], [7.235234657659439, 47.25716742035904], [7.2357012894573165, 47.257374249661794], [7.236329072035963, 47.25759716597769], [7.237065468951805, 47.25759156601728], [7.237572341102747, 47.25785807665398], [7.237892262590275, 47.25806420060497], [7.238726196998788, 47.25852146083254], [7.238862671741472, 47.25864539274008], [7.2391902253203435, 47.258841200597494], [7.23956182193283, 47.25903198347796], [7.2399694552555225, 47.25920733908079], [7.2403325819309545, 47.25932192040568], [7.240370970939215, 47.259326843958696], [7.240543615385298, 47.25929424975635], [7.2411724717889765, 47.25908378425861], [7.241352250510501, 47.25903315827571], [7.241554070863666, 47.25899195998383], [7.241804411017229, 47.25892771930829], [7.242126514568472, 47.258828684657885], [7.242411536463538, 47.258760410059686], [7.243064330887073, 47.259109290249675], [7.245398341602333, 47.26038442677964], [7.2466645665716385, 47.26018747960298], [7.2470146830024476, 47.258721645150445], [7.247048459165324, 47.2585880244657], [7.247316061656118, 47.257690244666215], [7.247191584653902, 47.25638752635696], [7.247139176752067, 47.255085629724384], [7.247095461521376, 47.25415461328762], [7.247110251373851, 47.25309709611228], [7.247357064607291, 47.2524346158506], [7.24755812978444, 47.25145211460332], [7.248305765391706, 47.24896351205708], [7.248327716267316, 47.24743317285705], [7.24841813527032, 47.24433503427181], [7.248283579815143, 47.244132872075696], [7.247884968011974, 47.243853078148476], [7.247633492011791, 47.24364503573595], [7.247522747401548, 47.24321361144425], [7.247401167025709, 47.24305583110809], [7.247030424337765, 47.242746370851556], [7.246505546275319, 47.24214573705462], [7.246192641375294, 47.24197045437518], [7.246305881079078, 47.241883810453444], [7.246342231943695, 47.24185006970101], [7.246374996283963, 47.241814667908535], [7.246404067701778, 47.24177781178735], [7.246429340074718, 47.241739627070004], [7.246450601318551, 47.24170032929126], [7.246481264996681, 47.24163220153291], [7.246513210300663, 47.241549306732885], [7.246534453061746, 47.24146759021979], [7.246553967032696, 47.24141103775399], [7.246578118798124, 47.24136124803825], [7.24660615710133, 47.241314127239725], [7.246650528483714, 47.24124635517769], [7.246695819419076, 47.2411835766138], [7.24671054248131, 47.2411662146488], [7.246745355278958, 47.241133910235774], [7.246765246258228, 47.24111914735558], [7.246813318152604, 47.24109082274564], [7.246841655465271, 47.24107783691549], [7.2468715055546635, 47.24106653561798], [7.246902643670626, 47.24105698144004], [7.246995213904256, 47.2410353062995], [7.247116829304847, 47.24100941618357], [7.247246852525594, 47.240984970097536], [7.247306586783984, 47.24097483392058], [7.247364611820009, 47.24096988480428], [7.247422971958383, 47.24096723885436], [7.247481442741984, 47.240966877701275], [7.247534808116521, 47.24096854976799], [7.2475880081164075, 47.24097213738976], [7.247640844695504, 47.2409776222393], [7.247742343789258, 47.24098506802948], [7.247891960471445, 47.241002775672484], [7.247941131012599, 47.241010376969086], [7.248053689392872, 47.2410312697608], [7.2483446690549735, 47.24108869820797], [7.248361180969576, 47.241054797887585], [7.248340993531189, 47.24104183007656], [7.248325821917781, 47.241026019287624], [7.248316508003735, 47.241008311336195], [7.248313792065062, 47.240995903197444], [7.248313942613641, 47.24098336489716], [7.249345433481972, 47.23898046173863], [7.2484992384944995, 47.238695495400165], [7.248298072253996, 47.23855869477736], [7.248221390051355, 47.238463764037455], [7.248188074077122, 47.23837396921898], [7.24815864634373, 47.238091165204004], [7.248181877004715, 47.238069058988735], [7.248168674527216, 47.23801261374692], [7.248138140388451, 47.23796481067239], [7.248146599380626, 47.23794082696277], [7.248125375281529, 47.23784166197548], [7.248132938772356, 47.237802233011905], [7.248167192656286, 47.23753093148202], [7.248136760790943, 47.237403094208254], [7.247510379668476, 47.23332877201118], [7.24774594887624, 47.23125320856619], [7.247999161929276, 47.22968457250044], [7.248198330758834, 47.22959915808141], [7.248855099457533, 47.22855854485893], [7.249637728388795, 47.22721830046507], [7.249660348187978, 47.227028767254424], [7.250002715897922, 47.224627460237244], [7.250356489729289, 47.22377799519542], [7.2508582418499055, 47.22261557761257], [7.251602791393913, 47.2204726196634], [7.251727631704261, 47.216569706808215], [7.250842881560481, 47.216323828170545], [7.250150138888506, 47.216096498897144], [7.249929592297975, 47.21600498326953]]]]}}]}