{"type": "FeatureCollection", "features": [{"type": "Feature", "properties": {"bfs_nummer": 724}, "geometry": {"type": "MultiPolygon", "coordinates": [[[[7.144942391422713, 47.15819540306789], [7.146970262433206, 47.15508016812898], [7.149048934320757, 47.151936800443046], [7.149432124234881, 47.15133530860114], [7.150835977912957, 47.14918179664059], [7.151321612767965, 47.14842352154387], [7.152534518208396, 47.146573652112416], [7.153454116178666, 47.14558821130015], [7.152724420625221, 47.14538712033939], [7.151694899753396, 47.14517924732797], [7.148447184946282, 47.14429491851758], [7.147140077367772, 47.143776670316036], [7.146111819231299, 47.1435163638145], [7.145698516908987, 47.14343491143089], [7.1449991047088215, 47.14321053262641], [7.144280968186032, 47.14317905120354], [7.143335814940376, 47.143099900860804], [7.142394673562118, 47.143006325814724], [7.1412767875607255, 47.142931497402174], [7.140320817730272, 47.14264542186959], [7.139366129309119, 47.142353548197285], [7.138792223355663, 47.14214064068244], [7.136502807875956, 47.14124347330087], [7.13526454777654, 47.14088684393728], [7.134310371009648, 47.140563922335396], [7.1338375898488025, 47.14039229223362], [7.132635003672133, 47.13998434077905], [7.1310627341984, 47.139356719350985], [7.130031891741478, 47.1390422896413], [7.129188084751775, 47.1387633841663], [7.128005742592942, 47.13843216830516], [7.127364524137536, 47.13830260988531], [7.126616155080872, 47.13812951741891], [7.125981672341994, 47.13794723248905], [7.125435563652358, 47.137805806452384], [7.124949259822623, 47.1376383305347], [7.1244121680390595, 47.137437423106356], [7.123911702339868, 47.137204798886195], [7.123408510628829, 47.13701928007248], [7.122245105397582, 47.1366011182144], [7.121351614211049, 47.13637783899], [7.119433414555588, 47.13559488982634], [7.118796716795697, 47.135263459113325], [7.117838258208264, 47.13487020923727], [7.11752859938827, 47.13477636040013], [7.116918810087839, 47.13435796883766], [7.116016966774812, 47.133908357412025], [7.11545703305281, 47.133736269983814], [7.114897332714327, 47.13344387431589], [7.11433499359479, 47.133178911760055], [7.113944572879583, 47.13298416280728], [7.113579725773728, 47.13276348091083], [7.112990982032727, 47.13253366940021], [7.112519498359059, 47.13229108355197], [7.1123174715084705, 47.132083040534184], [7.112070738767456, 47.13184249694672], [7.111570454844135, 47.131449124752805], [7.1111805229041956, 47.13109255823816], [7.110514426773429, 47.13069968633756], [7.110359891300431, 47.130636881344195], [7.1098057122794245, 47.1302924136272], [7.10946444700046, 47.13004071743167], [7.109217669287011, 47.129849441282865], [7.108875984455837, 47.12964092661622], [7.108648708616731, 47.12969171281784], [7.108469784333502, 47.129411392709905], [7.108262110836357, 47.12911068776596], [7.108004491227277, 47.1287031225048], [7.107763207580659, 47.12835466429447], [7.10728488942839, 47.12763296875246], [7.106896781371498, 47.127066370515415], [7.106521415337263, 47.126543820044155], [7.106217496439462, 47.12647874942133], [7.1058965185405984, 47.12640402174192], [7.105858286987321, 47.12627279181128], [7.10572438283958, 47.126110619754684], [7.10551459407082, 47.1260096171529], [7.105229048695005, 47.12560760325733], [7.10478688549785, 47.12534292501916], [7.104299833892277, 47.12504335786082], [7.103902162621331, 47.12489362671727], [7.103549992917273, 47.12475138547108], [7.10252654862939, 47.12466326647824], [7.101638281683602, 47.124665089898016], [7.101530318657198, 47.124563183528636], [7.100390696899138, 47.12412589895341], [7.099979218212651, 47.12398251794525], [7.0998328071214925, 47.12391129476274], [7.099438517599694, 47.12368065766922], [7.097901577144099, 47.123523179251855], [7.096534790443458, 47.12261602960776], [7.095391534713635, 47.1220597882533], [7.09541714177372, 47.12203288021105], [7.0952063832219565, 47.12154553291648], [7.095181787871613, 47.121024283928406], [7.095038041030492, 47.11993382882996], [7.095035056540388, 47.11972199822111], [7.0949455267315145, 47.11829157454644], [7.094911500201781, 47.1167406111602], [7.095485575197409, 47.11675139978388], [7.096131088901389, 47.11681864438395], [7.0966999624502485, 47.116872245322945], [7.096931560246764, 47.11668284548277], [7.097198016874455, 47.116607632628835], [7.097330313029928, 47.1165416260367], [7.097415931745778, 47.11637123754655], [7.097372982352396, 47.116260894112685], [7.097208459612375, 47.116077112997345], [7.097224321553446, 47.11580970346557], [7.097247658088308, 47.11571273495119], [7.097359003855319, 47.115508215254756], [7.097625672855093, 47.11538015630285], [7.098069450731907, 47.115321660133645], [7.098156409488759, 47.11521522903499], [7.098380670125315, 47.11519518931667], [7.098399618499349, 47.11510208473299], [7.098567252061696, 47.115083135471984], [7.098763189204115, 47.11498131837054], [7.0988979093129325, 47.11479641225967], [7.099048967061865, 47.11449551907073], [7.097976130085101, 47.114376603636686], [7.09791670052637, 47.114323608324895], [7.098207078099545, 47.11167489071555], [7.0981822975614755, 47.11157938914119], [7.09810724835265, 47.11149687070241], [7.098000430849213, 47.111433273082326], [7.097832058726991, 47.11138389313542], [7.0976945643281395, 47.111333417606076], [7.097560557056772, 47.111254797988366], [7.097290711004339, 47.111070990802446], [7.097311623722749, 47.11098185866945], [7.0958172894441, 47.11082751193899], [7.096141066320383, 47.10982855000945], [7.094323594129367, 47.109561868521844], [7.094274255568723, 47.10950837971403], [7.094791596881252, 47.10789698496417], [7.094870420899429, 47.107860198074505], [7.094879201590801, 47.10782852612044], [7.092649931747536, 47.10755046067546], [7.092593901866703, 47.107497301713394], [7.092837199538975, 47.10636178715475], [7.092914437008335, 47.10631760304035], [7.093803982461687, 47.10626853698622], [7.09566472259805, 47.10619093961922], [7.0960526547917855, 47.10618045245954], [7.0971141408128435, 47.106175401664345], [7.097113251008061, 47.10613944604272], [7.097055964729639, 47.10609483992318], [7.097957323840811, 47.10141064244279], [7.098737782889916, 47.097354827008154], [7.096732011900364, 47.096114074841346], [7.0970957877964, 47.09531986805836], [7.096686059586511, 47.094924745206235], [7.092173590746269, 47.0942232589478], [7.09097607461047, 47.09358025499851], [7.090253438612986, 47.0929096301003], [7.090457659090781, 47.0926546315923], [7.091727875071918, 47.090830925066435], [7.091799124849973, 47.0907786370812], [7.091902916965927, 47.09078952072499], [7.088093982171198, 47.0896086134359], [7.084968789896807, 47.0886340136629], [7.084809232274316, 47.088578821903546], [7.084554885979097, 47.088468718979406], [7.0841329879630965, 47.088268092611926], [7.0826024840881825, 47.089730368244986], [7.07998120478687, 47.092213294729426], [7.0756776312427, 47.096263817098105], [7.066960374822412, 47.09841187722206], [7.063252518303129, 47.099548375858774], [7.057432266899568, 47.099677625428725], [7.057140806494226, 47.09968508347372], [7.0552830950401955, 47.101115047372524], [7.051223462657288, 47.10365707448709], [7.0492847681286355, 47.10498881948322], [7.048578924199014, 47.10526562541432], [7.0476696554127525, 47.10560304425094], [7.046436248270973, 47.10607143873727], [7.045407665590505, 47.10646503631336], [7.041166892578929, 47.108369920610045], [7.040608423462822, 47.109006451146186], [7.037679309555696, 47.107674348479], [7.036433814482595, 47.107103611647275], [7.035738430782862, 47.106787862154064], [7.033942547020106, 47.10600395839803], [7.031784585202445, 47.10505765968603], [7.028728930883143, 47.10367506511901], [7.026502624992624, 47.10737283473334], [7.023488627106962, 47.112201746904425], [7.024712776900013, 47.11330743607232], [7.025041984548329, 47.11350108210832], [7.025276024266349, 47.11372348284197], [7.0259509607698885, 47.1144484765962], [7.026359212162536, 47.1147685235454], [7.027053797583628, 47.11539932227139], [7.027632851353516, 47.115765017139], [7.02859278714664, 47.1167245907614], [7.029104363394293, 47.1172819596816], [7.0297568487512025, 47.11793299937761], [7.030400424748677, 47.118489617132404], [7.030413199389117, 47.11872142625467], [7.030879519718593, 47.11918773190633], [7.0311418407283455, 47.11943697166199], [7.031376533115891, 47.11963229527734], [7.032359084250632, 47.1198074246515], [7.035276606775823, 47.12192711953309], [7.035840899232866, 47.12231121913292], [7.036296510900711, 47.12254418010661], [7.036423050858876, 47.1226612262197], [7.036654049903682, 47.122814168469894], [7.037054972955485, 47.123042535026606], [7.037834182826095, 47.12353330192181], [7.038261069694614, 47.12374535849223], [7.038760701069493, 47.12402314971854], [7.03924708980009, 47.12430489552461], [7.039964298160993, 47.1246520267722], [7.041711594308206, 47.125501326570266], [7.044275186306264, 47.126909902470906], [7.046822023622155, 47.128387643581156], [7.049190471092272, 47.12966928957302], [7.051222460214677, 47.13085026256735], [7.053710694655195, 47.13192927366018], [7.057004218011214, 47.132640817811506], [7.059896502729857, 47.13318164530454], [7.059837547908498, 47.13337590998105], [7.061930535332175, 47.13365065114218], [7.061958118909533, 47.13354302801167], [7.062816958474704, 47.13369256300119], [7.067124626944815, 47.134778288308965], [7.073072274284392, 47.136524438028694], [7.0758838929432155, 47.13726165202033], [7.075842808321232, 47.137468494432795], [7.076989965219894, 47.137835325282516], [7.077186518974726, 47.137692035677375], [7.07834582678683, 47.137975672129826], [7.079939527898883, 47.13840627614453], [7.0807150659438785, 47.13860279310474], [7.080719736888301, 47.138655157774664], [7.081423618694727, 47.13884228884683], [7.082471284965218, 47.13911285849752], [7.084011621286066, 47.13954153636219], [7.085065077962034, 47.139821589675726], [7.0861773575089995, 47.14013311806766], [7.087468232667422, 47.140413124375065], [7.088692294595218, 47.14079592934285], [7.089527599383618, 47.14103735303412], [7.0898835044638435, 47.14128424815192], [7.090332870870581, 47.14140345645938], [7.091073476315412, 47.14147852776083], [7.091635937975397, 47.141665617083795], [7.092323289652261, 47.141880758760536], [7.093058459549802, 47.14204546254632], [7.094067578505986, 47.142306331094474], [7.0944148052773075, 47.14243995913085], [7.094506466679749, 47.14237487802287], [7.095304581394862, 47.14251986785611], [7.0956500153190945, 47.1426500958882], [7.095918330832785, 47.14272247057414], [7.09650897646005, 47.14291235344138], [7.0970183697063, 47.14308903912633], [7.097660288805237, 47.143335431552586], [7.098983847139999, 47.14380021393488], [7.099727289201327, 47.14397332709624], [7.100147044976527, 47.14408505191846], [7.10049387247016, 47.14418389438433], [7.100996279258076, 47.14430197636164], [7.1012667664235645, 47.14437326609805], [7.101869317043634, 47.14456707957451], [7.102337282616783, 47.144733015073825], [7.102977584853569, 47.144908251276064], [7.103709548521934, 47.14516692688822], [7.104392957620286, 47.1454264005369], [7.104817999185248, 47.145550050648815], [7.10574067379931, 47.145899594375116], [7.106460042761547, 47.14613151055922], [7.107551903959517, 47.1464047860367], [7.108233405793683, 47.14661810633254], [7.108791089163223, 47.14681586365391], [7.109545810345866, 47.147093544549065], [7.109664662815047, 47.14733785307696], [7.110373238084797, 47.147696836518186], [7.1110234195511905, 47.14794353692296], [7.112714608850165, 47.148406374688754], [7.113535622712014, 47.14861381998719], [7.114218765594952, 47.14877194495898], [7.114942424574085, 47.14903280141739], [7.115876825782048, 47.149448003767205], [7.116419760594114, 47.1496696172549], [7.116971515409277, 47.149913946823595], [7.117471106348138, 47.150124784543394], [7.118204420790919, 47.150296328461536], [7.1190690947091575, 47.150568473319765], [7.119371664256732, 47.15076745545429], [7.119839813060549, 47.151006707655604], [7.120391363323303, 47.15148661168424], [7.120768059894203, 47.15162574690196], [7.121361657458545, 47.15166558434127], [7.121968695173106, 47.15179591739757], [7.1224723332080755, 47.151957651043226], [7.1234341683643425, 47.152294362154414], [7.12448756311494, 47.15255971789445], [7.1254417881162935, 47.15282444143082], [7.125555167778175, 47.15265470425998], [7.126334816216907, 47.15287044236033], [7.126894978545004, 47.15314039231823], [7.127442499984556, 47.153318091242916], [7.127986770709887, 47.15352015407065], [7.128869701140854, 47.15380854591711], [7.129684558463612, 47.15399492467829], [7.131099577298724, 47.154283498976895], [7.132339560040774, 47.15458451525897], [7.133271589883681, 47.15482335078545], [7.133774905326553, 47.154923220613426], [7.133926957296134, 47.1551236788685], [7.134587943606183, 47.155281746963496], [7.135137801792673, 47.15554115855107], [7.135853997238932, 47.15578928575858], [7.136537507730785, 47.1559794934138], [7.137186519631315, 47.15604081231436], [7.137350494405063, 47.15607817661466], [7.137589504417813, 47.15615928172551], [7.138421770504308, 47.15625616254904], [7.138634167308416, 47.15634048777336], [7.139172118788085, 47.156429280830594], [7.139425278296695, 47.15647835347406], [7.1400756855305465, 47.156661809483964], [7.1408090343050965, 47.15693624389231], [7.141325682114774, 47.157051641155874], [7.14173155824927, 47.1572814964875], [7.14195093615478, 47.15738317609049], [7.142605531117902, 47.15758782955743], [7.142950851433699, 47.157755341986174], [7.143185516884565, 47.15774996539486], [7.143438329238707, 47.15783723773865], [7.143579598124551, 47.15791163763729], [7.143921302900324, 47.157916017040016], [7.144564318475523, 47.158047007337245], [7.144709233384496, 47.158135088245324], [7.144815127249685, 47.158127615371185], [7.144942391422713, 47.15819540306789]]]]}}]}