{"type": "FeatureCollection", "features": [{"type": "Feature", "properties": {"bfs_nummer": 741}, "geometry": {"type": "MultiPolygon", "coordinates": [[[[7.262086557596056, 47.07510667945885], [7.2620375831542745, 47.07512099565074], [7.261952656518705, 47.07509784607085], [7.26121502187923, 47.07526113914133], [7.261156571716684, 47.075274073007876], [7.26103159555233, 47.075321075285665], [7.260311519993416, 47.07565726436014], [7.262540724714993, 47.077879218462236], [7.261552029740147, 47.078376028459125], [7.260229986591023, 47.07904030854155], [7.259759770600439, 47.079276572283746], [7.25889214851014, 47.07971250005389], [7.258845442469863, 47.07973596633553], [7.258717986610704, 47.079800007615546], [7.258730894005118, 47.07974842383232], [7.258303167184948, 47.079320505954655], [7.258226677613734, 47.07928129290331], [7.258133519418436, 47.079292191459], [7.257454559529093, 47.07960940321609], [7.257411050181543, 47.079629734731974], [7.257660576372209, 47.07988212461791], [7.2579454466739675, 47.08018513942815], [7.257856183016071, 47.080250850461326], [7.256255205613326, 47.08130258653475], [7.256179245657687, 47.08125450422072], [7.256126846360759, 47.08128243080272], [7.256045801958284, 47.08131165180495], [7.2539453481801175, 47.081952907316065], [7.252839380629646, 47.08229055662656], [7.252816976858921, 47.0822578414576], [7.252678090680574, 47.08230307603913], [7.25262928872403, 47.08229556678246], [7.2525809952727744, 47.082297053302476], [7.252547224108221, 47.082457540278284], [7.252540029531655, 47.08248527810985], [7.252514901075171, 47.082591773698425], [7.25245182372028, 47.082765336798005], [7.252299371131457, 47.08310844425407], [7.252265729511441, 47.083156242571356], [7.252225656471692, 47.08323562978828], [7.252209523019587, 47.083285138842605], [7.2521725701226245, 47.083372239847535], [7.252136836701334, 47.083445724349424], [7.252003748943737, 47.08367670468216], [7.251945698864467, 47.08374508851059], [7.251896107369322, 47.08382350664427], [7.251880126514208, 47.083840616052456], [7.251792250070692, 47.08379604643052], [7.251719497083585, 47.0839075552462], [7.2515933271276145, 47.08418151532484], [7.251448145698789, 47.084345138775426], [7.251331599172666, 47.0846492384087], [7.251358740512721, 47.08470911734495], [7.251319765457459, 47.084745159220454], [7.250231754510118, 47.08419951692788], [7.250199206249748, 47.08418320035213], [7.250115003728228, 47.0841314393802], [7.250054444211237, 47.08416389232087], [7.249725850556316, 47.08435126324758], [7.249531293252929, 47.08445165786451], [7.249460714831733, 47.08448315835242], [7.249384270366291, 47.08453483378112], [7.2492830599212645, 47.08458887894284], [7.249228243482448, 47.08459466166814], [7.2491607210615685, 47.084622164472904], [7.24913908529438, 47.0846627049638], [7.248989239314539, 47.08476542167629], [7.248972965419013, 47.08478680268789], [7.248916830276876, 47.08480785670303], [7.24883418123444, 47.084859818317256], [7.248690861646358, 47.08491202982853], [7.24853258838049, 47.08501410248611], [7.24849381871282, 47.085054740230646], [7.248442788586377, 47.085073238877825], [7.248393096271726, 47.08511170863726], [7.2483082138236155, 47.08514349056333], [7.248240693404175, 47.08517005709619], [7.248190724745051, 47.08518625456922], [7.248143784301208, 47.085195306300314], [7.247839694312097, 47.08533234987548], [7.247508857061105, 47.08546919508539], [7.247331877999046, 47.08554240598137], [7.247292854053428, 47.08556914567952], [7.247263123926782, 47.0855895414833], [7.24720287351542, 47.08559365024402], [7.247108797269309, 47.085636470562406], [7.247054487694111, 47.085673115074044], [7.246970867262297, 47.08569037110807], [7.246901114990897, 47.08574026606588], [7.246815815800411, 47.0857738540154], [7.246744998597682, 47.08584515523972], [7.246628030542271, 47.085881451258416], [7.246580295860189, 47.08590599024098], [7.2465032113113725, 47.08598048304597], [7.2464392409120455, 47.08600442794452], [7.246335113497185, 47.0860148668205], [7.246152388775275, 47.086073575123926], [7.2459803815089545, 47.08611460812675], [7.2458869833802755, 47.08613690205623], [7.245740898918661, 47.086205377112485], [7.245695994420269, 47.08622643050092], [7.2455172720943555, 47.08625964404078], [7.2454659611787395, 47.08628234153426], [7.245126180650371, 47.08631471532993], [7.245080069859579, 47.08632696031781], [7.244829676811923, 47.0863934316191], [7.2446266140013655, 47.086467097792465], [7.24461949317978, 47.08646967628465], [7.244487816090166, 47.08647603728447], [7.244327134035629, 47.08651292263196], [7.244317446452989, 47.086515145926946], [7.244192497800166, 47.08655784859218], [7.244078111563832, 47.086571434153306], [7.243895765825172, 47.08668748279841], [7.243906952435242, 47.086725577692384], [7.243853570254622, 47.08678142652533], [7.24377923554035, 47.08679400080708], [7.243770301263067, 47.08686756466111], [7.243741990316394, 47.08688466088612], [7.243725320540911, 47.08689471586086], [7.243577313878136, 47.08692221321446], [7.243515089142352, 47.086929258703016], [7.2433943452808345, 47.08692732545107], [7.242597472559224, 47.08692761675908], [7.242476042271354, 47.08716955341688], [7.242406125973875, 47.08730884636881], [7.242385662599545, 47.08732973356699], [7.242361525817013, 47.08733964058701], [7.242299627315987, 47.087365070992064], [7.24225797667066, 47.08742456419949], [7.242143097800306, 47.087546221969625], [7.242066894935382, 47.08759001346933], [7.24202756811647, 47.087672807789126], [7.242020878774748, 47.0876868734815], [7.241970849908548, 47.087736151984], [7.241962970514839, 47.08776220586967], [7.241933799693348, 47.08785859996365], [7.241925311238096, 47.08786768831526], [7.2417723582918505, 47.08803175431812], [7.241726765174793, 47.088113638134956], [7.241628135677799, 47.08818880123668], [7.241431995868311, 47.088420812248664], [7.241423540216078, 47.088499342006465], [7.241385316012355, 47.08852567628289], [7.240414990127132, 47.08919412339128], [7.239411152904976, 47.08988565518287], [7.238239232936691, 47.090682698578576], [7.2371613679650935, 47.091410048644825], [7.235918849575588, 47.09225236685577], [7.236463352101173, 47.09254172764293], [7.240138921642485, 47.09421001519944], [7.241449256463401, 47.09479627164959], [7.241965552786801, 47.09503451994635], [7.243449907327195, 47.09560752410975], [7.243826821422838, 47.09574935189586], [7.244706060512856, 47.09596512514863], [7.244927401763342, 47.096094461041815], [7.245368393748711, 47.09632621581474], [7.245537153288854, 47.09638730696916], [7.2457853902305445, 47.0964561687784], [7.245954863530274, 47.0956464788634], [7.245934687208963, 47.095565661373236], [7.245566614939713, 47.0944116299081], [7.2452595284551045, 47.093677915387325], [7.245406324958477, 47.092699810259006], [7.244940565925467, 47.092517746770476], [7.244745421559933, 47.092287505114456], [7.244321164701986, 47.0920453242562], [7.244544358853979, 47.09152001939337], [7.2454255846484505, 47.09170323685321], [7.245545970326295, 47.0917379811036], [7.245507151903951, 47.091990035439146], [7.2456220461393706, 47.09200291240474], [7.245836420851643, 47.09204074724059], [7.245842532905003, 47.092007736986055], [7.2460519116474105, 47.092075947918005], [7.246305254582136, 47.09218074298314], [7.246910456197851, 47.092398969664586], [7.246997629860688, 47.092520988768825], [7.247049871803071, 47.09276465064579], [7.247222296758107, 47.09332424510891], [7.247320232877017, 47.093409690303396], [7.247475169680813, 47.093588031510436], [7.247700113515119, 47.093883639760925], [7.248034131627542, 47.094377893989964], [7.2486398831054375, 47.09462808904424], [7.249148213607246, 47.09481093614833], [7.250199177679221, 47.095401625117056], [7.250278585414082, 47.095845700064665], [7.250231565309987, 47.09622104419116], [7.250256902977834, 47.096471683532], [7.250366960057286, 47.096439986619124], [7.250454979501613, 47.096431010742556], [7.250516578972936, 47.09643616723061], [7.250586228766051, 47.09640336939254], [7.250706812805495, 47.09637458604394], [7.25075375707062, 47.09638952282712], [7.250844441079076, 47.096345749447835], [7.251052393967214, 47.096268086541784], [7.251106481820171, 47.09625930628762], [7.251186369290411, 47.09619542912068], [7.251294147377279, 47.09615230424748], [7.251420542165067, 47.09608516608671], [7.251541640763834, 47.09607454342352], [7.251560466682793, 47.09606228715303], [7.2515161062912075, 47.09558233741777], [7.252015440541295, 47.09526700044806], [7.25221489369743, 47.09515871173314], [7.252427173858519, 47.09503194105236], [7.252023008114951, 47.094527924902756], [7.252265734301121, 47.094421128048296], [7.252416491444384, 47.09431229179166], [7.25248857861778, 47.094217818214375], [7.252522914970822, 47.09411631201855], [7.252529096867612, 47.09397546104176], [7.252557234413915, 47.09389514588579], [7.252491727849203, 47.093851701554556], [7.252561890942152, 47.09381390201035], [7.252798756857449, 47.09356587362298], [7.252936164994924, 47.09345042176938], [7.253106081928489, 47.09332648638362], [7.253454532656105, 47.09323246968523], [7.253729032259605, 47.09318626637184], [7.25412560398849, 47.093059152309095], [7.254263438978929, 47.09304374160518], [7.254392364356771, 47.09306432312692], [7.2546008756096345, 47.09313253502133], [7.254738923907188, 47.093158356897], [7.2548810350355595, 47.09314807044545], [7.255465787052459, 47.09296452309452], [7.255871108277485, 47.092799988968174], [7.256082650551934, 47.09277187617732], [7.256296191276235, 47.09279859035476], [7.256748158861252, 47.09293134744676], [7.256850169020388, 47.09294644138596], [7.256952082771642, 47.09293189674482], [7.257487807008215, 47.09271232610103], [7.257563246576312, 47.09263579968606], [7.257564714358309, 47.092436482962924], [7.257557578786947, 47.09231163086014], [7.257508656893439, 47.09204212763557], [7.257434620681925, 47.09189218145449], [7.25731707476367, 47.091748300779386], [7.25712718380536, 47.091565581704984], [7.256946362895508, 47.091415438414636], [7.256994543628887, 47.09137986805427], [7.256858336855962, 47.09129015168819], [7.256979408132032, 47.09128406583556], [7.2574309934206065, 47.09105353136233], [7.257558471453887, 47.090979614891545], [7.2583247281443874, 47.0904739152019], [7.258661563228054, 47.09022720167303], [7.2587183080598425, 47.090166548060736], [7.258966147507662, 47.08984196801314], [7.259243279273327, 47.089492472586194], [7.259404897731166, 47.08930217718679], [7.259450313211931, 47.089320229348445], [7.259540372499863, 47.089229431669246], [7.259648384573508, 47.089149689860996], [7.262143945162169, 47.087484641871804], [7.264213765479645, 47.08919622489389], [7.264847072043053, 47.08866777480993], [7.265180084980908, 47.08837701571446], [7.264056263145796, 47.08744107809193], [7.263880093798355, 47.087236245298044], [7.266502349840727, 47.08574063514877], [7.266589964399093, 47.08574879975178], [7.266632122636888, 47.08572727539347], [7.266527674682027, 47.08562230873064], [7.266381406189321, 47.08545497082238], [7.269421188529543, 47.083918771061896], [7.265850525135512, 47.08061066944528], [7.268012420666285, 47.07940655414701], [7.267348843102801, 47.078766287834355], [7.2672759211368785, 47.078758262787446], [7.265147053989965, 47.07981462730512], [7.265106569624068, 47.07984904348765], [7.265130506688504, 47.079890042951355], [7.265021291628023, 47.0797653595845], [7.262086557596056, 47.07510667945885]]]]}}]}