{"type": "FeatureCollection", "features": [{"type": "Feature", "properties": {"bfs_nummer": 744}, "geometry": {"type": "MultiPolygon", "coordinates": [[[[7.300095886491326, 47.15243266448784], [7.301267267549961, 47.153110939562644], [7.301963755712898, 47.152848019443304], [7.302604264127298, 47.15224481589185], [7.302715412213597, 47.15229871030736], [7.303133143550072, 47.151724905127416], [7.3038457786652184, 47.152004273206664], [7.305383455461111, 47.15255657946642], [7.3058061928088796, 47.15189512604629], [7.306320970864368, 47.152120783089494], [7.3066518066292385, 47.151708261014896], [7.306583834948304, 47.15168208836844], [7.307458758236133, 47.150592960077084], [7.307420163814531, 47.15057757957559], [7.307438046325606, 47.150544148391816], [7.307802309735336, 47.1501314564989], [7.307837191512475, 47.150074828789215], [7.308797960564758, 47.149420815527876], [7.309408642786169, 47.14949129029153], [7.30969175224387, 47.149489631766976], [7.309847697738929, 47.14915491353865], [7.310315171417167, 47.1490863778137], [7.311345866927478, 47.14940950160066], [7.312316551843674, 47.14985132666756], [7.313157467335111, 47.14869490255651], [7.313886439925048, 47.14780065511297], [7.314508795545591, 47.147061855904624], [7.314759814474413, 47.14677197330179], [7.3148202845069346, 47.14667825848072], [7.315903825259266, 47.146534654145306], [7.315771878577723, 47.14609086218151], [7.315429910173827, 47.145352962634576], [7.315503067467918, 47.14531298726358], [7.314812943259402, 47.14486850038304], [7.314521071727818, 47.14464751364255], [7.315198275363912, 47.14420974396514], [7.315265485476318, 47.14423228573095], [7.315335266852753, 47.14421486603593], [7.316206813453393, 47.14366791897979], [7.316260441575054, 47.143628759003356], [7.316236408464786, 47.14352574243896], [7.316325318907771, 47.143507848123], [7.316364805760472, 47.1435353246704], [7.316421311420552, 47.143534620696435], [7.317159704228565, 47.14319873319087], [7.318177852589312, 47.14264033414248], [7.318422449616214, 47.14249054038273], [7.319094708505812, 47.14202320119223], [7.319212514614962, 47.141934158900504], [7.319318157418838, 47.14183704440268], [7.321080217814926, 47.140041014764634], [7.322909060444457, 47.14080098900111], [7.324195045298934, 47.13936596526664], [7.324169634889766, 47.139308561668244], [7.325194243478781, 47.13962434264568], [7.325529790190336, 47.139209230777396], [7.318529614491767, 47.137037901412796], [7.317568343000331, 47.13676150748392], [7.31658250232518, 47.13652893804186], [7.312153237180399, 47.13559372004052], [7.310891667904142, 47.13532522088612], [7.30986910781098, 47.13503239502527], [7.30885332689157, 47.13465618549597], [7.307867116165796, 47.13421415854112], [7.307079044465766, 47.13377243270241], [7.3061224758118595, 47.13314270226142], [7.303383673076406, 47.13124088999269], [7.302185463534763, 47.13189121371701], [7.30068872516691, 47.13058528602363], [7.300248845206376, 47.130860375231286], [7.299570718970656, 47.131314349896115], [7.30018277277273, 47.13189245567798], [7.300120332468363, 47.13192926717067], [7.299924840571623, 47.13188820222576], [7.299556695043999, 47.13183802203287], [7.299342220594118, 47.13179827328339], [7.298678371562233, 47.13202874735266], [7.297645003361866, 47.132376224558115], [7.297556042671961, 47.13232332392665], [7.296727717023573, 47.13248683985021], [7.295462049601061, 47.13323734459348], [7.295003289420973, 47.13359828907255], [7.294231116288421, 47.13443502276928], [7.293234320878516, 47.134978071005335], [7.293427984913563, 47.13560354905243], [7.293193980578379, 47.135702554277024], [7.292932416534308, 47.135958942843395], [7.292765346115181, 47.13607702982752], [7.292473331758983, 47.136236395925806], [7.292207512913177, 47.13645599725738], [7.291278885216866, 47.13691958450049], [7.290898902622877, 47.13709207334896], [7.290710501174783, 47.1371987781058], [7.290877730483443, 47.137310899213425], [7.291465028532462, 47.13763221543836], [7.291824338122925, 47.1376956327799], [7.29220210750642, 47.13794895395798], [7.292623295747437, 47.13832932729933], [7.292129845443178, 47.138584265620196], [7.290444799558809, 47.139419106380075], [7.290276023685643, 47.13948113148653], [7.289058821644011, 47.13977802843204], [7.2887853652605115, 47.13983848396534], [7.288537413640311, 47.13988133385542], [7.288240284059659, 47.13992646562425], [7.28618216170213, 47.14012489687019], [7.285936807511734, 47.140125027879684], [7.285690049514219, 47.14011822139666], [7.283993679014924, 47.1400316911873], [7.2839645661873265, 47.14011521371721], [7.283608008045389, 47.14055701574918], [7.283403202324023, 47.14080978041948], [7.283835739048729, 47.141353908240966], [7.283770137754353, 47.14147274011892], [7.283071120415005, 47.14198901173488], [7.282991030637886, 47.14210259741365], [7.28286075197787, 47.142337823577485], [7.282792716271542, 47.14247643104546], [7.282942370771166, 47.14246764041103], [7.283126193812035, 47.14245053080506], [7.2832059550826065, 47.14253958928862], [7.2833792518179115, 47.14252012629727], [7.28340411617096, 47.14253787996005], [7.284220743353154, 47.14242564301348], [7.2843453043854325, 47.14293661914564], [7.284504359979343, 47.14291856538271], [7.2859873087182585, 47.14271050981072], [7.285998279010857, 47.14274659377821], [7.28659506603214, 47.14271104186438], [7.287005503551453, 47.14264923539554], [7.287154517506655, 47.14258754870194], [7.287255325371802, 47.1432557296157], [7.287337279436158, 47.14411556678153], [7.287645344525766, 47.144545740034594], [7.287583197079638, 47.14456418717046], [7.28778780525753, 47.14484851512228], [7.28752019429652, 47.14516658743895], [7.28712099711693, 47.14548746206923], [7.287161650881394, 47.14551710001787], [7.286749012975816, 47.145741620970384], [7.28527919661592, 47.14626418212541], [7.285188781143928, 47.14630040882538], [7.285289607125024, 47.14631160792395], [7.287314072311214, 47.1464386637621], [7.290080470732011, 47.14674071066824], [7.29097150917429, 47.14701682990587], [7.291310825495851, 47.14727147116427], [7.291956370774603, 47.14750041144395], [7.292806174571999, 47.14761896386261], [7.293545570939962, 47.147666760193474], [7.294578439815174, 47.14816242412783], [7.294160471839336, 47.14830502240188], [7.295225260785377, 47.148900302860085], [7.2959192217849305, 47.14932385716467], [7.296409143256416, 47.14973275223796], [7.297076242528472, 47.15034839529014], [7.297209519869309, 47.15045640835323], [7.2977810262912275, 47.1509794714282], [7.298285403277676, 47.15141796977408], [7.29934443710045, 47.151976054983095], [7.300095886491326, 47.15243266448784]]]]}}]}