{"type": "FeatureCollection", "features": [{"type": "Feature", "properties": {"bfs_nummer": 745}, "geometry": {"type": "MultiPolygon", "coordinates": [[[[7.244079442885972, 47.112715591527625], [7.243958681166254, 47.11292242124179], [7.243523326355284, 47.11430586566289], [7.24315832189204, 47.11550010481567], [7.2430297287652525, 47.115483136370294], [7.242740420674606, 47.11647651327393], [7.242735102772692, 47.116822438640995], [7.2427493994802585, 47.11682248112164], [7.242753123856583, 47.11715331063058], [7.242834973939273, 47.1191757533809], [7.242823337654957, 47.11924400462281], [7.2429685537937685, 47.11924380362353], [7.243054434380179, 47.119289554635095], [7.244524551524718, 47.11934700168584], [7.244577949401463, 47.11933899693738], [7.244625978627286, 47.11932162837593], [7.244667968844907, 47.119298043080114], [7.244702598342113, 47.11926932718709], [7.244725383283735, 47.11923644454516], [7.244737509645456, 47.11919939717068], [7.244742147822895, 47.11915604969231], [7.244733858877827, 47.11904396832388], [7.246245207768433, 47.11909993319586], [7.246214291286726, 47.1194907993089], [7.246876775972799, 47.11951296076767], [7.247173389814905, 47.11951255858102], [7.2474662347090835, 47.120238936338396], [7.247700824862948, 47.12019452490915], [7.248070102308458, 47.121071082130996], [7.248250882678512, 47.12103987430472], [7.2500200537879955, 47.12378855082651], [7.250153684152202, 47.124011898042966], [7.2525882888789015, 47.12329855413504], [7.253122610910175, 47.12312762942246], [7.253607064725482, 47.12289543828057], [7.254003454346036, 47.12259564119676], [7.25438968394479, 47.12218402892114], [7.2545802403846835, 47.12195522722277], [7.254734235694497, 47.12162446328054], [7.254798679427454, 47.12128005375009], [7.2547682354158844, 47.120933683546724], [7.254564189383036, 47.11933670789289], [7.256783654233685, 47.118924094995805], [7.257267334151911, 47.118825739437206], [7.258076534572985, 47.11863327106487], [7.258555420248702, 47.11851340533037], [7.259045585245355, 47.11836567115943], [7.2597763615889015, 47.11809670985844], [7.260364662896723, 47.11784261510565], [7.261474567621357, 47.11732425683709], [7.262266270221219, 47.116960918739665], [7.262722361513656, 47.11678136427071], [7.263279043445521, 47.11659314744693], [7.2637636122909965, 47.11645491912366], [7.264497850883244, 47.11629252256606], [7.265107605169691, 47.11619072877729], [7.265577646579612, 47.116137112706646], [7.2660168022280205, 47.11610342570629], [7.266624279746604, 47.11609705627822], [7.267180649371572, 47.11612201710744], [7.267612242563348, 47.116149190111834], [7.268345219654979, 47.11624429994351], [7.268808237685991, 47.116330269955554], [7.269734688673168, 47.11654725141405], [7.270541954937116, 47.11674588033516], [7.271745268327269, 47.11704615862157], [7.271931537274142, 47.11710067887174], [7.272201956782304, 47.11667014703707], [7.272125751236654, 47.1166167322222], [7.27195414688518, 47.116411596168405], [7.271914781519924, 47.11637160136229], [7.271867325367017, 47.11633592126741], [7.271812803789512, 47.11630533094021], [7.271831445749699, 47.11630631163038], [7.27184936434077, 47.11630265889628], [7.271864172973205, 47.11629488195244], [7.271872038025446, 47.11628693296589], [7.272153509168628, 47.11578877479109], [7.2723362333757215, 47.11537832529277], [7.2724743910444545, 47.11495984118641], [7.272567225230557, 47.114535561410975], [7.272614242341547, 47.11410778813542], [7.272615185922917, 47.11367880563969], [7.272609570310564, 47.1136205466502], [7.272597826506384, 47.11356271949297], [7.272580019433137, 47.113505621019044], [7.272567274237658, 47.11349423293128], [7.272504052484679, 47.11347416325584], [7.2725056292300545, 47.113424918489486], [7.273483168013115, 47.112381880010986], [7.273839962964692, 47.11234069551215], [7.273937357149333, 47.112430208745614], [7.274048373817244, 47.11240963567739], [7.27446963071125, 47.11155960576336], [7.274514753453507, 47.111462544011985], [7.27457206589746, 47.11145862374678], [7.274635381150878, 47.11142218647782], [7.2746760483236015, 47.11134703854703], [7.274717399854556, 47.11129780607503], [7.274787630889887, 47.11124463031335], [7.274920331356942, 47.111237103728016], [7.275023951131007, 47.111166076225594], [7.275198360517979, 47.110945493039665], [7.275461231633539, 47.11062082261638], [7.275492122210029, 47.11059259604504], [7.275987675724561, 47.110363486678544], [7.276047397248, 47.11031671757443], [7.276248300471335, 47.110077228028274], [7.27631345572773, 47.11000256442963], [7.276568480380487, 47.10974128469104], [7.276829231836844, 47.1095368780276], [7.276940694547815, 47.10947132869048], [7.277073305157583, 47.10940499049235], [7.277533036670236, 47.109278066591], [7.278045233890637, 47.10952466448345], [7.278299020935941, 47.10949964671294], [7.2790344332331545, 47.10947466357562], [7.279350014278515, 47.10942191752962], [7.280226495836797, 47.10892617885356], [7.279769876312389, 47.108636457077644], [7.279028507874561, 47.10809478438682], [7.278034901462293, 47.10795455423536], [7.276615356191836, 47.107743578007224], [7.275633390318592, 47.10752350530638], [7.274565776396834, 47.1072894863025], [7.273385317120412, 47.10702218310455], [7.273053711407281, 47.10695204624136], [7.272449412778258, 47.10693176689798], [7.271422262953385, 47.106880347816514], [7.269496869881115, 47.106792312722774], [7.268511285718114, 47.10676702285479], [7.268015590339452, 47.10674545057159], [7.267702327783015, 47.10709067320186], [7.266612329980104, 47.107330315152645], [7.266462408301384, 47.10773576581321], [7.266699918916774, 47.10818836760465], [7.266792134990405, 47.10835361639658], [7.266684265330396, 47.10842536803805], [7.266333707744724, 47.10868666222625], [7.265498013266674, 47.10907962465405], [7.265493374180197, 47.10934716993301], [7.265080138560297, 47.10963449573783], [7.264927728472961, 47.110009835282916], [7.26497395520621, 47.11026563917755], [7.264983786242019, 47.11029318748015], [7.264106126177566, 47.1103315193506], [7.263015144639823, 47.11051307304463], [7.261946048545486, 47.11044997132042], [7.260988902543532, 47.110316522626775], [7.259980649717011, 47.11011379678145], [7.2591735453561075, 47.109970915831205], [7.258034111623762, 47.10957299310797], [7.257044651233612, 47.10913304949775], [7.256461416176528, 47.10865762193822], [7.256202300750779, 47.10834024574621], [7.255315760549757, 47.10819417866827], [7.2537099250794, 47.10855360039367], [7.253924405892247, 47.1090032523823], [7.25412910996148, 47.109503655540124], [7.253223983939712, 47.10950043741258], [7.252859887456743, 47.10938847130609], [7.251727597541667, 47.10905531472118], [7.251397312089947, 47.10896244959716], [7.250885604608584, 47.1090279285386], [7.250595017922684, 47.1090690696401], [7.2502146516923185, 47.10957714992093], [7.250153577401403, 47.10956820713405], [7.250098179363282, 47.10957849579818], [7.2500530389956985, 47.10960155618304], [7.250025079064344, 47.10963572665831], [7.249959082646947, 47.10977774628632], [7.24975341620021, 47.11015374423102], [7.249736579412522, 47.11021656377167], [7.249752366911011, 47.11027869067574], [7.249759709637685, 47.11028866915791], [7.249524588091596, 47.110584238533825], [7.249184206731179, 47.11081647903791], [7.248848200377612, 47.11103659170747], [7.248668506859267, 47.111211862891295], [7.24912656307176, 47.11152326211052], [7.249326874350535, 47.11167046282648], [7.249560449936323, 47.11185250140778], [7.2497315552951545, 47.11201395487279], [7.250084758339863, 47.11236272152078], [7.249839712112224, 47.112504912574465], [7.249613978341739, 47.112940610260374], [7.249562849251528, 47.11293135084859], [7.249529248526226, 47.11293197885808], [7.249269585367796, 47.11290404239557], [7.249138698774852, 47.1128959369493], [7.249008985028535, 47.112891503299196], [7.248790205827191, 47.112893514870336], [7.248613753103303, 47.112901326081925], [7.2483590212888505, 47.11292420806454], [7.248101037016349, 47.11296118798457], [7.247974406530984, 47.112986117527], [7.247727576655393, 47.1130465197897], [7.247598626459959, 47.1130824994023], [7.247369928838987, 47.11316045357013], [7.247143866506626, 47.113252884667126], [7.246565134667707, 47.11351338612114], [7.2464487483861095, 47.113561483835674], [7.246326900304049, 47.11360416643641], [7.246201344160699, 47.11364106803596], [7.246068203962616, 47.113672802676504], [7.2458799209410785, 47.113526480538745], [7.244705439143492, 47.1126685589816], [7.244507876269927, 47.11248561869033], [7.244190277297536, 47.11252812853988], [7.244079442885972, 47.112715591527625]]]]}}]}