{"type": "FeatureCollection", "features": [{"type": "Feature", "properties": {"bfs_nummer": 785}, "geometry": {"type": "MultiPolygon", "coordinates": [[[[8.074313754543232, 46.692877712168574], [8.075827070374444, 46.69317169539432], [8.076215804575673, 46.69367019287739], [8.076252086562596, 46.6940081695783], [8.077615589212195, 46.694202147663184], [8.078250973871269, 46.69445394353852], [8.079360807392408, 46.69520466159027], [8.079338924873344, 46.695373733078036], [8.079762446916327, 46.695984952024986], [8.080223469490255, 46.69642559410898], [8.080582862039781, 46.69641805533786], [8.080951318962901, 46.69650869850311], [8.081447046717905, 46.696905142977386], [8.08504140248762, 46.69745836159815], [8.085643208619096, 46.6979462384777], [8.08604880456566, 46.69803008272956], [8.086950004284661, 46.69882603445849], [8.087613221195683, 46.699038909026314], [8.088476607874002, 46.699104736589014], [8.090205607040325, 46.69981330425603], [8.091769187245943, 46.700050007102575], [8.093125408962345, 46.69941083448604], [8.093616893753737, 46.69978029130555], [8.094255489140053, 46.699893956900375], [8.095014588376443, 46.70029773681501], [8.098755739627189, 46.701308405229305], [8.09966623356762, 46.70179072221728], [8.100555898587873, 46.702158805419344], [8.10112008874104, 46.70254917816848], [8.102048151845906, 46.70290662388153], [8.10364924330356, 46.703041656091756], [8.103495142925171, 46.7034003985196], [8.10534518176446, 46.70614808730692], [8.106096360366296, 46.70692617333361], [8.10708311469199, 46.70760097322286], [8.107256931252714, 46.7079595092852], [8.107808483870457, 46.70817595438266], [8.10875951672903, 46.70909508202315], [8.109735960415206, 46.709333305538095], [8.110173333220473, 46.70965004742883], [8.110516462333267, 46.71018022275111], [8.110907837828938, 46.71041591252929], [8.111230103587848, 46.71050716477201], [8.111572769257144, 46.7107723564321], [8.11159414175015, 46.71122456313367], [8.11298764879086, 46.712385771727575], [8.114051552357546, 46.71315292589682], [8.113545437963841, 46.713775848600214], [8.11255735447923, 46.714311413827694], [8.113862527411507, 46.71629766945971], [8.113943644947987, 46.71664685133352], [8.11338212194344, 46.71870736876125], [8.113533526183005, 46.71907728569249], [8.114292420856914, 46.71967344223767], [8.115090622744553, 46.72034890749389], [8.116345378029752, 46.72120558227322], [8.118373676289382, 46.72257368341475], [8.118803962131912, 46.72440481964499], [8.11880686290398, 46.724966718418294], [8.118622318876481, 46.72525967268819], [8.11842248491711, 46.725732953836236], [8.118143307615306, 46.726291528941054], [8.117442357770662, 46.72666627917597], [8.116772189409822, 46.72705097398049], [8.116285098231478, 46.727303615767184], [8.115702423613987, 46.72759169845357], [8.114490217283548, 46.727908414297644], [8.113846439000506, 46.72764662490846], [8.113540112576827, 46.72753709662521], [8.11247916554358, 46.727194434823616], [8.111782936103088, 46.72697592405897], [8.110992997999809, 46.72674732728314], [8.1102395673055, 46.7266673342911], [8.109808321727064, 46.7266619468515], [8.1076993162603, 46.72678601957618], [8.107367815693717, 46.72683848232465], [8.10664646142397, 46.72689014858083], [8.106432905964892, 46.72688122407887], [8.105969065674916, 46.726876416965865], [8.104772600838222, 46.7266081672749], [8.104778048624857, 46.72654177453485], [8.104729502535372, 46.72641347305246], [8.104753004765772, 46.72637164058009], [8.104720073565854, 46.72629810377006], [8.10471805926697, 46.726134744505714], [8.104764220421801, 46.72602510553125], [8.104766237277495, 46.72575380871518], [8.104796911429338, 46.72568995822905], [8.104771027040922, 46.72562665351488], [8.10478514660424, 46.725601562940064], [8.104742910340486, 46.72529327347035], [8.104826435240014, 46.72505772793946], [8.104779150770382, 46.72485874840904], [8.104833344842753, 46.72483523193822], [8.104961606272015, 46.72467596988797], [8.104967748336849, 46.72456939810708], [8.104862997650049, 46.7245656631574], [8.104815918812756, 46.724515903668376], [8.104711955656493, 46.72426515120397], [8.10492694049624, 46.72399515966643], [8.104881385308834, 46.723804602541755], [8.104556204047249, 46.723623562421835], [8.104445283505724, 46.723502128758156], [8.104447109357144, 46.72343373306527], [8.104355799646143, 46.72334849209971], [8.104491394042524, 46.72321209411573], [8.10448441725722, 46.723166085791725], [8.103546346856918, 46.723862833637206], [8.103147925661236, 46.72435658368953], [8.102510183057143, 46.72358746283817], [8.101846774802839, 46.72386867026943], [8.101669979787433, 46.72396652722557], [8.100955059497611, 46.72414848010806], [8.100651813853716, 46.724290886298874], [8.100267426675213, 46.72434495623053], [8.09959622797222, 46.7242712788501], [8.098617998957836, 46.72434647778364], [8.097217912510283, 46.72432418338504], [8.096517647392503, 46.724432932751995], [8.095566641824895, 46.72479066493758], [8.0946715984034, 46.72470871887416], [8.093603643049212, 46.72472016301003], [8.09288049445924, 46.72472047930528], [8.092126735826852, 46.72460949088586], [8.09107834747006, 46.72460032891487], [8.09025858324631, 46.724560664027656], [8.089434859276121, 46.72457333486136], [8.089305806243052, 46.72445879168298], [8.089253187060937, 46.72444637128177], [8.089253317522212, 46.7244180705489], [8.089134331491985, 46.724312744840304], [8.088873204214783, 46.7243336260801], [8.088618412938168, 46.72427984306571], [8.088556486985908, 46.724233121826586], [8.08840255954394, 46.724191799315214], [8.08840128340767, 46.72416286819345], [8.0881966116579, 46.72411481758847], [8.088072182474887, 46.72400154243617], [8.09007621786571, 46.72772262870349], [8.089553934779548, 46.72792059563983], [8.089440966589317, 46.728021475865496], [8.089379953634817, 46.728216236030576], [8.089305987734292, 46.72835006163521], [8.08929091737064, 46.72855669404006], [8.089323411338137, 46.728622841387896], [8.089278148297797, 46.72867415725535], [8.08921528277727, 46.72891618193702], [8.089105273725531, 46.72901306119697], [8.089046628752957, 46.729325513985486], [8.088915878910909, 46.72952539375733], [8.089018672836657, 46.72963682757677], [8.089034281200272, 46.72971850763933], [8.088998405905006, 46.729857442369116], [8.08892306567205, 46.72999904836656], [8.088890860768934, 46.730157131459244], [8.088809620095072, 46.73025418885209], [8.08880632370557, 46.73038474279189], [8.088761513477303, 46.73050857984187], [8.088670107239865, 46.73069823154662], [8.088630918118078, 46.73072834481884], [8.088489556980466, 46.73105164801689], [8.088439463921427, 46.731067045227476], [8.08825816830663, 46.731229969610474], [8.088161733541954, 46.73135757757111], [8.088082972475968, 46.73157964935642], [8.088247103162338, 46.731845596399396], [8.088178768241587, 46.73210031609628], [8.08832747462114, 46.732819848760094], [8.088509293776855, 46.73364003446877], [8.088661374893963, 46.73438587006608], [8.088873699305836, 46.73535555414638], [8.089503600761056, 46.735222994118864], [8.089927990460426, 46.73512518420877], [8.090168475513343, 46.73597569527713], [8.090592993594102, 46.73691551040776], [8.09122023430314, 46.73672623739587], [8.091376062105983, 46.73691613775702], [8.091400178802745, 46.73695743437835], [8.090976331245873, 46.73707396749647], [8.09099050190148, 46.73709996534099], [8.091431556262439, 46.73748008888242], [8.091713306397091, 46.73762941804618], [8.091927010423461, 46.737651647328335], [8.091811927515545, 46.73782320742017], [8.091835920677081, 46.738032679863444], [8.091584872498988, 46.73810141276923], [8.09146642206441, 46.73850213139911], [8.089845677902762, 46.73801085169561], [8.08978063918222, 46.73814469254363], [8.089748882523404, 46.73824339511061], [8.08970763699033, 46.73862287336033], [8.089718005768914, 46.73869927814553], [8.089751670034602, 46.73877279742672], [8.089785414212649, 46.73879544523159], [8.0898778280527, 46.73889269315367], [8.089865604483178, 46.738927207609265], [8.090296621363745, 46.74129659693115], [8.090359515689274, 46.74175115335166], [8.090361333186673, 46.741844240024946], [8.090393637093316, 46.74232719961846], [8.090949104606189, 46.742241069598784], [8.091180316543552, 46.74281915626975], [8.091472691912525, 46.74316203179795], [8.091711360417218, 46.74326867033239], [8.091794275539081, 46.7433651344281], [8.090834399211944, 46.743798655585856], [8.090972484089239, 46.74389075713624], [8.09165099975053, 46.74430413886162], [8.0917347881091, 46.74435909161735], [8.09184240359095, 46.74444407079514], [8.091921662104232, 46.74452368869919], [8.092302495843175, 46.74494493996176], [8.092352460765438, 46.744978540998275], [8.092415750687183, 46.744998347233256], [8.09248731842054, 46.745001463900664], [8.092430264446397, 46.74521015925769], [8.092406861020613, 46.74527242663644], [8.092497710159288, 46.74528458154797], [8.092481817510121, 46.74539645369393], [8.092399340909429, 46.745687668492494], [8.092434256026438, 46.74582161384264], [8.092679540076416, 46.745829403364546], [8.092679845615468, 46.74582439080423], [8.09302628751217, 46.745865550055996], [8.0934694659577, 46.74593365413329], [8.09386353549648, 46.74598271480018], [8.094088407209716, 46.746113376218716], [8.094119133462868, 46.7461790039427], [8.094552442005437, 46.746306883045364], [8.094545262229405, 46.746314787009624], [8.095051570422616, 46.74646198236309], [8.095049669136898, 46.74639722226106], [8.095231536415175, 46.746404902463404], [8.095438889904703, 46.7463991221669], [8.096177985216459, 46.74635392904598], [8.096449154888315, 46.746355066096726], [8.096679843113241, 46.74636228301356], [8.09698377836976, 46.7463888680682], [8.09776581368048, 46.74647251623525], [8.098640481094446, 46.74669862053606], [8.099687965818484, 46.746960942189496], [8.099727938877196, 46.74704041426665], [8.10003795188219, 46.74715664461121], [8.100511128744326, 46.74721704449649], [8.100861380799397, 46.74737009332024], [8.10100975742996, 46.74738911246647], [8.101146129360915, 46.74745354120993], [8.101073539213667, 46.74750794043915], [8.101060830601629, 46.7477091800577], [8.101224510491141, 46.7477380066429], [8.101357142389773, 46.74778554448478], [8.101571299622234, 46.74788577382614], [8.101816582519414, 46.747930947665346], [8.102158848952751, 46.74788199321064], [8.102479239008982, 46.74798987152935], [8.102839681330906, 46.748012063976425], [8.1031539033546, 46.74808715695915], [8.103214334083855, 46.74799963529661], [8.103517262980557, 46.74775164295555], [8.103646203888875, 46.74772237784538], [8.103908304319404, 46.74750970916973], [8.104147223845585, 46.74726209685488], [8.104310513067293, 46.74720617222852], [8.104485796003072, 46.747168807608915], [8.105285311935384, 46.74703413719027], [8.105353434974303, 46.74709276261117], [8.105423922149598, 46.74707804770789], [8.105449905618526, 46.747009796420954], [8.105838991922402, 46.74694743246724], [8.106012782788811, 46.74692607769992], [8.106180892622154, 46.74691097195618], [8.106530480106127, 46.74689290689891], [8.107176527295401, 46.746899472516624], [8.107351307220977, 46.74712658804594], [8.107726058336826, 46.747005997895634], [8.107863016231414, 46.746990708848664], [8.108224432573572, 46.747113812406155], [8.108340400840714, 46.747094152337176], [8.108410111730548, 46.747090863227974], [8.108952825439472, 46.74720669564631], [8.10902816735398, 46.74720373230819], [8.109379551020385, 46.747224788831716], [8.109694009812472, 46.7471906532711], [8.110158097000655, 46.746983628430506], [8.110291898021025, 46.74694594859082], [8.110414598159053, 46.746931102949354], [8.110476386972532, 46.7468707178933], [8.110681145943484, 46.74671786559888], [8.110790986754445, 46.74665192814148], [8.110919277636457, 46.74660686868878], [8.11101816522575, 46.74661343020834], [8.111363840058017, 46.74654733639025], [8.11141441182251, 46.74645853710142], [8.111653296784961, 46.74641758450535], [8.111750157031292, 46.746308973341826], [8.11183887261548, 46.74616645975808], [8.111823663243667, 46.74607184163679], [8.112193892065656, 46.746041016406565], [8.112320713315913, 46.74603567162813], [8.112445722167516, 46.74604448773599], [8.112567408448715, 46.74606389336971], [8.112685385409346, 46.74609330605895], [8.11348184712442, 46.746348293181484], [8.11365275949365, 46.746393278685574], [8.113839784648183, 46.746398740130324], [8.115275788854706, 46.746384016855345], [8.116416210637402, 46.746309498434535], [8.117123465795018, 46.7463644734221], [8.118560335735605, 46.746354183279735], [8.118562346702426, 46.7464628943774], [8.119045838639313, 46.74651290129336], [8.11963243891415, 46.74658131756842], [8.119856568724492, 46.746356804677625], [8.119993402089861, 46.74624683356193], [8.12064632754296, 46.74626375269592], [8.120824931135806, 46.74623241515097], [8.121169652591808, 46.7462328115057], [8.12188075167283, 46.74610936593366], [8.121738625485541, 46.745503108773235], [8.121786676474096, 46.74515139229206], [8.121948834478015, 46.74510726951723], [8.122712146206858, 46.745091320532254], [8.12340976464058, 46.745120811352706], [8.123902436462881, 46.7449163056658], [8.12404660695565, 46.744905824284665], [8.124701120265454, 46.74488821180585], [8.12624550730419, 46.74546748192536], [8.126117096432775, 46.74588562276324], [8.126059551636803, 46.74604550291637], [8.126072461961297, 46.74621851511535], [8.126046266919385, 46.74677234994621], [8.126071836150981, 46.74704027090263], [8.12566827513073, 46.74716049006408], [8.12519932350755, 46.74717115458297], [8.125315410497215, 46.7477705494222], [8.125178204663692, 46.748136356395875], [8.12464693219844, 46.74869295751673], [8.124214693597521, 46.74934016067324], [8.123931519890792, 46.74962428670994], [8.123885666044536, 46.7497575829646], [8.12389190377408, 46.75019906262515], [8.123920913658175, 46.75041070683561], [8.123976908201296, 46.750601667750296], [8.123818109978254, 46.751379769242874], [8.123672442363052, 46.751528980247635], [8.124124211231644, 46.75336230580953], [8.123992267251316, 46.75402587182832], [8.123786752645996, 46.75512592772813], [8.123779568273871, 46.75552356285663], [8.123751922860539, 46.75600436252352], [8.123751533641043, 46.75616523956158], [8.12372929667047, 46.75637540120308], [8.123737185783803, 46.75652542449374], [8.123737261667353, 46.75668988898272], [8.123758890583813, 46.756835378488304], [8.12390522537667, 46.7577111742418], [8.123998993962111, 46.758168441088145], [8.12355231748439, 46.75847004853538], [8.123444625211992, 46.75897197497598], [8.123386089198938, 46.759870383329385], [8.123008970424507, 46.76256122298412], [8.122628242874468, 46.76387374377876], [8.121831845158612, 46.770372689973925], [8.124201961224028, 46.76909869405049], [8.125262034516933, 46.76856059330257], [8.125430163630503, 46.768459837698], [8.125662364520085, 46.76833034991005], [8.125972927840598, 46.76817789099803], [8.126400196122145, 46.767933279553894], [8.126747621232955, 46.76771202152356], [8.127484491862479, 46.76732085255952], [8.12793321776262, 46.76708952014148], [8.128363724304235, 46.76690451340301], [8.128756665019004, 46.76667675188702], [8.129022241637212, 46.76653057365671], [8.129859796082103, 46.76603023909282], [8.130428537174915, 46.765625539400396], [8.130823990554589, 46.76536454991701], [8.131450224618174, 46.764960515539705], [8.131725917863516, 46.76476774747886], [8.131805579815035, 46.76474969331347], [8.135337645793546, 46.76265072893901], [8.13540537300876, 46.762608774762576], [8.135864972645976, 46.7622628782311], [8.13627147513719, 46.76202574579424], [8.137248890024209, 46.761401629419886], [8.137596599772216, 46.76094211192977], [8.13769062599555, 46.760831463770025], [8.13753609163172, 46.760720042464605], [8.137699284968816, 46.76059076040095], [8.138129431249181, 46.760342976742905], [8.138391301454401, 46.76023634402709], [8.138625357025251, 46.76012282906593], [8.138760470201984, 46.75990692709699], [8.138636582311806, 46.75965447195791], [8.138694857807304, 46.75954443811517], [8.139339472457328, 46.75931349787478], [8.13973688937812, 46.75901579316913], [8.13993648528879, 46.758975688295564], [8.140202725040151, 46.75900037426024], [8.140983064010252, 46.75862771149469], [8.141080191241668, 46.75857263405505], [8.141194846174995, 46.75849744324331], [8.141303637698687, 46.7584424654658], [8.142284794875373, 46.75781571643215], [8.144800472423471, 46.756241403345236], [8.14612887014744, 46.755454317452276], [8.146357360652642, 46.755268328146286], [8.14632442590656, 46.755174327642045], [8.145744566314885, 46.75523653642874], [8.145207502262462, 46.755259551297286], [8.14474425396338, 46.755451086002495], [8.144444580153586, 46.75582318630998], [8.144299494936606, 46.75606703006236], [8.143986351672124, 46.7558877633523], [8.143813077173538, 46.755698347665536], [8.143695385328602, 46.755535440551384], [8.143237434877287, 46.75512600724994], [8.143153766297248, 46.75500939788174], [8.142986808215674, 46.75460963716178], [8.14302888500136, 46.75434265275128], [8.1430284033119, 46.75401998605079], [8.143145789389408, 46.75369673640843], [8.143293644655754, 46.75350380993718], [8.143547087757868, 46.75340141272926], [8.143924089168229, 46.75340147900248], [8.144407963809531, 46.75349716398953], [8.144939656124063, 46.75345407995651], [8.145554540929448, 46.75307852516079], [8.146185431201985, 46.752997983459046], [8.146671390261464, 46.75312977339072], [8.147687229263086, 46.75322621948387], [8.147904316457486, 46.75311493340114], [8.147859307483474, 46.752821426574606], [8.148584591244253, 46.75249280949094], [8.14890154949916, 46.75253357815018], [8.149490027785125, 46.75259250979639], [8.150774719842984, 46.752146381660054], [8.15093076614701, 46.75219863672827], [8.151117265563617, 46.75224270433887], [8.151487092623555, 46.75165577723492], [8.152066153419687, 46.751745295997665], [8.152375831042564, 46.75174950221064], [8.152633938897985, 46.75213114621211], [8.153451807633123, 46.751966416557515], [8.153559611391408, 46.75154438713896], [8.153640164543845, 46.75146609594768], [8.153756264054037, 46.751305872185874], [8.153516449313317, 46.751225574310226], [8.153500140468037, 46.75102699361915], [8.153719506891678, 46.750855238549676], [8.154048762277371, 46.750654251059785], [8.154250860823357, 46.75044983953204], [8.154523713846121, 46.75015604988817], [8.15494213720601, 46.74974484316133], [8.154975552834804, 46.749603155645644], [8.155055086299612, 46.74931742481484], [8.15509665980589, 46.74918596828005], [8.155649740770494, 46.7489097948842], [8.156348806050996, 46.74878210659147], [8.156545396377803, 46.74857319872776], [8.15675559831017, 46.74853924992296], [8.157087337060586, 46.7484429610284], [8.157380977960015, 46.748411669710855], [8.157357790986199, 46.74832564197704], [8.157393148638857, 46.74758768667553], [8.157273870026712, 46.747321162323615], [8.157071957899063, 46.74706915429123], [8.157318767420469, 46.746782460642876], [8.157843343636877, 46.74658217883201], [8.157932229204665, 46.746589031721925], [8.158276460594774, 46.74640321360199], [8.158506560743092, 46.74634109491085], [8.158795549102045, 46.74635527684517], [8.158948735187401, 46.746409616853725], [8.159262700539843, 46.74643904933528], [8.159416157187144, 46.746493910211804], [8.159841419316459, 46.74650902886734], [8.159876480504797, 46.74647291424978], [8.159935658886521, 46.74633008067272], [8.1602358856553, 46.746246045090615], [8.160478894684267, 46.746143502730845], [8.16074440732233, 46.74594589134824], [8.161398944609187, 46.74571881547621], [8.161627179620002, 46.745869287820376], [8.161774388307856, 46.745978331355296], [8.161894323944736, 46.74605796987808], [8.1623173933075, 46.745846424101934], [8.16298427932873, 46.74581429437293], [8.163989167888893, 46.74580253412237], [8.164784949936216, 46.745531839932], [8.164928789198639, 46.745478731037046], [8.165275892336787, 46.74541428861783], [8.165277543414833, 46.74508717674345], [8.16538147240028, 46.744536217778666], [8.165355681993114, 46.74445486062447], [8.165620498064888, 46.74438696566773], [8.16581821812144, 46.74425486181171], [8.165921967429423, 46.74395793087609], [8.166230727654796, 46.7436798789948], [8.166741268405188, 46.74353620900597], [8.167098216562708, 46.74344209373115], [8.16753378135635, 46.7434775997574], [8.167897960635633, 46.7433550728469], [8.168079557022544, 46.74308987661761], [8.168730703173985, 46.74281542261594], [8.168872191763905, 46.74298473129044], [8.1691816679171, 46.74274742017482], [8.169266960684723, 46.742481604088766], [8.169540298149087, 46.74231920889447], [8.169412248315956, 46.742241751697364], [8.169842412085126, 46.74188184929588], [8.170093847493082, 46.7417740636705], [8.170448151915885, 46.74190976463078], [8.170613898221063, 46.74181058483266], [8.17110830347238, 46.74160902366754], [8.171266421701297, 46.74128263801508], [8.17148755618649, 46.7411171329274], [8.171939911025142, 46.7407899446876], [8.172344493104562, 46.740417075250186], [8.17264706421428, 46.74036604815049], [8.172963982046552, 46.740297126012415], [8.173372689909487, 46.740013761858464], [8.173593194233245, 46.73985286148887], [8.173857732375424, 46.7398858323632], [8.174061190865125, 46.73974542742882], [8.174356979058308, 46.739939074545674], [8.174372821003008, 46.740015527423665], [8.17451288984895, 46.74016449705192], [8.17453597570985, 46.74019641837449], [8.174628423800685, 46.740268374648245], [8.174696952284116, 46.740303916384086], [8.174820849736209, 46.74032157735907], [8.17497707327777, 46.74035880260032], [8.175193221558887, 46.7404588192266], [8.17545112676273, 46.74050514973131], [8.176116200360335, 46.740285125826], [8.177497955716593, 46.73964405485266], [8.177721226030561, 46.739371160407316], [8.178193301652177, 46.73907804648324], [8.17850131602139, 46.73899895262345], [8.178984229781753, 46.73907021158555], [8.179286911342539, 46.73883921692297], [8.18028007943079, 46.73885614249388], [8.180729755693818, 46.73869430730546], [8.181113985819811, 46.73905876963028], [8.181973093018973, 46.7392189568812], [8.18229446230407, 46.739338463434756], [8.182353406374103, 46.73922900397544], [8.182763125566252, 46.73921375842491], [8.182879543257009, 46.73910167772419], [8.182909547221412, 46.73879703671865], [8.183399705726933, 46.73873595338972], [8.184691010208155, 46.738475359080276], [8.184816638104104, 46.73788514183577], [8.18491057814292, 46.73735783206535], [8.185162869813306, 46.73705868609362], [8.185497701097479, 46.73671165547546], [8.185992367712226, 46.736286231670775], [8.185935189105036, 46.73619931881877], [8.186205969538847, 46.73601887066661], [8.186501170025915, 46.7356802322405], [8.187097279252836, 46.735688155396325], [8.18778547869685, 46.73526357216057], [8.188495876286211, 46.73495804286803], [8.188890853245644, 46.73474213891104], [8.189222647116692, 46.73446341632702], [8.189125367641891, 46.73427894815219], [8.188907688770344, 46.73416404288426], [8.189045040311708, 46.73401987187049], [8.188802478005654, 46.733811021840474], [8.189062327970236, 46.7335837516877], [8.189303022746591, 46.73342713457651], [8.189613650604475, 46.73320019455674], [8.189686384422295, 46.73299747599553], [8.189829948446935, 46.73277753299263], [8.190466368691633, 46.73232400472928], [8.190841301420415, 46.73201266657378], [8.190820703204924, 46.73148246754201], [8.191600301169913, 46.73131148014294], [8.192175328812485, 46.73105646455506], [8.193059070067903, 46.73071058026561], [8.193741704272414, 46.73028049886497], [8.193729317999207, 46.72988016348072], [8.193973559029923, 46.72975299880204], [8.194230272539563, 46.7296876298363], [8.194756366213793, 46.72964344890685], [8.195470126718249, 46.729827956103954], [8.195758395508927, 46.729677133593576], [8.196095963893116, 46.7295981715692], [8.196260751802365, 46.7296361569489], [8.197057537183449, 46.72946799600497], [8.19730301718496, 46.729406201307185], [8.197406123950303, 46.72940724361011], [8.197623228963693, 46.72945632193112], [8.197802301038402, 46.72948667141599], [8.197860872987727, 46.729511812356314], [8.198641686315058, 46.72941663292976], [8.198798785861793, 46.72946502943717], [8.198985600349793, 46.72956467690362], [8.199267778891757, 46.729451200895305], [8.199545174654721, 46.729491131911274], [8.199822671115843, 46.729410183365374], [8.200173931452513, 46.72909302421749], [8.200539825143192, 46.728556095401395], [8.200977001594586, 46.728257379462036], [8.201331257327835, 46.727866355672376], [8.201581469314911, 46.72762286516718], [8.201669258547424, 46.72741057705312], [8.202103080747115, 46.727181384080914], [8.202509432963087, 46.72712170445624], [8.20293646665178, 46.72701301924688], [8.203349873349893, 46.72700542953713], [8.203742179649122, 46.72701553834816], [8.204166468879707, 46.727009654187746], [8.20449331541393, 46.726970155882405], [8.204851730122371, 46.72688374728756], [8.20516744675566, 46.72686940256993], [8.205530456745397, 46.7268321860329], [8.205845086686482, 46.72659725251777], [8.206425420682473, 46.72655693399488], [8.206505649433057, 46.726502543052625], [8.206848816312208, 46.72647858097832], [8.207311357843942, 46.7264236038838], [8.207912427787372, 46.726481229977864], [8.208303949673107, 46.726318458084066], [8.208586071742873, 46.726329088364665], [8.209065838867478, 46.72630144576833], [8.209545191305569, 46.72624474812466], [8.209781244477036, 46.726295134158775], [8.210170503011788, 46.72616637235067], [8.210417870385744, 46.725957847881524], [8.21058303825704, 46.72588260373628], [8.210737299655431, 46.7258853209287], [8.211142076311944, 46.725763442226906], [8.211540128268153, 46.72556678767032], [8.211676220425772, 46.725429911147145], [8.212024112369216, 46.725289034474685], [8.212263846812588, 46.72518482152912], [8.212643208051144, 46.72509203956293], [8.212852506745932, 46.72493001630335], [8.213009214134171, 46.724856302497244], [8.213385172314645, 46.72483380833454], [8.213458217580552, 46.724651476257534], [8.213891888824097, 46.72465894095893], [8.214099274525008, 46.724689206915734], [8.214477244626744, 46.724784805397434], [8.2147214923181, 46.72493207527846], [8.214974574850048, 46.72477971570962], [8.21515836231616, 46.725030608932975], [8.21547251321084, 46.72499937723144], [8.215820500493823, 46.72477332389634], [8.215766842929291, 46.724463991089], [8.215809033667512, 46.72436334521096], [8.215951742991766, 46.72425825343068], [8.216175689286391, 46.72402975119773], [8.21618273882346, 46.7239741906709], [8.216326425813177, 46.72394056682307], [8.216478791020455, 46.72379949583739], [8.216894349771774, 46.723714200619774], [8.217181331110119, 46.72359925343027], [8.217917579936055, 46.723526184133], [8.218161504157681, 46.723340405655996], [8.218375104796426, 46.72313649204696], [8.21858888217831, 46.723131219159214], [8.218541006634487, 46.723035335631245], [8.218914881193458, 46.72274032390785], [8.219026309216229, 46.72268077439208], [8.219192220788022, 46.72232085820265], [8.219188721143272, 46.72219278986166], [8.219429323269411, 46.72191542749705], [8.219745133483988, 46.72181309683868], [8.21998152257261, 46.72169761884888], [8.22022899597986, 46.72152386018179], [8.22040324552233, 46.72129614206852], [8.220443026533946, 46.72106961314303], [8.220617713724153, 46.72089372111233], [8.22082526425261, 46.72063915274356], [8.221342688576163, 46.72024892637214], [8.221575970937094, 46.71996698536624], [8.221632236147146, 46.719826792589316], [8.221752124686189, 46.719645186384234], [8.221700503554654, 46.7191345074434], [8.22193337288908, 46.71899925044629], [8.22241070465397, 46.71876004824976], [8.222229403427887, 46.718592788152606], [8.22199531224864, 46.71841857207115], [8.221611269376682, 46.71814471455269], [8.221771558883285, 46.718014495498124], [8.222008174454775, 46.717895420660554], [8.221601661151439, 46.717776456706254], [8.22137597945257, 46.71761598576741], [8.221003809692197, 46.71774546066557], [8.220710003681209, 46.71792663673074], [8.220487955078578, 46.718085432819045], [8.220312761294823, 46.71858757246299], [8.219978602218315, 46.71841058619934], [8.219790141193272, 46.71821692575563], [8.219725155395087, 46.71802500156442], [8.219658989815501, 46.717876203904865], [8.219609466671354, 46.71786165306131], [8.219620629143568, 46.71768838789805], [8.219908763636274, 46.71739523804614], [8.220092533106369, 46.71732358873569], [8.220231683590038, 46.71722198097298], [8.22038696672694, 46.71698905427702], [8.220221901042398, 46.71676525611738], [8.220011197254271, 46.71666664445124], [8.219550762054583, 46.7167251378399], [8.21923570822721, 46.71690038350823], [8.218868997491187, 46.71712427203162], [8.218522471099458, 46.7172833582775], [8.218251329022095, 46.717453865111885], [8.218076809096361, 46.71758923003529], [8.217593528312564, 46.717899026970365], [8.21738100014199, 46.71810452246707], [8.217274217210878, 46.71813734806985], [8.21719479959757, 46.7181104785106], [8.21716673901364, 46.71808936716943], [8.216977685565846, 46.71798363107847], [8.216872875175955, 46.71788664773043], [8.216528497656174, 46.718090305962555], [8.2163745315816, 46.71810933705786], [8.216218476210358, 46.71817037538901], [8.215740444061431, 46.71868484328262], [8.215360385853957, 46.71904837354797], [8.214961644151643, 46.719232829443605], [8.214851932767703, 46.71935786335563], [8.214406584859697, 46.71950257385742], [8.214128820324664, 46.71955061020618], [8.213806795029372, 46.71957435091094], [8.213458080346452, 46.71963052252737], [8.21322130708385, 46.71974414582586], [8.212691317626588, 46.71991676458776], [8.212599971962758, 46.72005696380017], [8.212486727273628, 46.72008682026687], [8.212509253071616, 46.719835176001745], [8.212499238191501, 46.71965669258142], [8.212779971371443, 46.719230001256044], [8.213086843108723, 46.719041821628274], [8.213294972683705, 46.71889217360356], [8.213546541702547, 46.718812696835506], [8.212890931669042, 46.71850169080394], [8.212739314603654, 46.71860077379278], [8.212551067370232, 46.71874598483891], [8.212551445236302, 46.71881794978418], [8.212283396355227, 46.71905276951946], [8.212108762973495, 46.71925366238857], [8.211538202396852, 46.7196758548176], [8.211428101925701, 46.71970672748317], [8.211132962710424, 46.71983152820744], [8.210850275097659, 46.719913051363235], [8.21074161819264, 46.7199066024084], [8.21055820169312, 46.71988624473582], [8.210469589811975, 46.7198639049755], [8.210437961567381, 46.71984748484675], [8.210411777608481, 46.71984586281231], [8.210372152400721, 46.71983731459352], [8.210293592942365, 46.71981472311235], [8.210212235230172, 46.71979637654993], [8.2101071407596, 46.7197647123142], [8.210018398705909, 46.719733374706024], [8.20994180240321, 46.71972803635187], [8.209866350446807, 46.719711459412096], [8.209824613566543, 46.71971982971806], [8.209700800849074, 46.71970582818521], [8.209640908128812, 46.71972692571975], [8.209515306119076, 46.71972372882281], [8.209464516015082, 46.719740256108295], [8.20928835082557, 46.71977023191805], [8.209213504699605, 46.71979591623679], [8.209094067871701, 46.71981427351736], [8.208943241843222, 46.719877822003504], [8.208736681642861, 46.71997727109589], [8.208478246102942, 46.720109005150654], [8.208333317785756, 46.720219283694234], [8.208261745356655, 46.72030036860638], [8.208218181363128, 46.72031001868076], [8.208167669619646, 46.72034499805883], [8.208158841044261, 46.72036799707509], [8.208106918099412, 46.72039623044475], [8.208058956128708, 46.72040825230812], [8.208035942235561, 46.72042730527434], [8.208037092269665, 46.72045302411187], [8.20800020468494, 46.720471266100944], [8.208001516241255, 46.72050805351689], [8.20798681397606, 46.72051454785106], [8.207944681079232, 46.72052184011009], [8.207870902822785, 46.72057684904906], [8.207871723216913, 46.720598436954305], [8.20780826411686, 46.72062477157029], [8.207768130143762, 46.72061820430449], [8.207718851708238, 46.72066657490532], [8.207444889017951, 46.72075477786881], [8.207306814004356, 46.72075966599905], [8.207147647958413, 46.72077063326688], [8.206725799810496, 46.72083608423389], [8.20656743865617, 46.720848484613825], [8.204701921812816, 46.72085545189135], [8.198728997450829, 46.721031238524674], [8.19812223201422, 46.72108205599975], [8.196935512130679, 46.72121246994346], [8.195659267287894, 46.72139457085611], [8.19336038300015, 46.721749838391474], [8.191872031051997, 46.72198709423841], [8.190935663700367, 46.72211876177092], [8.189611422158332, 46.722250950003904], [8.189448414018358, 46.72226461652786], [8.18721245044796, 46.72244148830092], [8.185950547658452, 46.722525331031115], [8.18431930487763, 46.72265420451731], [8.1830472542408, 46.72280248277028], [8.18178113990794, 46.723001435808065], [8.180604415439126, 46.72323290750519], [8.180535755751144, 46.723082763108735], [8.181154294576665, 46.72215709709465], [8.18217480700807, 46.72053796356862], [8.182189859192013, 46.720542462306966], [8.182215147244046, 46.72050281477362], [8.182200372654107, 46.72049757656668], [8.18267232421382, 46.71974246517134], [8.182818006676737, 46.71944686491318], [8.182820966904659, 46.71939497533643], [8.182770845564443, 46.719330577326154], [8.182814288596239, 46.71914391721505], [8.182850259930188, 46.71907181538878], [8.182819644224725, 46.71905983474099], [8.18210432111912, 46.719229372205085], [8.182210718598796, 46.71890176316592], [8.18206339956662, 46.71830292439103], [8.181974516463653, 46.71796310535374], [8.181877957375002, 46.71780877441531], [8.181607192475596, 46.717838343832135], [8.181305418083353, 46.71783391215483], [8.181025074838606, 46.71784230327748], [8.180589793246318, 46.71790918480274], [8.180483460193988, 46.717921075984975], [8.180381575952307, 46.71792071277928], [8.180232061284945, 46.71794654007252], [8.180052684091601, 46.71799704817359], [8.179915615838922, 46.718022479495794], [8.179750475648987, 46.718035363684066], [8.179514728165746, 46.71808908875324], [8.179158760403766, 46.71808735140822], [8.178817052085522, 46.71822315738251], [8.178748827828272, 46.7182547075419], [8.17858834065231, 46.7183027069621], [8.178435854628297, 46.71831323131317], [8.178069140307397, 46.7182995597328], [8.178009903059282, 46.7182911095926], [8.17786991694395, 46.7182544860179], [8.177609026844813, 46.718396000768756], [8.177448080951253, 46.71859995192091], [8.177104479337505, 46.71876528849885], [8.176713693846084, 46.718806092290386], [8.17647441627148, 46.718863332071294], [8.176206056058808, 46.718966030431666], [8.175619040909668, 46.7191407404039], [8.17556432854215, 46.71920535571072], [8.175240432991318, 46.71929709987371], [8.175044140362907, 46.719372043107626], [8.174847786042514, 46.71943387040694], [8.17470077983836, 46.71946380349534], [8.174573488227757, 46.719481464885625], [8.174479418129915, 46.71947497381544], [8.174407615007645, 46.719488957623085], [8.174311827547273, 46.71952633243291], [8.17406060470023, 46.71959906421284], [8.173797677878344, 46.71965669471318], [8.173573339160967, 46.719717341482045], [8.173512392661165, 46.71972271766845], [8.173491388076942, 46.71971424391543], [8.173127394932518, 46.719692559311575], [8.173030987419745, 46.71970079926574], [8.172864571783993, 46.719748306727524], [8.172791490420918, 46.719755883639294], [8.172326300106324, 46.719942595972086], [8.17175864521373, 46.71977153736377], [8.171402945373154, 46.71986650553195], [8.170468390061217, 46.72008718016541], [8.169972007314831, 46.72024592781533], [8.1695158043772, 46.720467423237885], [8.168990598861495, 46.720552197425484], [8.16851342482119, 46.72084151080061], [8.168400626621418, 46.72108606397521], [8.167603050626212, 46.72159562712672], [8.167018597875563, 46.72205067139042], [8.166415170434481, 46.72228770573405], [8.165880589681164, 46.72250367081993], [8.165191235773413, 46.72266177419623], [8.164077252442494, 46.722571565814214], [8.163706364484533, 46.722648141475354], [8.16306117474435, 46.72286260704122], [8.162774752587348, 46.722985670295316], [8.162608671378617, 46.722939787027116], [8.162431794686194, 46.722918513150816], [8.162174434354176, 46.72289397435743], [8.162058500361539, 46.722852160618736], [8.161828344912674, 46.72288825377354], [8.161622657358627, 46.72294128620789], [8.16135460334415, 46.72299830696202], [8.161176401896563, 46.722945922615665], [8.16096503304378, 46.72291847809563], [8.160530380219031, 46.722989600476424], [8.160408418891027, 46.72298587915448], [8.160303564520751, 46.723019820203206], [8.159093082824052, 46.7225720709392], [8.15840666314504, 46.72239702005279], [8.157789689808835, 46.722093357400674], [8.157642891255723, 46.721744430231354], [8.156124426492099, 46.721884931163245], [8.155645665842732, 46.72186876412321], [8.155270532664424, 46.72194640939289], [8.153876405256455, 46.722539900737246], [8.152508239162412, 46.722560831806234], [8.15050522177856, 46.722119650543476], [8.150472750818722, 46.722044767369475], [8.150466262068928, 46.72200900438336], [8.150295621418232, 46.72177570036098], [8.15013936496022, 46.721546850092224], [8.150055860857181, 46.721381210371646], [8.149886596917291, 46.72122521794437], [8.14413424723645, 46.71624534351007], [8.144132053635957, 46.71594826171252], [8.143910539432296, 46.71567475380978], [8.14299464998937, 46.71407839124205], [8.143039582667715, 46.71406385559906], [8.142024423386214, 46.71203153647636], [8.141805948532939, 46.7114535766034], [8.14158096253343, 46.711196297176194], [8.141491084972444, 46.711157764418374], [8.1412813376913, 46.71093147384952], [8.14101121935932, 46.71076106033014], [8.140536543875685, 46.707487630143625], [8.14056601908883, 46.70574135535636], [8.140407331576329, 46.704934978154306], [8.139997350771782, 46.70417123156515], [8.140831851170148, 46.70378603764307], [8.13958243317447, 46.70328282739195], [8.139100764641404, 46.702946821945886], [8.138794075653337, 46.702988355422534], [8.13791584232769, 46.702606955671094], [8.13694377769765, 46.70237533048291], [8.135887134194444, 46.70194213325405], [8.135489921325343, 46.701514170854935], [8.134729300023423, 46.70098464975671], [8.133325961072227, 46.70051999522227], [8.132198809123395, 46.70005588646282], [8.131469213731693, 46.699925661446514], [8.130890712014537, 46.69969786245681], [8.13000395000264, 46.69957213374754], [8.128525135270134, 46.69921663705971], [8.12741186931883, 46.6991819559682], [8.126855825056468, 46.69900099488056], [8.126255386145766, 46.69894165184674], [8.124294745078645, 46.69828806712533], [8.123841986996439, 46.69798663517645], [8.122310031613933, 46.69772932587313], [8.12171680673902, 46.69782196753989], [8.121142310345682, 46.69750456896459], [8.121151063282671, 46.69730227154052], [8.120127899643759, 46.6971822342034], [8.118990490934792, 46.69679522495113], [8.118559982245923, 46.69630062345226], [8.11609022128678, 46.69599813070518], [8.116461973788294, 46.69586216258545], [8.116533535024326, 46.69571053401785], [8.116136090705815, 46.69542036415049], [8.11717527284559, 46.69460146696487], [8.118656627818345, 46.693923871661305], [8.11933165795793, 46.69492066345686], [8.121033304981374, 46.69425663453632], [8.12161704777626, 46.69381600708378], [8.122215506953927, 46.693219123211236], [8.122040101147103, 46.692843339667235], [8.12292267649762, 46.692304411663955], [8.123910387578109, 46.69209112873268], [8.124271910317045, 46.6917154446887], [8.124312010038606, 46.69094390768746], [8.124499548015967, 46.69067861400584], [8.125178618017497, 46.6907718285776], [8.126296347963132, 46.69049725337277], [8.126886821246321, 46.6906622123881], [8.127098656460792, 46.690683496021975], [8.12740690961893, 46.69075627394506], [8.127741042419103, 46.69078147672156], [8.127807646792265, 46.69080885345713], [8.128255711297221, 46.69082165285325], [8.128496343290283, 46.690678827554656], [8.129089187716437, 46.690589825932555], [8.12920379125605, 46.69061361947865], [8.12946408341053, 46.69059460002489], [8.130714872980747, 46.68999105101817], [8.130776863481332, 46.689392275122685], [8.130890233462946, 46.68916811899487], [8.131225181307986, 46.68915448138142], [8.131536345233608, 46.688527284921705], [8.132122844767803, 46.6886020661643], [8.13223409281397, 46.68850534009745], [8.132548558859455, 46.688562512462624], [8.133165088310724, 46.688339591238694], [8.13360861676517, 46.6883010043042], [8.13479812736853, 46.68735268992947], [8.135263348983992, 46.68651499687891], [8.135484090528657, 46.68623071704975], [8.136181752035904, 46.68603365797863], [8.136382937547193, 46.68586422062719], [8.137373156184475, 46.68580340927928], [8.138627972890195, 46.6856854329812], [8.13905303146332, 46.68486185331544], [8.13945200496413, 46.68287751444129], [8.140039311915674, 46.682760495267864], [8.140287729720988, 46.682656639312874], [8.140550010169166, 46.68258158307615], [8.140800713661099, 46.6825210261839], [8.14119599753492, 46.68258704188493], [8.141748568090339, 46.68262579277789], [8.142354399911989, 46.68263505670138], [8.143169042656796, 46.682565923684436], [8.143513801480559, 46.68263644294286], [8.144435228537043, 46.68264216496552], [8.145114191695331, 46.68220480406966], [8.145791918316402, 46.68174671118142], [8.146271700026244, 46.68155491761215], [8.146330151530863, 46.681507901568374], [8.146755480839433, 46.6813635612546], [8.147067312006575, 46.68112818867262], [8.146667817362506, 46.68080429239166], [8.146797522521355, 46.68073564156582], [8.146621884731411, 46.68015064350191], [8.146374251101077, 46.679875539156136], [8.146287756238806, 46.679681414572336], [8.146259538764236, 46.67948097257494], [8.14611950265721, 46.67936628065855], [8.145583978122062, 46.67889970320102], [8.145413051125406, 46.67844346939768], [8.145387491498962, 46.67774825025984], [8.145414018784216, 46.677483933474385], [8.144495490069145, 46.67679878189016], [8.144869682125778, 46.67529568659694], [8.14960616057756, 46.6739866945354], [8.150152482887407, 46.67146323122256], [8.150902006990279, 46.66873956324319], [8.15120537767539, 46.66586244751536], [8.149750494937289, 46.664727057256805], [8.149813544167532, 46.66338784678335], [8.149499562676791, 46.6630316120511], [8.148918599670736, 46.66276436563053], [8.14842714239799, 46.66261313691871], [8.148349257581163, 46.66246005573575], [8.1473343691981, 46.66192321796527], [8.146148105854074, 46.661041319600024], [8.14454406655498, 46.66011426532103], [8.144470573306135, 46.6585789535357], [8.144690236596611, 46.658387491177955], [8.144607151072556, 46.65806196249029], [8.144414507800892, 46.65785701803381], [8.143956462702787, 46.657615161971655], [8.143681216669501, 46.65756983709977], [8.14303199317328, 46.65708304402008], [8.142751343037332, 46.65697156849285], [8.142032972708703, 46.65593653395381], [8.142052648674579, 46.655658271813266], [8.138994491441487, 46.654897592446254], [8.137946430849407, 46.65500414121601], [8.132982115045966, 46.65675895757192], [8.132535337577947, 46.65673333720715], [8.132302440404926, 46.657979151394464], [8.132518707454459, 46.65831494432039], [8.131708794567233, 46.65964044787683], [8.130869839900967, 46.65981298459676], [8.13046429485786, 46.659742229764], [8.130164975331232, 46.66013210110388], [8.130096241350614, 46.66045098386234], [8.1297342166607, 46.660590720043814], [8.129547188892849, 46.660991685976995], [8.129633720397331, 46.66109437378595], [8.129432165597445, 46.661247170690544], [8.129575702048985, 46.66166673971984], [8.130048552056946, 46.66201149640449], [8.130225526100395, 46.661974848119165], [8.130631800728397, 46.662295615175495], [8.131205010450264, 46.66315736782207], [8.131669065658562, 46.663302339962904], [8.132068635326682, 46.66395746904198], [8.132733066489541, 46.664208816854604], [8.132105709747453, 46.664852574086964], [8.12976193683871, 46.666715176288726], [8.129886969369544, 46.668401542151095], [8.13144918091562, 46.6697799111755], [8.130458806417705, 46.67128850358122], [8.129865088843596, 46.67195182743515], [8.128687591500642, 46.673298689348286], [8.127734697445137, 46.67427656672054], [8.127083508905635, 46.674809075695734], [8.126399454605382, 46.67522540667346], [8.12567695271819, 46.6764223655003], [8.126566013627379, 46.67722406601077], [8.126089328366, 46.677619407656294], [8.12584201586352, 46.67790497874303], [8.125390978129404, 46.677927398323064], [8.125254398818587, 46.67815291911118], [8.124688891157854, 46.67829050051907], [8.124383039716257, 46.67829587725756], [8.123349467765758, 46.678612577685506], [8.12292053932151, 46.6787184302377], [8.122714545245145, 46.678940697941925], [8.122042793026703, 46.67942064044709], [8.12177037695786, 46.67983785019803], [8.1219774329026, 46.67999329008888], [8.121849553519779, 46.68012593444725], [8.1215159477078, 46.680230195544766], [8.120815322253382, 46.68029540051196], [8.120199596049078, 46.68037661128384], [8.120049805529545, 46.68061309533393], [8.119188561332011, 46.681647749987114], [8.118263488829719, 46.68209766377763], [8.11856957447628, 46.68234092695518], [8.117414087513128, 46.682886259552646], [8.117017181859346, 46.68290625512314], [8.116755341110084, 46.68300853096281], [8.116271687260852, 46.68372965972469], [8.114632685667823, 46.68396426508671], [8.114362999937367, 46.68372838542074], [8.11273561682182, 46.6842525878736], [8.1113117337638, 46.68447356101985], [8.109709014475412, 46.684937580049066], [8.106502895440487, 46.68494708596898], [8.105376046730155, 46.6851253648675], [8.102718579927316, 46.68510355751783], [8.101278569190155, 46.68500801570919], [8.101064342184532, 46.684431276959295], [8.099510624279453, 46.6842623600441], [8.098845128577095, 46.68438043562723], [8.097283026716623, 46.68440356803246], [8.096895462240083, 46.68448049840013], [8.096577951513863, 46.68447183333977], [8.09647185821866, 46.684353288833634], [8.09605192660182, 46.68443763598845], [8.09591056138991, 46.68451439217949], [8.095254612754628, 46.68448420400779], [8.095224138102852, 46.684360978192046], [8.094562370169152, 46.68428615680321], [8.094285435487063, 46.68443305300145], [8.094084195886552, 46.6846671323686], [8.093898353579187, 46.68473485944384], [8.093599663345387, 46.68474444628129], [8.093391552647775, 46.68502325836878], [8.092712047424826, 46.685306665210376], [8.091277081483064, 46.685580985435166], [8.09021478763225, 46.68608034367578], [8.089258975676147, 46.68640267227105], [8.088648137344583, 46.68672486055277], [8.087885697681417, 46.6868048157703], [8.087070902362036, 46.6867315634945], [8.086783662800269, 46.686792306305925], [8.086504095758356, 46.686712418053524], [8.086121825963621, 46.686884895470776], [8.086078347132561, 46.68734494862703], [8.085234218298794, 46.68799125618498], [8.085223984206568, 46.688191618830274], [8.085105581671716, 46.68831926275135], [8.084660839901739, 46.688418934645426], [8.084553974201913, 46.688870849013384], [8.084235747817782, 46.689234228376776], [8.082302265347145, 46.690082849765965], [8.080860779633525, 46.69015254583042], [8.079175256826712, 46.69079416759138], [8.076470313596102, 46.69220523690227], [8.075622009326759, 46.69224391346876], [8.074313754543232, 46.692877712168574]]]]}}]}