{"type": "FeatureCollection", "features": [{"type": "Feature", "properties": {"bfs_nummer": 793}, "geometry": {"type": "MultiPolygon", "coordinates": [[[[7.354238381161508, 46.491316167372304], [7.354506344696718, 46.492624699284214], [7.356157878374566, 46.495146187070624], [7.3559408012109015, 46.49554825967371], [7.356114337838825, 46.49828610677121], [7.356977672920675, 46.49935125561302], [7.357445163699348, 46.49986838953313], [7.356681184409154, 46.49987521753247], [7.356517736544213, 46.5001149307413], [7.356428948626818, 46.500927600614034], [7.356657447773246, 46.501382262120615], [7.356679642493389, 46.50205587716612], [7.356932503939181, 46.50227525774334], [7.356540785340428, 46.503298713125645], [7.356559333301876, 46.50355632638123], [7.356652767844972, 46.504330513674105], [7.356688455694045, 46.50478739199539], [7.3568087489998675, 46.505029947872664], [7.356844416414737, 46.50520249188855], [7.3569830307616355, 46.505383638324375], [7.357010444628108, 46.50563741430564], [7.357329851990402, 46.5062627481817], [7.357470286205089, 46.506568932677105], [7.35788237251945, 46.50712690936812], [7.358383901278862, 46.508001087874796], [7.359008420771578, 46.507968956332654], [7.359962657157059, 46.5076201106803], [7.363191235744063, 46.51011884868267], [7.364024352577034, 46.51070864321149], [7.363918043688786, 46.51144781416436], [7.363872146205524, 46.511620380887315], [7.364221720352889, 46.511802800991084], [7.364586522881939, 46.5120540175125], [7.364683157460606, 46.51228352184329], [7.364744555905294, 46.51258013283467], [7.364944740632181, 46.51263828392726], [7.365155031220572, 46.5130217925153], [7.365340834037915, 46.51301304271436], [7.365374303390701, 46.51368084310999], [7.365922954730826, 46.513860917730355], [7.366108130628502, 46.514219437596424], [7.365824143328042, 46.51473264080704], [7.365641286100991, 46.51527845439487], [7.365561953001985, 46.515783328777005], [7.365548679688579, 46.515950033180985], [7.365686018994315, 46.51620812301305], [7.365542603009561, 46.51680908836648], [7.366113265154621, 46.517549711294016], [7.366388079082308, 46.51796834337382], [7.36636241600566, 46.51820175994779], [7.366182100897546, 46.518666113309415], [7.367209629579329, 46.51957149639905], [7.368330835110158, 46.51993812605016], [7.369032083537506, 46.52083907754697], [7.370822937927692, 46.52186080940553], [7.371254564405527, 46.522887289692775], [7.371687068413232, 46.523745485979994], [7.372388447999102, 46.52447841455994], [7.373567345209502, 46.52552579407185], [7.374890347366687, 46.52691651286633], [7.375447875145366, 46.52720811831701], [7.377089284449539, 46.52923159677889], [7.377732299344291, 46.53026678442318], [7.378499555409531, 46.530545767338175], [7.3788316068821524, 46.53076862105811], [7.37931041248818, 46.53084002204019], [7.379540744466096, 46.53079912422318], [7.379647236279694, 46.530866232816074], [7.38028940288573, 46.53107422693463], [7.3807565530267345, 46.53115972266856], [7.381792455965898, 46.53133828666721], [7.382455327977479, 46.5316208979465], [7.386823802737293, 46.5322309812803], [7.388802192632454, 46.53258087544257], [7.389394314050367, 46.53270409833782], [7.390068837399969, 46.53257745735097], [7.390328003241129, 46.53253358110873], [7.391347690345547, 46.53253790661029], [7.391443316658267, 46.53253211803216], [7.392645185198127, 46.53242258461026], [7.409385780933251, 46.52869558994727], [7.409448937542757, 46.52784102837768], [7.409552200990285, 46.52704106748989], [7.409777069164139, 46.52662477318454], [7.409960397612735, 46.52640200088125], [7.410876760662561, 46.52604562042296], [7.411764933645787, 46.52497963409528], [7.411879184130264, 46.52504848115832], [7.412477351181646, 46.52475248169339], [7.413424990401429, 46.52467378343875], [7.4147168424466665, 46.524166995413246], [7.415403258130132, 46.524235913687036], [7.41565398215216, 46.52407455672003], [7.417336003318483, 46.524202958842594], [7.417542708734806, 46.52460500907771], [7.420185785488953, 46.52524999488699], [7.421492806764451, 46.52579228214179], [7.4221587365086314, 46.52613714469667], [7.422482537044537, 46.52631701746285], [7.422563399350539, 46.526468570801185], [7.4245176964006845, 46.526653640440344], [7.425165097818077, 46.52695340009088], [7.425651089693625, 46.52702336092461], [7.426525960519743, 46.52704708503576], [7.427784288105596, 46.527423846432534], [7.428398789851891, 46.52730480329567], [7.429337163404053, 46.52714550127699], [7.4316082197521505, 46.52701109998497], [7.432424653181488, 46.526917505616396], [7.432603838170208, 46.52709473263935], [7.4327719641043, 46.52714108393361], [7.433153143199707, 46.52753106168485], [7.433317313748189, 46.527963769296356], [7.433495906157355, 46.52813539053543], [7.433690538364993, 46.528464127336996], [7.433828347516014, 46.52865397711906], [7.4344182015552835, 46.52882925405358], [7.434725094858562, 46.528798279196764], [7.435172516296493, 46.52903252937447], [7.435996880370294, 46.529239437136866], [7.4364145933765995, 46.52969373928868], [7.437089093588398, 46.529609201143565], [7.438265371450575, 46.5301462446261], [7.438619241180453, 46.53017953963714], [7.439337406624135, 46.5305276687667], [7.439837259780683, 46.5308294667252], [7.440375178758471, 46.530927057986794], [7.440402825436281, 46.530989676592185], [7.441494006870804, 46.53162651500192], [7.4421469602269195, 46.5318347103466], [7.442330753212042, 46.532020895934565], [7.442090278277437, 46.53210906551128], [7.442289740172124, 46.53250172231027], [7.442571291798969, 46.53260381631558], [7.443892358607701, 46.532844421831705], [7.444722034090589, 46.533049943160755], [7.444852411836482, 46.533258632292046], [7.445379705961469, 46.5336274282073], [7.4458007473674686, 46.53374930205263], [7.446181409202935, 46.534133840442806], [7.446399147790111, 46.53454043457129], [7.446626662269625, 46.53462002867127], [7.446941306187192, 46.53440789443328], [7.447532446776699, 46.534357820555826], [7.447536344182348, 46.534357559404505], [7.4477824571179205, 46.53427917992773], [7.448090760590074, 46.53404595416032], [7.448393737707828, 46.53435002321503], [7.448819530135681, 46.53454496715015], [7.449687804446391, 46.53480421485411], [7.450096264065876, 46.53498141500154], [7.450607551667371, 46.53531344301261], [7.4518722160265725, 46.535524326132965], [7.452369060046481, 46.53553891104091], [7.452807208641119, 46.53542693328929], [7.453356215133468, 46.53518956180348], [7.453596871470543, 46.53490782138932], [7.45382398679599, 46.53425966977874], [7.454167418833624, 46.53402269087747], [7.4543124808726215, 46.53386718372656], [7.456116607432765, 46.53407588980068], [7.456713169458383, 46.53418267809332], [7.458605968455509, 46.534142105731924], [7.459809729734469, 46.53449078523367], [7.460745820407981, 46.53503351574257], [7.4610688470483915, 46.5353015616141], [7.4618831807554455, 46.535624127416], [7.462649563088393, 46.53576811732321], [7.462968011559744, 46.535675385151386], [7.463759373839719, 46.53603217544327], [7.46438762550995, 46.536118010464385], [7.464988363697984, 46.53584498924525], [7.464883142399378, 46.53524564535031], [7.465364460845754, 46.53478607731865], [7.465884127140528, 46.534799799262814], [7.466901154426989, 46.53419307680747], [7.467709014976072, 46.533847601783464], [7.468441881017302, 46.53377348755222], [7.468445869490088, 46.53377316269163], [7.469311171701316, 46.53395752364896], [7.469635119324194, 46.53396451116586], [7.470218531401798, 46.533869730313825], [7.471131245149355, 46.53363206506891], [7.4715376657117565, 46.53343009717464], [7.473171131035043, 46.53353383992261], [7.474199147832961, 46.53369818359187], [7.474933685556786, 46.53343593816754], [7.476005179624167, 46.533293629165655], [7.4771684285836635, 46.533241126795524], [7.477172495235302, 46.53324085560977], [7.47837620853339, 46.533455520739274], [7.480346499722679, 46.53295960882802], [7.4807052098796305, 46.53303976778794], [7.4813001699543324, 46.53280910552922], [7.481546324732364, 46.53293848047177], [7.482302881677169, 46.53305517014428], [7.482829821951397, 46.53290908243157], [7.48257625672218, 46.53249605496359], [7.482688565798372, 46.53181670701723], [7.483259512555304, 46.53111238426593], [7.484325409931903, 46.53022272148932], [7.4857535752440025, 46.529263615591745], [7.485991054760647, 46.5291938207078], [7.486636227843085, 46.529125879613595], [7.486940815391361, 46.52909873160518], [7.487929008606321, 46.52907572745416], [7.488356850979407, 46.52906115030938], [7.489228223145982, 46.52876816561125], [7.4907501457584855, 46.52889095900619], [7.490859482292119, 46.52894202420419], [7.491371535425161, 46.52871251910589], [7.49185331391986, 46.52868710634204], [7.491857445292353, 46.52868682557483], [7.491999552913353, 46.52838236397199], [7.492965868008177, 46.52725021469249], [7.493060442075054, 46.52711015370522], [7.493628472524423, 46.526749817255485], [7.4940053504305215, 46.52655404698678], [7.49451456011016, 46.52635570151568], [7.494754356094163, 46.526305606256614], [7.49519971609819, 46.526301422418086], [7.495755500258775, 46.5263189503847], [7.496664054549838, 46.52646175587983], [7.496938595909551, 46.52639962116065], [7.497323214161068, 46.526290462125644], [7.4979084488413195, 46.526195069509384], [7.49858671959166, 46.52620089271512], [7.499029535670888, 46.52611209210114], [7.499387247640962, 46.52579225187395], [7.500094840674588, 46.52530368272471], [7.500394173472211, 46.52511469631332], [7.500730269801902, 46.52492633664532], [7.501041125199613, 46.52448077581269], [7.501384092613363, 46.5242092819174], [7.502549092877902, 46.52315479041792], [7.50281651276874, 46.52274942063228], [7.504264868065073, 46.52122997538303], [7.505069638614718, 46.520684193763294], [7.505234043541969, 46.520184605757485], [7.507601896319951, 46.518999427467385], [7.5077406525634975, 46.518967877825], [7.507849666602136, 46.518869851629525], [7.508058006333971, 46.51874378740996], [7.508279341641657, 46.51859072768045], [7.508539654690526, 46.51834768824157], [7.50869579588966, 46.51817667622005], [7.508911895951561, 46.51775279114936], [7.508937866468619, 46.51768081162981], [7.509172282720127, 46.51757271890622], [7.509289478257386, 46.51750967589912], [7.509432759035752, 46.517464563778475], [7.509584756230927, 46.517446984962376], [7.509589107899996, 46.51744652344105], [7.50968033486315, 46.517455461753016], [7.509784558773099, 46.517437406558486], [7.509836635325788, 46.51740139168301], [7.510032053835986, 46.51736529156025], [7.51012329409458, 46.51738322729339], [7.510175488434645, 46.51743716917717], [7.510201685896383, 46.517545093258974], [7.5103190553394175, 46.517616963540995], [7.510449412076912, 46.51765286539342], [7.510592780536165, 46.51767077340925], [7.510736133202276, 46.517679680226244], [7.511008876876099, 46.517613457528974], [7.511105120757207, 46.51773426314066], [7.511192393061579, 46.51781432612863], [7.511388002898695, 46.51792214389627], [7.511583605922779, 46.51802098055489], [7.511753056702495, 46.51805685503388], [7.512039765733954, 46.518074667192366], [7.512313402189842, 46.51806548390336], [7.51248199462247, 46.51807127989859], [7.512781530021047, 46.51793615921845], [7.513095000638372, 46.51787608253382], [7.513277422010982, 46.517866968751186], [7.513604707366087, 46.51778269731921], [7.5138391151286665, 46.517674595485595], [7.514125558347401, 46.51750348919818], [7.514294797895533, 46.51738643454597], [7.514568219882362, 46.51723334573153], [7.5148026863657975, 46.5171523087541], [7.515018130003889, 46.517137574670755], [7.51502253385955, 46.51713717593839], [7.515255470696176, 46.51714349198127], [7.515529175257808, 46.51718828030962], [7.515698543190186, 46.51717909876933], [7.5159042636973945, 46.51715501161795], [7.515908654425942, 46.517154567844926], [7.5161429411692415, 46.516965502020234], [7.5163381974499694, 46.516821448420245], [7.516689795060754, 46.51665928802405], [7.516885073873974, 46.51655120657571], [7.517080403348005, 46.51646111545049], [7.517396227974646, 46.51634635388094], [7.517617473213521, 46.51615729093044], [7.517799731855453, 46.51604022253179], [7.51812175029557, 46.51570476928274], [7.5181086938235575, 46.51568678721048], [7.518486196070884, 46.51542565270781], [7.518694499214568, 46.51529957088654], [7.518967953587724, 46.51515545319582], [7.519306531772478, 46.51501128905011], [7.519514858198691, 46.51490319719962], [7.5196711690415245, 46.51486710604823], [7.519762381282294, 46.5148670423861], [7.520179539352682, 46.514983694011285], [7.520453391609401, 46.51511842689842], [7.520696250580475, 46.51523098736996], [7.521074321632597, 46.51534764465945], [7.521426265956381, 46.51541036520033], [7.5217830663957805, 46.51546928596407], [7.52191909707041, 46.51548071337055], [7.522179620379855, 46.51542400709787], [7.5225270913896285, 46.51539072389769], [7.522531416879489, 46.51539031597248], [7.523024158161654, 46.515412994598364], [7.5231910511264815, 46.51537547613733], [7.523435177582118, 46.5152507610321], [7.523659713809027, 46.51509626998413], [7.523894063474412, 46.51497014941854], [7.5240634078123, 46.51492514600032], [7.52435004743256, 46.51490683629383], [7.524493353292274, 46.51488873974954], [7.524532430140039, 46.51487971521215], [7.524662563246045, 46.514771670973516], [7.524768034303684, 46.5146500257504], [7.52477962320004, 46.5146366496387], [7.524947798457483, 46.5143774759327], [7.524921180550829, 46.51403565545042], [7.524712493264025, 46.51390089452592], [7.524516734883742, 46.51371213510227], [7.5243210602516255, 46.513568369834275], [7.524265299349919, 46.51333087481191], [7.524147946075219, 46.513276988536106], [7.523773259678082, 46.51323594935816], [7.523043049097111, 46.51290366952003], [7.522938618671057, 46.51278681351149], [7.522873249964493, 46.512642933798986], [7.522755789593432, 46.51251708214293], [7.5224688480986055, 46.51233739778372], [7.522220970298632, 46.512130690067664], [7.521999290488007, 46.51202290465042], [7.521855733338531, 46.51187009306208], [7.521575149983179, 46.51158919672299], [7.520988446332458, 46.51134675570311], [7.520753676568665, 46.511194009797386], [7.520479820295728, 46.511050277516176], [7.520284314338516, 46.5110054489107], [7.519697515877461, 46.51069103591473], [7.519293411117499, 46.51056539103756], [7.518804474862136, 46.51033409389145], [7.518543575489959, 46.510118379298], [7.51789134640321, 46.50959706873642], [7.51776089969959, 46.509489209991614], [7.517526064922892, 46.509273473198185], [7.517160829252226, 46.50897684899896], [7.5170823457222635, 46.5087610061235], [7.517199321175272, 46.508572019015595], [7.517225146099694, 46.50841007111084], [7.517146787828693, 46.50828417863431], [7.5169771977009665, 46.508131370548845], [7.516898856258601, 46.50801447749573], [7.516820400073962, 46.50783460735102], [7.5168071781551715, 46.507699681107766], [7.516754870513604, 46.50756478099991], [7.5165721613665815, 46.50734900615665], [7.516472483805868, 46.5071125076486], [7.515997991177969, 46.50671068224278], [7.515841244113737, 46.50642291639], [7.5156846257586505, 46.50622511604157], [7.515501813670578, 46.50593737766341], [7.515266641968109, 46.50546075937934], [7.515070568776153, 46.50500210410334], [7.514900753029113, 46.50467837125499], [7.514666028693712, 46.504516588553784], [7.514561744881232, 46.50447168013158], [7.514209910886783, 46.50440894521268], [7.514131456289149, 46.50420209339939], [7.514066118428863, 46.504058204666144], [7.513661917765995, 46.50382458657443], [7.5136748838971394, 46.50377960021832], [7.51367467387524, 46.50362666510493], [7.51365322077586, 46.50342062385392], [7.513612095329234, 46.50312870421573], [7.513621548888315, 46.502898039634125], [7.51350386044771, 46.50257426555434], [7.513425291402423, 46.5022864577288], [7.513164588034717, 46.50216968402165], [7.512513144737697, 46.502098139668114], [7.511900761080035, 46.50201757309127], [7.51179648357916, 46.501972661063334], [7.511692182433425, 46.50190975793591], [7.511483543270343, 46.50175696225216], [7.51127480928874, 46.50154119755507], [7.51098797369385, 46.50136145261348], [7.5107663751959475, 46.50125364764549], [7.510466566178353, 46.50110990517124], [7.510166865199511, 46.50104712349124], [7.509971403607627, 46.50100226773279], [7.509736873266459, 46.50096643134814], [7.509437081226312, 46.500831683149585], [7.508981207577179, 46.5008859331184], [7.508577465238566, 46.50094915437915], [7.508486196715009, 46.500886240424364], [7.50830373045652, 46.5008143880822], [7.50805613009473, 46.50074257428092], [7.507834640397492, 46.500715721804525], [7.506831359573017, 46.50054540164091], [7.506518681469669, 46.50051859755148], [7.505645831836945, 46.50047413136105], [7.5049161768250165, 46.500348610867775], [7.504004002024782, 46.500084597884225], [7.503619594029025, 46.499981502891174], [7.503163493367536, 46.49983783172531], [7.502694326594586, 46.49965818357797], [7.502133912281987, 46.49943360596797], [7.501768220076683, 46.49929845106354], [7.501286005435612, 46.4990918174811], [7.501058705108589, 46.49897444201691], [7.5009283501810025, 46.49889355345518], [7.5007327933091466, 46.49874973158209], [7.5005893529662035, 46.49861487700658], [7.500458919200618, 46.498462023779275], [7.500263384804456, 46.49833619163781], [7.499963581432365, 46.498156441321534], [7.499579953561196, 46.498020723538566], [7.49900683361316, 46.498039015927674], [7.498694204760131, 46.49803918799146], [7.4980297146727155, 46.49789560420155], [7.4976258471217845, 46.49784183962481], [7.497404298365618, 46.49774300299442], [7.497162367203773, 46.497609175412954], [7.497071117119749, 46.49754625166477], [7.496784582920581, 46.49758238088946], [7.496393801674174, 46.497582579005744], [7.4959899697429, 46.49754679966002], [7.4951561668161695, 46.49741228308353], [7.4947392980284215, 46.497376505832904], [7.494478705343455, 46.4973046687191], [7.493631873835637, 46.49716115017963], [7.492485635518332, 46.49717969696431], [7.492277255618892, 46.49721577758338], [7.491977702814947, 46.49726089652545], [7.491717244713178, 46.49732399667178], [7.49154789890242, 46.49731508027982], [7.490688057035918, 46.4971805407256], [7.4902581334747005, 46.497108770677436], [7.4894106313898865, 46.49705356103044], [7.483485972703975, 46.4949880377018], [7.483234873013143, 46.494627846297945], [7.482904824581498, 46.494552944754986], [7.4826712524859476, 46.49445630953985], [7.482173008039666, 46.494313219517515], [7.481854876686787, 46.494197975484376], [7.481527850507109, 46.49403331999634], [7.480430705949512, 46.493800298869935], [7.4800830107599765, 46.49375028744688], [7.479901372932735, 46.49371452096126], [7.479455141149802, 46.49369676474098], [7.479299423671792, 46.49366099678633], [7.478560652955693, 46.49331333776496], [7.478155869145337, 46.49322034988802], [7.47763163296693, 46.492980526306575], [7.477086786622142, 46.49295205061992], [7.476952440468317, 46.49288711861587], [7.476404998314709, 46.49286917533338], [7.475782358590316, 46.49286222014598], [7.475465825611899, 46.492826487351216], [7.475185521919422, 46.49268329746698], [7.474998751719803, 46.49271558578393], [7.474531879351795, 46.49289125744177], [7.474146426379484, 46.492927175191284], [7.473876690827205, 46.49300964572618], [7.473684701975322, 46.49303118373776], [7.473305867224028, 46.49294533313824], [7.472984154510604, 46.49289170412832], [7.47279209076716, 46.49276997647191], [7.472308446373004, 46.4926191672654], [7.472080028635966, 46.492447307326124], [7.471784181340352, 46.492318436675745], [7.471324997707067, 46.492266074290605], [7.4713049936529865, 46.49224760271452], [7.471240318771224, 46.49212738342415], [7.4711734295493235, 46.49191701084812], [7.470987851812408, 46.49175961053693], [7.470649629782264, 46.49165416520012], [7.470501630984444, 46.49158771821665], [7.4701537663111806, 46.49147104737123], [7.470009551888912, 46.49146173891816], [7.4697283131188525, 46.49142026176955], [7.469588633755329, 46.491321696695174], [7.469426311219328, 46.491281060325846], [7.469117141577982, 46.491131667601906], [7.468876080837592, 46.49096267255699], [7.468842328142362, 46.49090715733254], [7.4686530817416275, 46.49073846473248], [7.468237676816792, 46.49049031568898], [7.46798827238589, 46.490293642466455], [7.467805263580558, 46.490215144818386], [7.46777152867687, 46.490163211320066], [7.467554074536861, 46.48998903618817], [7.467298180884022, 46.48980135927929], [7.466314575498066, 46.489406745938915], [7.466201723244391, 46.489384534903735], [7.466088896238735, 46.48938679200954], [7.4658020792184585, 46.489335681098744], [7.4654833292022325, 46.48923376030189], [7.465093448595316, 46.48936452626101], [7.464343375164151, 46.48976226969537], [7.465172643309197, 46.49102309868689], [7.464673295994837, 46.49135864782184], [7.464315025233928, 46.491501608099625], [7.464009706703476, 46.491687980751195], [7.463497384310417, 46.49184587983966], [7.462268820883895, 46.49285564502076], [7.461884414372765, 46.49307898968031], [7.461343981314898, 46.493250951080384], [7.4611840959188696, 46.49311708886717], [7.460916226672937, 46.492933257054375], [7.460806279809526, 46.49289432558074], [7.459829387241269, 46.49278651273219], [7.4593140765616806, 46.492673641634305], [7.458910476453556, 46.49246848248971], [7.458236250957035, 46.49227090299678], [7.457631306445472, 46.492062155366604], [7.457348663536023, 46.491892782937704], [7.4566362702472295, 46.49163349149108], [7.456198959601362, 46.491436841227014], [7.455470202566541, 46.491272755782845], [7.45494386854585, 46.491127788586084], [7.453772067642254, 46.491385793027945], [7.452455131295727, 46.491741133610205], [7.450698016021404, 46.49228055133046], [7.4494835706972955, 46.4926468924772], [7.448108311650763, 46.49299074351022], [7.446480430504208, 46.49337068249088], [7.444810103674347, 46.493748279705805], [7.444606746275265, 46.49379883503138], [7.444452132906128, 46.49358833755095], [7.443835107397468, 46.49359612606099], [7.442930224322412, 46.49359410410224], [7.442341710115938, 46.49387434080445], [7.441883137274602, 46.49401052592514], [7.4414777948899244, 46.494102800823455], [7.441214425147, 46.494138130441165], [7.440981129473527, 46.49413846612973], [7.440948952293155, 46.4939593726655], [7.440968147329168, 46.493813760014355], [7.440836631101082, 46.493790894168626], [7.440863448322138, 46.49372341779675], [7.440862431517649, 46.49369555817142], [7.440822856269106, 46.493513540650625], [7.440854088398806, 46.493429143388184], [7.440600097653206, 46.49337850003041], [7.440566742023939, 46.493471190930464], [7.4402350171907425, 46.49343328440793], [7.44044292885812, 46.492961921736395], [7.44094767993358, 46.49219384547256], [7.441071473858409, 46.49195497434637], [7.441109611125277, 46.491552806139815], [7.439876144757067, 46.49132398730484], [7.439390039657241, 46.49126559474443], [7.438755593743493, 46.4913651042652], [7.438283617483008, 46.49134694975882], [7.437852569289867, 46.491202730130894], [7.437704126535994, 46.49122966833843], [7.437220425544528, 46.491022557346156], [7.436395232760378, 46.490679616789734], [7.435891702715988, 46.4901715821875], [7.43507254201856, 46.49004052119237], [7.435297064328997, 46.48959485236349], [7.435225437890735, 46.48935845476534], [7.435258938206189, 46.48916989049521], [7.435355133003868, 46.48901609629629], [7.435516426280252, 46.48879181453452], [7.435530924735, 46.48875259398283], [7.43477697882171, 46.48839731869531], [7.434945140858671, 46.48812830398515], [7.433897399979214, 46.48794622091646], [7.433466825918372, 46.48787620867988], [7.432879520964273, 46.48773295193538], [7.432670232177287, 46.487705915202966], [7.432022148236915, 46.487668268134726], [7.431606538592179, 46.487636608739095], [7.4313183097064845, 46.48763440884151], [7.431298783829753, 46.487740366449145], [7.430775175169565, 46.48774349031517], [7.430596022497195, 46.48764884114076], [7.4304746357408105, 46.48752336850512], [7.43049980981996, 46.48729031138705], [7.429987544283854, 46.48680227153478], [7.4300016144229435, 46.48670139589569], [7.42994002856364, 46.48668912962227], [7.42986010749485, 46.486302689106026], [7.429893203138639, 46.48599247817407], [7.42999847096074, 46.48576802844287], [7.429820412480302, 46.48571261618981], [7.429771521710953, 46.48579302371858], [7.429651416171127, 46.48574882663676], [7.429471753851593, 46.486064259951625], [7.429095747024878, 46.48591689578364], [7.428919114204778, 46.48610479748172], [7.426703797919806, 46.4852113042441], [7.426446422940968, 46.485103148450804], [7.42622218894349, 46.4851126575038], [7.426255765075641, 46.4854197265673], [7.425532055345051, 46.485370029542025], [7.424623294127185, 46.485350269768794], [7.424675657599862, 46.48526469227885], [7.424850763943856, 46.48493663533621], [7.424830248173381, 46.48461804408712], [7.424701715231258, 46.48436713076284], [7.424469084088917, 46.48423944414161], [7.424054601993932, 46.48397815626706], [7.423333194062302, 46.48376829523126], [7.42232078507936, 46.48348852960449], [7.422201942886688, 46.483682861915206], [7.421939612389888, 46.48392465990503], [7.421639131620958, 46.484176111519346], [7.421419532848698, 46.484274434229526], [7.420842936397193, 46.484445660779166], [7.420201251742643, 46.48464258334396], [7.419938728637534, 46.48476746968982], [7.419558217412131, 46.48447855257564], [7.419419375303937, 46.484393514370744], [7.419253395620687, 46.48423208818535], [7.419001967516431, 46.48415254032243], [7.418740226764339, 46.48393793104566], [7.418655178906717, 46.48382829601458], [7.413234561864517, 46.4825336536658], [7.4126826994983945, 46.48272464633677], [7.412601906009752, 46.48270633295335], [7.412369841393246, 46.48253342808836], [7.412320222493059, 46.48238552891066], [7.411976546225473, 46.48216346508223], [7.411405239419702, 46.48174380710947], [7.411270327909321, 46.48167102652772], [7.410754247329845, 46.481542252279205], [7.410476360505488, 46.481577012757285], [7.410350574257976, 46.481513327886795], [7.410302555672289, 46.48133171262332], [7.409115772947868, 46.48104445158897], [7.4089991310025045, 46.481049484718895], [7.408934902079244, 46.480987685880905], [7.40856966656047, 46.48083890900753], [7.408524522469473, 46.48074256301081], [7.408642551410568, 46.48065660639102], [7.408633461870613, 46.480565955308734], [7.4083974798152745, 46.48029093161341], [7.408292611613151, 46.4802731726629], [7.409038294427985, 46.47955752515167], [7.409699821924761, 46.479067988598764], [7.410022710275972, 46.47910837318346], [7.410347696761894, 46.47904918430928], [7.410595838379155, 46.479046126078266], [7.4108665941563086, 46.4787359656846], [7.411458836621392, 46.47817473927307], [7.411690523176682, 46.47823315149292], [7.412700232550493, 46.47703706839842], [7.412763666122001, 46.47696942754335], [7.412894628104276, 46.476926153716285], [7.41297893529765, 46.4769355199672], [7.413390371471639, 46.477133220991], [7.413634246489543, 46.477129624418566], [7.4136686409016, 46.47711821689478], [7.414355766468237, 46.47670215368909], [7.414705641008153, 46.476138943907095], [7.414856490690059, 46.47562199082572], [7.415048556208227, 46.474911594136785], [7.414886553526044, 46.474538771060395], [7.4149667053851225, 46.47348770718257], [7.4149528325039595, 46.47341472224738], [7.414970286552381, 46.473428021407116], [7.415081361489012, 46.47348663301035], [7.415196716728423, 46.473495499725566], [7.415303371015562, 46.47356995137094], [7.4155097786117965, 46.473634051673514], [7.415611333186814, 46.47367159328784], [7.4157712993789, 46.47367333482828], [7.416092791700155, 46.473743898527815], [7.41624056567592, 46.47375748371865], [7.416374324650244, 46.47381409220248], [7.416574112447079, 46.47386482133481], [7.416845087168677, 46.473874688190385], [7.4169595366111265, 46.47393502578487], [7.417146566304367, 46.47395251280063], [7.417247839766295, 46.473980697116204], [7.417360797717754, 46.47396464312619], [7.417509502452605, 46.47399855781279], [7.417687766428668, 46.47396085464648], [7.417827624857917, 46.47394476103813], [7.418267056340536, 46.47411776126495], [7.418409853315493, 46.474210279268966], [7.418578547385512, 46.47367561395628], [7.418576625085722, 46.47339576058898], [7.418625786626767, 46.4722932676297], [7.4187152240629475, 46.47214814777077], [7.417517550253536, 46.466808629323054], [7.417264926262522, 46.46581898993888], [7.41278512223668, 46.46669999721647], [7.415238409825498, 46.46303177466292], [7.41119203545013, 46.46253066826811], [7.410236694532969, 46.46222458721458], [7.409524567988165, 46.46232065659886], [7.409075370143312, 46.462483359325574], [7.408815036695673, 46.4624266172188], [7.406783935624721, 46.46297298288524], [7.406418001679206, 46.463218460426084], [7.405631942245406, 46.462806235404514], [7.405224644907887, 46.462534451940165], [7.402982714203878, 46.460926295387736], [7.40147832707737, 46.46029253183839], [7.40127328029074, 46.459944431676455], [7.400901203372475, 46.459080668794655], [7.400243057372745, 46.45834823553368], [7.399838628345936, 46.457784080218566], [7.3993717845735, 46.45716324752742], [7.398032250891836, 46.45559489505831], [7.397856752384719, 46.455313277662626], [7.397443235053165, 46.454798587265536], [7.396919008646294, 46.45437292770309], [7.39608113062862, 46.45392553671756], [7.395590771066203, 46.45350437915568], [7.39478849234794, 46.45251368033692], [7.39481241872221, 46.451911002677335], [7.3942184288756385, 46.45092578538308], [7.394062625377218, 46.45078997998522], [7.393647231508365, 46.45072766206721], [7.393448277387703, 46.4505107885019], [7.392872126294274, 46.45002841565524], [7.391962703949296, 46.449659240835835], [7.390174845886103, 46.44924920658527], [7.387719934633873, 46.44907202430135], [7.387337606874007, 46.449317230542725], [7.386977543296226, 46.45019321916501], [7.387198125534089, 46.45091384723533], [7.386884892835831, 46.45182672922094], [7.386864670342144, 46.45254724340287], [7.3862634948887385, 46.453750548429426], [7.386218824937593, 46.454175095042714], [7.3857219333569315, 46.455070796128254], [7.385161556211429, 46.45587561398273], [7.384402840691101, 46.45704372813877], [7.3838550392633655, 46.458137287360145], [7.383586289172404, 46.45872455856792], [7.382882702126639, 46.45937547217046], [7.38198156456831, 46.460942004766686], [7.381638764414714, 46.46135830887346], [7.381060145745135, 46.46195620119297], [7.380923086116502, 46.46230244274109], [7.380820315130764, 46.463452002681166], [7.380680116673141, 46.46429838171417], [7.380573109165776, 46.46465571279558], [7.380015457546008, 46.46496638840425], [7.378757884813263, 46.46612701712854], [7.3771618804338726, 46.46718129142817], [7.3757376094268645, 46.46829230977964], [7.375401199977985, 46.468728396708336], [7.375128895832792, 46.46888746275881], [7.374987632232555, 46.46944598768205], [7.374994616773241, 46.47014401381661], [7.373865115340632, 46.470718174244794], [7.373802073748054, 46.471165195693516], [7.373588041578854, 46.471580647826414], [7.373827002353903, 46.47208542529435], [7.3728954353323575, 46.47260209783977], [7.3720553780763645, 46.47280311468807], [7.371674555226297, 46.47330842117197], [7.371084543116408, 46.47346278326768], [7.370886602074353, 46.473477964793446], [7.370432035193483, 46.47360091766264], [7.369897324137978, 46.474281528993174], [7.369692372140044, 46.47468980816433], [7.369804020939186, 46.47600949513345], [7.369813952349075, 46.47638371432399], [7.369857932528483, 46.47661852420862], [7.369868045986745, 46.476863209126996], [7.369669326452162, 46.477490978957746], [7.369655411603587, 46.478202513092064], [7.36943691927576, 46.4790119848219], [7.368914999655107, 46.479820367159874], [7.368665637250161, 46.48134854989002], [7.368551796678455, 46.481765883926094], [7.368607434950399, 46.48205017376408], [7.367921387843925, 46.482863853429805], [7.367470267490436, 46.48326207794969], [7.366963108660835, 46.483687272583374], [7.366695472854846, 46.48419715754128], [7.366444861010997, 46.484622491271274], [7.366193737554033, 46.48543282873603], [7.366249233510491, 46.48582506620387], [7.36616917274014, 46.486291897062124], [7.365838947320455, 46.48683051959257], [7.354238381161508, 46.491316167372304]]]]}}]}