{"type": "FeatureCollection", "features": [{"type": "Feature", "properties": {"bfs_nummer": 879}, "geometry": {"type": "MultiPolygon", "coordinates": [[[[7.482318607373691, 46.83769660694606], [7.482610075155123, 46.83750399518741], [7.482971043831074, 46.83738014296871], [7.483394895209291, 46.83718157586965], [7.4835744966598785, 46.83702865593598], [7.483681745265871, 46.83689814460227], [7.483702251050568, 46.836712894514704], [7.4837473498440845, 46.83640352526988], [7.483626763796217, 46.836206654162496], [7.483863998492552, 46.83591150452503], [7.4839742596372885, 46.83574927498005], [7.484588904848141, 46.83551750828394], [7.48477477328621, 46.83557800041574], [7.484905153456714, 46.83568195265101], [7.484934573910239, 46.83593868523942], [7.484980495665896, 46.83605298832431], [7.485246945105866, 46.83627217021022], [7.485489959353098, 46.83635343499778], [7.485699379916668, 46.83646762637546], [7.48605578946139, 46.83663667166083], [7.486165803505533, 46.83667973130587], [7.486300634960944, 46.83669618190287], [7.486462448882045, 46.83667416607816], [7.486862376186264, 46.83665633306116], [7.486993850321251, 46.8366259816893], [7.486951254042418, 46.836587103807005], [7.486999903939321, 46.836578600844554], [7.487172906273419, 46.83650593584706], [7.487379704528524, 46.836363740297166], [7.487666786897549, 46.836234400702665], [7.487678378641568, 46.83620986542544], [7.487749648611261, 46.83612392046321], [7.487857343547656, 46.83605035559634], [7.487982234871657, 46.83604836838345], [7.4881610734790165, 46.83609849506628], [7.488296515041359, 46.83616679266614], [7.48841186559257, 46.836209848823046], [7.488492262067634, 46.83622957693232], [7.488605420149657, 46.836239800841085], [7.488783815366162, 46.83620528038484], [7.489029175967875, 46.83605309835386], [7.48930620096924, 46.83594005872261], [7.48954711143459, 46.83581185921125], [7.489911812218236, 46.83557172050807], [7.49005097906134, 46.83546017963278], [7.490128249588325, 46.83536198832393], [7.490197859977123, 46.83545376379174], [7.490060080025698, 46.835855988114126], [7.490129678819823, 46.83599104870018], [7.490718756823156, 46.83620363145256], [7.491083671819157, 46.83631365879676], [7.491597681141414, 46.83647947749655], [7.491783395885981, 46.83654620928921], [7.4920106242574676, 46.83666642584272], [7.492259587538917, 46.8368138788216], [7.492540063237851, 46.836826656852274], [7.492902139077416, 46.83677489915304], [7.493008141575801, 46.83674511966195], [7.493205348292508, 46.83676556303992], [7.493385137633885, 46.83678925266995], [7.493507954435253, 46.83682155962594], [7.4936558983099975, 46.83691769422859], [7.493730089234515, 46.83695502569405], [7.493916784056777, 46.836676369537386], [7.4940579049000755, 46.836493166339686], [7.494263696442384, 46.836267617962136], [7.49443253581312, 46.83606899183817], [7.494868846812723, 46.835581126155034], [7.495645018861276, 46.83589716489284], [7.496794922262077, 46.83447113035612], [7.496974148836923, 46.8341568064097], [7.497236331448102, 46.83414936079706], [7.497492532081719, 46.834137249267165], [7.4976593949574, 46.833691004929456], [7.499182009968725, 46.83388132460183], [7.499187057585102, 46.83363375252125], [7.499266229942558, 46.83363683248832], [7.499260263220286, 46.83323198306273], [7.4998511141761295, 46.833395134122775], [7.500454713415879, 46.83336457947604], [7.501091936461246, 46.83333715258067], [7.501067154500508, 46.83338670312484], [7.501150097219719, 46.833466527488945], [7.501400640008704, 46.83356477387377], [7.501604786811114, 46.833620667704466], [7.501941565787414, 46.833799247359764], [7.502348988033401, 46.83379046862367], [7.502962973509878, 46.833805798874295], [7.503130716165251, 46.833822148989476], [7.5032973756623855, 46.83387565918721], [7.503798736542507, 46.83395165851252], [7.503983200805773, 46.83400818020787], [7.504200185820847, 46.834054176726845], [7.50437417832531, 46.83406745419597], [7.504378322883959, 46.83405869040739], [7.5045388844177, 46.83407550134931], [7.504715473598841, 46.83411184022295], [7.50487197145956, 46.83414948669069], [7.506362109293708, 46.83456401173023], [7.506600258472431, 46.83463429677233], [7.506834638218751, 46.834719021091836], [7.507051000504951, 46.83482858272186], [7.507232924925977, 46.83494488385284], [7.507268287027515, 46.83497400783634], [7.507776932331152, 46.83441393438363], [7.511183448864683, 46.835555094344905], [7.512700595084592, 46.833623166764234], [7.512839577442617, 46.833443233869204], [7.512972579038248, 46.83326117278296], [7.513099547609476, 46.83307708249081], [7.513220430948672, 46.83289108898348], [7.513335124182485, 46.832703255107056], [7.513443588390086, 46.832513698100435], [7.513591813904447, 46.83224427260147], [7.513733731243074, 46.83197324982245], [7.51386932752515, 46.83170071079656], [7.513998537294875, 46.831426700472505], [7.5141213346036455, 46.83115131789368], [7.51423768030412, 46.83087462606892], [7.511103641794564, 46.83011670516951], [7.511640430576887, 46.829271183293855], [7.511674785132389, 46.82919493506287], [7.511993960553546, 46.828178960647776], [7.508674671265601, 46.82736781876915], [7.508341143317925, 46.82798695397449], [7.5081165799033265, 46.827932514008914], [7.508076601973589, 46.827929011837924], [7.506794443382371, 46.82783998282909], [7.5062154557202865, 46.82783726531103], [7.505830177854794, 46.82763474418659], [7.505378274706771, 46.82752018030802], [7.5051092495899185, 46.82743462767438], [7.505099275386787, 46.82766056895408], [7.5045740567463755, 46.827576763202615], [7.503174106183553, 46.82734480882189], [7.501311431908765, 46.82623778770849], [7.5012638095162245, 46.82610371069064], [7.501153367913232, 46.82594279856698], [7.501039836856082, 46.82581875095188], [7.500977556739132, 46.82573606325961], [7.5009437776130445, 46.82563863487075], [7.500793886434439, 46.82568130874874], [7.5003709263113985, 46.82579113549382], [7.500226500416444, 46.825776873846955], [7.500216483092052, 46.82580754440209], [7.499850397337563, 46.82581130073056], [7.499505338875444, 46.82584344406517], [7.499318354804729, 46.82589540116452], [7.499004599762879, 46.825923172708364], [7.498454195756271, 46.82593748320026], [7.498478746875177, 46.8256423417691], [7.498502239045438, 46.82551715936436], [7.498534187638551, 46.82544303920136], [7.498580304788664, 46.8253823238841], [7.497719157345207, 46.82514826809926], [7.4966885488842765, 46.824836122018965], [7.4965121734207925, 46.82491842815736], [7.496329530450979, 46.824961031574304], [7.496032837928946, 46.82494718269833], [7.495542936586029, 46.824885366230276], [7.495318531007087, 46.82488182448156], [7.495113758989266, 46.82489299770786], [7.494965230753691, 46.82487466550785], [7.494661332245076, 46.824759789315436], [7.494599973458372, 46.82470859947691], [7.494196375065543, 46.82449322036936], [7.494162086181819, 46.824319509801974], [7.494136854214699, 46.824081838435454], [7.494137630344968, 46.82386445709237], [7.494242256464449, 46.82340548593723], [7.494597776708321, 46.82249069547566], [7.494556698605257, 46.82248292538284], [7.494579473052298, 46.82237873031543], [7.494679795526224, 46.82214133053671], [7.494671190190891, 46.82197894194798], [7.4946156639784505, 46.821809973610414], [7.49465768663386, 46.821665443060084], [7.49470654641837, 46.82145376794143], [7.494771599020802, 46.82123826201877], [7.494880510189031, 46.82100890876691], [7.495020597698359, 46.82080709296271], [7.495302741426857, 46.82052400575453], [7.49535459118218, 46.820381170284364], [7.495335261846508, 46.820215872432414], [7.495255958233691, 46.81997755277001], [7.495087361545898, 46.81974886620816], [7.495222059227497, 46.81949610335484], [7.495278689992678, 46.819263500901954], [7.495215116715152, 46.819080152593884], [7.495130638457686, 46.81894265522368], [7.494953670059768, 46.81881450360583], [7.494804845943578, 46.81881059101766], [7.494701774353374, 46.81854517858164], [7.494585089692604, 46.81826765577059], [7.494532654707379, 46.818260413232295], [7.494566850262348, 46.81793551031422], [7.494761670114567, 46.81780419928645], [7.495333604090595, 46.8178444532234], [7.495256260474462, 46.81754458032811], [7.495227893874233, 46.817393914352664], [7.495264464668358, 46.81735486569848], [7.4952547735855575, 46.817144828756156], [7.495125258752677, 46.81687761280768], [7.494978453477603, 46.81660244380684], [7.495046081594033, 46.81628687113577], [7.49523250890365, 46.81596465680747], [7.495340731514806, 46.815715135852386], [7.495388466572653, 46.815576691799365], [7.495445668937916, 46.81545785288481], [7.495473631390053, 46.815307148694046], [7.495524550083231, 46.815093393810756], [7.4955554758988665, 46.81476848426519], [7.495611852342912, 46.8145244213549], [7.495781480382455, 46.81423521779192], [7.495898087483011, 46.81410283897739], [7.496003766789017, 46.81404585556413], [7.496085757418363, 46.814015042158466], [7.496190954826891, 46.81399861880043], [7.4963240861632885, 46.814006477562415], [7.496521935626802, 46.81398108384387], [7.496747864045424, 46.81383356204848], [7.497098779118626, 46.81362778453589], [7.497253092423937, 46.813510522521405], [7.49736925664379, 46.81339917127368], [7.497600870466764, 46.81327966504533], [7.497866576398436, 46.81307791139035], [7.497752146292369, 46.81301126018808], [7.496330506818812, 46.812661590730336], [7.496356948924053, 46.81261347026592], [7.496084344958771, 46.812528617930596], [7.495934832348143, 46.81242610914396], [7.495730621477641, 46.81227621267273], [7.495424026140611, 46.812134156008085], [7.49505124653661, 46.81202367742286], [7.495209871742134, 46.81179415322665], [7.495427527137241, 46.81141316300761], [7.495953331738541, 46.81080117332524], [7.496277655604079, 46.81088803381722], [7.496475956662019, 46.81090365938923], [7.496432660069147, 46.8107720698506], [7.496318653266716, 46.81057853742739], [7.496156098276202, 46.81021589874883], [7.496110964579596, 46.810005519457306], [7.495727950917733, 46.80954208701922], [7.4955934921009195, 46.809343489980954], [7.495372347351422, 46.80911221026001], [7.495243308146959, 46.808995486402914], [7.494863963634444, 46.80849279374347], [7.494753300078655, 46.80831694302901], [7.494689219135591, 46.8079307304173], [7.494625879441358, 46.80728127780365], [7.4946458299718595, 46.807074329267834], [7.4951293981448845, 46.80670521108116], [7.495439038543625, 46.80651715486361], [7.4956974524388205, 46.80632868252613], [7.495935046358939, 46.8060765507174], [7.495896076075871, 46.80605561089148], [7.49694981250314, 46.805520498602384], [7.497815409383399, 46.80435757133828], [7.498527868661848, 46.80406835593227], [7.498895096563775, 46.80390310101683], [7.49943772178286, 46.80336018397139], [7.499744423013771, 46.803032763672704], [7.49984422073994, 46.80295235565056], [7.499904132699263, 46.80292250419356], [7.498703014316878, 46.80276851620902], [7.498046152443713, 46.80258070163634], [7.497867822374229, 46.80254265326565], [7.4971839953054, 46.80259091046651], [7.496909674897887, 46.80252129832333], [7.496437335668128, 46.80246070078226], [7.496212842104939, 46.802409529940114], [7.495972112767546, 46.8023531942034], [7.495647534864834, 46.80223614521445], [7.495379905847609, 46.80228628224546], [7.495013050550919, 46.802328668300554], [7.494781568929632, 46.80221842594219], [7.4944403565089415, 46.801997610502774], [7.4942457543413115, 46.80190187619553], [7.494069956166654, 46.801798522276044], [7.493893521733965, 46.80175190239924], [7.493475883738358, 46.801653241388415], [7.493182259285406, 46.80159167173793], [7.492876020258765, 46.80156963273535], [7.492327105156213, 46.801608999520354], [7.492053574738353, 46.80155861669556], [7.491315233750914, 46.80140241612158], [7.49121407926512, 46.80138960728032], [7.490929901783042, 46.80134070988904], [7.49044313064401, 46.801226694554394], [7.490248460242128, 46.801201180213745], [7.490208823939397, 46.80119041229844], [7.489859234831068, 46.80111914300446], [7.489388062837647, 46.80101233929777], [7.489239874573825, 46.800991084617266], [7.4890152935887455, 46.80100213821391], [7.488736134781927, 46.800921255336384], [7.488499548393576, 46.80089651129345], [7.4882990632364, 46.800870581877575], [7.488124398164082, 46.80086009522198], [7.48739408766809, 46.80086010387781], [7.486832841033265, 46.800876383878666], [7.48640894849202, 46.80087026890879], [7.486044745241341, 46.80088850568627], [7.485757523256091, 46.80087102592815], [7.485678038811024, 46.80081399978472], [7.4854770421678465, 46.80097001489653], [7.485276283033213, 46.801114433996844], [7.484729872154305, 46.800815867495864], [7.484067644985689, 46.8004255901437], [7.483986179130629, 46.80045639488775], [7.4835701148643885, 46.79995774320699], [7.483526690707595, 46.79989338897387], [7.4834009487541735, 46.799938791931204], [7.483315278962325, 46.80000240412298], [7.483290414232342, 46.79996729564219], [7.4831909394317835, 46.799725394448764], [7.483240153453222, 46.7996119987033], [7.4832563750813605, 46.799439309354405], [7.483150674372731, 46.799256177119155], [7.481594535932653, 46.79857381495547], [7.481414894573729, 46.79865428179136], [7.481087345222332, 46.798418139321406], [7.48074504594982, 46.7981941723388], [7.480460532885788, 46.79799442539511], [7.480072856745092, 46.79770895148708], [7.479400423907118, 46.797177267349475], [7.478567957373509, 46.79656185728543], [7.47807840559025, 46.796178587232816], [7.476475902367131, 46.7952205328315], [7.476824787280721, 46.79492339187015], [7.477618701217945, 46.79440905274694], [7.477671216217495, 46.79437980025547], [7.478648522916704, 46.79348786482231], [7.480904504700291, 46.79208654282068], [7.481101854947603, 46.792036608141885], [7.481384235214185, 46.791923816916054], [7.481405318307504, 46.79166622630733], [7.481383882240724, 46.79109760889279], [7.481364196314324, 46.79082612637497], [7.481849204541959, 46.789586629660825], [7.482148507560036, 46.78896305510399], [7.482251051609856, 46.78889419312625], [7.482495725174137, 46.78878394359868], [7.4828156804781765, 46.788532005492456], [7.483053923257249, 46.788408560853334], [7.4833971775243, 46.788194870207924], [7.483713045648136, 46.78795095504448], [7.48388076650586, 46.7878344990725], [7.484047459396829, 46.78769539267802], [7.484285982644998, 46.7876177590683], [7.484528091104509, 46.787411435670585], [7.484613704455423, 46.78728967700159], [7.484758696429069, 46.78716959450999], [7.484917244376441, 46.78705230373647], [7.484983985337324, 46.78691637466507], [7.485241735602186, 46.786722933981736], [7.485408117331633, 46.78658045225526], [7.4856584724474535, 46.78644126490478], [7.485816724379384, 46.78630420121604], [7.4859372740764005, 46.78629073141877], [7.486115059076026, 46.786223751597305], [7.486279928183517, 46.78609291858666], [7.48646271997077, 46.7859868691282], [7.486688967758431, 46.78575153759368], [7.486863682275378, 46.78554648753076], [7.487050254348313, 46.78540867340413], [7.487358061774051, 46.78510351316215], [7.487476543789146, 46.78500670929447], [7.4876508356367815, 46.78484802006237], [7.487914497697198, 46.78463879295831], [7.488056935660496, 46.784490893345236], [7.488275800277076, 46.78433129374401], [7.488473430921886, 46.784180168019425], [7.488611085563254, 46.784060128592046], [7.488789008745886, 46.783883670639824], [7.488884689406795, 46.78383295846464], [7.48919206039097, 46.78374472452598], [7.489282218761925, 46.78372745913817], [7.489467548769738, 46.78370469213091], [7.489731148494081, 46.78368120678257], [7.490149876058873, 46.78368693232252], [7.490417587901433, 46.783664154084605], [7.490858943578518, 46.7836972394627], [7.491028367249355, 46.78368017083213], [7.491121218924304, 46.78365915164443], [7.491301853764163, 46.783589319665374], [7.491557114250465, 46.78343388063912], [7.491722319296416, 46.78334790857706], [7.49175553145586, 46.78332359691616], [7.491841029527537, 46.78324179899595], [7.4920356285124985, 46.783043776281616], [7.492112750756983, 46.782698301488765], [7.4916921664598535, 46.78233317629653], [7.49160446717143, 46.78224875040794], [7.491373275984469, 46.782042961903386], [7.49088128422437, 46.7815817340663], [7.491528400781116, 46.78094182385506], [7.491778348519409, 46.78068257022965], [7.491859414442067, 46.78028749269408], [7.492064278484316, 46.779776371969845], [7.492452440639012, 46.77925996840096], [7.492022830396593, 46.77905571061732], [7.491247562591589, 46.778712611153516], [7.491035338815835, 46.778635787280784], [7.490956180243025, 46.778493138074445], [7.490941783673668, 46.77840435972076], [7.490647525860187, 46.77798035833248], [7.490245465175982, 46.77738329571216], [7.490064007995471, 46.77730936190103], [7.489776528514622, 46.77713450933654], [7.4894840147601975, 46.777162172650954], [7.489188113467645, 46.77716565719293], [7.489122865175882, 46.77714879226301], [7.488909951881202, 46.77696652080207], [7.488531092682897, 46.77665596460936], [7.488212626854171, 46.77640533582572], [7.487922354621821, 46.776273027373456], [7.4877376674833895, 46.77610910891731], [7.487625899822937, 46.775887634007816], [7.4875646024584785, 46.77571862621422], [7.4875824917388645, 46.77559108122451], [7.487643864110328, 46.7754929423072], [7.487696673265563, 46.775438794503586], [7.4877224659538895, 46.775408388006284], [7.487615824435755, 46.77514965971079], [7.487545170309839, 46.775015323178074], [7.487524424125855, 46.774891562471225], [7.487566240133388, 46.774742030497606], [7.487541857087194, 46.77460680227825], [7.487580393648908, 46.774450462356555], [7.487493638523508, 46.77421626494093], [7.487335253241771, 46.77393846059616], [7.487243070685982, 46.773679204317055], [7.48723441870317, 46.77360843142112], [7.487197304303791, 46.773450891008814], [7.487587819934169, 46.773255878004136], [7.487761922791381, 46.773192422635724], [7.487721745094779, 46.77306521719772], [7.487569138161226, 46.77308179708558], [7.487519267781968, 46.77306682270472], [7.48738032072725, 46.772940783186165], [7.487047600161074, 46.77258824819886], [7.487026904981551, 46.77254840717156], [7.486709254670339, 46.77226652346297], [7.486633094659103, 46.77217553043842], [7.4862046270875275, 46.77162694243394], [7.486009841551204, 46.771371480494786], [7.485103764098923, 46.771402234088825], [7.484602620518724, 46.77140577126282], [7.484238393528114, 46.77134317210156], [7.483598243792988, 46.7713711732993], [7.483337562647323, 46.77130496977359], [7.483001197680402, 46.77119276458556], [7.4823613824748385, 46.77106204530869], [7.482079856194342, 46.771055126815085], [7.481809346272141, 46.771005430345745], [7.481630522930876, 46.77095905317255], [7.4807957199985875, 46.770950112862515], [7.480496981301731, 46.77091340315357], [7.48051877108245, 46.77071161110454], [7.480315220651074, 46.77071953713521], [7.480101890522506, 46.77067566153318], [7.479859430987815, 46.77054458522408], [7.479689521729996, 46.77050936509544], [7.478665410002593, 46.7704608031324], [7.4783500642286365, 46.77046529127771], [7.478133912632155, 46.770481798982], [7.477786420026492, 46.77053381015531], [7.477425209555659, 46.770553333352765], [7.477142120124853, 46.77057378332684], [7.47681001959541, 46.77067863457985], [7.476619933078764, 46.7709433586215], [7.476008162164381, 46.771062329930864], [7.475854653029828, 46.771078192206694], [7.475579107969105, 46.77110940259541], [7.475367126399674, 46.77104289382419], [7.475227687177253, 46.771051618344096], [7.475016053699599, 46.771073876921044], [7.474218367122301, 46.771005533499576], [7.4734922349502, 46.77085845442262], [7.472976979932134, 46.77075003492343], [7.4723166662565506, 46.7706210005118], [7.471842141765377, 46.77055152231146], [7.471406720058851, 46.77047451102148], [7.470863055152551, 46.770193315937945], [7.470570030578806, 46.770032461317435], [7.469775746034642, 46.76945068580848], [7.469690648381833, 46.7690934679098], [7.469126843053192, 46.768547326743274], [7.469296827400651, 46.76843341897467], [7.468952443290399, 46.76788703653089], [7.468631781697528, 46.76730720965417], [7.468051622821377, 46.766602135568235], [7.4676267073467, 46.76656972303731], [7.467106939964061, 46.76662611626901], [7.466374718586317, 46.7659501879756], [7.465550162505784, 46.765198093888294], [7.464197387606036, 46.76450980655537], [7.463046800213016, 46.763934947769734], [7.462145026010146, 46.76346989819374], [7.461474094130225, 46.76257098312374], [7.461135294373321, 46.762076714820644], [7.460422067656466, 46.761694120711425], [7.4597332336791995, 46.76130102036091], [7.4599008535142, 46.76029789724683], [7.460117686261892, 46.75923326377622], [7.460503085788785, 46.75837508803553], [7.461121399935183, 46.75770612079053], [7.461390615791452, 46.757284439204945], [7.462183689659752, 46.75683093303087], [7.462672158058824, 46.7566086562647], [7.463183917448789, 46.756013202241895], [7.463956826719084, 46.75526551232996], [7.464309137052461, 46.75491798757322], [7.464821836259338, 46.75451071351244], [7.465564794284889, 46.7539561388456], [7.466052451195029, 46.75360115674417], [7.466323807308631, 46.753423091574746], [7.466581877232898, 46.75324678155265], [7.467002608418344, 46.75285158312454], [7.467728438853803, 46.752264768932505], [7.468147597098803, 46.75179712598826], [7.4684280292640075, 46.750950487038374], [7.469124749491645, 46.75031168643277], [7.469519144100851, 46.74995945554544], [7.471038361656261, 46.74919891588579], [7.471816501854377, 46.74861773722265], [7.4724826130303885, 46.74806742678425], [7.473041333167363, 46.74743508199637], [7.473984786179469, 46.74681405314056], [7.474113661026634, 46.74650821473733], [7.474097192128512, 46.74613237066117], [7.473874136901369, 46.74578278316825], [7.474322574615565, 46.745064643631444], [7.474479924984956, 46.744529446074075], [7.474581476054245, 46.744257759851926], [7.474790072234042, 46.74365661622138], [7.474961342209465, 46.74330857326164], [7.474791889186172, 46.74273210936704], [7.474540309120824, 46.74180435891732], [7.474423599674331, 46.74099049518102], [7.47460983397104, 46.740705254007494], [7.474808801941432, 46.74042701545971], [7.4750712555871015, 46.74015023171153], [7.475267878909653, 46.739953069823585], [7.475421175434515, 46.739792711914774], [7.475671346591756, 46.73956899582215], [7.475881976009697, 46.73936704300176], [7.476242957430836, 46.73916571545586], [7.47708834479446, 46.73871512706595], [7.477479639053605, 46.73831609328268], [7.477213419130557, 46.738285993484894], [7.476491378901079, 46.738191535709625], [7.475791636474508, 46.738115408730216], [7.476001201770223, 46.73758628323635], [7.475946710164249, 46.73703030907861], [7.476545374418407, 46.73650358069409], [7.476618199119451, 46.73639018677612], [7.476918357023407, 46.73581151642711], [7.477140400674957, 46.73536274088352], [7.476967227236368, 46.73459276669958], [7.476558738547876, 46.73405875926421], [7.476368166745024, 46.73378856137823], [7.476123167935009, 46.73347571457457], [7.475796030680067, 46.73346238164648], [7.475229322272599, 46.73337965072368], [7.474713187781906, 46.733005080177456], [7.474553083748805, 46.732912593275664], [7.474405714815852, 46.7327854352761], [7.474296874999678, 46.73267918729045], [7.473768861402228, 46.73209651682063], [7.473560984428279, 46.73179605158057], [7.473147851018213, 46.731379876466164], [7.47295690569173, 46.73122383448507], [7.472955361713844, 46.731223448135154], [7.4727052736322355, 46.73115447337833], [7.472327796, 46.73103185078627], [7.472284788591637, 46.731001332841494], [7.472062810640676, 46.73077035853284], [7.471788404797776, 46.73059154442142], [7.471544991016907, 46.73038774043392], [7.471395583823914, 46.73015438628329], [7.471109029424865, 46.73004192430341], [7.4710796068704335, 46.73001850834125], [7.470956861041262, 46.72971114150568], [7.470917215960709, 46.72945188641034], [7.47075185073952, 46.729189220468356], [7.47016154984847, 46.728818994275976], [7.470013164592272, 46.72873220102491], [7.469901901704361, 46.72861394961282], [7.4696999158773645, 46.72849393259177], [7.469698267371362, 46.72849359120301], [7.469070347539368, 46.72839195490787], [7.468837279084868, 46.72829104151689], [7.468713982022936, 46.72814295497594], [7.468557699811354, 46.72800834170817], [7.4681868809500305, 46.72802646275621], [7.467872648275829, 46.72766033679825], [7.467736796342849, 46.72753769037944], [7.467495447018694, 46.727449774665104], [7.4673566407665195, 46.72737887969484], [7.467243112886321, 46.72729088712943], [7.467128638083776, 46.72724389568586], [7.467126963499653, 46.727243617232126], [7.466864101885975, 46.727216316832504], [7.46655827051507, 46.72693372575697], [7.466084735117024, 46.72664450740447], [7.465760617465082, 46.72653748338359], [7.463938469098535, 46.72851287212164], [7.46246804421781, 46.72978248446438], [7.461941224589733, 46.73022897721257], [7.461835172230219, 46.730241934167225], [7.461614113036842, 46.7304440350955], [7.461235260761132, 46.73083322450321], [7.459918349429279, 46.73198015328921], [7.459380173430215, 46.732489765218126], [7.458809859045955, 46.73300484247839], [7.458181065690723, 46.73356423541092], [7.45749704186085, 46.73424978260491], [7.456574892504759, 46.735271956690696], [7.455574439778873, 46.73428620520252], [7.454965941468663, 46.73366083646593], [7.45440385635297, 46.733585565425], [7.453969123388192, 46.733508440766016], [7.453995595127059, 46.73338220308394], [7.45322623972845, 46.73320426929018], [7.452980518470784, 46.73326917514259], [7.452815550406671, 46.73325295763423], [7.452807253415937, 46.73329655959984], [7.452840200003456, 46.73331067862344], [7.452866174752551, 46.73333053754573], [7.452883280310113, 46.733354877231505], [7.452889762990686, 46.73338152097855], [7.452684477327283, 46.73338531367376], [7.451386520284746, 46.733260251348575], [7.451695410546778, 46.73368184887515], [7.45175340777055, 46.733738495959734], [7.451861110387883, 46.73386624559162], [7.451733637974974, 46.734327012243405], [7.451223632877429, 46.73628363513844], [7.451272549836524, 46.73699551087059], [7.451314343485109, 46.737502783712], [7.4513358637137665, 46.737860634745786], [7.45152502906115, 46.738256403614656], [7.451509041534667, 46.73856295071116], [7.451871638738591, 46.73875712287559], [7.4518896721186385, 46.739119662721016], [7.452145969208701, 46.73928378311381], [7.4522363640561045, 46.73976611579536], [7.45219587727847, 46.740713355391186], [7.452284250125197, 46.741097044716845], [7.45202842042056, 46.74141418827111], [7.451607016968129, 46.74147353070882], [7.451587100925256, 46.7417681683715], [7.451058219469292, 46.7419824389984], [7.451425315457541, 46.74224592209352], [7.451857590208959, 46.74267195305655], [7.45204342489163, 46.743001974367786], [7.452412314794259, 46.74327585286485], [7.45217844661412, 46.7436518241212], [7.45199957420743, 46.744140960700086], [7.452047778881841, 46.74526839592271], [7.452206185003751, 46.7461725973965], [7.451857783289202, 46.746719420086556], [7.451568527381666, 46.74709785040209], [7.451104549999879, 46.747787628684705], [7.449846582854502, 46.747961970103056], [7.449037813524214, 46.748395042604635], [7.448945211854229, 46.748623956261405], [7.448476018128736, 46.74874380341518], [7.448378281146459, 46.749037988082506], [7.447914454107689, 46.74920033504], [7.447493629071588, 46.749454629371435], [7.446921354778059, 46.74960041947653], [7.446660834533104, 46.74992608765478], [7.446657904947949, 46.750341343652124], [7.446218751143794, 46.751104413147644], [7.446393669797023, 46.75167894829207], [7.445980337266293, 46.75199420690436], [7.445672690887563, 46.75202749759207], [7.44504993908193, 46.752640286938586], [7.445322048058038, 46.753283327928656], [7.444380315337862, 46.75442511243601], [7.4441332270795755, 46.755426013357045], [7.442793519804034, 46.75630358642459], [7.442583005121234, 46.756846410608304], [7.442078047925232, 46.7573120875599], [7.441176059647014, 46.75849069823144], [7.4416612970947185, 46.75981346352059], [7.44131970977026, 46.76011174767058], [7.441112899246249, 46.76028651310737], [7.440153089428128, 46.76024073375895], [7.438519177238107, 46.760986834451515], [7.437500436146792, 46.762671756607574], [7.436128662382069, 46.76386970224638], [7.435778102777151, 46.76454701735915], [7.434503356967857, 46.76692565625752], [7.434405797229591, 46.76763551431836], [7.434601239552092, 46.76929501118385], [7.433961535988828, 46.76965796334124], [7.4340920959996355, 46.770596882035214], [7.4344687290385005, 46.771286117844475], [7.433740368624068, 46.77185594905821], [7.43366301556395, 46.77294296629633], [7.433322657791879, 46.774953940029654], [7.431861053000683, 46.776500454388085], [7.431505064478199, 46.77668135387691], [7.431208003769633, 46.77688955766378], [7.431061189609428, 46.77768141101054], [7.430853922568517, 46.77803104596252], [7.430849402548462, 46.77852809477406], [7.43085624666501, 46.77959700837716], [7.4302241493014645, 46.780100349102234], [7.429134542616544, 46.78094108914648], [7.428855580386811, 46.78156680027435], [7.428124247429498, 46.78188521048451], [7.427692452631791, 46.78226287366809], [7.42752157267966, 46.782513656104406], [7.427508335850718, 46.78256182495864], [7.427732472123299, 46.78314496516494], [7.428502026271287, 46.784266038399586], [7.4287847375571765, 46.78410002849464], [7.428995360540489, 46.783984124715545], [7.4292855881333955, 46.78380477414615], [7.429497196149503, 46.78373144473311], [7.429753626420365, 46.783670739308285], [7.429820551089423, 46.78362798094011], [7.429908445851748, 46.783414734891345], [7.430113116005232, 46.78338639843593], [7.430658316163921, 46.78350251899031], [7.43085058299564, 46.78348788044104], [7.4310519751022905, 46.7834869154799], [7.431184287108314, 46.78350113787894], [7.431257242751623, 46.78348747010694], [7.431348181310953, 46.78345374402201], [7.431420669056176, 46.78341658023857], [7.431471743290998, 46.783488071029154], [7.43153086499179, 46.783510752711116], [7.431615073827598, 46.78355545662412], [7.431716699918429, 46.78359886663968], [7.4318377351178535, 46.783631969514296], [7.4319072269433155, 46.78366575192794], [7.431987119862197, 46.7836774875969], [7.432020024213699, 46.783706742811795], [7.432042866264352, 46.78377378721578], [7.432103659802128, 46.78383231544903], [7.432115572931406, 46.78385935657286], [7.432200288028743, 46.78394599698386], [7.432294121078302, 46.784008458325026], [7.4323302572161145, 46.7840608227892], [7.432366346450022, 46.78407393153283], [7.432430899453088, 46.78412913146636], [7.43246086517248, 46.784203093671564], [7.432498692763029, 46.784242316080025], [7.432602215444485, 46.78432077187921], [7.432625795169676, 46.784360775840106], [7.432632706840588, 46.7843816185392], [7.432651168035824, 46.784407877190496], [7.432699274892926, 46.78445471027199], [7.432762272605041, 46.784492710858274], [7.432917719572209, 46.7845726535958], [7.433001405578385, 46.78463419615739], [7.433079700147494, 46.78466760121489], [7.433112974008301, 46.78468420876661], [7.433122571813937, 46.78469463501576], [7.433219025801663, 46.784873199414584], [7.433245003574429, 46.78490713168016], [7.433333314626163, 46.784957241212105], [7.43335793011685, 46.78499329600596], [7.433406143689846, 46.78503402107432], [7.433423413670965, 46.785061943788854], [7.433441787412105, 46.78517537728772], [7.433437540187491, 46.78521429142372], [7.4334485381213184, 46.78523699661825], [7.433496214554379, 46.78528132863905], [7.433520303824877, 46.78534240878754], [7.433545442608455, 46.78538674845302], [7.43356534577756, 46.78540808669524], [7.433651942148968, 46.785462208083466], [7.433677094959925, 46.785499342377435], [7.433709072024673, 46.78552601564552], [7.433761757757453, 46.78563337850024], [7.4337815830227685, 46.78564946329055], [7.433862238564615, 46.78566342847683], [7.43393503458082, 46.78569832562798], [7.4340251752168705, 46.78580263172213], [7.434176294468479, 46.78587062684119], [7.434218853026448, 46.78589986394871], [7.434280846378097, 46.78592545004581], [7.434358131898691, 46.78598891619736], [7.434468277650763, 46.786031155341334], [7.4345863457789925, 46.786083055913934], [7.434681561598342, 46.78613383951871], [7.434891962689167, 46.786260657174076], [7.43494063750758, 46.78629496794669], [7.434986013288914, 46.786314588842345], [7.435091774168727, 46.78633820612892], [7.435132671495696, 46.78635514622344], [7.435184751490614, 46.78638708196077], [7.435339797907557, 46.7865111615377], [7.435362767133279, 46.78652462840582], [7.435390790148423, 46.78655579853578], [7.435432285692632, 46.78663480720849], [7.435453002064094, 46.7866548137448], [7.4355236870753725, 46.786752362448034], [7.435569638570623, 46.7867869874585], [7.435633556000461, 46.78685150515507], [7.435663777172276, 46.786914977806035], [7.435684254029468, 46.786990000120625], [7.4357010538944674, 46.78702464205288], [7.435725344772841, 46.78706107451869], [7.435779113461923, 46.78712225451109], [7.435738642424716, 46.787178897192604], [7.435694882178776, 46.78726761776848], [7.43548899821328, 46.78762425324823], [7.435403890586325, 46.78774038178753], [7.435383168937699, 46.787785403201106], [7.435323919825859, 46.787984011785944], [7.435276244135419, 46.78822738216481], [7.435271505052738, 46.78838413742392], [7.435278337885809, 46.788434908434084], [7.4352464013326225, 46.788528405473016], [7.435231702025571, 46.788594584389166], [7.4352406687198735, 46.78865382890042], [7.435311861653307, 46.78882922535044], [7.435316757718805, 46.78885693154987], [7.435299938005407, 46.788907341453566], [7.4352231140515865, 46.789079332203414], [7.435203503948597, 46.789141274467795], [7.435204624653464, 46.78920977436114], [7.435229634245142, 46.78927772720677], [7.43533125852932, 46.78936183020838], [7.43542045195063, 46.78948019642176], [7.4355589083090745, 46.78971250153067], [7.435605136105698, 46.789774275612025], [7.435647512015218, 46.78986608605431], [7.435723285508208, 46.78994463786965], [7.435786343222825, 46.78999778517319], [7.435889133833081, 46.79010110158011], [7.436017567743651, 46.79021586980211], [7.4361410263814465, 46.79031315953087], [7.436252790888832, 46.790392637743864], [7.43633343927371, 46.790438472001206], [7.436680622443768, 46.790253472788066], [7.436352219285211, 46.79069576950575], [7.436009727490158, 46.79118547852598], [7.4352244258096905, 46.79178236334775], [7.4350012711573825, 46.79195987645571], [7.43488156726835, 46.792038220307276], [7.4347312183270935, 46.79222820453146], [7.434634904465208, 46.792320447483945], [7.434599718437808, 46.79238660658989], [7.434579160202775, 46.79247309582761], [7.434576990864389, 46.79256049471947], [7.434554768499233, 46.79265388333339], [7.434511403915285, 46.792775201464515], [7.4344513381052275, 46.79291296223864], [7.434401455034686, 46.792990580909986], [7.434334650218848, 46.7930632962744], [7.434254535936621, 46.79316051480874], [7.434206659920459, 46.79320261982237], [7.434177290620038, 46.79324255731251], [7.43414275857463, 46.79330379550464], [7.434137226592885, 46.79334742235122], [7.434141725498668, 46.793410182901894], [7.434135078641004, 46.79347065824798], [7.434078561066838, 46.79360243689333], [7.43403850200331, 46.793661390407], [7.433987283634581, 46.79371956071679], [7.433965038794612, 46.79376472520362], [7.433966173475154, 46.79380988193793], [7.43381450345832, 46.79391107204487], [7.433775549420402, 46.79392180143825], [7.433719858685366, 46.79391186760792], [7.433679766475781, 46.7939111009382], [7.433626343681113, 46.79400143872458], [7.433602962398406, 46.7940167476323], [7.43353838807062, 46.794032836487375], [7.4335083265438495, 46.79404967403071], [7.43348518746481, 46.79412161761258], [7.433444002463308, 46.79416678084617], [7.433370516163018, 46.79422901560552], [7.433353823709977, 46.794277994399636], [7.433321572393788, 46.79431473864887], [7.433307095589852, 46.79434534003517], [7.433299310644071, 46.79438514396507], [7.433241641603304, 46.79448509701049], [7.433232756883621, 46.794521842664054], [7.433169299600725, 46.794612152536146], [7.433161535472647, 46.79469403656092], [7.433140821363367, 46.794750689090606], [7.433105738779384, 46.794802338633495], [7.433061211900207, 46.79485554330726], [7.4330009210948065, 46.79496010981156], [7.432954167759341, 46.79501101171951], [7.432939139734576, 46.79504774794569], [7.432872227145206, 46.795108255716414], [7.432783154336021, 46.7951538028038], [7.432758105602375, 46.79519320979385], [7.432726850933428, 46.79521351044195], [7.43266951845578, 46.795229986520845], [7.432631110442726, 46.795262907100074], [7.4325665076122736, 46.79528510364537], [7.432419803314375, 46.79532350435129], [7.4323619089892405, 46.795327710450735], [7.432320503189097, 46.795346912902914], [7.432235338749237, 46.79544373333588], [7.4321634800223055, 46.795553786914105], [7.432105008391084, 46.795563363126995], [7.431998909506778, 46.79558837213581], [7.431850330199919, 46.79563281706371], [7.431794658824673, 46.795659601298446], [7.431744005231144, 46.79567836204478], [7.431704107296275, 46.795684107409784], [7.431664028811421, 46.79566957694974], [7.43163006904879, 46.79564320910504], [7.431606125939316, 46.795640157924424], [7.431566588840477, 46.795684916078976], [7.431468442076218, 46.79569727776457], [7.4313064410531275, 46.79571110973344], [7.431175534017683, 46.79573294086827], [7.430979516439341, 46.79575157406289], [7.430923846331435, 46.795768058389754], [7.430906173340722, 46.795789016148554], [7.430882240061504, 46.79580507079377], [7.43084102994437, 46.795820781875484], [7.430817094110491, 46.79585405405905], [7.430764760242453, 46.795892352248], [7.430695726520152, 46.79592757269933], [7.430662321517261, 46.79595397147833], [7.430619598242924, 46.79609011292167], [7.430592781294846, 46.79611789744783], [7.430533771022066, 46.796131304742715], [7.43043848117999, 46.79612588123241], [7.430360532855823, 46.796128582872285], [7.430192904878927, 46.796174471518086], [7.43014703482711, 46.796172659629235], [7.430113073090278, 46.7961600453012], [7.430080775731365, 46.79614247464657], [7.42999353487553, 46.79617573210908], [7.429941192328357, 46.79618454310612], [7.429866009016521, 46.796178050967505], [7.429794835707631, 46.796161322427494], [7.429728039314231, 46.79613340394312], [7.42967790120987, 46.796121165890746], [7.429650813033144, 46.796125652186184], [7.429611265114427, 46.7961466976504], [7.429586770140507, 46.796152812398404], [7.429502619651493, 46.79611928814464], [7.429466417187517, 46.79611201654997], [7.42941185011122, 46.796108953154715], [7.429360626044042, 46.7960925234412], [7.429302668110808, 46.79608209270966], [7.429267000102506, 46.796088988948654], [7.429210724412821, 46.796182310275505], [7.429127179627444, 46.796200554153785], [7.429109909291432, 46.796234977850105], [7.429063103788685, 46.79626097913568], [7.429020244347083, 46.7962692958898], [7.428917757102296, 46.79629799053913], [7.428902704015757, 46.796313290224134], [7.428908841703806, 46.79634083468242], [7.428894900869096, 46.79636147767959], [7.428867611954735, 46.79638623930558], [7.428833629868194, 46.796410721537704], [7.428801314712564, 46.79641759987263], [7.428762333599263, 46.7964191253899], [7.428697842089506, 46.79645897767064], [7.4286432226245696, 46.796519034554024], [7.428640649548989, 46.796547198761544], [7.428601086531871, 46.7965751164919], [7.428558197807964, 46.79659654822783], [7.428509167437552, 46.79661108008046], [7.428482794315555, 46.79663943978244], [7.428421502828869, 46.79665779327523], [7.4283650555407466, 46.79668695975257], [7.428301556705923, 46.79673783140809], [7.428193760169, 46.796780647424704], [7.4281046285874455, 46.79682462566643], [7.428081234348178, 46.79688692514157], [7.4280383237408225, 46.796947729620236], [7.428017893991095, 46.796989924749475], [7.4278578688010075, 46.79711056289735], [7.427757618290033, 46.79714307068813], [7.427727632133219, 46.79715850344977], [7.4276735720059355, 46.79722732118625], [7.427678562855115, 46.79728430715649], [7.4276551737644985, 46.79732054701628], [7.427550586395616, 46.79741340374776], [7.427484882965054, 46.79753200055071], [7.4274397312309, 46.79759240855015], [7.427412194142479, 46.79760763447108], [7.42737486020152, 46.79761871251642], [7.427351445699184, 46.797650058855254], [7.427328111973806, 46.797728945694104], [7.427312478934872, 46.79775685678964], [7.427267331137498, 46.79779814946164], [7.427258404222743, 46.797826825605426], [7.427258346415715, 46.797850303490264], [7.427243289815973, 46.79787705409573], [7.4271881195433735, 46.797926369629565], [7.427187435508047, 46.797995300977306], [7.4271662119432795, 46.798066793723216], [7.4271120289132915, 46.79815121847678], [7.427030072945246, 46.79824833223179], [7.426999528819841, 46.79829435824314], [7.426971113193916, 46.798312336841015], [7.426933777352895, 46.7983291538316], [7.426907574212059, 46.79835171116418], [7.4268624550761, 46.798379834663294], [7.42684179636492, 46.798442907998684], [7.426752636041667, 46.79848111904844], [7.4267374362702725, 46.798502166474876], [7.426735740442704, 46.79852778518504], [7.426723474327113, 46.79855109986141], [7.426695622393957, 46.79856601093657], [7.42665494301817, 46.79859659074142], [7.426552976989485, 46.79861273464342], [7.426526801696235, 46.79862764594702], [7.426515068620208, 46.79866626154042], [7.42649276775888, 46.79869301128366], [7.426443351398999, 46.79872149369115], [7.426413788927484, 46.79876698875187], [7.426378057232521, 46.79891746815348], [7.4263317688093995, 46.7990095933298], [7.426261229970329, 46.79906480766224], [7.42621719191433, 46.79911411522263], [7.426166495270357, 46.799127494382084], [7.426099443991778, 46.79911591820476], [7.426047619096212, 46.79913618767954], [7.42601751026526, 46.79916637313456], [7.426128671520771, 46.79920843079953], [7.427011083574087, 46.79959169558149], [7.427342498836877, 46.79974040865702], [7.427508306786957, 46.79980593956001], [7.428477746883989, 46.80023378178054], [7.430175960647781, 46.800963812988094], [7.4306299949695696, 46.80116720855728], [7.431642079410269, 46.8016084260619], [7.432029360477646, 46.8017733645179], [7.435351981422859, 46.80321657132252], [7.435762353079564, 46.80339901145137], [7.436016461365372, 46.80349818384298], [7.435948674994999, 46.80358916955221], [7.435659444127687, 46.80402004605076], [7.435302935664021, 46.80462556178775], [7.435098457782461, 46.8048538638719], [7.4348416174721095, 46.80505986392084], [7.434221345832924, 46.80558608892049], [7.433857687706152, 46.80568676479869], [7.433397051665135, 46.80549279094677], [7.43310972240187, 46.80544142031717], [7.43292522713253, 46.80574365185651], [7.432688045048482, 46.80590078583565], [7.432573807677353, 46.806287308043046], [7.431946680571803, 46.806412284323834], [7.431590636188876, 46.80652024868516], [7.431939524665098, 46.806794675698924], [7.432119513763997, 46.80691950719073], [7.4323877385964146, 46.80714206042875], [7.432716005876107, 46.80697323793876], [7.433114746117223, 46.80687035461242], [7.433503914459859, 46.80682849421938], [7.433966383603307, 46.80676973390066], [7.434372390305673, 46.80667401593482], [7.434704912334899, 46.80687153328718], [7.433971985097492, 46.80819015453946], [7.433944403842664, 46.80821981988757], [7.4341759342860225, 46.80830112232102], [7.434301790232403, 46.808383399900166], [7.434382457025622, 46.80849700606941], [7.4344474747930525, 46.808676178583], [7.434405014012264, 46.80880572811626], [7.434337328287761, 46.80884614128644], [7.4338427141014956, 46.80881346417185], [7.433831822068264, 46.80885835954445], [7.433704803579, 46.809237411363355], [7.433559680797789, 46.809706389948275], [7.434894809611596, 46.809916278846764], [7.434774790351531, 46.81016759732632], [7.436003998929359, 46.810505877643934], [7.435956077809319, 46.81062910436491], [7.435784947350278, 46.81093249592726], [7.435659615500486, 46.81128509283901], [7.435097031226466, 46.811261442315654], [7.434379710375698, 46.811399293819065], [7.433345773382893, 46.811435143845756], [7.433265184597804, 46.812070443002334], [7.433120407244425, 46.81257589834122], [7.433106619434078, 46.81292396192708], [7.433147754363678, 46.813085727335164], [7.4330738117454915, 46.81323486542666], [7.432900366313057, 46.813503266923746], [7.434010039374039, 46.813448274520105], [7.4346724425599, 46.81339515115392], [7.434862336325809, 46.8135485201466], [7.435077018485275, 46.81402751949006], [7.435306968364507, 46.81435671971146], [7.435084510231513, 46.81450856183257], [7.434805919690375, 46.814499006602844], [7.434239922492332, 46.814593046184534], [7.433847313880437, 46.81467727749178], [7.433839441292889, 46.8148941900524], [7.433070007032675, 46.81505231318626], [7.433035106012565, 46.815219947825085], [7.433695368722829, 46.8153007983238], [7.434814189875456, 46.81533636415582], [7.435040190962276, 46.81532868240956], [7.4352426343545, 46.815301461352995], [7.435521273933033, 46.8152391786787], [7.435585427427423, 46.815220794428846], [7.435765453611739, 46.81515731144394], [7.436684201595161, 46.81475531793195], [7.437253321311379, 46.814512978043695], [7.437507650303022, 46.81441411496203], [7.437706408009203, 46.8143615765142], [7.43784033204462, 46.81433637360108], [7.438100160465707, 46.814304263908525], [7.438207930695043, 46.81429701501148], [7.4383605776611565, 46.81429287884937], [7.438423221750847, 46.81429715229542], [7.438746622947101, 46.81433847090298], [7.439034647006319, 46.81441044479361], [7.439334503191478, 46.81451419816456], [7.440028075682588, 46.814771618282386], [7.440078508435486, 46.81478567746554], [7.440432261388549, 46.81491200627185], [7.44173124793521, 46.815380170742564], [7.441894775724483, 46.815434643436525], [7.442039723275649, 46.815477962097575], [7.4421344986541405, 46.815502724276335], [7.44242249287696, 46.815554530701824], [7.442646085017615, 46.815585936735815], [7.442839329948707, 46.81560463273552], [7.443055465631334, 46.81561650924599], [7.443287154084063, 46.815618606906284], [7.443481642467268, 46.81561391386464], [7.443639573001127, 46.81560496703919], [7.445362144459278, 46.815400275619034], [7.448597475385466, 46.81502250360771], [7.448799164825891, 46.81500054787638], [7.448974270096631, 46.81498902854874], [7.449220485991252, 46.814984555308115], [7.449698979697594, 46.81499393213597], [7.452047838000499, 46.8150703677685], [7.451827962210772, 46.81560617380797], [7.451846623190188, 46.815673322207495], [7.451709607601161, 46.81580275347753], [7.451552234170747, 46.81601302830848], [7.451486198255351, 46.81608998161508], [7.4512905621921846, 46.81642211146448], [7.451276449833654, 46.8166003295601], [7.451311154493804, 46.81675106189464], [7.451379233655912, 46.8168437522207], [7.451422997650516, 46.816837352250204], [7.451593386772019, 46.81680025745775], [7.4517632643731755, 46.81705241693007], [7.45201475217685, 46.817248733092825], [7.4522062053771405, 46.81712455125697], [7.452444118516857, 46.81699177986588], [7.452708255196022, 46.81687892073123], [7.452950181603721, 46.81682182615643], [7.453392012949726, 46.81676956411834], [7.453339944105291, 46.81663616732516], [7.45453177243683, 46.81664790128907], [7.45529778992298, 46.81690852059494], [7.455238300496095, 46.817348091162486], [7.455470040493608, 46.81749963926468], [7.455952552023863, 46.81753967466618], [7.456205613534013, 46.81734388271028], [7.456438504176768, 46.81722361779228], [7.456746511855921, 46.81713405056393], [7.456933769185946, 46.81728172747423], [7.457100383559134, 46.81725226065506], [7.457575555102479, 46.81709888750403], [7.45787791249186, 46.817010999292094], [7.458156096872568, 46.816970871027685], [7.458419639361206, 46.816953511935004], [7.458628695334532, 46.81689240775578], [7.458756854021429, 46.81687737303122], [7.458900726315234, 46.81687028725612], [7.459210728642053, 46.81684350862052], [7.459381691493038, 46.816853724243735], [7.459564453038632, 46.8168783484611], [7.460172233643618, 46.81693166374293], [7.460645456730745, 46.81698413760672], [7.460868692780877, 46.81700073775661], [7.461071925826737, 46.81696669704075], [7.461216656293425, 46.81687757077031], [7.461253055286311, 46.81680722010866], [7.461264214123273, 46.81669761802297], [7.46155537563396, 46.81667953561973], [7.461456284653242, 46.81616459171513], [7.461874915747846, 46.81621951827175], [7.462228842059059, 46.81630074071973], [7.462499325588802, 46.81637662645717], [7.462798789481799, 46.8165014498002], [7.463044224211141, 46.81676340887534], [7.463239577723434, 46.81702105033773], [7.463378114646025, 46.8172154478337], [7.463381044951478, 46.8173814660293], [7.4641312780319415, 46.81751143275597], [7.464479203515879, 46.81759847726188], [7.464941913822936, 46.81776179370205], [7.465119124240514, 46.81783976180902], [7.465281858762732, 46.817896791686145], [7.465359572498085, 46.81769862358075], [7.465362321785609, 46.8175575931508], [7.46534857502774, 46.81731198492409], [7.4656843717901245, 46.817272113628015], [7.465926096534026, 46.8173888454742], [7.466224950784508, 46.81750021093745], [7.466537577374624, 46.81774127620865], [7.466838613587687, 46.817808022476164], [7.467312187392764, 46.818056090480276], [7.4675540658578985, 46.81782695471857], [7.467748506763996, 46.81757405356519], [7.46789517938958, 46.81726006071535], [7.467811066346454, 46.81690479316291], [7.467659597190138, 46.81681600997319], [7.467418215773521, 46.8167319349168], [7.466721460524229, 46.81650183856193], [7.466740750290744, 46.81647923769731], [7.466256309318082, 46.816268410241186], [7.466007858380296, 46.81613352846374], [7.465601557039355, 46.815948847784114], [7.465743196182418, 46.81580139095128], [7.466085257811425, 46.81589063661961], [7.466672638958394, 46.81579797461876], [7.467101161298362, 46.81571476631872], [7.4673559193602035, 46.81570189724403], [7.467567119032555, 46.81568258821027], [7.467686372902572, 46.81548592122851], [7.467897001537257, 46.81518198807483], [7.468302398573886, 46.814969515620625], [7.468669396502026, 46.814675625678326], [7.468947190854284, 46.81443795092738], [7.469496689592123, 46.814169745932816], [7.469953494007285, 46.81410869057955], [7.470623539110118, 46.81399575246135], [7.47084851930162, 46.81398575139269], [7.471217554779454, 46.81400539530935], [7.471655074213254, 46.81399585627096], [7.471740204787197, 46.81406587026967], [7.471843937448714, 46.81430433494725], [7.4719489524573595, 46.814647567956364], [7.472045330772684, 46.814986044284666], [7.472162908091492, 46.815297555888655], [7.472177010123946, 46.81547649614566], [7.472255271355591, 46.81577448027667], [7.472412438429471, 46.81608982997899], [7.472608252420828, 46.81638907608368], [7.472857974816045, 46.81643420389813], [7.473138126832025, 46.81646323899135], [7.4731978344156165, 46.816604349065436], [7.47365099452392, 46.81636957086705], [7.47367351921698, 46.81639060428949], [7.474254059424435, 46.81600495168673], [7.474317456687839, 46.81597078609336], [7.4756455581553505, 46.81638979244771], [7.476097643759552, 46.81671411148218], [7.476483326656098, 46.81723016756862], [7.4765554946679895, 46.81727918668769], [7.476171656657468, 46.82020795910869], [7.476120846039564, 46.82054626434929], [7.47608406985722, 46.82075017411917], [7.476065369585415, 46.82082674867214], [7.47606663622439, 46.82083938681741], [7.476046104211843, 46.82090095768003], [7.476019502841049, 46.82095958000488], [7.475984291674944, 46.82101794421866], [7.475886729566121, 46.82115353557706], [7.475856927569744, 46.821207886129116], [7.47583923433961, 46.82126273655828], [7.475840937402889, 46.82132019845769], [7.47587089898362, 46.82142416655183], [7.475935446940373, 46.82149463380234], [7.475994706804802, 46.82153527401502], [7.476060187799536, 46.821570577985774], [7.476131733525263, 46.82160185004761], [7.476579152979688, 46.821761023286385], [7.476789232466649, 46.821856027187245], [7.476813705002553, 46.82188396785883], [7.476839312992612, 46.82194296915828], [7.476827724631288, 46.821993841951716], [7.476764133525739, 46.82209631117398], [7.476471119942505, 46.82199053088393], [7.476342968455495, 46.82229369014196], [7.476492062711538, 46.8223165258029], [7.476070032121503, 46.8225755756444], [7.475874213658223, 46.82270025125213], [7.475780396097808, 46.82281644709674], [7.475713348799186, 46.82288985249503], [7.474465612477706, 46.822928320652636], [7.474459259511796, 46.82295290696214], [7.473861843205386, 46.82290091648474], [7.473509331462549, 46.82295577632232], [7.473432092456309, 46.822915554106935], [7.473580265214467, 46.823428200331286], [7.473637658044447, 46.82374872349599], [7.47360838463706, 46.82404410350352], [7.473920476440484, 46.82428145051096], [7.474013941962262, 46.824260346058296], [7.474173923715354, 46.824190070686015], [7.4745026575262035, 46.824015774920596], [7.473972147860652, 46.82458564859587], [7.473389737751573, 46.825251776453285], [7.472984220362317, 46.82555121710546], [7.472791679058105, 46.82579130566615], [7.472295754443295, 46.826440598730336], [7.471998473946405, 46.82693366505672], [7.472038100104517, 46.826945716576226], [7.471897478880211, 46.82710532504356], [7.4716262993866405, 46.82738080315904], [7.471189100676284, 46.8277182777072], [7.471025297113437, 46.82791206471308], [7.4707300650109, 46.82853682762954], [7.470618535933283, 46.82865861001536], [7.469848098325405, 46.82900655910469], [7.469510547504751, 46.8291749606752], [7.469271071375806, 46.829275150965756], [7.468767531067738, 46.82938356758182], [7.468809307389379, 46.829418962666125], [7.4687527696203055, 46.829497551508105], [7.46891556954328, 46.829554414427086], [7.469009725054187, 46.82979144474687], [7.469208720761645, 46.83012368143241], [7.469388090141411, 46.830370556897954], [7.4694367477083645, 46.83042799746646], [7.469588883257642, 46.830580491722515], [7.469806571471691, 46.8307652976355], [7.470213053013211, 46.83095321874685], [7.470230182023814, 46.83097357053525], [7.470306163136212, 46.831182538399524], [7.470617838835044, 46.83112725038319], [7.470857413840828, 46.83111876549061], [7.471072033417436, 46.831289609061066], [7.471295435291758, 46.83145926240307], [7.471795964337033, 46.83192340710043], [7.472103337280488, 46.83200901950489], [7.4721964225834085, 46.832028630127105], [7.47242938249273, 46.83212693725875], [7.47264018808488, 46.83230457059113], [7.472806315117535, 46.83250741237504], [7.4729274992052455, 46.832605453175844], [7.473342335859756, 46.83311867672285], [7.47358508626559, 46.833392593883936], [7.473944760360801, 46.83387616559635], [7.474036971801562, 46.83393773793256], [7.474440603541248, 46.83427970817716], [7.474482722055544, 46.83434631464849], [7.474714863367485, 46.834255065895185], [7.4750076078415635, 46.834157616161434], [7.475374134661789, 46.83466823132905], [7.475551656379976, 46.83500854939522], [7.475717070328368, 46.83544858461074], [7.476266257001425, 46.835399869774655], [7.4763150321163465, 46.83553475766609], [7.47649757104147, 46.835798757656995], [7.476662680829111, 46.83608641115141], [7.47669273099321, 46.83619086425184], [7.47674189730305, 46.83618784385823], [7.476747302297061, 46.83636518505857], [7.4770119135455415, 46.83681384927039], [7.4776346150466, 46.83669521185612], [7.477821088262067, 46.836781442260566], [7.478007708255379, 46.83692532360374], [7.4782153710802195, 46.83707382074385], [7.478436570288986, 46.8371599303528], [7.478766705884403, 46.837200421994496], [7.479036403770791, 46.83724681646412], [7.479338498577397, 46.83712549707164], [7.479814615067896, 46.836704866049914], [7.4801215410241655, 46.83663350395126], [7.480376384345952, 46.83662679156059], [7.480545670593028, 46.83675684848294], [7.4810151691061595, 46.83715098035004], [7.481176586030621, 46.83723758253398], [7.481649798139036, 46.83737420073218], [7.482058847928272, 46.83754465480293], [7.482318607373691, 46.83769660694606]]]]}}]}