{
  "type": "FeatureCollection",
  "features": [
    {
      "type": "Feature",
      "properties": {
        "source": "swisstopo SWISSBOUNDARIES3D",
        "source:date": "2026-01-01"
      },
      "geometry": {
        "type": "LineString",
        "coordinates": [
          [
            7.848851645136423,
            46.9357633839767
          ],
          [
            7.848789395288499,
            46.93570630636018
          ],
          [
            7.849014797054168,
            46.93566084755652
          ],
          [
            7.849205706585766,
            46.93558535044477
          ],
          [
            7.849367971470432,
            46.93550785066149
          ],
          [
            7.849483577363288,
            46.93539781076509
          ],
          [
            7.849606009030744,
            46.93524270673141
          ],
          [
            7.849749370338978,
            46.935164626449044
          ],
          [
            7.849823255026012,
            46.935011855005435
          ],
          [
            7.849867889427668,
            46.93495479962103
          ],
          [
            7.850006799484605,
            46.934887259488804
          ],
          [
            7.850035088552698,
            46.934830820355636
          ],
          [
            7.850104608179031,
            46.93477546570394
          ],
          [
            7.850137262823646,
            46.93463046094708
          ],
          [
            7.850175199201292,
            46.93459059253432
          ],
          [
            7.850346016366922,
            46.93447116044954
          ],
          [
            7.850465471942003,
            46.934392823215184
          ],
          [
            7.850650670307544,
            46.93430119755262
          ],
          [
            7.850767741610622,
            46.93422886844013
          ],
          [
            7.850933184817757,
            46.93415395462737
          ],
          [
            7.851133847308229,
            46.93409094968413
          ],
          [
            7.851223925573117,
            46.93405560697019
          ],
          [
            7.8513200509219,
            46.934043369406396
          ],
          [
            7.8514639702309195,
            46.93406275824993
          ],
          [
            7.851516376126972,
            46.9340039651269
          ],
          [
            7.851606754101767,
            46.93398548726145
          ],
          [
            7.851759504172363,
            46.9339834170851
          ],
          [
            7.851995552435475,
            46.93391309592698
          ],
          [
            7.852067268666135,
            46.93391333224155
          ],
          [
            7.8522689734629,
            46.93395378575104
          ],
          [
            7.8524258845292865,
            46.933971984136456
          ],
          [
            7.852721172746436,
            46.933903624657006
          ],
          [
            7.852912013509723,
            46.93383773754913
          ],
          [
            7.85316329332237,
            46.93382034142717
          ],
          [
            7.85338703565672,
            46.933820072462225
          ],
          [
            7.853778992668682,
            46.93380353359542
          ],
          [
            7.854087425487634,
            46.93371331834449
          ],
          [
            7.854542090305147,
            46.93364111156081
          ],
          [
            7.85493507368198,
            46.933625050755126
          ],
          [
            7.8553416916674035,
            46.933565374710845
          ],
          [
            7.855417121849129,
            46.93355178760902
          ],
          [
            7.855416471005759,
            46.93351691509522
          ],
          [
            7.85544008338719,
            46.93347465022368
          ],
          [
            7.855483329556247,
            46.9334342749868
          ],
          [
            7.85557760808324,
            46.933387318590306
          ],
          [
            7.855692217600927,
            46.93333903785321
          ],
          [
            7.855783938178883,
            46.93327045682402
          ],
          [
            7.855832262916161,
            46.93320088214544
          ],
          [
            7.855864091285615,
            46.9331326717664
          ],
          [
            7.855891369851433,
            46.93302810082436
          ],
          [
            7.855913806973419,
            46.93292408720397
          ],
          [
            7.855913473062148,
            46.932852215754615
          ],
          [
            7.855877745080781,
            46.932783243604696
          ],
          [
            7.855798815289699,
            46.93270602691817
          ],
          [
            7.855825744974075,
            46.9326089773464
          ],
          [
            7.855844021052279,
            46.9324967211538
          ],
          [
            7.8558034033403725,
            46.93239659795015
          ],
          [
            7.855436546233247,
            46.93222585083393
          ],
          [
            7.854841894648714,
            46.93196482456766
          ],
          [
            7.854631725771677,
            46.93178337754098
          ],
          [
            7.85450995976821,
            46.93165971050048
          ],
          [
            7.854332145617326,
            46.93153560777963
          ],
          [
            7.854136692420961,
            46.93144667744008
          ],
          [
            7.853925409456032,
            46.93138747966377
          ],
          [
            7.853678399505359,
            46.93132359826544
          ],
          [
            7.853454610297461,
            46.931255089728715
          ],
          [
            7.853375557388863,
            46.931118538631864
          ],
          [
            7.853222235726328,
            46.93097712857936
          ],
          [
            7.853094975554437,
            46.93089305034145
          ],
          [
            7.852884991493193,
            46.93096637413061
          ],
          [
            7.852674364658559,
            46.93105351667525
          ],
          [
            7.852469250303606,
            46.93110623181378
          ],
          [
            7.852193121560532,
            46.931165886145905
          ],
          [
            7.851936258670957,
            46.9312019386228
          ],
          [
            7.851449707588761,
            46.931028344640126
          ],
          [
            7.8518095473508005,
            46.93100953525375
          ],
          [
            7.851907500677297,
            46.93097614257092
          ],
          [
            7.852328767974263,
            46.930723168736854
          ],
          [
            7.852561325726299,
            46.93054924171616
          ],
          [
            7.852746750709088,
            46.9304261010865
          ],
          [
            7.852871784620769,
            46.93021425941291
          ],
          [
            7.8528881072478995,
            46.92995837329617
          ],
          [
            7.852897704733584,
            46.92989164726158
          ],
          [
            7.852966684227283,
            46.929844100688456
          ],
          [
            7.853022627823805,
            46.92965200123166
          ],
          [
            7.852972248216075,
            46.92950583818319
          ],
          [
            7.852977212487796,
            46.929415516128365
          ],
          [
            7.853010491350229,
            46.92925068241622
          ],
          [
            7.853032961492262,
            46.928984978110684
          ],
          [
            7.853054625694072,
            46.92884999685931
          ],
          [
            7.853357541287614,
            46.92884824543565
          ],
          [
            7.853830690081536,
            46.92883518171966
          ],
          [
            7.854050514964436,
            46.92882171141845
          ],
          [
            7.854882782694064,
            46.9287564556513
          ],
          [
            7.855573144831464,
            46.928625243189664
          ],
          [
            7.855947096734829,
            46.92859468448936
          ],
          [
            7.856262991976693,
            46.928582101738634
          ],
          [
            7.856912733577926,
            46.928550400517004
          ],
          [
            7.857006742466888,
            46.92839736187125
          ],
          [
            7.85705078846388,
            46.92842002237652
          ],
          [
            7.857242032532108,
            46.92833319428198
          ],
          [
            7.857675031887288,
            46.92826234020227
          ],
          [
            7.858170258455963,
            46.92817656751631
          ],
          [
            7.858377720582062,
            46.92815091843861
          ],
          [
            7.858670330801191,
            46.92808265214729
          ],
          [
            7.858893105844978,
            46.92806413333118
          ],
          [
            7.859075500917003,
            46.92799479452134
          ],
          [
            7.859259711395506,
            46.92795787695008
          ],
          [
            7.859454877407583,
            46.92795349100324
          ],
          [
            7.8597204649770385,
            46.927892274547716
          ],
          [
            7.8600255196493745,
            46.92785081017384
          ],
          [
            7.860311322190617,
            46.92788449984436
          ],
          [
            7.860841857978016,
            46.92785004808153
          ],
          [
            7.861100885820271,
            46.92785171198149
          ],
          [
            7.861282189297844,
            46.927683928677475
          ],
          [
            7.861412108295132,
            46.927542447954345
          ],
          [
            7.86162066905149,
            46.92740478796633
          ],
          [
            7.86177182406674,
            46.92724564261951
          ],
          [
            7.862023283604496,
            46.92706170451238
          ],
          [
            7.8624980667479925,
            46.927034979916634
          ],
          [
            7.8628184288779615,
            46.92712737412389
          ],
          [
            7.863033749698133,
            46.92722494166699
          ],
          [
            7.863329320634984,
            46.92728202051619
          ],
          [
            7.863549221621622,
            46.927435647084614
          ],
          [
            7.863700297401888,
            46.92752492377717
          ],
          [
            7.864192707797912,
            46.92725770837032
          ],
          [
            7.864547122167725,
            46.9270995770908
          ],
          [
            7.8648317301686355,
            46.92700076752328
          ],
          [
            7.8651006358178295,
            46.926890690491874
          ],
          [
            7.865361472378871,
            46.92676329982344
          ],
          [
            7.8651977485332125,
            46.92658086261124
          ],
          [
            7.8649233696163625,
            46.92639086660894
          ],
          [
            7.864624299759594,
            46.926168326552556
          ],
          [
            7.864497162832084,
            46.92602098720224
          ],
          [
            7.86454582113434,
            46.92562739519124
          ],
          [
            7.864721632944844,
            46.925597525320555
          ],
          [
            7.864937116845279,
            46.92550544885417
          ],
          [
            7.86528388757391,
            46.92530904142873
          ],
          [
            7.865460275344716,
            46.925159898998636
          ],
          [
            7.8657448017838645,
            46.92497122388893
          ],
          [
            7.865929246912149,
            46.92474738934453
          ],
          [
            7.865629524269788,
            46.92460911370828
          ],
          [
            7.8653487203128325,
            46.9244472800565
          ],
          [
            7.865182908892007,
            46.92433852242844
          ],
          [
            7.864919502032715,
            46.92412496275228
          ],
          [
            7.8647273486762606,
            46.923939185267244
          ],
          [
            7.864506613612666,
            46.92373849136323
          ],
          [
            7.864220116191308,
            46.92355466447635
          ],
          [
            7.8639344483542075,
            46.923452331636405
          ],
          [
            7.863591024729104,
            46.92342650162968
          ],
          [
            7.863209046974783,
            46.9235147663647
          ],
          [
            7.8628719766358595,
            46.92362205079083
          ],
          [
            7.862696731083708,
            46.92350476090045
          ],
          [
            7.862620214797609,
            46.923411762051856
          ],
          [
            7.862420346799149,
            46.922970154603036
          ],
          [
            7.862356999782609,
            46.922733595157155
          ],
          [
            7.862345912591124,
            46.92247926570474
          ],
          [
            7.862907280715073,
            46.92221243934688
          ],
          [
            7.862614947339837,
            46.92180931445767
          ],
          [
            7.862438750342869,
            46.92158367870918
          ],
          [
            7.862191238768534,
            46.921234665016385
          ],
          [
            7.862189839214023,
            46.92098667741358
          ],
          [
            7.862222496983394,
            46.920321638553645
          ],
          [
            7.862243145941209,
            46.92021618175903
          ],
          [
            7.862239121115144,
            46.92010343990966
          ],
          [
            7.86226064973933,
            46.9199345986184
          ],
          [
            7.862292231613044,
            46.91976034995589
          ],
          [
            7.862303002769908,
            46.91961091537585
          ],
          [
            7.862153011889529,
            46.91935434625742
          ],
          [
            7.862061153372805,
            46.919232735467766
          ],
          [
            7.861938324568273,
            46.91904759680783
          ],
          [
            7.861762585730405,
            46.91880858217934
          ],
          [
            7.861524820029265,
            46.91852650138739
          ],
          [
            7.861427057016725,
            46.918339740526825
          ],
          [
            7.861294542785976,
            46.91821133457828
          ],
          [
            7.861295379025508,
            46.91793990572127
          ],
          [
            7.861238772713991,
            46.91786997756416
          ],
          [
            7.861157302712888,
            46.91779180229517
          ],
          [
            7.861146686173961,
            46.917747161490475
          ],
          [
            7.861092216476444,
            46.91730364835604
          ],
          [
            7.861127718791343,
            46.91717868904077
          ],
          [
            7.8610982490719,
            46.91717735835026
          ],
          [
            7.861113302714016,
            46.91708313053185
          ],
          [
            7.861117243227375,
            46.91698134257722
          ],
          [
            7.861096375446759,
            46.916861601332734
          ],
          [
            7.861111433312899,
            46.91678799984192
          ],
          [
            7.861207678716635,
            46.91662298526416
          ],
          [
            7.8612271190143055,
            46.91638854864664
          ],
          [
            7.861329871265684,
            46.91624984837402
          ],
          [
            7.861398158812861,
            46.91618757367229
          ],
          [
            7.861502667775981,
            46.91605201513517
          ],
          [
            7.861561417097785,
            46.915893579165584
          ],
          [
            7.8616709025102995,
            46.91571817966817
          ],
          [
            7.861774657786064,
            46.915592158724714
          ],
          [
            7.861865810822918,
            46.915492954376816
          ],
          [
            7.861966694004249,
            46.91466947079839
          ],
          [
            7.86177661576711,
            46.91406894955668
          ],
          [
            7.861776377100345,
            46.914008510619766
          ],
          [
            7.86179129297046,
            46.91394879835715
          ],
          [
            7.861814739168574,
            46.91381195538717
          ],
          [
            7.861355079769882,
            46.91378385814093
          ],
          [
            7.860954661637975,
            46.913804016878125
          ],
          [
            7.860299872842094,
            46.913877228952444
          ],
          [
            7.859381628682949,
            46.91414826761462
          ],
          [
            7.858879512890357,
            46.914316801769445
          ],
          [
            7.857973761816797,
            46.91467177291362
          ],
          [
            7.8578749089830735,
            46.91452295536744
          ],
          [
            7.857593625609618,
            46.914401061819746
          ],
          [
            7.857428595286882,
            46.914244938539085
          ],
          [
            7.85712185083279,
            46.91394274394273
          ],
          [
            7.857030527544486,
            46.91367448482592
          ],
          [
            7.85695708582498,
            46.913577090170364
          ],
          [
            7.856887406467437,
            46.91337422017966
          ],
          [
            7.856787215907392,
            46.91317753326982
          ],
          [
            7.856615023640535,
            46.91297227529393
          ],
          [
            7.856568583522579,
            46.912928709129176
          ],
          [
            7.856488010368735,
            46.9127900244807
          ],
          [
            7.856467406993577,
            46.9127011264718
          ],
          [
            7.85646911032742,
            46.91256538031511
          ],
          [
            7.8564628023497445,
            46.91243927938408
          ],
          [
            7.856461830544399,
            46.91225482410795
          ],
          [
            7.856330041817209,
            46.91174771412606
          ],
          [
            7.856203463689555,
            46.911538133487916
          ],
          [
            7.8559778282687445,
            46.91170729405894
          ],
          [
            7.855619171834012,
            46.91192307515513
          ],
          [
            7.855247069236424,
            46.91199444750707
          ],
          [
            7.854823731804192,
            46.91206750683091
          ],
          [
            7.854616389254658,
            46.91176605112585
          ],
          [
            7.8545123145095035,
            46.91157996384023
          ],
          [
            7.854644512294569,
            46.91139806593532
          ],
          [
            7.854888725872811,
            46.91116962411025
          ],
          [
            7.8552221483253435,
            46.91092633918251
          ],
          [
            7.855707907941569,
            46.910316307151625
          ],
          [
            7.855914288036536,
            46.90999037400918
          ],
          [
            7.85632335092259,
            46.90941448583315
          ],
          [
            7.856674866705424,
            46.90890361752076
          ],
          [
            7.8566088408202965,
            46.908563419683155
          ],
          [
            7.856983885826772,
            46.90821682785337
          ],
          [
            7.857266414094872,
            46.90785651281784
          ],
          [
            7.857521001931183,
            46.90763051898204
          ],
          [
            7.857774723761986,
            46.907882100704576
          ],
          [
            7.858197515103764,
            46.90773526127771
          ],
          [
            7.858657225126501,
            46.90756466320949
          ],
          [
            7.858655680794867,
            46.907516435710576
          ],
          [
            7.858639024753007,
            46.90744075573537
          ],
          [
            7.858626228392366,
            46.90733823743512
          ],
          [
            7.858626651248249,
            46.907242669106985
          ],
          [
            7.858643388480586,
            46.90706118023652
          ],
          [
            7.858646660946703,
            46.906962426100726
          ],
          [
            7.858660926179589,
            46.906854438428525
          ],
          [
            7.858721067302909,
            46.90658691174672
          ],
          [
            7.858718116567837,
            46.9065216071895
          ],
          [
            7.858686932685995,
            46.90646802808371
          ],
          [
            7.858605680630022,
            46.90638985912643
          ],
          [
            7.858666760221496,
            46.9062797119843
          ],
          [
            7.858791009185287,
            46.90610866857561
          ],
          [
            7.8589895704460515,
            46.905960884490085
          ],
          [
            7.859237569918182,
            46.905866432157936
          ],
          [
            7.859917699841266,
            46.905883904882614
          ],
          [
            7.86050143742097,
            46.90588451113581
          ],
          [
            7.860801542759268,
            46.90575008614046
          ],
          [
            7.861169226956827,
            46.90565230133857
          ],
          [
            7.861860807545756,
            46.905330019090584
          ],
          [
            7.862271351298488,
            46.90507677639545
          ],
          [
            7.862282785903684,
            46.90503373626387
          ],
          [
            7.862083738079191,
            46.90497950985792
          ],
          [
            7.8618292395894125,
            46.904878792815595
          ],
          [
            7.861574183067203,
            46.90478711761679
          ],
          [
            7.8612139433856685,
            46.90471712162346
          ],
          [
            7.860784829962332,
            46.90459754374936
          ],
          [
            7.860592471784774,
            46.90433635158347
          ],
          [
            7.860369183804184,
            46.904197960754246
          ],
          [
            7.860178154164523,
            46.9040591090656
          ],
          [
            7.86019855043644,
            46.90395519148913
          ],
          [
            7.860396880461372,
            46.9037291099877
          ],
          [
            7.860125829742675,
            46.90358337424243
          ],
          [
            7.859368268655141,
            46.90345020069044
          ],
          [
            7.85872790439382,
            46.90332416687568
          ],
          [
            7.858588121908087,
            46.90325281493388
          ],
          [
            7.858615648987779,
            46.90300769813088
          ],
          [
            7.85861721995113,
            46.90276314415473
          ],
          [
            7.858650815130737,
            46.90266003305166
          ],
          [
            7.859041790286273,
            46.90236206754631
          ],
          [
            7.858845943362119,
            46.902127655438335
          ],
          [
            7.858734600002194,
            46.902050712254926
          ],
          [
            7.858571996865021,
            46.90178063713007
          ],
          [
            7.858285472823057,
            46.90159427662244
          ],
          [
            7.858261246877742,
            46.901282819467966
          ],
          [
            7.85830826480714,
            46.9011018493097
          ],
          [
            7.857817040860193,
            46.90063107435237
          ],
          [
            7.8575064172158955,
            46.90058650416521
          ],
          [
            7.857095299741032,
            46.900733955459586
          ],
          [
            7.856824823880147,
            46.900954951266044
          ],
          [
            7.856614656073697,
            46.90087726002548
          ],
          [
            7.856311290785358,
            46.90077022323256
          ],
          [
            7.856159215940245,
            46.90078964046399
          ],
          [
            7.855845301804567,
            46.90072006161483
          ],
          [
            7.855505870380871,
            46.90097199741448
          ],
          [
            7.855480720414501,
            46.901230894766414
          ],
          [
            7.855613579654201,
            46.901609413711576
          ],
          [
            7.855755290633651,
            46.90183933270075
          ],
          [
            7.855891108198345,
            46.90208087698995
          ],
          [
            7.855896195858747,
            46.90229712522545
          ],
          [
            7.855883406973927,
            46.90241158391162
          ],
          [
            7.855888469571471,
            46.90250431677156
          ],
          [
            7.855409602701332,
            46.90260662678348
          ],
          [
            7.854959429521936,
            46.902724914317695
          ],
          [
            7.85460337035291,
            46.90277694057765
          ],
          [
            7.854237542344242,
            46.90279789514537
          ],
          [
            7.8539618240409865,
            46.90284400604291
          ],
          [
            7.853863857701901,
            46.90284506251976
          ],
          [
            7.853807184080393,
            46.90281586188922
          ],
          [
            7.853694532497855,
            46.90263482413743
          ],
          [
            7.853560758786189,
            46.90245645338167
          ],
          [
            7.853525586717642,
            46.90227262532563
          ],
          [
            7.85343345452003,
            46.902047795547915
          ],
          [
            7.853123442600689,
            46.90173027367652
          ],
          [
            7.853053532705666,
            46.90167777753462
          ],
          [
            7.85291442191356,
            46.901516462537835
          ],
          [
            7.852752554115088,
            46.90138067747861
          ],
          [
            7.852572392878815,
            46.90129622286431
          ],
          [
            7.852400739175828,
            46.90128043492016
          ],
          [
            7.852000694201495,
            46.900509814149494
          ],
          [
            7.8524125605605555,
            46.90021568195309
          ],
          [
            7.852704847785306,
            46.89988521609342
          ],
          [
            7.853004158681039,
            46.89948730373655
          ],
          [
            7.853179606932955,
            46.89918347135868
          ],
          [
            7.853301106995665,
            46.89890070310311
          ],
          [
            7.85308842161277,
            46.89880111077168
          ],
          [
            7.85273013303879,
            46.898624863729594
          ],
          [
            7.852590339651465,
            46.898429926041665
          ],
          [
            7.852514052719331,
            46.898279573896886
          ],
          [
            7.852501771382774,
            46.89812272087789
          ],
          [
            7.852463828194263,
            46.897907031775254
          ],
          [
            7.852498099953415,
            46.897665382186474
          ],
          [
            7.852287034978521,
            46.897309441249504
          ],
          [
            7.852063324351291,
            46.897119636173414
          ],
          [
            7.85240935540763,
            46.896786611240074
          ],
          [
            7.852517165342954,
            46.89675471125929
          ],
          [
            7.852646872766449,
            46.89671195563443
          ],
          [
            7.852780261932477,
            46.89658995526422
          ],
          [
            7.853023696188018,
            46.89640269132703
          ],
          [
            7.853139814423077,
            46.89622958723475
          ],
          [
            7.853211772646943,
            46.89611604821333
          ],
          [
            7.853242758320631,
            46.89602772745815
          ],
          [
            7.8532817967564705,
            46.89593711073065
          ],
          [
            7.853141153780675,
            46.895654993497054
          ],
          [
            7.853065583565768,
            46.89551220418607
          ],
          [
            7.85277148511706,
            46.89513260948779
          ],
          [
            7.852596362973441,
            46.89486101478083
          ],
          [
            7.852605921744651,
            46.89440240470568
          ],
          [
            7.852699675147085,
            46.89409256199151
          ],
          [
            7.852550865326345,
            46.89390784849409
          ],
          [
            7.852156175491574,
            46.893627969333004
          ],
          [
            7.851754181246882,
            46.893396069522375
          ],
          [
            7.851423074114354,
            46.89319813150191
          ],
          [
            7.851093934949583,
            46.892975834942945
          ],
          [
            7.850936435453466,
            46.89283076627676
          ],
          [
            7.850530034788523,
            46.8925376644404
          ],
          [
            7.850615560420835,
            46.89255779461176
          ],
          [
            7.850953445446863,
            46.89248152230364
          ],
          [
            7.851016159175303,
            46.892260891818864
          ],
          [
            7.851540100913531,
            46.89205498145886
          ],
          [
            7.851622940382531,
            46.89190963245981
          ],
          [
            7.85166407784487,
            46.89193194571987
          ],
          [
            7.851713129945497,
            46.89186041757557
          ],
          [
            7.851933250814801,
            46.89168282884497
          ],
          [
            7.852107194963714,
            46.89154970852483
          ],
          [
            7.852216011708222,
            46.89141613928194
          ],
          [
            7.852292413153095,
            46.89141360575952
          ],
          [
            7.8522976447203545,
            46.89121486081093
          ],
          [
            7.8524666407119,
            46.89117754065695
          ],
          [
            7.852651429732388,
            46.89113100590837
          ],
          [
            7.852833641567534,
            46.891073577763464
          ],
          [
            7.852954019601124,
            46.89100876274156
          ],
          [
            7.852794649843479,
            46.89098899110149
          ],
          [
            7.852876061140447,
            46.890960604334424
          ],
          [
            7.853040309955771,
            46.89086240171116
          ],
          [
            7.853164228783921,
            46.890771837859134
          ],
          [
            7.853148201621633,
            46.890765976852414
          ],
          [
            7.8528201589503865,
            46.89064603975263
          ],
          [
            7.852548917613934,
            46.89052228047646
          ],
          [
            7.852145396289692,
            46.89027666955378
          ],
          [
            7.851761286768877,
            46.89004837533497
          ],
          [
            7.851346031660476,
            46.889779128028515
          ],
          [
            7.8509024145394255,
            46.88951185226962
          ],
          [
            7.850577270027424,
            46.889348855404414
          ],
          [
            7.850305098817958,
            46.88916883700967
          ],
          [
            7.850000331986533,
            46.88901743234062
          ],
          [
            7.849612102393693,
            46.88892779162409
          ],
          [
            7.849340083782133,
            46.88884797901377
          ],
          [
            7.848933739250418,
            46.88875355239105
          ],
          [
            7.848449801725435,
            46.88863370194564
          ],
          [
            7.848068188498996,
            46.88850753805947
          ],
          [
            7.847750685193054,
            46.888310404376895
          ],
          [
            7.847335768165677,
            46.88816604230701
          ],
          [
            7.847112281834113,
            46.88811789503221
          ],
          [
            7.846924060210158,
            46.88810029598769
          ],
          [
            7.846069293465798,
            46.887992019500366
          ],
          [
            7.845811686679818,
            46.88797752576664
          ],
          [
            7.845579585191548,
            46.88802011558556
          ],
          [
            7.845520228080448,
            46.88801166374127
          ],
          [
            7.84550480166182,
            46.88788185210019
          ],
          [
            7.84538624221097,
            46.88767163688947
          ],
          [
            7.8452721782672805,
            46.88744847923285
          ],
          [
            7.845227219421208,
            46.887256281352165
          ],
          [
            7.845146494084943,
            46.887079745333786
          ],
          [
            7.845079725359378,
            46.886843511349866
          ],
          [
            7.845202919974245,
            46.88668251576455
          ],
          [
            7.845352862775739,
            46.88654187165087
          ],
          [
            7.8454912287086795,
            46.88641983491021
          ],
          [
            7.845476836396507,
            46.88633133538626
          ],
          [
            7.845404829648854,
            46.88615038782614
          ],
          [
            7.8451077291962905,
            46.885925846417834
          ],
          [
            7.845144753149423,
            46.88584388406006
          ],
          [
            7.8450849597245735,
            46.88576857081289
          ],
          [
            7.844849119331787,
            46.885543766508846
          ],
          [
            7.8446543074199715,
            46.885395511085115
          ],
          [
            7.844668053370577,
            46.88533925919658
          ],
          [
            7.844310424489872,
            46.88474361839585
          ],
          [
            7.843865271659243,
            46.8842968358064
          ],
          [
            7.8432874502265495,
            46.88392761043334
          ],
          [
            7.8428725754115325,
            46.88383171724291
          ],
          [
            7.842430722103932,
            46.883705315277965
          ],
          [
            7.8418354560612045,
            46.88355018937275
          ],
          [
            7.84158400696863,
            46.883703464537795
          ],
          [
            7.841434260508711,
            46.883789896854054
          ],
          [
            7.841204614055723,
            46.88387463963346
          ],
          [
            7.840716846008735,
            46.884107047488904
          ],
          [
            7.840369393615187,
            46.88412323412256
          ],
          [
            7.840088544056416,
            46.884223023471826
          ],
          [
            7.839665458038116,
            46.88415687718059
          ],
          [
            7.839567167255363,
            46.884109779350766
          ],
          [
            7.839461388637196,
            46.88412134855968
          ],
          [
            7.8393975452617015,
            46.88413521780246
          ],
          [
            7.839264777309431,
            46.8841306984871
          ],
          [
            7.839138573710656,
            46.884167363955086
          ],
          [
            7.83900477534535,
            46.884156605138635
          ],
          [
            7.838869710030752,
            46.884137772731115
          ],
          [
            7.838747088954426,
            46.88416044642364
          ],
          [
            7.838639224168974,
            46.88416496976888
          ],
          [
            7.83842121821763,
            46.88421733688602
          ],
          [
            7.838361589584968,
            46.88420870237909
          ],
          [
            7.838166678766234,
            46.88422981944876
          ],
          [
            7.838100435630166,
            46.88422975347938
          ],
          [
            7.8378389595176685,
            46.88424630741072
          ],
          [
            7.837578061309074,
            46.884271827133276
          ],
          [
            7.8375248369282104,
            46.88425986859338
          ],
          [
            7.837383747660641,
            46.88431343227974
          ],
          [
            7.837317984266441,
            46.88431083648406
          ],
          [
            7.837138776145211,
            46.88436550394609
          ],
          [
            7.837016888748891,
            46.88437223340212
          ],
          [
            7.836877090741414,
            46.884440850248986
          ],
          [
            7.836811683849701,
            46.88446165891884
          ],
          [
            7.836108086684683,
            46.88453850170769
          ],
          [
            7.83579541359245,
            46.88437342273182
          ],
          [
            7.8354436039778195,
            46.88436489915923
          ],
          [
            7.834667422132859,
            46.884410824317115
          ],
          [
            7.833899216758825,
            46.88447474344813
          ],
          [
            7.8332324325563105,
            46.884562658825814
          ],
          [
            7.832003540878741,
            46.88470947742175
          ],
          [
            7.831372576687894,
            46.88474270200529
          ],
          [
            7.83086470664836,
            46.88471135590365
          ],
          [
            7.830492327617887,
            46.8846474759184
          ],
          [
            7.8305274833028164,
            46.88457087699094
          ],
          [
            7.83050275305586,
            46.884538542176195
          ],
          [
            7.830387659182873,
            46.88454867757373
          ],
          [
            7.830117451380851,
            46.884532302584965
          ],
          [
            7.829805358423508,
            46.88448795932769
          ],
          [
            7.827891784112727,
            46.88418719109912
          ],
          [
            7.827659784299682,
            46.8841653822798
          ],
          [
            7.827428187615812,
            46.884155778355805
          ],
          [
            7.827190461276663,
            46.88416217053779
          ],
          [
            7.826950574217456,
            46.884183699776095
          ],
          [
            7.826717251268723,
            46.884218582419585
          ],
          [
            7.8264894200850845,
            46.88426732587725
          ],
          [
            7.8258516660183215,
            46.88442164778558
          ],
          [
            7.825171681944125,
            46.884582432277895
          ],
          [
            7.824885678032145,
            46.88464460986627
          ],
          [
            7.8247554540452615,
            46.88467651441064
          ],
          [
            7.824633770330976,
            46.884726632678145
          ],
          [
            7.824540908935283,
            46.884791091374126
          ],
          [
            7.82446524800717,
            46.88487574069997
          ],
          [
            7.823958068766244,
            46.88547451483601
          ],
          [
            7.823723994511715,
            46.88574679986471
          ],
          [
            7.823608578730762,
            46.885863002991925
          ],
          [
            7.8235214109796205,
            46.885984769253746
          ],
          [
            7.823329553016234,
            46.88621099029748
          ],
          [
            7.823053292155375,
            46.88654426917601
          ],
          [
            7.822913347055753,
            46.886696724232365
          ],
          [
            7.822813617418527,
            46.88677948311261
          ],
          [
            7.822700294247012,
            46.88685299522304
          ],
          [
            7.822526373935684,
            46.886934886950414
          ],
          [
            7.821798759187974,
            46.88719154843912
          ],
          [
            7.821643464890546,
            46.887239805820855
          ],
          [
            7.821474120489128,
            46.8872219219501
          ],
          [
            7.820943757260393,
            46.887351444131774
          ],
          [
            7.820695721899775,
            46.88732900897488
          ],
          [
            7.82019673066395,
            46.88726998805206
          ],
          [
            7.819777758861608,
            46.88730306343848
          ],
          [
            7.819228392204322,
            46.88748277203384
          ],
          [
            7.818816080753198,
            46.887889255638775
          ],
          [
            7.818473454849079,
            46.88823523787033
          ],
          [
            7.818172106203851,
            46.88850713146351
          ],
          [
            7.818031833603918,
            46.888757388177005
          ],
          [
            7.8177940038283245,
            46.88913437930585
          ],
          [
            7.8175775467207895,
            46.889444418702276
          ],
          [
            7.817286971081259,
            46.88978333473497
          ],
          [
            7.817075105737064,
            46.88994833465082
          ],
          [
            7.816959922561053,
            46.890112205592736
          ],
          [
            7.816810034296377,
            46.890287543044145
          ],
          [
            7.816685603465255,
            46.89045205588356
          ],
          [
            7.816348818874944,
            46.890660374153896
          ],
          [
            7.816049382527427,
            46.89086780387487
          ],
          [
            7.815537123379377,
            46.891106957619506
          ],
          [
            7.8154426464667655,
            46.891148053138075
          ],
          [
            7.815123994292847,
            46.891291703447614
          ],
          [
            7.8149006010232,
            46.89143118127771
          ],
          [
            7.814478095422455,
            46.891756598029694
          ],
          [
            7.814579744634979,
            46.89198342469436
          ],
          [
            7.814569940321442,
            46.892366767251694
          ],
          [
            7.81452101046487,
            46.892513740983986
          ],
          [
            7.814580143766827,
            46.8929076339339
          ],
          [
            7.8145644503136795,
            46.89325565296811
          ],
          [
            7.814495732089495,
            46.89352876153056
          ],
          [
            7.81446659027716,
            46.89374924339736
          ],
          [
            7.814724744906942,
            46.89411966245685
          ],
          [
            7.8148819293499745,
            46.89446426277507
          ],
          [
            7.81495082334749,
            46.89470117236556
          ],
          [
            7.81489405121167,
            46.89518350093775
          ],
          [
            7.814891722250009,
            46.89557158634466
          ],
          [
            7.814932454382986,
            46.89600551469143
          ],
          [
            7.815033422533008,
            46.89622547061527
          ],
          [
            7.815128415709771,
            46.896536748939205
          ],
          [
            7.814855907527923,
            46.8969336819323
          ],
          [
            7.814729887080672,
            46.89716492516792
          ],
          [
            7.814540345160332,
            46.89748206626217
          ],
          [
            7.81451981759672,
            46.89798763652961
          ],
          [
            7.814409187417417,
            46.898489894913276
          ],
          [
            7.8143847313852435,
            46.89901386444527
          ],
          [
            7.814278082096128,
            46.89951159389774
          ],
          [
            7.814199129913237,
            46.89989938126335
          ],
          [
            7.814024877699303,
            46.90019204886927
          ],
          [
            7.814140845071922,
            46.900450753296276
          ],
          [
            7.814200270053055,
            46.90071055131965
          ],
          [
            7.814295458590141,
            46.900959059928724
          ],
          [
            7.814248070958548,
            46.90124375606782
          ],
          [
            7.814192635417948,
            46.90142834229762
          ],
          [
            7.81409445254233,
            46.901550568770205
          ],
          [
            7.813408288774638,
            46.90180623919382
          ],
          [
            7.813194784393084,
            46.90186294176936
          ],
          [
            7.81291950860662,
            46.90192601637536
          ],
          [
            7.812640602185989,
            46.90200499693657
          ],
          [
            7.812387466548183,
            46.902113595466275
          ],
          [
            7.811971932834203,
            46.90232494534699
          ],
          [
            7.811591973167409,
            46.90255672338762
          ],
          [
            7.811402273157781,
            46.902735043218634
          ],
          [
            7.811074238372222,
            46.902746102828196
          ],
          [
            7.810810001515909,
            46.902810368838395
          ],
          [
            7.810592615976434,
            46.90298453134751
          ],
          [
            7.810392603469545,
            46.90312980703857
          ],
          [
            7.810364404699826,
            46.90313256106548
          ],
          [
            7.810206948190355,
            46.90318564911558
          ],
          [
            7.809934785376604,
            46.90336672532732
          ],
          [
            7.809786082631832,
            46.9034580236602
          ],
          [
            7.809521510296513,
            46.903590580407744
          ],
          [
            7.809270014626946,
            46.90367246848286
          ],
          [
            7.809005022582981,
            46.90378822207871
          ],
          [
            7.808637168672734,
            46.90389219022444
          ],
          [
            7.808384437488298,
            46.90395700716503
          ],
          [
            7.808131853175731,
            46.90396104154127
          ],
          [
            7.8078170719386,
            46.903913552369154
          ],
          [
            7.807566879797146,
            46.90406180911688
          ],
          [
            7.80719042542073,
            46.90411027201093
          ],
          [
            7.806701873569565,
            46.904341536982336
          ],
          [
            7.806564891913854,
            46.904364932616986
          ],
          [
            7.8066196865256,
            46.904553002324874
          ],
          [
            7.806604630719923,
            46.90473532322224
          ],
          [
            7.806569183053741,
            46.90496249733146
          ],
          [
            7.806494255259295,
            46.905237770202426
          ],
          [
            7.806238612042046,
            46.90553688431297
          ],
          [
            7.806130528935268,
            46.90571231596184
          ],
          [
            7.806030283009828,
            46.90591115525443
          ],
          [
            7.805946893724286,
            46.90617803517898
          ],
          [
            7.805885204537803,
            46.90640902611218
          ],
          [
            7.805825786961965,
            46.906522764498845
          ],
          [
            7.805788071584197,
            46.90657000281485
          ],
          [
            7.805781140333655,
            46.906600663122155
          ],
          [
            7.80569787628419,
            46.90670326058275
          ],
          [
            7.805597930304102,
            46.90678285630476
          ],
          [
            7.805857460589611,
            46.90692935129382
          ],
          [
            7.8058725247271745,
            46.90694033134539
          ],
          [
            7.805896894915674,
            46.9069725015973
          ],
          [
            7.806109397744671,
            46.90711315569493
          ],
          [
            7.806434104299023,
            46.90733726819724
          ],
          [
            7.806751915709202,
            46.90748353827365
          ],
          [
            7.806876863024373,
            46.907653194031006
          ],
          [
            7.80689495733794,
            46.90771376450533
          ],
          [
            7.807022484695657,
            46.90796497253102
          ],
          [
            7.807068011442283,
            46.908248071440724
          ],
          [
            7.807168658472985,
            46.90835528733848
          ],
          [
            7.807523841618581,
            46.90862532794633
          ],
          [
            7.807673321588179,
            46.9087502150892
          ],
          [
            7.8078909357620265,
            46.90890717596282
          ],
          [
            7.808003227484362,
            46.909044883803126
          ],
          [
            7.80819076264972,
            46.90918324865942
          ],
          [
            7.80853600284955,
            46.90933801595419
          ],
          [
            7.808905131587696,
            46.909486624249276
          ],
          [
            7.80901846663882,
            46.90956743223082
          ],
          [
            7.809248374897449,
            46.90981416924301
          ],
          [
            7.809497753776322,
            46.909992604228854
          ],
          [
            7.809669549847237,
            46.91039852080353
          ],
          [
            7.809911374179409,
            46.910594403283234
          ],
          [
            7.8100413592080535,
            46.91076495677179
          ],
          [
            7.810146514505058,
            46.91084483661396
          ],
          [
            7.810241895329312,
            46.91095199489259
          ],
          [
            7.810275278408212,
            46.91107602233719
          ],
          [
            7.810333958711074,
            46.91121369467414
          ],
          [
            7.810448045356529,
            46.91136261146296
          ],
          [
            7.810638614779215,
            46.91148017425079
          ],
          [
            7.810656107457496,
            46.91162008489813
          ],
          [
            7.810664656172031,
            46.91171558760571
          ],
          [
            7.810785604599259,
            46.91174971934216
          ],
          [
            7.810833538533735,
            46.91176615120516
          ],
          [
            7.811020949818668,
            46.91176264642452
          ],
          [
            7.811260540778685,
            46.91192060897284
          ],
          [
            7.811622950808719,
            46.912128428629465
          ],
          [
            7.811992400225275,
            46.912302248856214
          ],
          [
            7.812293039085086,
            46.91244738107264
          ],
          [
            7.812387818076757,
            46.91251218049738
          ],
          [
            7.812430736755871,
            46.912537785283284
          ],
          [
            7.812582425442726,
            46.91263725598848
          ],
          [
            7.812790072469367,
            46.91274775215804
          ],
          [
            7.812994748741922,
            46.91281598858057
          ],
          [
            7.813323843859294,
            46.9130504658069
          ],
          [
            7.813463107288224,
            46.913174875013034
          ],
          [
            7.813701220845497,
            46.913393960566545
          ],
          [
            7.813816046092591,
            46.91350367891367
          ],
          [
            7.813912142781359,
            46.91362329931359
          ],
          [
            7.814055232951733,
            46.91375580007051
          ],
          [
            7.814225045474205,
            46.913787771278955
          ],
          [
            7.81462365970502,
            46.91387921622258
          ],
          [
            7.814913555591356,
            46.91399317197612
          ],
          [
            7.815206430959477,
            46.91410126125463
          ],
          [
            7.81597161878745,
            46.9142570104771
          ],
          [
            7.816324676312976,
            46.91433558311973
          ],
          [
            7.816614102506932,
            46.91439483550875
          ],
          [
            7.816934170243531,
            46.91442069438951
          ],
          [
            7.817209993269938,
            46.9144232925577
          ],
          [
            7.817229607885973,
            46.91442550363776
          ],
          [
            7.817271013202977,
            46.91441828763987
          ],
          [
            7.817384997501826,
            46.91426146449727
          ],
          [
            7.817446814202242,
            46.91414020117275
          ],
          [
            7.81750883344071,
            46.91391527492288
          ],
          [
            7.817631138601218,
            46.914209908801155
          ],
          [
            7.8176709929420145,
            46.91434047929505
          ],
          [
            7.817722805453135,
            46.91444665988717
          ],
          [
            7.817743153711277,
            46.914526983922485
          ],
          [
            7.818036259342931,
            46.91490133604661
          ],
          [
            7.81865159003258,
            46.915084908776834
          ],
          [
            7.819031134920965,
            46.9152786875003
          ],
          [
            7.819170257564557,
            46.915478947878256
          ],
          [
            7.8192897981213205,
            46.91567038568229
          ],
          [
            7.819291555203584,
            46.9158521215294
          ],
          [
            7.819303936922878,
            46.91605118310102
          ],
          [
            7.8193251586921555,
            46.91625280598196
          ],
          [
            7.819252194401161,
            46.91644224690443
          ],
          [
            7.819075524673675,
            46.91686842904313
          ],
          [
            7.819020686419992,
            46.91700740884356
          ],
          [
            7.818981642458839,
            46.917217255420056
          ],
          [
            7.818943748959388,
            46.917485954597176
          ],
          [
            7.8189507968084815,
            46.91766043161075
          ],
          [
            7.818966745384788,
            46.917792124312676
          ],
          [
            7.818984987728762,
            46.91801808943772
          ],
          [
            7.8190396451588144,
            46.918195332041776
          ],
          [
            7.819109074054764,
            46.91838026160405
          ],
          [
            7.819194426932105,
            46.91857989062947
          ],
          [
            7.819358852361284,
            46.91893175495251
          ],
          [
            7.819358437180598,
            46.91907730071721
          ],
          [
            7.81938276625704,
            46.919222431524
          ],
          [
            7.819410498079511,
            46.91943102204918
          ],
          [
            7.819414442848411,
            46.9196380004012
          ],
          [
            7.81943961270748,
            46.919785008415936
          ],
          [
            7.819591345279157,
            46.920019570468476
          ],
          [
            7.819778936754519,
            46.92019148667249
          ],
          [
            7.819495605566424,
            46.920339960029644
          ],
          [
            7.81950799365335,
            46.920396733371064
          ],
          [
            7.81944474058194,
            46.9205844419103
          ],
          [
            7.819459010992859,
            46.92069574765748
          ],
          [
            7.819555691051537,
            46.920927649953654
          ],
          [
            7.819575188627441,
            46.92121548954216
          ],
          [
            7.8196539591805445,
            46.92164923429878
          ],
          [
            7.819727230315413,
            46.921802900889254
          ],
          [
            7.819772578052859,
            46.92207184531044
          ],
          [
            7.819782991521506,
            46.922274322402245
          ],
          [
            7.819785060251152,
            46.92241820469955
          ],
          [
            7.8197433333365005,
            46.92254034687748
          ],
          [
            7.819591272494972,
            46.92273559165138
          ],
          [
            7.819444370619288,
            46.922910444686316
          ],
          [
            7.819397415981267,
            46.923030580130174
          ],
          [
            7.81937571496816,
            46.9233168202865
          ],
          [
            7.819347222893817,
            46.923459661579564
          ],
          [
            7.819337361498768,
            46.923697215726705
          ],
          [
            7.819321141039498,
            46.92383388147162
          ],
          [
            7.819362883159009,
            46.923927168337855
          ],
          [
            7.819419614848539,
            46.924030938954715
          ],
          [
            7.819520797522971,
            46.92400016290634
          ],
          [
            7.820201772801916,
            46.923778639077625
          ],
          [
            7.821885113911071,
            46.923185795284255
          ],
          [
            7.822046098386416,
            46.92312553741535
          ],
          [
            7.822541931862638,
            46.923015062758864
          ],
          [
            7.823060575988476,
            46.92294785796881
          ],
          [
            7.823475944889686,
            46.92293417767731
          ],
          [
            7.82390673490138,
            46.922945388119224
          ],
          [
            7.8245730296769915,
            46.923030223192285
          ],
          [
            7.824861675193523,
            46.9230698296519
          ],
          [
            7.825246872161455,
            46.92314195195952
          ],
          [
            7.825602027440575,
            46.92323199405201
          ],
          [
            7.8255413672193885,
            46.923335860769846
          ],
          [
            7.825557863861903,
            46.9238209049299
          ],
          [
            7.82558051034201,
            46.9241348732546
          ],
          [
            7.8257038795791445,
            46.92425762101926
          ],
          [
            7.825981661587789,
            46.92470978680255
          ],
          [
            7.826162659991201,
            46.92511347925328
          ],
          [
            7.826296749535792,
            46.925555748938045
          ],
          [
            7.826436090524235,
            46.92579709020761
          ],
          [
            7.826748814931327,
            46.92637338829181
          ],
          [
            7.82695600173631,
            46.92673999306559
          ],
          [
            7.8272072907973085,
            46.926991191060495
          ],
          [
            7.827346077115915,
            46.927123698704804
          ],
          [
            7.827468663305382,
            46.927252869853355
          ],
          [
            7.827600369252818,
            46.927377503295375
          ],
          [
            7.827826106879831,
            46.92751896270712
          ],
          [
            7.828022132239469,
            46.92767145183712
          ],
          [
            7.828263120230169,
            46.92780067896415
          ],
          [
            7.828477297083761,
            46.927895508643125
          ],
          [
            7.82860467933192,
            46.92793750663509
          ],
          [
            7.828878157847461,
            46.92796384151418
          ],
          [
            7.829058299875231,
            46.92798778582561
          ],
          [
            7.829359492957528,
            46.92801890069863
          ],
          [
            7.829531642582835,
            46.928086768642444
          ],
          [
            7.829837037744853,
            46.92815394816757
          ],
          [
            7.830233421907301,
            46.92817496719237
          ],
          [
            7.830633686622775,
            46.92811394326846
          ],
          [
            7.830836498065272,
            46.92805199197443
          ],
          [
            7.831037552602293,
            46.92794542054621
          ],
          [
            7.8313889727294015,
            46.927782329214274
          ],
          [
            7.831569704722278,
            46.92772870990203
          ],
          [
            7.832009085372413,
            46.92780133456978
          ],
          [
            7.832270458112776,
            46.927922801386984
          ],
          [
            7.832551648159503,
            46.92804274232254
          ],
          [
            7.8327334272985505,
            46.92804611193102
          ],
          [
            7.8330947274678655,
            46.92803317628402
          ],
          [
            7.8334359765817885,
            46.92797900198617
          ],
          [
            7.834187993655753,
            46.9280396666246
          ],
          [
            7.834401629556157,
            46.92807720490923
          ],
          [
            7.834592551569983,
            46.92812749560328
          ],
          [
            7.834760800984549,
            46.928156878184005
          ],
          [
            7.834881811673325,
            46.92818162918466
          ],
          [
            7.835009065347219,
            46.9282535389503
          ],
          [
            7.83531605132381,
            46.928303877131746
          ],
          [
            7.83548047677992,
            46.92832204571754
          ],
          [
            7.835996651475901,
            46.92840469806865
          ],
          [
            7.836191941735692,
            46.92841492379622
          ],
          [
            7.836403062939537,
            46.928431606914586
          ],
          [
            7.836533910652651,
            46.9284546759198
          ],
          [
            7.836703599337447,
            46.92849018546784
          ],
          [
            7.836886874083294,
            46.928475381739446
          ],
          [
            7.836984038682317,
            46.92848739496702
          ],
          [
            7.8370429964534924,
            46.92850522585032
          ],
          [
            7.837164091491019,
            46.92854821666401
          ],
          [
            7.837297073613446,
            46.928611189629834
          ],
          [
            7.83742100104805,
            46.92868905419033
          ],
          [
            7.837508006322411,
            46.92873874771417
          ],
          [
            7.83762471474117,
            46.92878326450799
          ],
          [
            7.838080946520345,
            46.92873736588756
          ],
          [
            7.838174096580745,
            46.928747979819484
          ],
          [
            7.838687201101467,
            46.92894823560334
          ],
          [
            7.838944279242008,
            46.92905443714066
          ],
          [
            7.839213463187584,
            46.92917096743894
          ],
          [
            7.83961030260196,
            46.92937675234632
          ],
          [
            7.839793902805802,
            46.92946876229324
          ],
          [
            7.840328502269278,
            46.92956864671941
          ],
          [
            7.8405706130918205,
            46.929621527770934
          ],
          [
            7.840965510440082,
            46.9297560628451
          ],
          [
            7.841345297673619,
            46.9297820040921
          ],
          [
            7.841473734292517,
            46.92984011271093
          ],
          [
            7.841534897623628,
            46.930059257865565
          ],
          [
            7.84155301447273,
            46.930383286715156
          ],
          [
            7.8415515864267356,
            46.93054162739255
          ],
          [
            7.8413788273371505,
            46.93091143800213
          ],
          [
            7.8414904312389355,
            46.93112909273927
          ],
          [
            7.841642043599994,
            46.931446194022065
          ],
          [
            7.841967103238453,
            46.93187771759441
          ],
          [
            7.8422500338160175,
            46.93230294780473
          ],
          [
            7.8425178759155845,
            46.93250003715422
          ],
          [
            7.842864642164004,
            46.93271812174811
          ],
          [
            7.843150525944686,
            46.9328113310654
          ],
          [
            7.843283625968877,
            46.9331479432866
          ],
          [
            7.843579687565702,
            46.93332287409281
          ],
          [
            7.843894722987848,
            46.93345194194372
          ],
          [
            7.8440571978753715,
            46.933745667747644
          ],
          [
            7.844265829382562,
            46.934002187408026
          ],
          [
            7.844541819905016,
            46.93416145387833
          ],
          [
            7.844626602948542,
            46.93436367447705
          ],
          [
            7.844695063224444,
            46.934597229501364
          ],
          [
            7.844877256687678,
            46.93458457576221
          ],
          [
            7.844943104077834,
            46.93475363446344
          ],
          [
            7.844961539588087,
            46.93486816052371
          ],
          [
            7.844887423341193,
            46.93517823971006
          ],
          [
            7.845254918389109,
            46.93530137904378
          ],
          [
            7.845544555129319,
            46.93540225110363
          ],
          [
            7.8457544421419785,
            46.93554516171669
          ],
          [
            7.84589886098563,
            46.93560427910698
          ],
          [
            7.846219735018052,
            46.935749205579626
          ],
          [
            7.8464703490350995,
            46.93584701159597
          ],
          [
            7.846806675771592,
            46.935895712562484
          ],
          [
            7.84706985134272,
            46.935978603320066
          ],
          [
            7.847494386242824,
            46.93604393539295
          ],
          [
            7.8478740984519755,
            46.93607790619409
          ],
          [
            7.848077099681964,
            46.93608787733805
          ],
          [
            7.848338630912441,
            46.93615794373157
          ],
          [
            7.848400179197072,
            46.936107332152496
          ],
          [
            7.848469679148852,
            46.93593339331225
          ],
          [
            7.848720068511849,
            46.935794204567635
          ],
          [
            7.848851645136423,
            46.9357633839767
          ]
        ]
      }
    }
  ]
}