{"type": "FeatureCollection", "features": [{"type": "Feature", "properties": {"bfs_nummer": 91}, "geometry": {"type": "MultiPolygon", "coordinates": [[[[8.361234349421684, 47.5101015495498], [8.361585513402696, 47.51021818967522], [8.361821374820769, 47.51029231352035], [8.362061639030584, 47.51036001575269], [8.362093831122785, 47.510356161298056], [8.362153069940312, 47.51035793763341], [8.362254688791847, 47.5103768253201], [8.362372696786423, 47.510422115909066], [8.362449376052052, 47.51048023831917], [8.362515453438423, 47.510501208115116], [8.362617403996364, 47.51053916113387], [8.362707206863202, 47.51056560805611], [8.362804728936329, 47.51060080792812], [8.362882437448876, 47.51062645178204], [8.362967117387324, 47.510671288153716], [8.363073424326872, 47.510730702783064], [8.363272719781483, 47.51080808361086], [8.363372948002816, 47.51083777477812], [8.363424827898463, 47.51085148191422], [8.363539996858567, 47.510878445282344], [8.363708288566901, 47.510906603269135], [8.363813799303275, 47.51091331593988], [8.363934647964427, 47.5109149590528], [8.36404985676454, 47.510913678893424], [8.364373273106393, 47.510900661352196], [8.364703724342633, 47.51089370255171], [8.365372870875097, 47.510882863774526], [8.365610005027397, 47.51088483391131], [8.36583711333673, 47.510889681152634], [8.365888636847686, 47.51088747880832], [8.365939852694673, 47.51088285939129], [8.365990469295632, 47.510875852186636], [8.36604031463545, 47.51086648565394], [8.366089083776842, 47.51085478908204], [8.366136552221711, 47.510840827307845], [8.36618245559246, 47.510824665412905], [8.366217795776194, 47.5108102610488], [8.366573982210983, 47.51154846415823], [8.368201123059384, 47.511188500130785], [8.368373721729512, 47.51153942928761], [8.36722879300278, 47.51206858483174], [8.3673454741759, 47.512186421519175], [8.367612920650878, 47.51214039281692], [8.367874336680115, 47.51208584910697], [8.368088960806805, 47.51203466646179], [8.368158713121066, 47.5120157669789], [8.368164307732515, 47.51202519332125], [8.36840212048167, 47.511953307581756], [8.36846791934647, 47.512051476042785], [8.36845744457044, 47.512054501321465], [8.368443515590505, 47.51206117910605], [8.368432572103972, 47.51207004557085], [8.36842532052631, 47.51208050141537], [8.36842278364241, 47.51208802319419], [8.368423632985298, 47.51209787434492], [8.368427979719321, 47.51210730166161], [8.368435561423903, 47.51211572261441], [8.36844593156727, 47.51212265508353], [8.36845844560823, 47.51212768149948], [8.368454888066493, 47.51213301679745], [8.368663894428838, 47.51219708874352], [8.369594175375124, 47.51188956899527], [8.370407899402244, 47.511497981746125], [8.370728963063828, 47.51166790493626], [8.37087600179939, 47.51155870717134], [8.370968294460747, 47.51150723565532], [8.371040134313079, 47.511500721242705], [8.371214127317534, 47.51161211192142], [8.371329171539667, 47.51166947012487], [8.371522112246844, 47.51174769778448], [8.37159593397099, 47.51179359580313], [8.371881402546027, 47.511597744114454], [8.372050782329858, 47.51149086507203], [8.372240296411823, 47.511411724444216], [8.372733444571814, 47.51128847314941], [8.373259908639547, 47.511149929870086], [8.373371503499785, 47.511116739108594], [8.373480914342494, 47.511080147945066], [8.373635391912607, 47.51102448432599], [8.373714385575843, 47.51100963530935], [8.373795637730524, 47.511017524144975], [8.373997753946341, 47.51107390704381], [8.374096032997276, 47.51112069454715], [8.374145526774168, 47.51119476955826], [8.374208033286072, 47.511427402908694], [8.374220431802803, 47.511490714224934], [8.374187651625762, 47.51153658123942], [8.374159395620524, 47.51158304140635], [8.374299546580804, 47.511633538660284], [8.37466407823041, 47.51218277945072], [8.37475801926274, 47.512209993422445], [8.375472585836501, 47.51231897771013], [8.375610128878371, 47.5123418804652], [8.37647757682321, 47.512476794217264], [8.376577518951947, 47.512475355499184], [8.377057686482265, 47.512391406530504], [8.377379483578398, 47.512787805163164], [8.377463723445587, 47.51285943845036], [8.377583919982996, 47.512930600429506], [8.377615406405402, 47.51299951300307], [8.377869266316898, 47.513157827306756], [8.378141003061103, 47.513299176505896], [8.378446086978922, 47.51346507954069], [8.378801471408822, 47.51366673172377], [8.379010512808843, 47.513903569971035], [8.3792024861214, 47.51417211712399], [8.379360116604866, 47.514436985199694], [8.379443482084422, 47.51460144751812], [8.379649787475039, 47.514908373707485], [8.379270928060096, 47.51587636970702], [8.380373089183655, 47.5159717274076], [8.380457164626469, 47.51674688551012], [8.380534017258823, 47.51748072652497], [8.380586543010269, 47.51848943558939], [8.380566261458638, 47.51865465813304], [8.38050885164614, 47.51917638147513], [8.380437133609451, 47.5199570456702], [8.380668942453081, 47.52055008195499], [8.38094454245688, 47.52124546029654], [8.381106803922332, 47.521879275493525], [8.381199419584863, 47.52241248727897], [8.381307522966045, 47.52301402063629], [8.381400843847015, 47.52400233657229], [8.3814002963674, 47.52491263384519], [8.381632764444841, 47.525548484732646], [8.381796704662936, 47.525788489338865], [8.382163519049962, 47.526277166177714], [8.38242254466916, 47.52654711126118], [8.383097943294866, 47.5272224775384], [8.383315965508547, 47.52745027426993], [8.383534559879605, 47.52768549542668], [8.384204711487351, 47.52820011420805], [8.38467681488943, 47.52843544986873], [8.385128267470717, 47.52864738718397], [8.38630919907663, 47.52878071798166], [8.386653477617335, 47.528872046010996], [8.386932481110135, 47.528599865526395], [8.387491939942825, 47.52830845853172], [8.38751025221198, 47.528290580207866], [8.387572710328577, 47.52830190532781], [8.38768207570039, 47.5283037167967], [8.387885175806895, 47.5282612268601], [8.387955172431266, 47.528268586326334], [8.388097027596086, 47.52825074783706], [8.388133345131761, 47.52825876999233], [8.38870777437968, 47.52775108247698], [8.388946279577954, 47.5276330442355], [8.389360061094152, 47.527563971887915], [8.38954867198827, 47.527514960205046], [8.389828467838347, 47.52734093227333], [8.389671348479835, 47.52713856134513], [8.389329560065264, 47.52698490846396], [8.389161021226869, 47.52674456556782], [8.38889201662556, 47.52630984032852], [8.389546013797919, 47.52628701408821], [8.390264326033241, 47.52633702506265], [8.390434123509394, 47.526321122186104], [8.390660036390283, 47.52627243164468], [8.391023481952095, 47.52609174975647], [8.391237735944298, 47.52594538331023], [8.391455464299034, 47.52582400151452], [8.391752655235402, 47.525570782494945], [8.392074942395803, 47.52538723428406], [8.392065396743726, 47.52514376968381], [8.392023529488942, 47.52473442525636], [8.392108322136789, 47.52433203466022], [8.391490839721367, 47.524117110502736], [8.391328510100418, 47.52371352347809], [8.391217194322833, 47.52351269283351], [8.39134186723409, 47.523119967554635], [8.391544825794867, 47.522872299620744], [8.39134768465103, 47.5226013974535], [8.391207976278878, 47.52222981526203], [8.391222314738927, 47.521823614845026], [8.391337204699468, 47.52144832018233], [8.391450114602073, 47.52113303476561], [8.391572921900243, 47.520962568737176], [8.391635618069405, 47.520741688282534], [8.39177134864686, 47.52050634647971], [8.391734537937062, 47.52020984963989], [8.391868017637755, 47.51970245206424], [8.391927650769357, 47.51920871298457], [8.391540788821132, 47.518760202188695], [8.391264379465273, 47.51848832384491], [8.390965646489265, 47.51816339934208], [8.390833319171241, 47.51775973705608], [8.390601193665882, 47.517217659538936], [8.390384898630243, 47.516713416427095], [8.390222881479637, 47.51631961942748], [8.390053172804667, 47.51592544471178], [8.38988201699882, 47.5155244459174], [8.389790886783754, 47.51492111548866], [8.389679241536685, 47.51422397001825], [8.38956680369392, 47.51351279012392], [8.389445525259639, 47.5130116229192], [8.38936038228665, 47.51266765244696], [8.38927996597344, 47.51232885072832], [8.389231689542632, 47.51178948575589], [8.389207292673527, 47.51153873861329], [8.38998329135241, 47.51142199607583], [8.390004793894198, 47.51112428906807], [8.390037842868233, 47.51068624347681], [8.390061848951277, 47.510388404603276], [8.39009791826869, 47.509919758848454], [8.390100509156847, 47.50987908227473], [8.390126493543143, 47.50955821215569], [8.39015452313167, 47.509091333560335], [8.390094791648485, 47.508544324412355], [8.390090624260953, 47.508504332624334], [8.389824862575495, 47.50853412891271], [8.389669957863246, 47.507874567818504], [8.389890546895025, 47.507842804199264], [8.390892721111099, 47.50779300389337], [8.390977000163822, 47.50784474924843], [8.391078758884833, 47.50770809466973], [8.391209884675765, 47.50756499225978], [8.39135505873767, 47.507362131214194], [8.391510985921759, 47.507159370400885], [8.391771450244415, 47.506850054120896], [8.391757945514676, 47.50684387802184], [8.391724633093606, 47.506815369495335], [8.390922973573982, 47.50725864860234], [8.390897287067787, 47.50727198283103], [8.3908701824223, 47.507283961523285], [8.390841844024557, 47.50729450223415], [8.390812377088947, 47.50730355012772], [8.390782345361705, 47.50731145137018], [8.390751489093907, 47.507317785351724], [8.390720033264884, 47.507322514226026], [8.390688123545841, 47.50732561879505], [8.390450289740945, 47.5063273583327], [8.390213825725157, 47.50625051863584], [8.39017691576751, 47.50623898511966], [8.390138588019587, 47.50622981980163], [8.390099175589734, 47.50622309191947], [8.39005901155645, 47.506218870674935], [8.390019186664004, 47.506217282024686], [8.389979273310729, 47.506218167601524], [8.38993968261363, 47.5062215060393], [8.389900666401484, 47.506227277256244], [8.389641999113755, 47.50626789850024], [8.389460980241516, 47.506322281796024], [8.38928953759038, 47.506392587290435], [8.389138295683031, 47.506427108434465], [8.388930408376988, 47.506456247662804], [8.388732720971253, 47.5064990643816], [8.388551742787174, 47.5066226948294], [8.388428224378325, 47.50665689765887], [8.3883037394293, 47.50665854802077], [8.388134234005756, 47.506644206300855], [8.388083821574199, 47.506641453488996], [8.388033270179605, 47.50664058167014], [8.387982725640617, 47.50664158063795], [8.387933715748462, 47.50664451883726], [8.387884976872073, 47.506649253709206], [8.387836693855721, 47.50665572976856], [8.38676945339042, 47.506844002684765], [8.386567325602801, 47.50689927355282], [8.38637362465327, 47.50697155576806], [8.386298075015445, 47.507015257797285], [8.386249187762623, 47.507072773073176], [8.386271901011543, 47.507032579548294], [8.38629644180552, 47.50699289266842], [8.3863228107243, 47.50695373953992], [8.386350968676886, 47.50691516536418], [8.386383930514162, 47.506874276244666], [8.386418897135313, 47.506834153239005], [8.386455829800335, 47.50679485957209], [8.386521484735091, 47.50673302434073], [8.386592123082565, 47.50667373872412], [8.386667482739414, 47.506617193726356], [8.386747327680773, 47.5065635531682], [8.387129426848109, 47.50632962407961], [8.387398516723895, 47.506165517918156], [8.387424178019224, 47.506150754489575], [8.38745089058939, 47.506136881891095], [8.387478601684208, 47.5061239185657], [8.38750720593192, 47.50611191035387], [8.387546190883684, 47.506097685304255], [8.387586468316277, 47.506085221585934], [8.387627839938533, 47.50607456578092], [8.387670187431826, 47.50606578182625], [8.38773920457104, 47.5060503931903], [8.387804037880214, 47.50602817601755], [8.387863222490548, 47.50599961887107], [8.387915429398353, 47.505965371409424], [8.387959476934519, 47.5059261628894], [8.387994346048922, 47.50588291008127], [8.388019231593109, 47.50583660906465], [8.388033594301328, 47.505788289447125], [8.388086101392457, 47.50559915324358], [8.388091415770496, 47.505398710997454], [8.388079430469032, 47.505270169344115], [8.388120046290469, 47.505158493031914], [8.388092383504285, 47.50502173285078], [8.387936106893793, 47.50504174045779], [8.387780225168441, 47.50506304895968], [8.387624738420289, 47.50508567607206], [8.38746965955296, 47.5051095948631], [8.387389076842926, 47.50505700731645], [8.387279011615028, 47.50446120219466], [8.387321563717805, 47.50441336238734], [8.387345419822738, 47.50436665615342], [8.387303505102718, 47.5042857878791], [8.387259643595442, 47.50420888411634], [8.38724337074455, 47.504181404125], [8.387099392070464, 47.504117552732666], [8.386898276372275, 47.50416794098945], [8.38661661322578, 47.503550352436235], [8.386273074694413, 47.50279789278705], [8.385693863463564, 47.502949412604565], [8.385666911857582, 47.502903589968035], [8.385700840780547, 47.5028559922585], [8.385336605958223, 47.50200691812138], [8.384981618317086, 47.50117557688724], [8.384638843665185, 47.50037353842991], [8.3845746297386, 47.500352656024475], [8.384549768066186, 47.50032047876002], [8.384592146748133, 47.500270392836185], [8.384419594182472, 47.49986776833658], [8.384113382056126, 47.49915043707305], [8.384069710550373, 47.49911283670917], [8.384019235842224, 47.499095709459375], [8.384022958090243, 47.499058711479144], [8.382324768838496, 47.49886676917227], [8.381890410680684, 47.49881797799345], [8.381615493831081, 47.498822996306025], [8.381350128114288, 47.49885843657681], [8.381088386801094, 47.49890967723322], [8.380837696017771, 47.498979356356244], [8.3807017529622, 47.49902922183088], [8.380631493329718, 47.499004779682465], [8.380608476012705, 47.49891169376618], [8.380608220157981, 47.4988582773745], [8.380613009338024, 47.49880494585412], [8.380622820996358, 47.498751924273364], [8.380637646142793, 47.498699455549534], [8.38065812855316, 47.49864641914125], [8.380683725777656, 47.4985944114969], [8.380714309062215, 47.4985436585012], [8.380749736063443, 47.49849436815741], [8.380976389003758, 47.49819246690615], [8.380997685716236, 47.49816219795206], [8.381016620641054, 47.49813121966124], [8.38103315552589, 47.498099622243764], [8.38104791129305, 47.49806649224316], [8.381060017156523, 47.498032871119925], [8.381069448326679, 47.4979988580082], [8.381115323038188, 47.49780069493346], [8.381125247841844, 47.49776683070295], [8.381138673086685, 47.49773352263445], [8.3811555621377, 47.49770095090895], [8.381175757987249, 47.49766924273915], [8.381199356214367, 47.49763855023064], [8.381226081334372, 47.497609055524244], [8.381255830046403, 47.497580921354924], [8.38128839225918, 47.49755427535885], [8.381421176862629, 47.49745299537986], [8.381478984083598, 47.49741520645644], [8.381538001672105, 47.49737831613151], [8.381598269877733, 47.497342351009], [8.381657777992535, 47.49730843381186], [8.381718376529367, 47.49727538914967], [8.38178005334299, 47.497243280091], [8.3827457456938, 47.49678648557456], [8.383123658253435, 47.49660296465058], [8.383249589399071, 47.496571976590914], [8.383378691891998, 47.49659251917886], [8.383418192404859, 47.496544885571986], [8.383346804050657, 47.496518799335696], [8.383273509748019, 47.496495247008085], [8.383198497210786, 47.49647433502101], [8.383121979309587, 47.496456088720464], [8.383045216800586, 47.49644125333171], [8.382967426559109, 47.49642907964932], [8.382888809062901, 47.49641964699021], [8.382809589848895, 47.49641295346243], [8.382535679342263, 47.49638496520885], [8.382332725250313, 47.49636098520914], [8.382131981272538, 47.49632691297916], [8.381531990081896, 47.49620876454829], [8.381326535664492, 47.49616420567142], [8.3811298039731, 47.49610932160054], [8.380725237584825, 47.495987050527575], [8.38066297400266, 47.49596874058946], [8.380599988193874, 47.49595161475014], [8.380536320005705, 47.49593567273608], [8.380472049352708, 47.49592093186093], [8.380407069581212, 47.4959073659906], [8.380341580863183, 47.49589503647484], [8.380275609576413, 47.49588393410569], [8.380209221907974, 47.495874049351286], [8.380047272423289, 47.49585036150585], [8.379981726813792, 47.49584005606107], [8.379916814460502, 47.49582803644249], [8.379852642208077, 47.49581433781587], [8.379789289321064, 47.49579894149678], [8.379726102739289, 47.49578169091685], [8.379663948492384, 47.49576277689982], [8.379602946521818, 47.49574222549561], [8.379543163949185, 47.49572008109916], [8.379266561342165, 47.49561385451558], [8.379173685653637, 47.495575545727455], [8.379085007470351, 47.49553293042105], [8.379000954728513, 47.4954861939583], [8.378921916859692, 47.495435594017955], [8.378848338763206, 47.49538152275879], [8.378780527885532, 47.49532410364385], [8.37871880747549, 47.49526360391216], [8.378663474823092, 47.495200326928234], [8.378589231722767, 47.49510859176098], [8.378524011957568, 47.495013761204035], [8.378468101078614, 47.49491622863188], [8.378421785317554, 47.494816423455035], [8.378389466928532, 47.494729150989386], [8.378364455459826, 47.49464080281491], [8.37834684820896, 47.49455162998986], [8.378336690086305, 47.49446192004625], [8.378294290110725, 47.49382796074345], [8.378290421677445, 47.49379378590243], [8.378284485161785, 47.49375973580132], [8.378276521451191, 47.493725873023955], [8.378266545269081, 47.493692278427126], [8.378254285370803, 47.49365862143275], [8.378240001809367, 47.493625349643565], [8.37822368162218, 47.49359248113482], [8.378205419266402, 47.49356010505991], [8.378130631844593, 47.49342084682187], [8.378117351029136, 47.49338422990072], [8.378113024496484, 47.493346649873686], [8.378117722469222, 47.493309077594795], [8.378131329843232, 47.49327251236015], [8.378153439875405, 47.4932357162216], [8.378184496149927, 47.49320201358275], [8.378223560588337, 47.49317239245053], [8.37826953365163, 47.493147716199076], [8.37849589320179, 47.49311512705696], [8.37876449522915, 47.49313740314187], [8.378895717364088, 47.49314177957193], [8.379026778747704, 47.49313556156367], [8.379155809787228, 47.493118845259296], [8.379281009459609, 47.49309185216643], [8.379400593051693, 47.49305497457566], [8.379513127128845, 47.493008206166614], [8.379616640666622, 47.49295266028168], [8.37970962188124, 47.49288914977611], [8.379790759458091, 47.49281856680224], [8.379858876859684, 47.49274191934152], [8.37999356252837, 47.492561113556086], [8.380187059241804, 47.492314070324234], [8.380206548110603, 47.49228673933923], [8.380223768657041, 47.49225871621744], [8.380238656143943, 47.4922300914477], [8.380251392988576, 47.49220067465226], [8.380261653695497, 47.49217081928577], [8.38026945310626, 47.49214061514449], [8.380319825750727, 47.4918750463847], [8.380331250612935, 47.49181950210401], [8.38034485583066, 47.491764182935974], [8.38036062893499, 47.491709133967056], [8.380378557122791, 47.49165438227727], [8.380398751691141, 47.49159946824423], [8.38042111619116, 47.49154494131335], [8.380445611450154, 47.49149083778367], [8.38047225151123, 47.491437202492435], [8.380521422628465, 47.491343708950836], [8.380544760656319, 47.491302207137906], [8.380571192916863, 47.491261579615404], [8.38060066790927, 47.49122191672944], [8.380633107929711, 47.49118332704737], [8.380668697310487, 47.49114572812736], [8.3807071095773, 47.491109419431126], [8.38074822739216, 47.491074518855015], [8.380791958981991, 47.491041090097816], [8.381077433605416, 47.490832782748626], [8.381029244945804, 47.49080187388937], [8.381056592240746, 47.49077772579047], [8.38107773430668, 47.49075088485556], [8.381092179368036, 47.49072205665983], [8.381099489858414, 47.490692009318416], [8.381099395151518, 47.490660448203755], [8.381091452527274, 47.490629346776345], [8.381075836781488, 47.49059958500974], [8.381053041234273, 47.4905720403872], [8.380810147438854, 47.49032297947232], [8.380760695037967, 47.49027387590278], [8.380708504880834, 47.49022603584297], [8.380653698766341, 47.49017959320488], [8.380596343531705, 47.49013457444348], [8.380537040382604, 47.490091208505284], [8.380475362981631, 47.49004939991895], [8.380411417795944, 47.49000916580591], [8.380345286027676, 47.48997059544815], [8.379656112951048, 47.489586015712646], [8.379367803453576, 47.489424568085774], [8.37929238322287, 47.48938069388505], [8.379219241105494, 47.48933506519328], [8.379148471702313, 47.48928778015243], [8.379080141360372, 47.489238838235345], [8.379014506618796, 47.48918848920117], [8.37895145944188, 47.48913662602193], [8.378891094130815, 47.489083328881506], [8.37883343833191, 47.48902866052219], [8.378526667736802, 47.48872254840058], [8.37827015045454, 47.48856425779582], [8.378019697775429, 47.48847202735666], [8.377749914140692, 47.48844157475742], [8.377739119226344, 47.48840136670354], [8.377414320208342, 47.48844240745806], [8.377095270899003, 47.48854537322083], [8.377020030343092, 47.48856792980755], [8.377029351933334, 47.48821616822041], [8.37704373842629, 47.48737812202517], [8.37659069537019, 47.487414713198106], [8.376583676245865, 47.48737033695054], [8.376285300431011, 47.4870340199565], [8.375852390429905, 47.48712865777314], [8.375973566904753, 47.48548219601302], [8.376054448203085, 47.4843949917744], [8.376583911703435, 47.48438871596146], [8.37692754284177, 47.48439438646621], [8.377430415213986, 47.48443698265223], [8.378023957410184, 47.48449926760316], [8.378202996254913, 47.48451588483497], [8.378210956836723, 47.484470766346945], [8.378214820875366, 47.48417184665829], [8.378220128049202, 47.48382614402866], [8.378229986546872, 47.48326408482985], [8.378262778958346, 47.48278574143477], [8.378272666626197, 47.48248155621557], [8.378268932939358, 47.48222497354668], [8.378243532063964, 47.48165861882131], [8.377311364164669, 47.48170683714558], [8.375874264218869, 47.48166948718455], [8.373266694084403, 47.48146923252511], [8.372538283467094, 47.48142520012781], [8.371701512448455, 47.48135235459442], [8.371093029343058, 47.4812928648309], [8.37055557196874, 47.481267535938564], [8.370269184400533, 47.481254048155655], [8.369544016870073, 47.481219891353064], [8.368630857991203, 47.481172193200024], [8.3675812446582, 47.48113620559583], [8.366289079281275, 47.481100164703356], [8.364970035811275, 47.48102834648611], [8.364092942634576, 47.48096359410534], [8.363275878737575, 47.48085626073109], [8.363227668341265, 47.481013343317095], [8.363112880111947, 47.481387331609135], [8.36303041408317, 47.481634626680616], [8.363017236430856, 47.48184610237079], [8.362926755396007, 47.48227441388561], [8.362852573951265, 47.482587033527814], [8.362762194364239, 47.48291433633291], [8.362763485823473, 47.48323247889067], [8.362623742553463, 47.483437408356785], [8.362538758994445, 47.48368588544821], [8.362561183790458, 47.48390751195365], [8.362297688355039, 47.48477483236775], [8.362002909457246, 47.48574506345191], [8.362100532869631, 47.48756846549666], [8.362249378219651, 47.48820822806995], [8.362288866855495, 47.48821268021921], [8.362077213688977, 47.48854140961334], [8.362156051006211, 47.488694406082416], [8.362252178033172, 47.48894971279846], [8.36234621301392, 47.48928319828946], [8.362465909486437, 47.48964166356347], [8.362602900528064, 47.490232499237415], [8.362664105572648, 47.490415246947016], [8.362673042705485, 47.490463737002315], [8.362674909314995, 47.490512373460035], [8.362669962919268, 47.49056070451035], [8.362658106112331, 47.490608470116804], [8.362639437175964, 47.490655219718576], [8.362566729777008, 47.490796645036696], [8.362538499566647, 47.490839971990205], [8.362501373574025, 47.490879979042035], [8.362456081798673, 47.49091591372803], [8.36240390134675, 47.49094719026227], [8.362345601529219, 47.49097302882916], [8.362282448868566, 47.49099299665216], [8.362307487696532, 47.491040234012374], [8.362252394783232, 47.491069635859596], [8.36219720952709, 47.49106315020533], [8.361898708917774, 47.491412179489856], [8.361857155753947, 47.491755381053494], [8.361759875695313, 47.49209920676484], [8.361745812925195, 47.492244760097066], [8.361671237726345, 47.492535787302984], [8.36154265946541, 47.4929184491679], [8.361283022036057, 47.493427826015576], [8.361255907296737, 47.49350270545274], [8.361250616345837, 47.49354120812514], [8.361257053801298, 47.49361778104777], [8.361324866050074, 47.49386624489088], [8.361292485878511, 47.49424048563388], [8.361257940196099, 47.494430212347986], [8.361082161890865, 47.4951756213072], [8.360985988732766, 47.495384880401254], [8.360852061366383, 47.49560587210961], [8.360595396222836, 47.49592794061815], [8.360423519519477, 47.49610362252495], [8.3600834573468, 47.49638326977759], [8.359847390312483, 47.49654030330935], [8.359424383884921, 47.4967608036945], [8.35923517592256, 47.49684802562383], [8.359067529047522, 47.49693111809401], [8.358922224438018, 47.49703220166752], [8.358656039151038, 47.497250004547695], [8.358465566898833, 47.497379419238165], [8.35828310783227, 47.497481066966], [8.358443701626781, 47.49748114077752], [8.359426080292678, 47.49798431128811], [8.35956942432397, 47.49806272776275], [8.35970016846321, 47.49815082341011], [8.35976036975618, 47.498198240266014], [8.36014965546279, 47.49854889660299], [8.36026001141418, 47.49863676701983], [8.360377604410209, 47.498720226414896], [8.360580490284079, 47.498844489313555], [8.361332342492728, 47.499228268420765], [8.361713516046125, 47.499394956773266], [8.361988039426336, 47.49948936912617], [8.362161675972283, 47.49955994048379], [8.36226671537688, 47.499647068797465], [8.362457746151206, 47.49981653125089], [8.362671058171918, 47.500015497647496], [8.362719733791616, 47.500065397771564], [8.362762050228488, 47.50012437013256], [8.362781402057285, 47.50016408855577], [8.362798244396778, 47.5002182632133], [8.362804592263698, 47.50027344805452], [8.362778314431688, 47.50051797635364], [8.362781802663436, 47.500587332317174], [8.362793022111278, 47.50065552921769], [8.362812105397271, 47.50072332156615], [8.36285567300214, 47.500823703609626], [8.362912807524499, 47.50091807698406], [8.362960810156883, 47.50097883864479], [8.363104918416735, 47.50114318767897], [8.363060643700999, 47.50118617528846], [8.362909244663937, 47.50115752205071], [8.361317252852752, 47.50097252544814], [8.360402355335918, 47.50085973368142], [8.36013408900895, 47.50083560449292], [8.359802528680847, 47.500820163029076], [8.359539145715322, 47.500844222409505], [8.359390086936154, 47.50086854158228], [8.359221198812383, 47.50090592540334], [8.359100606715694, 47.50094460711185], [8.359018693420198, 47.500977242767384], [8.358945683099167, 47.50101200223268], [8.358876797649355, 47.50105042565459], [8.358746500159455, 47.5011380693926], [8.35868451387982, 47.50118632283203], [8.358573880428875, 47.50128973931257], [8.358486244655525, 47.501395221577944], [8.357845902139116, 47.50246751155583], [8.357731432930256, 47.50248749716479], [8.357693459299712, 47.502525215607136], [8.35832936844181, 47.5028311886794], [8.358696821928552, 47.50303325459213], [8.358441478494461, 47.503488334097035], [8.358731456403687, 47.50386912202803], [8.358853214489322, 47.503991836402484], [8.358943957714366, 47.504083300878094], [8.359004507312784, 47.50417663085663], [8.359052648600896, 47.504250813813805], [8.359166680805258, 47.50451209775686], [8.359041158257561, 47.50472959343485], [8.359023002225113, 47.504815635370996], [8.358943607295346, 47.50495272184206], [8.358895935179572, 47.50505980232178], [8.358868138590362, 47.50514413070109], [8.3588478054123, 47.505229425202884], [8.358834917911679, 47.50531543395103], [8.35882964284984, 47.50540181395884], [8.35883196152365, 47.5054882505423], [8.358841895189519, 47.50557443767665], [8.358883193386642, 47.5057525420698], [8.358916561516635, 47.505843642859006], [8.358959283450972, 47.50593294236083], [8.359011125555105, 47.5060199747688], [8.359071868546204, 47.50610433711569], [8.359141236900387, 47.506185455747534], [8.359218828078774, 47.50626307316456], [8.359304250923124, 47.50633683261896], [8.359397100371453, 47.50640634149455], [8.359496906060286, 47.50647126183147], [8.35971665082118, 47.50659777598743], [8.359955499913383, 47.5066983235248], [8.360171691353024, 47.50679509326074], [8.36037365024036, 47.5069054675864], [8.360595347974389, 47.50704410694245], [8.360806170866695, 47.50719092747038], [8.361651478457615, 47.50782487061185], [8.361237498637424, 47.50836154934407], [8.360891982782759, 47.5088194198018], [8.360858197178624, 47.508881381653744], [8.360917506358811, 47.509568624464436], [8.361234349421684, 47.5101015495498]]]]}}]}