{"type": "FeatureCollection", "features": [{"type": "Feature", "properties": {"bfs_nummer": 946}, "geometry": {"type": "MultiPolygon", "coordinates": [[[[7.726675505263562, 46.80928005879218], [7.726761415305049, 46.80930267327845], [7.726799321266269, 46.809320407004], [7.726854848522173, 46.8093552595928], [7.726912533188885, 46.80939909320907], [7.726957583999566, 46.80951826827745], [7.726993850052711, 46.80957726807012], [7.727046833026287, 46.80960910458278], [7.727379922883516, 46.80963712294796], [7.727556204225236, 46.809607371437856], [7.727953004262624, 46.80950751056487], [7.728021822612095, 46.809538416016785], [7.728155899819853, 46.80966695482696], [7.728202405562465, 46.80973926852539], [7.72820454092516, 46.80980763744911], [7.728095463088452, 46.809894521196], [7.72803453747985, 46.80995763411582], [7.727936055528263, 46.80993637480685], [7.727862274273589, 46.80994518770506], [7.727785098984344, 46.81001014967585], [7.7277772446158455, 46.81014600042486], [7.72775011159413, 46.81021222138638], [7.727800612419093, 46.81025011758319], [7.727933341587542, 46.810236838126876], [7.728046232812449, 46.810125441558775], [7.7281273932373145, 46.810102460051326], [7.728230187776584, 46.81019488915775], [7.728272270015379, 46.81028999945173], [7.7284207266078555, 46.8104095421603], [7.728533618986917, 46.81042052783814], [7.728637497120295, 46.810397317624414], [7.728797408487394, 46.810336895283385], [7.728913605415859, 46.810333803377794], [7.7290067922243635, 46.810361785922645], [7.729224815763649, 46.810565447364056], [7.729395565033433, 46.81073185242906], [7.729465685144967, 46.810828861154604], [7.729512247703616, 46.8109501451712], [7.729520731468369, 46.8110584196459], [7.729504898073349, 46.81111566177953], [7.7294323736088515, 46.811185362603545], [7.729391627100582, 46.81126340244486], [7.729387634790428, 46.81136875801386], [7.729340488769115, 46.81147012122958], [7.729251341076368, 46.81154787909939], [7.729158868349901, 46.81159945055096], [7.7291469708463625, 46.811633411478], [7.72916585150147, 46.81170167491115], [7.729148562858636, 46.81178565502146], [7.72905566010814, 46.8118791731674], [7.728985654055273, 46.811991127755775], [7.7289885499338205, 46.812171487874025], [7.728983651632743, 46.812274201095626], [7.72894780436519, 46.81236939155556], [7.728823402408702, 46.81254342639771], [7.728680483810231, 46.81267558044546], [7.728352077144933, 46.81290130631402], [7.728288428233753, 46.812896978501136], [7.728145491136788, 46.81284770307549], [7.728079507644984, 46.81286004053808], [7.728025492199399, 46.81296141155501], [7.728003795971596, 46.813061936341995], [7.728006655848277, 46.81311150287335], [7.727925626538628, 46.81316227075058], [7.727709871683059, 46.81322190636326], [7.727647927323368, 46.813249696536374], [7.727574676192956, 46.8133241565484], [7.727547293863059, 46.81338575443681], [7.727453846806298, 46.813403036379555], [7.72734006512381, 46.81337633684854], [7.7272617064881475, 46.81337293609963], [7.726849213613247, 46.813491364877514], [7.726723337470355, 46.813616771882934], [7.726665730424776, 46.81366690430946], [7.726618731683391, 46.813686668414284], [7.726442654896688, 46.81386310638571], [7.726405729078764, 46.814015113839076], [7.7262092500009345, 46.81425316734569], [7.726017079104658, 46.81446888308546], [7.725935717342223, 46.81451946151417], [7.725865419412549, 46.814538986902384], [7.725770658864164, 46.81458078329769], [7.72575864855342, 46.81463841109803], [7.725830615087958, 46.814708386165144], [7.7258222639290475, 46.8147740466885], [7.725755754976531, 46.81479652202777], [7.72566168450442, 46.81480800210326], [7.725567568259937, 46.8148281626196], [7.7255075474994745, 46.81487082526099], [7.72540010365186, 46.815080642614475], [7.725331214954001, 46.81512883266731], [7.725243971033765, 46.815157710355884], [7.7250962563499, 46.815166796365354], [7.724919394500721, 46.81517227596196], [7.724751822314248, 46.81522222330431], [7.724636636960082, 46.81528227642841], [7.724607563016371, 46.81533455849576], [7.72458337964812, 46.81544437194465], [7.72455006071624, 46.81549924619496], [7.724340196855071, 46.815711413973936], [7.724282503141726, 46.8157955391412], [7.724243051122858, 46.81590732477134], [7.72421495754731, 46.81595435087604], [7.724167657129271, 46.8159746004933], [7.724108853723832, 46.81597285798832], [7.72406486309433, 46.81595244005019], [7.723935103235215, 46.81580635388992], [7.72386306870061, 46.81580020045547], [7.723812167645964, 46.81580608418468], [7.723654991935196, 46.8158651074422], [7.723588345675964, 46.81592406727879], [7.723567067819422, 46.81601132179837], [7.723501099088939, 46.81604475993568], [7.723443687802035, 46.81604611702484], [7.723246444264506, 46.81602616950366], [7.723141543885826, 46.816034426946594], [7.723056072527283, 46.81606946046956], [7.72299524061553, 46.816112996371785], [7.72292833461033, 46.81613277238472], [7.722879421051728, 46.8161628215246], [7.722854508492069, 46.816214490047436], [7.722815050381064, 46.81626351397261], [7.722761851762274, 46.81629105496661], [7.722716687681695, 46.81629660919309], [7.722358164646222, 46.81631090980928], [7.722306879086844, 46.81631854795472], [7.722221938236497, 46.81641986673227], [7.722161445076695, 46.8164832092204], [7.722054953590255, 46.81654802379727], [7.721862974678143, 46.81664518129398], [7.721977311848639, 46.81684930210365], [7.7228439185446005, 46.817714695727254], [7.722841203500261, 46.817958038639894], [7.722465317992415, 46.81808668691149], [7.722190940167785, 46.818161866047966], [7.721987175452113, 46.8181991251777], [7.721018335572704, 46.818337166980946], [7.720875315809462, 46.81834628973645], [7.720754515993507, 46.818349609594826], [7.7206281913588315, 46.81834384856597], [7.720403957798776, 46.81831601048116], [7.719898563775253, 46.81823928856138], [7.7197284563741935, 46.81821777504656], [7.719599330675133, 46.81820750401994], [7.7195978628483175, 46.81826539311585], [7.719494052920273, 46.81826507181513], [7.719434563869201, 46.818285646180044], [7.719377683666857, 46.81832409704877], [7.718938253375709, 46.81869614477061], [7.718550666454531, 46.81903231568738], [7.71800175277573, 46.81949306894313], [7.717343697833691, 46.82006295661338], [7.717306260778161, 46.8201166153365], [7.717337834239658, 46.82017096982507], [7.718374573178138, 46.82101984403016], [7.7181213220742215, 46.82119562070784], [7.717937132686176, 46.82151372500318], [7.718132086576124, 46.82181679219025], [7.717929910124492, 46.82205791223734], [7.717515765673763, 46.822297155175676], [7.717646147099029, 46.82241661275865], [7.717390693952635, 46.82250020749497], [7.71712153652879, 46.82259986473085], [7.717218500056241, 46.822688899707614], [7.7173203147239064, 46.822768180686104], [7.717371006950373, 46.82278898074731], [7.717435046512084, 46.82278308617316], [7.717503105019836, 46.82279670161374], [7.7175726054949525, 46.82279771092032], [7.71762933965668, 46.82283127865289], [7.717798763824322, 46.82286244917802], [7.717933311742124, 46.82285479923351], [7.7179599976515645, 46.82287587360848], [7.718038726475113, 46.82287482706041], [7.718234112910226, 46.822951720529346], [7.718370904352994, 46.82294958783994], [7.718441086053191, 46.82297580010126], [7.718482223772849, 46.8229735228077], [7.718598745960674, 46.823005028184], [7.718643685005072, 46.82302059752261], [7.718731020158718, 46.82300108916055], [7.718789473823528, 46.8229996241294], [7.718831225563764, 46.82302980964064], [7.7188879974747495, 46.82302245667691], [7.71900165450788, 46.8230371741072], [7.7190883234642245, 46.82306349884403], [7.719174825165807, 46.823072786359134], [7.719232541932921, 46.823103526371575], [7.719320544285979, 46.82311660614882], [7.719400793885686, 46.82311305446716], [7.719485486770082, 46.823152489782444], [7.719613401953197, 46.82316457211773], [7.719683815961264, 46.82321003346304], [7.719958506304833, 46.82320174998829], [7.720195590992787, 46.823187072249446], [7.720355431928868, 46.82320699151461], [7.720499267309147, 46.82329137471791], [7.720625437839139, 46.82349875955184], [7.7207826897444685, 46.82355723861557], [7.721041209634297, 46.82370427976119], [7.721331901217638, 46.82389834087819], [7.72155646190975, 46.824036612941676], [7.721823252085154, 46.82422053057905], [7.722291851008272, 46.82446163535814], [7.72261853274828, 46.824602350792], [7.722768452482152, 46.824676074294395], [7.722970404567092, 46.82475544371035], [7.724110481011235, 46.825233945248144], [7.724394654866731, 46.82531706541478], [7.72498722293008, 46.825502835012315], [7.725389923385224, 46.82565699873899], [7.725867058411735, 46.82574320307355], [7.726554776483333, 46.825748340666614], [7.726678457601069, 46.82578584646949], [7.727003388536504, 46.82582330442372], [7.727388519598947, 46.82584710748167], [7.727654730948743, 46.82589054077649], [7.728289001749541, 46.825965714745536], [7.728870036378081, 46.82600142199102], [7.728877800412029, 46.82637842294007], [7.728906385088394, 46.82636642260928], [7.729063168258959, 46.82639060068725], [7.729170721401297, 46.82637735644033], [7.72938873282021, 46.826342746720265], [7.729656928996742, 46.82644974073508], [7.72974726977612, 46.826496431121875], [7.729843432689497, 46.826504777377416], [7.729950603094297, 46.82649343160297], [7.730032725906029, 46.82654719530134], [7.730127580476062, 46.82651952697944], [7.730208154448332, 46.826563129524715], [7.730225072682763, 46.82661385639848], [7.730411602509002, 46.826683257410515], [7.730622807658875, 46.82670113245583], [7.730732924155684, 46.8267159188655], [7.73103858317443, 46.826741152386454], [7.731049712510463, 46.82666865061203], [7.731044576993352, 46.82658655498212], [7.73103360607833, 46.8265087108828], [7.730997022241303, 46.82639369176475], [7.731342566679721, 46.82639566126383], [7.731627008876317, 46.82636560078502], [7.731878904106818, 46.82622121025111], [7.732142870486453, 46.82614475724197], [7.732331672905342, 46.826072724281026], [7.7325880044630075, 46.82600962992851], [7.732745722175416, 46.82593819737841], [7.732909994228326, 46.82589359885208], [7.733205172703135, 46.82599440795184], [7.7334514525841485, 46.82593638428555], [7.733504376888548, 46.826071457864074], [7.733781537991003, 46.82611494773941], [7.734273704933809, 46.82596307944925], [7.734477756930819, 46.826055763167275], [7.734615885753656, 46.826078704708614], [7.734772521866782, 46.82593474244726], [7.734973291537313, 46.825942634123074], [7.735227838501283, 46.82604686158298], [7.735357612707128, 46.82620699421202], [7.735406286948665, 46.82644301511915], [7.735562170330948, 46.82665100712341], [7.7357282395967415, 46.82681407589582], [7.735899668866051, 46.82666258010493], [7.7361986924813335, 46.826650865260675], [7.7362429871900265, 46.82678820012029], [7.736381260965144, 46.82698658609024], [7.736458929094166, 46.827117690239135], [7.73675315609987, 46.827067513652], [7.737132326709923, 46.8269186242972], [7.737380795160405, 46.82683463387715], [7.73771407476068, 46.826914569851326], [7.737847108684207, 46.82732748179073], [7.737810883100905, 46.827473985763504], [7.738139410429872, 46.82761064955132], [7.738532170921587, 46.82773524334747], [7.73895322760159, 46.827819569389874], [7.739120040627831, 46.827892291416646], [7.7391780965905905, 46.82797152396674], [7.739116435461869, 46.82822872092548], [7.739386901764485, 46.82837805471917], [7.7394776485289505, 46.82850249306725], [7.73981542181192, 46.82879806774553], [7.7400912371846005, 46.82899150770835], [7.740682538347085, 46.82901832148518], [7.741155000740062, 46.82907255840493], [7.741559916851147, 46.828956985101875], [7.742095360193278, 46.82883220677426], [7.742392144359663, 46.82859510306355], [7.7427802247281745, 46.82843496318459], [7.7429838419243735, 46.8284206953616], [7.743027971245879, 46.828355721106426], [7.742890073791711, 46.82805927463053], [7.742790184159821, 46.82783000397215], [7.742856367462594, 46.82742730986952], [7.742856318627887, 46.827183812832146], [7.742985543136145, 46.826918734749356], [7.743108353971499, 46.82684127251653], [7.743177130132287, 46.826517874506095], [7.743418426749153, 46.8262382025306], [7.743494870766527, 46.826117199846166], [7.7437462471021705, 46.826091019004345], [7.74382032135832, 46.825924235770884], [7.744237297586412, 46.82577483526953], [7.744671539365585, 46.825761135063786], [7.744706770044959, 46.8255421010458], [7.745137713535363, 46.825358584341366], [7.745390380777434, 46.82521897346211], [7.745724556823748, 46.82559528465101], [7.745939905555321, 46.8255302563543], [7.74609909906503, 46.82547039697419], [7.746214882808417, 46.825472046994825], [7.746518889721693, 46.82543036311689], [7.74669955779865, 46.82536518245584], [7.747146678413978, 46.825101384718955], [7.747233311213553, 46.82506570934674], [7.74738466960956, 46.82500905302185], [7.747583271310948, 46.82494754662883], [7.747907059076982, 46.82482484844688], [7.748303261349525, 46.8247586596229], [7.748454094387561, 46.824699942758365], [7.748588812275447, 46.82459864931709], [7.748601730914893, 46.82458211671983], [7.748700934182258, 46.82457465113053], [7.748704049056361, 46.824665181588315], [7.748850851400237, 46.82484694133863], [7.749078139426747, 46.82474456051049], [7.749386687246955, 46.824652573468995], [7.7497846051921515, 46.82461160792028], [7.750088015356303, 46.82456305380994], [7.750758767653067, 46.82455532759055], [7.750966878191321, 46.824566256646186], [7.751569904916587, 46.82462456588395], [7.751805200918105, 46.824658861214154], [7.752560702941058, 46.82479923615104], [7.752764369004841, 46.824832149978334], [7.753107901932893, 46.824868250994946], [7.75335096205403, 46.82490314273834], [7.753430540585171, 46.82491927781835], [7.75367371494775, 46.82499391006608], [7.7539930643628985, 46.82506051496794], [7.754127715374841, 46.82506369740773], [7.754245657890763, 46.82503565768978], [7.754360193326129, 46.824992011200436], [7.7546924505229065, 46.82481205033491], [7.7547495309569205, 46.82475719174946], [7.754807591971804, 46.824679589949604], [7.7548741580623375, 46.8243402161339], [7.754891446223311, 46.82427352119187], [7.754928543092112, 46.824194537894904], [7.755022662306523, 46.82404647449833], [7.755065849075224, 46.8239959000798], [7.755147087883292, 46.823915373582075], [7.755266799832633, 46.823811981868836], [7.755431478309031, 46.8235907430437], [7.755556494711383, 46.82346466826875], [7.755753941499591, 46.82328941280782], [7.755894133073858, 46.82314344277513], [7.756003450115596, 46.82301106950251], [7.7560436596507465, 46.82293143852136], [7.7560976910675885, 46.82276650163034], [7.756127160805689, 46.82271027042088], [7.756147603658112, 46.8226989964828], [7.756271096142473, 46.822497157009785], [7.756315777384542, 46.82238918714899], [7.756335083308727, 46.82231168303722], [7.756345370476971, 46.82224041973067], [7.756343316927998, 46.82214978758725], [7.756291623665171, 46.821894541866406], [7.7560958352945395, 46.8210782551827], [7.756092313658185, 46.8210365081759], [7.756100165380607, 46.820987848164826], [7.756193351709685, 46.82064041145116], [7.756201901733476, 46.82058573158031], [7.756182193244386, 46.8205323533667], [7.756151955212244, 46.82048227865495], [7.756113594058481, 46.82043468225312], [7.755795471876651, 46.82015790163514], [7.755779896863387, 46.82013883850144], [7.755752611699791, 46.82008494152744], [7.755745759168748, 46.82005388129055], [7.755743631912414, 46.81914966695899], [7.755754496871964, 46.81909196715781], [7.7557826429108525, 46.81903596470652], [7.756266224960364, 46.81821279377246], [7.756321833887039, 46.81814093693768], [7.7563936553411335, 46.81806733560909], [7.756468377270831, 46.81802799820026], [7.75594443813956, 46.81766929182539], [7.755829022328052, 46.817607066244115], [7.755704881907674, 46.81755636978222], [7.755575243327309, 46.817517706294055], [7.755084465401676, 46.817400152516804], [7.75361002245711, 46.817036357150855], [7.753501878954342, 46.81700261576146], [7.753397016546042, 46.81696076034463], [7.753235421055941, 46.816879255905164], [7.753032200137842, 46.81673764111008], [7.752873719428588, 46.81661699749294], [7.752714772686946, 46.81650621396157], [7.7525616366761785, 46.81640761205078], [7.7520662437624255, 46.81610164866051], [7.751874591456676, 46.81595195819405], [7.751590540748448, 46.815676430961325], [7.751479305872972, 46.81557658869868], [7.751354769935562, 46.815483223359685], [7.751217397597943, 46.81539737709592], [7.750962548179667, 46.81526026223169], [7.750548817104418, 46.815046812588264], [7.749417446891636, 46.81442944592455], [7.749061171807926, 46.814227511059606], [7.748951367031088, 46.81415629491722], [7.748837915697203, 46.81415046736591], [7.747217384722108, 46.8144090377047], [7.745163713988709, 46.814407725596126], [7.744798985362954, 46.814253314455726], [7.744655703021019, 46.81419735859954], [7.744559890980148, 46.81428446549757], [7.744336870550367, 46.81422943317179], [7.744255078380482, 46.81425412795893], [7.744078458783179, 46.814211223416464], [7.743713501995654, 46.81409686561929], [7.743531875072831, 46.81403258214926], [7.743399826208293, 46.81393987586511], [7.743320168133702, 46.813903890238464], [7.7425884203002955, 46.8140343164546], [7.741427945390978, 46.81463901401125], [7.7402483251397545, 46.81518003539558], [7.7405141742194505, 46.81536768197703], [7.739347107775167, 46.81551580333247], [7.739060535289669, 46.815208505991784], [7.738236307564707, 46.815488291051274], [7.737984756682787, 46.81557860613], [7.737835339539177, 46.81565389254076], [7.737826363431615, 46.815691642837855], [7.737694620313903, 46.81575479313001], [7.737260686055234, 46.81592360964285], [7.736768107512524, 46.81594455689824], [7.736622945530006, 46.81613608729868], [7.736128132830608, 46.81619202889886], [7.735931983389909, 46.81643618686556], [7.735906273654678, 46.81640508434686], [7.735931934070072, 46.81627970243692], [7.735638489987274, 46.816061451448824], [7.735593894260404, 46.81598899206833], [7.735522163100584, 46.815966779626066], [7.735297909343666, 46.81590870092878], [7.735253122390546, 46.81590395004327], [7.735040421184693, 46.815739928787245], [7.73488446278811, 46.81569855729558], [7.734819148216484, 46.81559671794919], [7.734853572273608, 46.81548963721434], [7.734811213034792, 46.81532779293211], [7.734611093712527, 46.81529987533985], [7.734608673047943, 46.81525026307028], [7.734759734802948, 46.8151899627397], [7.734885926714639, 46.81509857571885], [7.734820364343695, 46.815039807147826], [7.734774276148229, 46.814828704439186], [7.73453521688524, 46.814829501867315], [7.734494616155854, 46.81463679858399], [7.734395630367208, 46.81444428200349], [7.734275189139543, 46.81443478770724], [7.7341888238343435, 46.81436457633962], [7.734379083478749, 46.81416959496069], [7.73420554029539, 46.81413194695856], [7.734097392935482, 46.81401758804372], [7.733673663893751, 46.81384757777511], [7.733762420734933, 46.813670004245786], [7.733682199527497, 46.81355371094054], [7.733715548158675, 46.813503799354216], [7.7340470760645905, 46.813377782526544], [7.734124404883503, 46.81316659516449], [7.734226281660475, 46.81306206647288], [7.734192740620589, 46.81291154237097], [7.734224717206047, 46.81283373045943], [7.734352197162865, 46.81275828944241], [7.734325947464241, 46.812539588080305], [7.734293190168451, 46.81241972738754], [7.734121543577786, 46.81230140353708], [7.734093831088772, 46.81223659075813], [7.734055861201302, 46.81194694573438], [7.733915726756177, 46.81186921764701], [7.73355095584854, 46.81137663158439], [7.7333770149781005, 46.81119474170466], [7.7329629879293575, 46.81086517883794], [7.732885652066688, 46.81079400770157], [7.732620916107526, 46.810587531442785], [7.732500069533607, 46.81050671161853], [7.732388999359614, 46.81039494933113], [7.732355135242363, 46.810374049817284], [7.732287825019885, 46.810341649873955], [7.732213122314712, 46.81031831822938], [7.732091000513355, 46.81027263740629], [7.732026133810315, 46.810231739432155], [7.731868044465235, 46.81026024576324], [7.731792336713016, 46.81023272459588], [7.73165466208223, 46.8101070777758], [7.731570460668024, 46.81008364413635], [7.731539348143978, 46.81010375649403], [7.731556679423915, 46.81021202602196], [7.73145831124014, 46.81024110774565], [7.731262657860786, 46.81031783483913], [7.73109857711732, 46.8102659003948], [7.731012959515436, 46.810174500408976], [7.73083431576865, 46.81015024555546], [7.730517678224825, 46.81014676169609], [7.73027851042311, 46.80991498261463], [7.730080357764491, 46.80989283636702], [7.7299670961315075, 46.809808414361456], [7.7297170178912324, 46.809887660836154], [7.729417927945733, 46.80992603017892], [7.729362408606548, 46.80985656437472], [7.729393687542812, 46.80967986867143], [7.7291648242751485, 46.809601478085526], [7.728972295406106, 46.80957963935025], [7.728718678472038, 46.80950749059865], [7.728605892760202, 46.80933545960949], [7.728618478841645, 46.809151606142954], [7.728382386745319, 46.80902921774321], [7.72832594536566, 46.80886071405324], [7.728182636201628, 46.80877673501959], [7.728104855401173, 46.808765012669575], [7.7279759600884335, 46.80864219976152], [7.7278915459701905, 46.80861011043607], [7.727783851096341, 46.8086270686916], [7.727595797055861, 46.808696403182374], [7.726993739149901, 46.80874187154249], [7.726799077791099, 46.808781221605706], [7.726678617275807, 46.8088367113755], [7.726640456493704, 46.80888411430738], [7.726624256033007, 46.80897370457205], [7.726675505263562, 46.80928005879218]]]]}}]}