{"type": "FeatureCollection", "features": [{"type": "Feature", "properties": {"bfs_nummer": 954}, "geometry": {"type": "MultiPolygon", "coordinates": [[[[7.873531519610933, 47.12405651678616], [7.873588589600802, 47.12398086911559], [7.871290251062973, 47.123266657218885], [7.870916024826386, 47.123134955318534], [7.8705531069874715, 47.12298844897867], [7.870202519706687, 47.122828033976305], [7.869866711608938, 47.12265336846716], [7.86954795835808, 47.122465559394115], [7.869242367845191, 47.122267319981184], [7.8689546366515515, 47.122057643300195], [7.868684463046652, 47.12183670153541], [7.86843580806344, 47.12161038073115], [7.868196367518775, 47.121367708085884], [7.867981327345948, 47.12112079725027], [7.867784545066385, 47.12086619918203], [7.867610439148181, 47.120604419214395], [7.86745610595315, 47.120336574649], [7.867322146043985, 47.120063643766144], [7.8672104245032335, 47.1197865372093], [7.8671194368571244, 47.11950501776822], [7.867051681887251, 47.11922180168254], [7.867006316813772, 47.11893370788982], [7.866984006201261, 47.11864644574006], [7.866941106108736, 47.11681859674422], [7.8669289908634745, 47.11660170037139], [7.866974532120881, 47.11665307230199], [7.86706015851956, 47.11668308483104], [7.868601903636903, 47.11698063112432], [7.8686885194673755, 47.116985947527375], [7.868776800328063, 47.11697048818613], [7.868854773184454, 47.11693322748643], [7.868924851292513, 47.11688098357091], [7.869070687959483, 47.11679147796422], [7.86920795802124, 47.11673139083069], [7.869377343162758, 47.11667989950758], [7.869470957880111, 47.116114662107584], [7.869883481054099, 47.116037136904175], [7.8700481051011675, 47.115908440528536], [7.869821136711919, 47.11556437758411], [7.869801168245163, 47.11518988240628], [7.869659541048731, 47.11409218514902], [7.8693587052840135, 47.11354649558103], [7.869425153516756, 47.11353344710454], [7.868575605052965, 47.11250923954262], [7.868151244632122, 47.11197576358907], [7.868250526212548, 47.111939799843576], [7.869475894225659, 47.11154510622569], [7.870252862842398, 47.111364642909535], [7.870613349073267, 47.11133194299574], [7.871015258008549, 47.11127459287121], [7.871414540869504, 47.111162912621644], [7.871711302607017, 47.111087137733435], [7.872327756950267, 47.11080291282507], [7.872811483040325, 47.110565230806785], [7.873246764419184, 47.11054451873455], [7.873442588703069, 47.11048242419731], [7.873720348894335, 47.11033890253858], [7.87385239514549, 47.110246627020274], [7.873969454704539, 47.110106518840915], [7.87448534643649, 47.10979000159897], [7.874954875644233, 47.109437066330685], [7.874915120607126, 47.109086393830644], [7.874839906233457, 47.10894895599048], [7.874703720639637, 47.10879240048424], [7.874458405092849, 47.10871984042736], [7.87438897349776, 47.108617739953004], [7.874271867208717, 47.108315095945414], [7.874321118853871, 47.10809979361821], [7.874153288901251, 47.10772381637987], [7.874129016220875, 47.10757552639919], [7.874257262546129, 47.10733743757734], [7.874284062612828, 47.10725827888764], [7.874287048575159, 47.107226866059825], [7.874282523134809, 47.10711897887355], [7.87427370622411, 47.10704720500222], [7.874232653500473, 47.10692216774445], [7.8741793733638445, 47.106848853236855], [7.873991840115268, 47.106709996278994], [7.873912283156165, 47.10661466222455], [7.873846568027272, 47.106507366348126], [7.873791261901646, 47.106344945687404], [7.873762331038389, 47.106107766691856], [7.8737129526796625, 47.106016663108015], [7.87366888597716, 47.105972961117686], [7.873540723696663, 47.10587349316358], [7.873515659672232, 47.10584342764872], [7.872988805161381, 47.10537275828831], [7.873080423435813, 47.10507384237591], [7.873074222641587, 47.104957209378014], [7.872914929091434, 47.1043024215797], [7.873354890488501, 47.103328005399895], [7.8733948546965395, 47.10322179347951], [7.874716992179604, 47.10349276840812], [7.876196027579562, 47.101658075114216], [7.8760518241752075, 47.101551969184364], [7.875590066918228, 47.10107697727771], [7.875538679888251, 47.10098655628092], [7.875514905729395, 47.10057613872097], [7.875456879052, 47.1004322309494], [7.875431500831262, 47.10031651566748], [7.875449244451203, 47.100254994122416], [7.874633399119834, 47.09985902804814], [7.874814124339828, 47.09886367667595], [7.873853559369346, 47.09849113859352], [7.873961006037158, 47.098284790424515], [7.873589282895905, 47.098101465814146], [7.873598166246546, 47.09784364417353], [7.873749009853749, 47.097729187768], [7.874161156254711, 47.09749196793441], [7.87433352473767, 47.09743148956724], [7.874698259424788, 47.09762242864901], [7.874823822627513, 47.09757605108358], [7.874920037014633, 47.09752958662967], [7.874956959183961, 47.097481026340745], [7.875337300185794, 47.0973538418773], [7.8754681577124614, 47.097179677828684], [7.875688964169802, 47.097176608599064], [7.875832856885599, 47.09719113779162], [7.8759526988283515, 47.097178368426974], [7.876100723965394, 47.09710521562104], [7.876246321005797, 47.09701217495381], [7.876296704368894, 47.09696536172671], [7.876385937750221, 47.09690789482625], [7.87646077500248, 47.09688286471873], [7.87651618296357, 47.09687391978596], [7.876771254615904, 47.09680702432826], [7.876915308400679, 47.096752667397375], [7.877080066050895, 47.09667060776021], [7.877136013286568, 47.09663260632261], [7.877176778167218, 47.09662422952186], [7.877220001481026, 47.09660238669517], [7.877355357289739, 47.09652020486567], [7.877569810360531, 47.09642515476582], [7.877606564046155, 47.09642077805982], [7.877716107098018, 47.09632801676249], [7.877783896602489, 47.096285346599025], [7.878337093695378, 47.09602505857852], [7.878632149098511, 47.095974269043786], [7.87883025994148, 47.095909151641365], [7.878913713097029, 47.095892650135895], [7.879005948828581, 47.095864538431826], [7.879082934445492, 47.09586085270628], [7.879118872976151, 47.0958358619636], [7.879136180755828, 47.095829445152916], [7.879086885184261, 47.09566971162072], [7.8795141538176665, 47.09552236508306], [7.879770604299618, 47.094819985477734], [7.8796405290735745, 47.09478081600736], [7.8797574818307154, 47.09452301144726], [7.879317105552051, 47.09425988603848], [7.879351022012635, 47.094211758631886], [7.878669583053376, 47.09360247338866], [7.877908085965545, 47.09294767459057], [7.8798225515015075, 47.0918987377686], [7.8804883815785, 47.08997565452566], [7.880181249922233, 47.08993587046408], [7.879983742368485, 47.08989691503962], [7.879789975305459, 47.08981949097695], [7.879558014633418, 47.089735619747614], [7.878964497292413, 47.089634962820504], [7.878662260004213, 47.08956690227453], [7.878248371042047, 47.08941588329249], [7.8782762655106096, 47.08928729078021], [7.878307070208775, 47.08889685639566], [7.878612753710844, 47.08860668501072], [7.8780961933105935, 47.08810476066596], [7.8777075780438235, 47.087925019337284], [7.877573121174425, 47.08785515462791], [7.877402379638583, 47.08779954136602], [7.877285534330423, 47.08777834451656], [7.876957621376024, 47.087767540200495], [7.876766156679969, 47.08779642400361], [7.8765578645845, 47.08785325589426], [7.876412807799941, 47.08793999848592], [7.876295424681617, 47.08798689518703], [7.875875322816406, 47.08820581267419], [7.87500788482385, 47.0886207463828], [7.87477162991425, 47.088825326155664], [7.874532618460589, 47.089088068337226], [7.874348112246946, 47.08900314254577], [7.874048382449413, 47.088610048974175], [7.872951603127313, 47.08883112724929], [7.872975873778128, 47.08885693241651], [7.872461914141019, 47.08896665908431], [7.8723505315450915, 47.08897122568218], [7.8723423891098445, 47.08894311086829], [7.872151273392997, 47.08895245707242], [7.872140722004153, 47.088886976817], [7.872057963160138, 47.08889051782307], [7.872064210818937, 47.08885526065175], [7.871897374768698, 47.08885072605476], [7.871786179476401, 47.08886212796367], [7.871698802492522, 47.08890211635427], [7.871546977129299, 47.08890696084931], [7.871451594068647, 47.08892102834626], [7.871493120747596, 47.08902895674111], [7.871403864754595, 47.08906301516956], [7.871307617540021, 47.08908591895165], [7.8711844132029, 47.08909767119395], [7.871059467962275, 47.08909441708286], [7.87093526171028, 47.089084800566575], [7.870789949896044, 47.08909884825481], [7.870721420777792, 47.089098260181245], [7.870384302125202, 47.08911762470585], [7.870145101407539, 47.08917767443332], [7.869927610801562, 47.08921884237871], [7.869672741159061, 47.08919419835598], [7.869549192600979, 47.08898764896157], [7.869266113767048, 47.08901223182981], [7.868364010530245, 47.08903984978763], [7.8680094818416775, 47.08905605254295], [7.867873410501912, 47.08921615043308], [7.867613475100487, 47.08910615021349], [7.867606574765198, 47.08905843059905], [7.867558500988872, 47.08897403844033], [7.867416194387768, 47.08892909919742], [7.8672947597105845, 47.088906875483], [7.867154315061003, 47.08889055122904], [7.8669437631571375, 47.08888708087825], [7.866768023200905, 47.08890881043843], [7.866629499998263, 47.08889561742577], [7.866375767876756, 47.088803480551626], [7.865961708612449, 47.088511709320905], [7.865892216198612, 47.088528977152386], [7.865802373884981, 47.08857080495121], [7.865700565089686, 47.08859508278559], [7.865404972840789, 47.088644303259294], [7.865172363559013, 47.088674166017086], [7.86493801236353, 47.0886920262717], [7.864765769468439, 47.08871133812335], [7.864879841789753, 47.08888795578362], [7.865358826098834, 47.0895560188546], [7.864599523525575, 47.08991819461087], [7.864572788131235, 47.08976878795], [7.864265152237434, 47.08976332491734], [7.863877873797904, 47.089598070623715], [7.863593638019964, 47.08945570383167], [7.863509502148949, 47.088947651047825], [7.863660154702879, 47.0887595843314], [7.863604727504522, 47.08868047952721], [7.863560639668052, 47.08856309475957], [7.863250705220909, 47.088437812843054], [7.862813531691033, 47.08845025385184], [7.862491722174558, 47.088542045916626], [7.862191690360167, 47.08874675279183], [7.861813367014192, 47.08888553451229], [7.861573445359332, 47.088905449550495], [7.86130952128891, 47.088939601673715], [7.860768863375199, 47.08905385283975], [7.860256751786797, 47.08924128883821], [7.860007520296783, 47.089387489204476], [7.859795069472676, 47.089642430788814], [7.859506494341371, 47.0898002076796], [7.859043517993529, 47.08983738461983], [7.85881446742115, 47.089865368089036], [7.858539987085747, 47.08994322352974], [7.858001599409266, 47.09003819528433], [7.857694517385302, 47.090039790424846], [7.857345719845287, 47.09009142296384], [7.857107251861834, 47.09016688611922], [7.856723959467709, 47.09015259133401], [7.856260004237015, 47.090199952504456], [7.856088598049256, 47.09029398809509], [7.855906907225536, 47.09031208828383], [7.855485111820042, 47.09029195726708], [7.8552914634427085, 47.09039850269551], [7.854937515868648, 47.09057802024107], [7.854458785213246, 47.090699376091315], [7.854359716430487, 47.09076234817922], [7.853996043068081, 47.09092989860395], [7.853924439980008, 47.09095785275821], [7.853607465487159, 47.091067251578444], [7.853256959309763, 47.09108150330501], [7.853062124399959, 47.09106429563489], [7.852849864334326, 47.09101288823745], [7.852445038906242, 47.09089678835678], [7.852072450686285, 47.090959401916855], [7.851873989101754, 47.09098418562193], [7.851692859572456, 47.09098325295211], [7.85151483031887, 47.09096585708243], [7.851428649810616, 47.09095490458079], [7.851368273492033, 47.090927209582006], [7.851235025310491, 47.09130398610401], [7.851122146306084, 47.09128604998537], [7.850504660996561, 47.09094724421636], [7.850131626777135, 47.09102559737617], [7.850003013499727, 47.09103216528005], [7.849828218002134, 47.090994975325984], [7.849581783941245, 47.09091941651698], [7.8491564677759795, 47.09076109473976], [7.8485669599999985, 47.09055126761199], [7.848090096675378, 47.090376871769244], [7.847299595491437, 47.09007274578794], [7.846891314121922, 47.08991000058879], [7.846437533651465, 47.09010987862176], [7.845972303477143, 47.090302680049646], [7.84552472737973, 47.09098501570171], [7.845424398068885, 47.09085353903528], [7.845453475182857, 47.09131717411549], [7.845445689718177, 47.09144733249322], [7.845234965864606, 47.091307592252], [7.844987650013602, 47.09115846439216], [7.844715214841778, 47.09100179690483], [7.84439782686986, 47.091287320612444], [7.844300341383153, 47.09138550267853], [7.844172200931788, 47.09152476432994], [7.843861363294027, 47.09151854575411], [7.843597589458741, 47.09148850376413], [7.843545595954631, 47.091447255125665], [7.843431499403895, 47.091475441752955], [7.843236879593757, 47.09144459808998], [7.843101234694603, 47.09144467895491], [7.842965023591756, 47.091483251331766], [7.842785670721535, 47.09156632954635], [7.8425722753889, 47.09159753541081], [7.8424431878779455, 47.09157819017994], [7.842375794768211, 47.091625695516186], [7.842335082833564, 47.09170960911676], [7.842200954380967, 47.09178184175576], [7.842034276442459, 47.091792185758784], [7.84183056104392, 47.091895343869666], [7.841601349420774, 47.09198315545771], [7.8415109152733775, 47.09198977757683], [7.841436855339024, 47.092007307284746], [7.84137263198753, 47.092029857504684], [7.84122214253168, 47.092044065185206], [7.841045171733249, 47.09209589245674], [7.840902924233147, 47.092100923171344], [7.840745983940176, 47.092083904135116], [7.840674902413545, 47.09205777887117], [7.840572680930608, 47.09206275930655], [7.840447751408331, 47.0920482096359], [7.84033881922323, 47.092085748145784], [7.840182959476577, 47.092132139664734], [7.840051115513278, 47.09212818303506], [7.839828649985955, 47.09201598092087], [7.839620958741236, 47.09199485579305], [7.839558478328719, 47.092023362824236], [7.839481086968852, 47.09200406807174], [7.839387105575478, 47.09196606737059], [7.839267939682024, 47.09193839061094], [7.8391971282816915, 47.091964218854685], [7.839034565876516, 47.091977332435214], [7.83886521724484, 47.09198118655687], [7.838807989136715, 47.09199876389783], [7.8387293500736135, 47.09199402703951], [7.838624363418395, 47.09194255349991], [7.838519142117226, 47.09195501743912], [7.838426867738941, 47.0919887005959], [7.838320120163266, 47.09197133300776], [7.838191708219013, 47.091987781099185], [7.838120757341722, 47.09195248777763], [7.838038030063775, 47.09193994794708], [7.837718686277295, 47.092054636121], [7.837577488046973, 47.09206442632263], [7.837468243745356, 47.092026531055055], [7.837381344881814, 47.09202333304937], [7.837306816315014, 47.09204534120609], [7.837181164766114, 47.09202563657142], [7.836991649142098, 47.092062929283955], [7.836780294971389, 47.09200065924402], [7.836513188746353, 47.09203961386402], [7.836407831391334, 47.092049809535474], [7.836292480977195, 47.092094265879126], [7.836206700020742, 47.092142424727705], [7.836057793230531, 47.09214644702632], [7.836030639993465, 47.09214001947209], [7.835979309338647, 47.092070170025806], [7.835900250164435, 47.092042459377915], [7.835792922555348, 47.092056951974634], [7.83561851532685, 47.09205894785174], [7.8355064426508685, 47.09202487441859], [7.835394146875961, 47.09202474886683], [7.835304671036074, 47.092006104687805], [7.834935670413207, 47.09199287563408], [7.83485308772763, 47.09197663602908], [7.834712825023311, 47.09207218719903], [7.834593857483782, 47.09221036431064], [7.834427947736659, 47.09241992557713], [7.834312370439684, 47.092528667809404], [7.834196616768995, 47.092527725386574], [7.834134014399599, 47.09256875098817], [7.834036546332714, 47.09260593852665], [7.833733602653844, 47.092788831373475], [7.833519056640135, 47.092967498378016], [7.833311405744328, 47.093029043942735], [7.833015098298447, 47.093129859461094], [7.832943139887818, 47.09318303281739], [7.8328683682629885, 47.093326633729305], [7.8325773227364, 47.093464588443034], [7.8324448017848916, 47.093490812538334], [7.832257576675399, 47.09367995258797], [7.8320828915819245, 47.09376157695214], [7.8318527570573, 47.093913623816846], [7.831754993562115, 47.093970365629225], [7.831710370571034, 47.09406770918152], [7.831544970582715, 47.09417650204694], [7.831301912136055, 47.094292629651115], [7.831128357164996, 47.09430593134203], [7.831003166490079, 47.09429564497963], [7.830841006573484, 47.09426232225526], [7.830751235008931, 47.09416561678986], [7.8306564108102, 47.09413088625279], [7.8306248261892035, 47.09357350133861], [7.830562582965515, 47.09332330987911], [7.830903755762605, 47.09326721659888], [7.831113785064159, 47.09279373073907], [7.830919996947821, 47.09265466234723], [7.830668051800125, 47.09238826005146], [7.8304415691944484, 47.092224799648974], [7.830149771594823, 47.092095364400514], [7.829934585260162, 47.09200496751207], [7.8297446395677, 47.09212313263747], [7.829582449615694, 47.092276374041], [7.829596490428587, 47.09233071026065], [7.829586884366634, 47.09236626428818], [7.829564093145617, 47.09238901820816], [7.829416718706264, 47.09247159836664], [7.829253247765412, 47.09266985513571], [7.829228776738099, 47.09275683913497], [7.829296184925115, 47.092874301323356], [7.8292456932702805, 47.09295840540606], [7.829270487212047, 47.09304067958651], [7.828546042384758, 47.09305223145418], [7.82822589943544, 47.09312392741771], [7.827510750763957, 47.09330031517582], [7.827096326871378, 47.09339766553099], [7.826863272928413, 47.09299296548645], [7.82679362649035, 47.092898563826466], [7.8267074744606155, 47.09289307078122], [7.826422742145514, 47.093046128198104], [7.8262980178162085, 47.09307978513261], [7.825829868048962, 47.09316070658487], [7.82543209158684, 47.09321988233038], [7.824849956521391, 47.09328806801164], [7.824187657493129, 47.09333379863207], [7.82371646341672, 47.093325203665266], [7.823158687483618, 47.09311330222286], [7.822966644096201, 47.09302750156493], [7.822712942433031, 47.09293730992901], [7.821929910419597, 47.092747517403765], [7.821869024034322, 47.09370766568179], [7.821693756757604, 47.09376344248368], [7.821139446892843, 47.09383231707834], [7.820766247753197, 47.09386324954459], [7.819942317313586, 47.094258166201215], [7.819713437553992, 47.09415605742336], [7.819338034908549, 47.09402902189667], [7.818923974920573, 47.09391851991333], [7.81866055604594, 47.09381354543454], [7.818550114833106, 47.0937242920295], [7.818408436033465, 47.0936487057543], [7.818154509036147, 47.09357831010391], [7.817936023850592, 47.093539172321876], [7.817179916431585, 47.093569095882984], [7.816850144852326, 47.09354803432677], [7.816685343014749, 47.0935101400217], [7.816588781032612, 47.093464779724826], [7.816412518582413, 47.09341174679187], [7.816037778051654, 47.093476301372185], [7.815841644913419, 47.093513635540425], [7.815404554905605, 47.09349811209005], [7.815367269001819, 47.09362789705634], [7.815351851667706, 47.093831513486435], [7.815319886076116, 47.09390488250764], [7.815259209581931, 47.09396924255826], [7.815206739591795, 47.09400369423384], [7.81484665856074, 47.094155484405995], [7.8146509615916, 47.09421236970609], [7.814440193854272, 47.094238837659965], [7.814119607172289, 47.094258413440976], [7.813094753279335, 47.09429049959198], [7.8127940055872465, 47.09431059182961], [7.812474284328744, 47.0943732463937], [7.812325344067334, 47.09442087286625], [7.812188004941183, 47.09447380446716], [7.812126002334245, 47.094516695925826], [7.812079542037412, 47.094569062665876], [7.8118989474105796, 47.09481906190027], [7.811862875825724, 47.09490697013541], [7.811859087524796, 47.09494559798182], [7.811764840131135, 47.09487857587568], [7.811738455803264, 47.09485369125736], [7.811540231994009, 47.094782778278166], [7.811388105364108, 47.09476256445117], [7.811147318075621, 47.094692526138594], [7.810936285187768, 47.09465468320324], [7.810245293017876, 47.0945059435249], [7.810062299827586, 47.094477084428185], [7.809971704389794, 47.09446724830661], [7.809695033703939, 47.09499843093399], [7.809698740793699, 47.09503548742246], [7.809690269052915, 47.09508849535481], [7.809660312706033, 47.095139350792586], [7.809646263346205, 47.09523342096124], [7.809650043178151, 47.09530006182066], [7.809673944260199, 47.09538883751186], [7.80967985863408, 47.095486063558916], [7.809696761158145, 47.09556084757934], [7.8096922907083925, 47.09559820029326], [7.8097166525134245, 47.09573454011596], [7.809729023750707, 47.0957464006284], [7.80983086169665, 47.09578744017558], [7.80992687600023, 47.09580154043787], [7.809959042049787, 47.09581876107407], [7.810003493703205, 47.09582973551452], [7.810018083964461, 47.095844377301546], [7.809992360220391, 47.095892088860886], [7.8099734316757035, 47.09597958143699], [7.809979401961501, 47.096033397298626], [7.809946238019467, 47.09609853820237], [7.809911302917166, 47.096126616400866], [7.809816732850512, 47.09617097902713], [7.809751604399496, 47.09634910130849], [7.809689089980815, 47.09640619623541], [7.8096785157679225, 47.09645044076248], [7.809618608041604, 47.0964787791921], [7.809593194202375, 47.0965009078366], [7.809551141099447, 47.09656075189036], [7.809472847212602, 47.09654553274894], [7.809369930999776, 47.09653927094388], [7.809160285402717, 47.09648191018252], [7.808960514721455, 47.09647544706344], [7.80898272471104, 47.09649484083556], [7.809282846484795, 47.09675599890305], [7.809506947449118, 47.09697605956284], [7.809062539766971, 47.09730685262721], [7.808998339782685, 47.09726882142423], [7.80850570447602, 47.09771412465695], [7.808370858935894, 47.0978055262822], [7.808105284004225, 47.09801822368493], [7.807810364627651, 47.09829488872168], [7.808290042671574, 47.09866866628548], [7.808548459153991, 47.09885389791032], [7.808817053774974, 47.09902868911831], [7.807885546813544, 47.09918200996428], [7.807759018990223, 47.099257848442015], [7.8076083687310565, 47.09930451231855], [7.807170039233411, 47.099348923079674], [7.807209410987458, 47.099471533686504], [7.807228327587001, 47.09967693653447], [7.807237292442846, 47.0998851960513], [7.80715035614124, 47.099914528567176], [7.807462001992371, 47.100239167141744], [7.8076743195688305, 47.1004150496343], [7.808061087326811, 47.10065207787181], [7.808298345220523, 47.10069031816415], [7.808299748745623, 47.10071621934131], [7.808950692307238, 47.101191529920506], [7.809303353679881, 47.10147443939093], [7.8094792698775075, 47.1015966996556], [7.809738645095358, 47.101706457478045], [7.81003961463025, 47.10184171638902], [7.810290576854759, 47.10190616526036], [7.810600022738339, 47.10200201502787], [7.810775026834444, 47.102083241082944], [7.810947415844413, 47.102184300356164], [7.811111486110489, 47.10232042177858], [7.81123556047827, 47.10257388613808], [7.811311438180612, 47.10292279932931], [7.811314773784526, 47.103238144054004], [7.811301194727909, 47.10348335533683], [7.811356329485817, 47.10369632163439], [7.811455487895151, 47.10396373637058], [7.811499042875914, 47.10416884357296], [7.811389465991096, 47.1042261461641], [7.811580734091552, 47.10440204438007], [7.812130519329708, 47.10475216411961], [7.812745834031744, 47.105209172113966], [7.8128798212154145, 47.10534046852782], [7.813140155025365, 47.105489577807305], [7.813333119033696, 47.10561437650573], [7.8134181422951885, 47.105849697334776], [7.8133911618026435, 47.10590444790134], [7.813336724533208, 47.10619665747135], [7.813354933562845, 47.10631767125753], [7.8135034131263765, 47.10645584712676], [7.813616174288918, 47.10652574058817], [7.813717538354405, 47.10667837093805], [7.813780793718522, 47.10687884309823], [7.813762645142133, 47.107077583700175], [7.813851294213008, 47.10740692591455], [7.813867623350548, 47.10758483892882], [7.813985364786944, 47.10776742262515], [7.814292549804182, 47.10819701090452], [7.814579802376587, 47.108428593768416], [7.814845571601379, 47.10858349173418], [7.815095138397522, 47.108719804256495], [7.815292318758039, 47.108879953488874], [7.815522911270989, 47.10907749310079], [7.81577189688704, 47.10925237669701], [7.8160616390728075, 47.109435347671436], [7.816372758047579, 47.10961152819931], [7.816566318859667, 47.109819756954145], [7.8168429836387965, 47.11004383101538], [7.81696303415443, 47.11016864696779], [7.817568747979309, 47.110561255425914], [7.818023347957384, 47.11080667021646], [7.8184875279953365, 47.11116519990759], [7.818774730970176, 47.11145938621529], [7.818514132097089, 47.111522950385016], [7.818678120947778, 47.11194596465455], [7.818663703237965, 47.112090588693725], [7.81869499800652, 47.11225834966064], [7.818786561419909, 47.112452437786715], [7.818816945339304, 47.11264962434462], [7.8188434470859, 47.112867872264694], [7.818758129698322, 47.11295302163256], [7.818797263617571, 47.11302014786214], [7.81890592631616, 47.11314845319838], [7.819006363993159, 47.11330040641395], [7.819206179102245, 47.11345273254615], [7.819476586302781, 47.113531677677464], [7.819689162106082, 47.113632608391605], [7.819855597926572, 47.11383772732782], [7.819971074128828, 47.1140138710953], [7.819973667364881, 47.114241597166405], [7.819950060758411, 47.11435174692842], [7.819910943555724, 47.11444306774602], [7.819765078601628, 47.11460220453155], [7.819647720494418, 47.11474199683306], [7.819505843683367, 47.11486922356456], [7.819333344453815, 47.11510243071639], [7.819236670852584, 47.11528122777669], [7.819231524612491, 47.11549568499687], [7.819292660493065, 47.11566045990851], [7.819383873371163, 47.11585042014502], [7.819494806499688, 47.116004272108036], [7.819718401833842, 47.11620636891535], [7.819902903822079, 47.11633996294492], [7.820125787268642, 47.11651561641524], [7.820410367530694, 47.11669142455508], [7.820448636338397, 47.116738125667574], [7.821319686891883, 47.11714869619271], [7.821433144571391, 47.11722305822408], [7.821592214643093, 47.11737401331739], [7.821411532534407, 47.11762551103863], [7.821409012440478, 47.11774513439721], [7.821433887304272, 47.1180032340773], [7.821511994130863, 47.11867989935281], [7.821562549988045, 47.11890247381429], [7.8216668157662665, 47.1190361789498], [7.821914310928947, 47.1191021054058], [7.822278790351729, 47.11923173867558], [7.822599693419892, 47.119335414601345], [7.823098281562636, 47.119477274016084], [7.823338850137267, 47.11953217605628], [7.823603763458928, 47.11958596175926], [7.823953668572933, 47.11964648714766], [7.82433289246435, 47.12022771780747], [7.824490185741297, 47.12045557101132], [7.824630068323591, 47.120682879562956], [7.8247783728737845, 47.12088089908022], [7.824916737327156, 47.12107815192205], [7.824823031962287, 47.12125257261875], [7.824770038668985, 47.12140946039487], [7.824720729596317, 47.121582085979476], [7.826202703019072, 47.12199634367516], [7.8277254536511025, 47.122722147995745], [7.828276760300944, 47.123016369547926], [7.828311871766057, 47.123087715341356], [7.828336289320614, 47.123140019413626], [7.82834549516937, 47.12314645567049], [7.828533957276775, 47.12320192132964], [7.829327729387723, 47.12356769292273], [7.829435582085794, 47.12362721558927], [7.830114328572109, 47.123947660051805], [7.830509830613687, 47.124112956171274], [7.831399663351265, 47.12435439122258], [7.831824533730977, 47.12440983518523], [7.83224742712847, 47.124387909582], [7.832897200816743, 47.124313134280214], [7.833731472095459, 47.124153692029914], [7.834488892152527, 47.12410120671653], [7.836188218046349, 47.12421122383445], [7.836464210581033, 47.12426831603533], [7.836736946907666, 47.124334089756374], [7.837060427158235, 47.12439339981006], [7.83721932259998, 47.124453404648165], [7.837398082736807, 47.12466460889121], [7.837550004761419, 47.12495462945857], [7.837675945219775, 47.125059425457046], [7.837939025384847, 47.12517464739422], [7.838620548779258, 47.12557896185077], [7.838962691326098, 47.125834947623396], [7.8393837103372155, 47.12602152247795], [7.839436820645194, 47.126037132730055], [7.83967632824877, 47.12619952102011], [7.839922646922342, 47.126465273486886], [7.840140140822728, 47.12650689942861], [7.840361397287931, 47.127010367605614], [7.8405526977488735, 47.127573243714515], [7.841146228274007, 47.12770671508048], [7.841469249089602, 47.12771386052164], [7.842025667041174, 47.12768928075615], [7.843641150039532, 47.1277278285159], [7.843853972364712, 47.12768555925832], [7.844581863147898, 47.1276948605064], [7.8448180567426276, 47.12772453894592], [7.845129155166485, 47.12767654194242], [7.845909020943776, 47.127790964412405], [7.846315518165463, 47.12790315974701], [7.846524947011041, 47.12801622263306], [7.846789601369306, 47.12809482762266], [7.847283589726076, 47.12814468910111], [7.847596867634091, 47.128230414558146], [7.847884496357141, 47.128365927570805], [7.848161593162322, 47.12853906726873], [7.848589026484977, 47.12869729725421], [7.848941493055197, 47.128951795871615], [7.8491610220556005, 47.12921740852832], [7.849335004506675, 47.12959167155299], [7.849426069860764, 47.129588738147824], [7.849722017452194, 47.12966970699383], [7.849853833240291, 47.129736923215006], [7.849979567563146, 47.129837757249554], [7.850008507677824, 47.12996961886926], [7.849908714700657, 47.130395202821575], [7.850302581978344, 47.130317869109284], [7.850582422452562, 47.13028989275365], [7.8508519061179065, 47.13022119638127], [7.851033095448709, 47.13012691904217], [7.851190238944542, 47.130020062721016], [7.851723219903588, 47.12968961988543], [7.852093536697828, 47.12955206217397], [7.85232995381008, 47.12944680850708], [7.852682910371288, 47.129416962928715], [7.853314398626157, 47.12943621561849], [7.853905324723542, 47.129434086057685], [7.854308019139648, 47.1293868667087], [7.854647150996019, 47.129323414441224], [7.854963913125706, 47.129329240631144], [7.855103291491314, 47.1293087766579], [7.855334594261742, 47.129224745055836], [7.855586650820034, 47.129123250479246], [7.855992040933108, 47.12901310409258], [7.856401588956324, 47.12883292412064], [7.856804730705318, 47.12915154718675], [7.857258598845662, 47.12948085069229], [7.857296136405378, 47.12945560919989], [7.857768406286856, 47.12977603776944], [7.858137416547185, 47.13000238425916], [7.858507298516237, 47.12967819671867], [7.859028178023604, 47.1292310614797], [7.859262849380497, 47.12926810042156], [7.859383839291505, 47.12931139200543], [7.859517358479596, 47.12937752994352], [7.859731867633635, 47.12952227570287], [7.859915096545898, 47.12969491208072], [7.860028233917604, 47.12983563854524], [7.860136470658545, 47.1299967204637], [7.860331676147721, 47.13036959422638], [7.86044938042477, 47.130582919548985], [7.86050812961662, 47.13079960892489], [7.860665881698675, 47.13106034342102], [7.860692141671164, 47.13115637631627], [7.860728999779955, 47.13121065173092], [7.8609397564148, 47.13132781191736], [7.861468944339353, 47.13140330672521], [7.861661520331272, 47.13144447896475], [7.862062312012838, 47.13158435144431], [7.862318208911941, 47.1317088628069], [7.862752369389295, 47.131770930326304], [7.863085563243314, 47.13190582289657], [7.863338685536305, 47.13193913313822], [7.863817473233473, 47.13196399862104], [7.864411832000858, 47.13197076957184], [7.864570803679541, 47.13199886641084], [7.864906080513822, 47.13199874938559], [7.86516458537537, 47.13202596273094], [7.865166532082154, 47.131919329842276], [7.865251376773597, 47.1317802853028], [7.86538213381838, 47.131658314633775], [7.865620836488736, 47.13098971451914], [7.865716056356575, 47.130708888898674], [7.865700193843633, 47.130565729854446], [7.86574753378834, 47.130338520978945], [7.865903879074262, 47.13008879768244], [7.866022396668924, 47.12985903949041], [7.866059339162415, 47.12976623604309], [7.866097706169719, 47.12954130006285], [7.866154901775043, 47.129447980304406], [7.866330089278547, 47.12907260704397], [7.86640290611018, 47.12893349870057], [7.86649214098638, 47.12852132281518], [7.866508457836707, 47.12823230688393], [7.866908176447269, 47.12817791347267], [7.867179269774702, 47.12822699067399], [7.867643688858973, 47.128261657158866], [7.867997547723104, 47.128318428754774], [7.8681555520092985, 47.12828111322469], [7.868551395480264, 47.1283188112388], [7.868556364943183, 47.12834026373955], [7.868595528178116, 47.128342645131596], [7.869404872796282, 47.12845211251186], [7.870362735153931, 47.128588200159705], [7.870226529538084, 47.127929324243595], [7.869694794215953, 47.12742944909287], [7.869184155348731, 47.12697707626171], [7.869233412178188, 47.126531627010344], [7.868885288679747, 47.12651973291582], [7.868851789872682, 47.1263133043049], [7.869332595843131, 47.12615882468601], [7.869812845924639, 47.125999327523196], [7.86994226735343, 47.1259617832988], [7.87055689899075, 47.12583312534825], [7.87101712056347, 47.12564242053708], [7.87151156109384, 47.12552463422423], [7.871911098326143, 47.125413571514045], [7.871945462207909, 47.12487154351536], [7.871684970553773, 47.12485083672737], [7.871719409608726, 47.12454592116785], [7.871994693815829, 47.12457897597035], [7.872391395079245, 47.12455654139731], [7.872916422749594, 47.12446453153852], [7.873478822188101, 47.124190372301655], [7.873531519610933, 47.12405651678616]]]]}}]}