{"type": "FeatureCollection", "features": [{"type": "Feature", "properties": {"bfs_nummer": 975}, "geometry": {"type": "MultiPolygon", "coordinates": [[[[7.625770022096248, 47.263345312763036], [7.625591357414334, 47.26348960576106], [7.625391277815146, 47.26332739972871], [7.625098621414144, 47.26291645952829], [7.6248714161672435, 47.262666058097366], [7.624439551850557, 47.26261206431555], [7.6229916540883025, 47.26252883930448], [7.622530201412036, 47.26239915181318], [7.6223616563166265, 47.26237891223069], [7.621882279876783, 47.26233523868865], [7.6216204811811386, 47.26231928333113], [7.62157610997616, 47.26217112334945], [7.621581739178283, 47.26211705701714], [7.621698533375595, 47.261844157102914], [7.621635909644327, 47.26173281441694], [7.621544558777486, 47.26167872226306], [7.620799045359998, 47.26154453007697], [7.6205974197728885, 47.261547815637], [7.620250445060044, 47.26154404304517], [7.619703190437397, 47.26150784225579], [7.6189354884405, 47.26151187347879], [7.618827391564902, 47.26157327714397], [7.618644213992979, 47.26176687268788], [7.618291433140577, 47.261840806701876], [7.617511204392805, 47.26199663989935], [7.6175666620327736, 47.26239935206814], [7.61718887239839, 47.26233316692257], [7.617029213087312, 47.26233037247103], [7.616806617892349, 47.26234247948244], [7.616366841921714, 47.26226611600518], [7.616227799343832, 47.26222477412099], [7.61607801793888, 47.26223628250456], [7.615951110180229, 47.26221256881483], [7.615711076602804, 47.262249363496906], [7.615484029560564, 47.262169514199115], [7.615228791423799, 47.262131037640756], [7.614877828738726, 47.262096924638875], [7.614794284574944, 47.26204057446632], [7.614710662622995, 47.26202088613473], [7.614138816590996, 47.262081485413], [7.6139582047084815, 47.26197417421674], [7.613498733939371, 47.26192567653015], [7.612880163721987, 47.26191197238993], [7.612700619503781, 47.261880328876], [7.612478409610347, 47.261807167334965], [7.612371451720253, 47.261798539895764], [7.612303938110604, 47.26176274357312], [7.612191271002174, 47.26168015299102], [7.612170911108083, 47.26169253349385], [7.611795471447976, 47.26185423749062], [7.611574537827933, 47.26184780703942], [7.611282625380325, 47.26176710654882], [7.611053214769673, 47.26165559395417], [7.610662469319596, 47.26152014355628], [7.610183337121717, 47.26146027723051], [7.61002418141608, 47.26142382404917], [7.609862370168036, 47.26144526397484], [7.609656791888091, 47.261510202771326], [7.609478399403359, 47.261611024759624], [7.608752254667301, 47.2616707663893], [7.608566939124046, 47.26166794426267], [7.60824742890002, 47.261671065957835], [7.6080602411096, 47.26163190726392], [7.607945849201643, 47.26149958061848], [7.607559232183178, 47.26130202521941], [7.606998792267155, 47.261000796426046], [7.6066501098409915, 47.2611254095361], [7.6062182352875976, 47.26118941001517], [7.605989600325374, 47.261166156894724], [7.60557520663453, 47.26123476295888], [7.604976096655961, 47.26155343936566], [7.604458829389196, 47.26177283085719], [7.6043862186543, 47.26202696035904], [7.603937466530121, 47.26258094997337], [7.603579605249917, 47.2630691466502], [7.6035815103253075, 47.263452322849815], [7.603449593129476, 47.26390890450754], [7.603666878620497, 47.264194750841376], [7.603893639168925, 47.26452798216713], [7.604181074930259, 47.26499238624555], [7.604211809150107, 47.265236472844265], [7.60423632131512, 47.26556640434624], [7.6042254059866705, 47.265878290481574], [7.6042255674264165, 47.266033455267355], [7.604607634625106, 47.26633485612887], [7.605270872125505, 47.266615551665744], [7.605569639615976, 47.26677368695143], [7.606254463759045, 47.26725238851214], [7.606527698773279, 47.267605813018335], [7.606871868406449, 47.26781077809598], [7.607085023855356, 47.26821797002916], [7.606455598170842, 47.26864165048212], [7.606030544277291, 47.268957852079765], [7.605628888824486, 47.26904931577018], [7.604808693268694, 47.26936691196509], [7.604686648468755, 47.26974380733397], [7.604590100310306, 47.269819797455455], [7.604134631135439, 47.26984918734934], [7.603920347470915, 47.26982912091898], [7.6036463425710386, 47.26997486517693], [7.603109085271822, 47.270116662092164], [7.6033162540332055, 47.27037125643289], [7.603612244659527, 47.27051936356414], [7.603890824394905, 47.270844751126056], [7.604111570505662, 47.271008858203885], [7.604416301596649, 47.27106294778891], [7.604442084673002, 47.27130665574152], [7.60434075680256, 47.27138079926979], [7.604648401650738, 47.271823911885335], [7.604512601002762, 47.27203660414494], [7.604350240616882, 47.272161006392295], [7.604328758986526, 47.27241927308143], [7.604042556396535, 47.27242799248854], [7.603967275778251, 47.27256712994224], [7.603415333257412, 47.27265969720964], [7.602969566334704, 47.272672212109825], [7.602758438995158, 47.272685462970244], [7.602519364926404, 47.2727777883185], [7.602283995798367, 47.272767867018906], [7.602045855812646, 47.27316726430089], [7.602253049554308, 47.27339283627459], [7.602346904254825, 47.27348317119263], [7.602238844814275, 47.27373130436861], [7.602269311958791, 47.273923251964725], [7.602011142638564, 47.27402202713814], [7.601838619388521, 47.274171662465044], [7.601555023513626, 47.274691820055864], [7.601349727525634, 47.27502675127431], [7.601058238074382, 47.27500054583935], [7.600559246781614, 47.27493535837345], [7.600238437922932, 47.27491138507794], [7.599860964799952, 47.27484508950896], [7.59966401828669, 47.27473781664856], [7.5993946920500965, 47.27468904402133], [7.599291883344067, 47.27469261298104], [7.599188021210674, 47.27461320102683], [7.598859966480075, 47.27454262529581], [7.598601898565508, 47.274514990200295], [7.598502533586707, 47.274596688317196], [7.598352278575108, 47.27451039631506], [7.598128521739456, 47.27442545504392], [7.597778497910616, 47.27442392106495], [7.597454825495114, 47.27459264028], [7.5972442472016155, 47.274445105982544], [7.59696544042212, 47.27440249249696], [7.5967459371167, 47.27442414409082], [7.596452279239756, 47.27451782402216], [7.596286873169061, 47.27443732453784], [7.596295757324442, 47.274302846398285], [7.595967102065023, 47.27421937377305], [7.595712193987997, 47.27428633999129], [7.595208695718528, 47.274034501616526], [7.5948295522086955, 47.27402105319126], [7.5945665002204255, 47.27395459620263], [7.594229395555338, 47.27388614164889], [7.593885917032289, 47.27395357336209], [7.593496340983793, 47.27396083994504], [7.593156575107922, 47.27382548624668], [7.5926388303131835, 47.27396983355741], [7.592329594910389, 47.27389026487238], [7.591668242550727, 47.273805888275575], [7.590963055963422, 47.27365131002758], [7.58998913002583, 47.273452089194286], [7.5894863766915845, 47.273278649302796], [7.588611745190182, 47.27317282824784], [7.58816307009314, 47.27304012877229], [7.586992211811817, 47.272800687569855], [7.58596063312004, 47.272679908777434], [7.584976529216772, 47.27234505738198], [7.584373024096561, 47.27220709313274], [7.582248470600373, 47.27431379641052], [7.580111406631795, 47.27635126034482], [7.584709158448911, 47.27701314088438], [7.589336013752598, 47.27767413659581], [7.594897803016794, 47.278496115256765], [7.600486419974131, 47.27934610075061], [7.607109480521991, 47.28020028984861], [7.607269105678883, 47.27884425846173], [7.60745401329893, 47.27777924928355], [7.607590301667671, 47.27726631059416], [7.607793097136228, 47.276918665435566], [7.608017147923605, 47.27623280781717], [7.608302128623146, 47.27542838631836], [7.608695434237121, 47.275523672763846], [7.60924681619107, 47.27555986587906], [7.609478342029193, 47.2755995862111], [7.610615064095194, 47.27573474736247], [7.611582144885576, 47.27583564708485], [7.611787258311889, 47.27581072360347], [7.612906744639425, 47.275884995481846], [7.613676070300973, 47.27597909597134], [7.614307295357728, 47.276066942181984], [7.614680751205281, 47.27614592124053], [7.615076698584763, 47.27616336102615], [7.615356623096148, 47.27616504830703], [7.6159166730755885, 47.27625346272083], [7.616982259351342, 47.27631777616625], [7.618086456192467, 47.276371226531985], [7.619820245160246, 47.27648549392689], [7.621562937981727, 47.27656544280365], [7.622109511490873, 47.27655906825769], [7.622353311320981, 47.276225172368804], [7.6224646971508925, 47.27574095509905], [7.62257456611951, 47.275626629907535], [7.6227164021859135, 47.275319221751275], [7.62305749919251, 47.274875811185574], [7.623393565571165, 47.27441608299133], [7.623434278435717, 47.27429990596557], [7.623158225533266, 47.27413770691675], [7.623026109472427, 47.273961353686495], [7.623221640830216, 47.27389847290573], [7.623349899277755, 47.27375327442947], [7.623217038432335, 47.2734985804342], [7.623316391642513, 47.27321476740533], [7.623569828133419, 47.27293307227275], [7.623891354237275, 47.27232800431673], [7.623879380323548, 47.272293322402476], [7.62451096151028, 47.2711197475961], [7.624336558879203, 47.27061868684995], [7.624330195702971, 47.270582359028445], [7.624677458575175, 47.26999746732633], [7.624723727780511, 47.26997977263732], [7.625034425670828, 47.26981486108627], [7.626007047767196, 47.26968681605534], [7.627013569628239, 47.269772139095714], [7.627371056947562, 47.269657559023806], [7.627418279022429, 47.269651869420336], [7.627406683908847, 47.26956762709098], [7.627486518216756, 47.269445323461376], [7.627587499110959, 47.2690692118377], [7.627585534800995, 47.26895059431209], [7.627556625757182, 47.26877924978388], [7.627635108167498, 47.26883241445161], [7.627647894230596, 47.26891709543544], [7.627695868501824, 47.26898628420581], [7.627749836975297, 47.269031492656275], [7.627813618677928, 47.26906025195249], [7.62797050744741, 47.268811896363324], [7.628114894756366, 47.26850012254703], [7.628290892665529, 47.268036297317856], [7.628505621600143, 47.26779727331077], [7.628632359614514, 47.26771194054909], [7.628688038047917, 47.267594775605836], [7.628778848775426, 47.267487815563484], [7.628741158609015, 47.26738246971296], [7.628771747888696, 47.26727784830231], [7.628890839285685, 47.26719048591226], [7.6290083571769225, 47.26688338828199], [7.6290433450748605, 47.26683060447388], [7.629146147838715, 47.26683401504586], [7.629324598141681, 47.26683319031178], [7.629281752497342, 47.26677940134603], [7.629370019210228, 47.26664893311253], [7.629508921101845, 47.266622457774574], [7.629765707217001, 47.26646740767982], [7.630023863283118, 47.26612281178892], [7.63034549769956, 47.26583458731597], [7.630515717746428, 47.26566543143672], [7.630591329269565, 47.26547445002226], [7.630937418881754, 47.26513575074599], [7.631238141569539, 47.26503588700657], [7.632009322061528, 47.2648690273981], [7.632292441701055, 47.26476195900227], [7.632960139083876, 47.26460880411694], [7.632938676074877, 47.26469896454211], [7.6335491069262265, 47.264568460120444], [7.633942763024029, 47.26453367041884], [7.634130528863065, 47.264491626787255], [7.634401333394012, 47.26433567857121], [7.634590460977209, 47.264131405753965], [7.634438226388565, 47.26411178590032], [7.633869783934598, 47.26398150829387], [7.633550463573022, 47.26388740673423], [7.633138036182748, 47.263831004349875], [7.632543264768589, 47.26378085152427], [7.63199935969558, 47.26364134817337], [7.632025852397467, 47.26360485776649], [7.6320486422804485, 47.26348348148095], [7.63202877063102, 47.26337015578256], [7.631766493202463, 47.263271079173194], [7.631471485592525, 47.262976809677475], [7.631136642335911, 47.26274826576697], [7.630828030091009, 47.262578790321534], [7.63063367036692, 47.26251263382622], [7.630414198449335, 47.26248479945746], [7.630210306903367, 47.262476061515386], [7.6298632202341885, 47.262513189532065], [7.629800272337856, 47.26249040211062], [7.629807937738028, 47.262405956049626], [7.629559741469896, 47.262244435478145], [7.629260284230981, 47.262191321480934], [7.628397431806502, 47.26214768615395], [7.628136598108694, 47.26216216331922], [7.627956896414017, 47.26233150339366], [7.627557427574215, 47.2623181335377], [7.627261877992698, 47.262447732808376], [7.626825250247566, 47.262568925451916], [7.626468638840301, 47.26275062918996], [7.626122322929278, 47.26315229011473], [7.625770022096248, 47.263345312763036]]]]}}]}